{"type":"FeatureCollection","features":[{"type":"Feature","id":41181,"geometry":{"type":"Polygon","coordinates":[[[115.47306048100006,-6.8615474819999349],[115.47305532400003,-6.8615475299999389],[115.47306049800011,-6.8615492769999378],[115.47306048100006,-6.8615474819999349]]]},"properties":{"OBJECTID":41181,"FID_mangrove_utm":41002,"OBJECTID_1":41002,"Name":"18102566,9293","FolderPath":"JATIM/JATIM","SymbolID":0,"AltMode":0,"Base":0,"Clamped":-1,"Extruded":0,"Snippet":"","PopupInfo":"\u003chtml xmlns:fo=\"http://www.w3.org/1999/XSL/Format\" xmlns:msxsl=\"urn:schemas-microsoft-com:xslt\"\u003e\n\u003chead\u003e\n\u003cMETA http-equiv=\"Content-Type\" content=\"text/html\"\u003e\n\u003cmeta http-equiv=\"content-type\" content=\"text/html; charset=UTF-8\"\u003e\n\u003c/head\u003e\n\u003cbody style=\"margin:0px 0px 0px 0px;overflow:auto;background:#FFFFFF;\"\u003e\n\u003ctable style=\"font-family:Arial,Verdana,Times;font-size:12px;text-align:left;width:100%;border-collapse:collapse;padding:3px 3px 3px 3px\"\u003e\n\u003ctr style=\"text-align:center;font-weight:bold;background:#9CBCE2\"\u003e\n\u003ctd\u003e18102566,9293\u003c/td\u003e\n\u003c/tr\u003e\n\u003ctr\u003e\n\u003ctd\u003e\n\u003ctable style=\"font-family:Arial,Verdana,Times;font-size:12px;text-align:left;width:100%;border-spacing:0px; padding:3px 3px 3px 3px\"\u003e\n\u003ctr\u003e\n\u003ctd\u003eFID\u003c/td\u003e\n\u003ctd\u003e0\u003c/td\u003e\n\u003c/tr\u003e\n\u003ctr bgcolor=\"#D4E4F3\"\u003e\n\u003ctd\u003eShape_Leng\u003c/td\u003e\n\u003ctd\u003e18102566,9293\u003c/td\u003e\n\u003c/tr\u003e\n\u003c/table\u003e\n\u003c/td\u003e\n\u003c/tr\u003e\n\u003c/table\u003e\n\u003c/body\u003e\u003cscript type=\"text/javascript\"\u003e\n\t\t\t\tfunction changeImage(attElement, nameElement) {\n\t\t\t\tdocument.getElementById('imageAttachment').src = attElement;\n\t\t\t\tdocument.getElementById('imageName').innerHTML = nameElement;}\n\t\t\t\u003c/script\u003e\u003c/html\u003e\n","FID_active_grids":256,"GridID":"H53","Shape_Length":1.2413282383692785e-05,"Shape_Area":4.6288155375704908e-12}},{"type":"Feature","id":41183,"geometry":{"type":"Polygon","coordinates":[[[115.47279728500007,-6.8613875969999754],[115.47275216800006,-6.8613880179999569],[115.47275225200008,-6.8613970369999606],[115.47273420500005,-6.8613972049999461],[115.47273429000006,-6.8614062229999604],[115.47272526600011,-6.861406307999971],[115.47272535100001,-6.8614153259999284],[115.47271632700006,-6.8614154099999496],[115.47271641200007,-6.8614244289999533],[115.47270738800012,-6.8614245129999745],[115.47270744000002,-6.8614300669999579],[115.47305144500001,-6.8615462199999797],[115.47305137400008,-6.8615385479999418],[115.47304235000001,-6.8615386319999629],[115.47304226600011,-6.8615296139999487],[115.47302421900008,-6.8615297819999341],[115.47302413500006,-6.8615207639999767],[115.47301511100011,-6.861520847999941],[115.47301502700009,-6.8615118299999267],[115.47296991000007,-6.8615122519999545],[115.47296982600005,-6.8615032329999508],[115.4729608020001,-6.8615033179999614],[115.47296071800008,-6.8614942989999577],[115.47295169500001,-6.8614943839999682],[115.47295161000011,-6.8614853649999645],[115.4729064930001,-6.8614857869999355],[115.47290640900007,-6.8614767679999318],[115.47288836200005,-6.8614769369999635],[115.47288827800003,-6.8614679189999492],[115.47287023100012,-6.8614680869999347],[115.47287014700009,-6.8614590689999773],[115.47286112300003,-6.8614591529999416],[115.4728609550001,-6.8614411169999698],[115.47284290800008,-6.8614412849999553],[115.47284282400005,-6.861432266999941],[115.4728338000001,-6.8614323509999622],[115.47283371600008,-6.8614233329999479],[115.47282469200002,-6.861423416999969],[115.47282460800011,-6.8614143989999548],[115.47280656100008,-6.8614145669999402],[115.47280639300004,-6.8613965309999685],[115.47279736900009,-6.8613966149999328],[115.47279728500007,-6.8613875969999754]]]},"properties":{"OBJECTID":41183,"FID_mangrove_utm":41004,"OBJECTID_1":41004,"Name":"18102566,9293","FolderPath":"JATIM/JATIM","SymbolID":0,"AltMode":0,"Base":0,"Clamped":-1,"Extruded":0,"Snippet":"","PopupInfo":"\u003chtml xmlns:fo=\"http://www.w3.org/1999/XSL/Format\" xmlns:msxsl=\"urn:schemas-microsoft-com:xslt\"\u003e\n\u003chead\u003e\n\u003cMETA http-equiv=\"Content-Type\" content=\"text/html\"\u003e\n\u003cmeta http-equiv=\"content-type\" content=\"text/html; charset=UTF-8\"\u003e\n\u003c/head\u003e\n\u003cbody style=\"margin:0px 0px 0px 0px;overflow:auto;background:#FFFFFF;\"\u003e\n\u003ctable style=\"font-family:Arial,Verdana,Times;font-size:12px;text-align:left;width:100%;border-collapse:collapse;padding:3px 3px 3px 3px\"\u003e\n\u003ctr style=\"text-align:center;font-weight:bold;background:#9CBCE2\"\u003e\n\u003ctd\u003e18102566,9293\u003c/td\u003e\n\u003c/tr\u003e\n\u003ctr\u003e\n\u003ctd\u003e\n\u003ctable style=\"font-family:Arial,Verdana,Times;font-size:12px;text-align:left;width:100%;border-spacing:0px; padding:3px 3px 3px 3px\"\u003e\n\u003ctr\u003e\n\u003ctd\u003eFID\u003c/td\u003e\n\u003ctd\u003e0\u003c/td\u003e\n\u003c/tr\u003e\n\u003ctr bgcolor=\"#D4E4F3\"\u003e\n\u003ctd\u003eShape_Leng\u003c/td\u003e\n\u003ctd\u003e18102566,9293\u003c/td\u003e\n\u003c/tr\u003e\n\u003c/table\u003e\n\u003c/td\u003e\n\u003c/tr\u003e\n\u003c/table\u003e\n\u003c/body\u003e\u003cscript type=\"text/javascript\"\u003e\n\t\t\t\tfunction changeImage(attElement, nameElement) {\n\t\t\t\tdocument.getElementById('imageAttachment').src = attElement;\n\t\t\t\tdocument.getElementById('imageName').innerHTML = nameElement;}\n\t\t\t\u003c/script\u003e\u003c/html\u003e\n","FID_active_grids":256,"GridID":"H53","Shape_Length":0.00090861509883982715,"Shape_Area":1.0406075151350272e-08}},{"type":"Feature","id":41184,"geometry":{"type":"Polygon","coordinates":[[[115.47248989900004,-6.8613273339999523],[115.47242673500011,-6.8613279239999656],[115.47242680400007,-6.8613353099999586],[115.47252638500004,-6.8613689329999374],[115.47252624600003,-6.8613540519999674],[115.47251722200008,-6.8613541359999317],[115.47251713800006,-6.8613451179999743],[115.47249909100003,-6.8613452869999492],[115.47249900700001,-6.8613362679999454],[115.47248998300006,-6.861336352999956],[115.47248989900004,-6.8613273339999523]]]},"properties":{"OBJECTID":41184,"FID_mangrove_utm":41005,"OBJECTID_1":41005,"Name":"18102566,9293","FolderPath":"JATIM/JATIM","SymbolID":0,"AltMode":0,"Base":0,"Clamped":-1,"Extruded":0,"Snippet":"","PopupInfo":"\u003chtml xmlns:fo=\"http://www.w3.org/1999/XSL/Format\" xmlns:msxsl=\"urn:schemas-microsoft-com:xslt\"\u003e\n\u003chead\u003e\n\u003cMETA http-equiv=\"Content-Type\" content=\"text/html\"\u003e\n\u003cmeta http-equiv=\"content-type\" content=\"text/html; charset=UTF-8\"\u003e\n\u003c/head\u003e\n\u003cbody style=\"margin:0px 0px 0px 0px;overflow:auto;background:#FFFFFF;\"\u003e\n\u003ctable style=\"font-family:Arial,Verdana,Times;font-size:12px;text-align:left;width:100%;border-collapse:collapse;padding:3px 3px 3px 3px\"\u003e\n\u003ctr style=\"text-align:center;font-weight:bold;background:#9CBCE2\"\u003e\n\u003ctd\u003e18102566,9293\u003c/td\u003e\n\u003c/tr\u003e\n\u003ctr\u003e\n\u003ctd\u003e\n\u003ctable style=\"font-family:Arial,Verdana,Times;font-size:12px;text-align:left;width:100%;border-spacing:0px; padding:3px 3px 3px 3px\"\u003e\n\u003ctr\u003e\n\u003ctd\u003eFID\u003c/td\u003e\n\u003ctd\u003e0\u003c/td\u003e\n\u003c/tr\u003e\n\u003ctr bgcolor=\"#D4E4F3\"\u003e\n\u003ctd\u003eShape_Leng\u003c/td\u003e\n\u003ctd\u003e18102566,9293\u003c/td\u003e\n\u003c/tr\u003e\n\u003c/table\u003e\n\u003c/td\u003e\n\u003c/tr\u003e\n\u003c/table\u003e\n\u003c/body\u003e\u003cscript type=\"text/javascript\"\u003e\n\t\t\t\tfunction changeImage(attElement, nameElement) {\n\t\t\t\tdocument.getElementById('imageAttachment').src = attElement;\n\t\t\t\tdocument.getElementById('imageName').innerHTML = nameElement;}\n\t\t\t\u003c/script\u003e\u003c/html\u003e\n","FID_active_grids":256,"GridID":"H53","Shape_Length":0.00025369262962737229,"Shape_Area":1.7969384918198665e-09}},{"type":"Feature","id":41188,"geometry":{"type":"Polygon","coordinates":[[[115.46687103600004,-6.8587732459999415],[115.46672057400008,-6.8587746489999404],[115.46698205300004,-6.8588967439999351],[115.46744283300006,-6.8591237079999701],[115.46744254300006,-6.8590926059999333],[115.46743351900011,-6.8590926899999545],[115.46743343500009,-6.8590836719999402],[115.46742441100002,-6.8590837559999613],[115.4674242430001,-6.8590657189999433],[115.46740619600007,-6.8590658879999751],[115.46740611200005,-6.8590568689999714],[115.46739708900009,-6.8590569529999357],[115.46739700400008,-6.8590479349999782],[115.46736091100001,-6.8590482719999386],[115.46736082700011,-6.8590392529999349],[115.46733375600002,-6.859039505999931],[115.46733367200011,-6.8590304869999272],[115.46732464900003,-6.8590305719999378],[115.46732456400002,-6.8590215529999341],[115.4673065180001,-6.8590217209999764],[115.46730643300009,-6.8590127029999621],[115.46729741000001,-6.8590127869999264],[115.46729724200009,-6.8589947509999547],[115.46728821800002,-6.8589948349999759],[115.46728813400011,-6.8589858159999721],[115.46727911100004,-6.8589858999999365],[115.46727902600003,-6.858976881999979],[115.46727000300007,-6.8589769659999433],[115.46726991900005,-6.858967947999929],[115.46726089500009,-6.8589680319999502],[115.46726072700005,-6.8589499949999322],[115.46725170400009,-6.8589500789999533],[115.46725153500006,-6.8589320429999248],[115.4672425120001,-6.8589321269999459],[115.46724242800008,-6.8589231089999316],[115.46722438100005,-6.858923276999974],[115.46722429700003,-6.8589142589999597],[115.46720625000012,-6.8589144269999451],[115.46720616500011,-6.8589054079999414],[115.46719714200003,-6.858905492999952],[115.46719705800001,-6.8588964739999483],[115.46718803400006,-6.8588965579999694],[115.46718795000004,-6.8588875399999552],[115.46716990300001,-6.8588877079999406],[115.46716981900011,-6.8588786899999263],[115.46715177200008,-6.8588788579999687],[115.46715168800006,-6.8588698399999544],[115.46713364100003,-6.8588700079999398],[115.46713355700001,-6.8588609899999256],[115.46712453400005,-6.8588610739999467],[115.46712445000003,-6.8588520559999324],[115.46710640300012,-6.8588522239999747],[115.4671063190001,-6.8588432059999604],[115.46706120100009,-6.8588436259999526],[115.46706111700007,-6.8588346079999383],[115.46703404700008,-6.8588348599999449],[115.46703396300006,-6.8588258419999306],[115.46699786900001,-6.8588261789999478],[115.4669977850001,-6.8588171599999441],[115.46697973800008,-6.8588173279999296],[115.46697965400006,-6.8588083099999722],[115.46696160700003,-6.8588084779999576],[115.46696152300001,-6.8587994599999433],[115.46692542900007,-6.8587997969999606],[115.46692534500005,-6.8587907779999568],[115.46688925100011,-6.8587911149999741],[115.46688916700009,-6.8587820959999704],[115.46687112000006,-6.8587822649999453],[115.46687103600004,-6.8587732459999415]]]},"properties":{"OBJECTID":41188,"FID_mangrove_utm":41009,"OBJECTID_1":41009,"Name":"18102566,9293","FolderPath":"JATIM/JATIM","SymbolID":0,"AltMode":0,"Base":0,"Clamped":-1,"Extruded":0,"Snippet":"","PopupInfo":"\u003chtml xmlns:fo=\"http://www.w3.org/1999/XSL/Format\" xmlns:msxsl=\"urn:schemas-microsoft-com:xslt\"\u003e\n\u003chead\u003e\n\u003cMETA http-equiv=\"Content-Type\" content=\"text/html\"\u003e\n\u003cmeta http-equiv=\"content-type\" content=\"text/html; charset=UTF-8\"\u003e\n\u003c/head\u003e\n\u003cbody style=\"margin:0px 0px 0px 0px;overflow:auto;background:#FFFFFF;\"\u003e\n\u003ctable style=\"font-family:Arial,Verdana,Times;font-size:12px;text-align:left;width:100%;border-collapse:collapse;padding:3px 3px 3px 3px\"\u003e\n\u003ctr style=\"text-align:center;font-weight:bold;background:#9CBCE2\"\u003e\n\u003ctd\u003e18102566,9293\u003c/td\u003e\n\u003c/tr\u003e\n\u003ctr\u003e\n\u003ctd\u003e\n\u003ctable style=\"font-family:Arial,Verdana,Times;font-size:12px;text-align:left;width:100%;border-spacing:0px; padding:3px 3px 3px 3px\"\u003e\n\u003ctr\u003e\n\u003ctd\u003eFID\u003c/td\u003e\n\u003ctd\u003e0\u003c/td\u003e\n\u003c/tr\u003e\n\u003ctr bgcolor=\"#D4E4F3\"\u003e\n\u003ctd\u003eShape_Leng\u003c/td\u003e\n\u003ctd\u003e18102566,9293\u003c/td\u003e\n\u003c/tr\u003e\n\u003c/table\u003e\n\u003c/td\u003e\n\u003c/tr\u003e\n\u003c/table\u003e\n\u003c/body\u003e\u003cscript type=\"text/javascript\"\u003e\n\t\t\t\tfunction changeImage(attElement, nameElement) {\n\t\t\t\tdocument.getElementById('imageAttachment').src = attElement;\n\t\t\t\tdocument.getElementById('imageName').innerHTML = nameElement;}\n\t\t\t\u003c/script\u003e\u003c/html\u003e\n","FID_active_grids":256,"GridID":"H53","Shape_Length":0.0018769735053873098,"Shape_Area":4.9282697808036852e-08}},{"type":"Feature","id":41191,"geometry":{"type":"Polygon","coordinates":[[[115.46428007000009,-6.8576970589999746],[115.46423495200008,-6.8576974789999667],[115.46423502400012,-6.8577050989999293],[115.46430742200005,-6.8577270449999332],[115.46430739200002,-6.8577238619999434],[115.46429836900006,-6.8577239459999646],[115.46429820100002,-6.8577059089999466],[115.46428015400011,-6.8577060769999321],[115.46428007000009,-6.8576970589999746]]]},"properties":{"OBJECTID":41191,"FID_mangrove_utm":41012,"OBJECTID_1":41012,"Name":"18102566,9293","FolderPath":"JATIM/JATIM","SymbolID":0,"AltMode":0,"Base":0,"Clamped":-1,"Extruded":0,"Snippet":"","PopupInfo":"\u003chtml xmlns:fo=\"http://www.w3.org/1999/XSL/Format\" xmlns:msxsl=\"urn:schemas-microsoft-com:xslt\"\u003e\n\u003chead\u003e\n\u003cMETA http-equiv=\"Content-Type\" content=\"text/html\"\u003e\n\u003cmeta http-equiv=\"content-type\" content=\"text/html; charset=UTF-8\"\u003e\n\u003c/head\u003e\n\u003cbody style=\"margin:0px 0px 0px 0px;overflow:auto;background:#FFFFFF;\"\u003e\n\u003ctable style=\"font-family:Arial,Verdana,Times;font-size:12px;text-align:left;width:100%;border-collapse:collapse;padding:3px 3px 3px 3px\"\u003e\n\u003ctr style=\"text-align:center;font-weight:bold;background:#9CBCE2\"\u003e\n\u003ctd\u003e18102566,9293\u003c/td\u003e\n\u003c/tr\u003e\n\u003ctr\u003e\n\u003ctd\u003e\n\u003ctable style=\"font-family:Arial,Verdana,Times;font-size:12px;text-align:left;width:100%;border-spacing:0px; padding:3px 3px 3px 3px\"\u003e\n\u003ctr\u003e\n\u003ctd\u003eFID\u003c/td\u003e\n\u003ctd\u003e0\u003c/td\u003e\n\u003c/tr\u003e\n\u003ctr bgcolor=\"#D4E4F3\"\u003e\n\u003ctd\u003eShape_Leng\u003c/td\u003e\n\u003ctd\u003e18102566,9293\u003c/td\u003e\n\u003c/tr\u003e\n\u003c/table\u003e\n\u003c/td\u003e\n\u003c/tr\u003e\n\u003c/table\u003e\n\u003c/body\u003e\u003cscript type=\"text/javascript\"\u003e\n\t\t\t\tfunction changeImage(attElement, nameElement) {\n\t\t\t\tdocument.getElementById('imageAttachment').src = attElement;\n\t\t\t\tdocument.getElementById('imageName').innerHTML = nameElement;}\n\t\t\t\u003c/script\u003e\u003c/html\u003e\n","FID_active_grids":256,"GridID":"H53","Shape_Length":0.00018570193805458136,"Shape_Area":9.5964611895983379e-10}},{"type":"Feature","id":41219,"geometry":{"type":"Polygon","coordinates":[[[115.45388350600001,-6.8537531699999477],[115.45386807000011,-6.8537533129999701],[115.45388363500001,-6.8537670059999414],[115.45388350600001,-6.8537531699999477]]]},"properties":{"OBJECTID":41219,"FID_mangrove_utm":41040,"OBJECTID_1":41040,"Name":"18102566,9293","FolderPath":"JATIM/JATIM","SymbolID":0,"AltMode":0,"Base":0,"Clamped":-1,"Extruded":0,"Snippet":"","PopupInfo":"\u003chtml xmlns:fo=\"http://www.w3.org/1999/XSL/Format\" xmlns:msxsl=\"urn:schemas-microsoft-com:xslt\"\u003e\n\u003chead\u003e\n\u003cMETA http-equiv=\"Content-Type\" content=\"text/html\"\u003e\n\u003cmeta http-equiv=\"content-type\" content=\"text/html; charset=UTF-8\"\u003e\n\u003c/head\u003e\n\u003cbody style=\"margin:0px 0px 0px 0px;overflow:auto;background:#FFFFFF;\"\u003e\n\u003ctable style=\"font-family:Arial,Verdana,Times;font-size:12px;text-align:left;width:100%;border-collapse:collapse;padding:3px 3px 3px 3px\"\u003e\n\u003ctr style=\"text-align:center;font-weight:bold;background:#9CBCE2\"\u003e\n\u003ctd\u003e18102566,9293\u003c/td\u003e\n\u003c/tr\u003e\n\u003ctr\u003e\n\u003ctd\u003e\n\u003ctable style=\"font-family:Arial,Verdana,Times;font-size:12px;text-align:left;width:100%;border-spacing:0px; padding:3px 3px 3px 3px\"\u003e\n\u003ctr\u003e\n\u003ctd\u003eFID\u003c/td\u003e\n\u003ctd\u003e0\u003c/td\u003e\n\u003c/tr\u003e\n\u003ctr bgcolor=\"#D4E4F3\"\u003e\n\u003ctd\u003eShape_Leng\u003c/td\u003e\n\u003ctd\u003e18102566,9293\u003c/td\u003e\n\u003c/tr\u003e\n\u003c/table\u003e\n\u003c/td\u003e\n\u003c/tr\u003e\n\u003c/table\u003e\n\u003c/body\u003e\u003cscript type=\"text/javascript\"\u003e\n\t\t\t\tfunction changeImage(attElement, nameElement) {\n\t\t\t\tdocument.getElementById('imageAttachment').src = attElement;\n\t\t\t\tdocument.getElementById('imageName').innerHTML = nameElement;}\n\t\t\t\u003c/script\u003e\u003c/html\u003e\n","FID_active_grids":256,"GridID":"H53","Shape_Length":5.0004097411931255e-05,"Shape_Area":1.0679547075235253e-10}},{"type":"Feature","id":41221,"geometry":{"type":"Polygon","coordinates":[[[115.45386529200005,-6.8537352999999257],[115.45384778000005,-6.8537354629999641],[115.45386543800009,-6.8537509969999633],[115.45386529200005,-6.8537352999999257]]]},"properties":{"OBJECTID":41221,"FID_mangrove_utm":41042,"OBJECTID_1":41042,"Name":"18102566,9293","FolderPath":"JATIM/JATIM","SymbolID":0,"AltMode":0,"Base":0,"Clamped":-1,"Extruded":0,"Snippet":"","PopupInfo":"\u003chtml xmlns:fo=\"http://www.w3.org/1999/XSL/Format\" xmlns:msxsl=\"urn:schemas-microsoft-com:xslt\"\u003e\n\u003chead\u003e\n\u003cMETA http-equiv=\"Content-Type\" content=\"text/html\"\u003e\n\u003cmeta http-equiv=\"content-type\" content=\"text/html; charset=UTF-8\"\u003e\n\u003c/head\u003e\n\u003cbody style=\"margin:0px 0px 0px 0px;overflow:auto;background:#FFFFFF;\"\u003e\n\u003ctable style=\"font-family:Arial,Verdana,Times;font-size:12px;text-align:left;width:100%;border-collapse:collapse;padding:3px 3px 3px 3px\"\u003e\n\u003ctr style=\"text-align:center;font-weight:bold;background:#9CBCE2\"\u003e\n\u003ctd\u003e18102566,9293\u003c/td\u003e\n\u003c/tr\u003e\n\u003ctr\u003e\n\u003ctd\u003e\n\u003ctable style=\"font-family:Arial,Verdana,Times;font-size:12px;text-align:left;width:100%;border-spacing:0px; padding:3px 3px 3px 3px\"\u003e\n\u003ctr\u003e\n\u003ctd\u003eFID\u003c/td\u003e\n\u003ctd\u003e0\u003c/td\u003e\n\u003c/tr\u003e\n\u003ctr bgcolor=\"#D4E4F3\"\u003e\n\u003ctd\u003eShape_Leng\u003c/td\u003e\n\u003ctd\u003e18102566,9293\u003c/td\u003e\n\u003c/tr\u003e\n\u003c/table\u003e\n\u003c/td\u003e\n\u003c/tr\u003e\n\u003c/table\u003e\n\u003c/body\u003e\u003cscript type=\"text/javascript\"\u003e\n\t\t\t\tfunction changeImage(attElement, nameElement) {\n\t\t\t\tdocument.getElementById('imageAttachment').src = attElement;\n\t\t\t\tdocument.getElementById('imageName').innerHTML = nameElement;}\n\t\t\t\u003c/script\u003e\u003c/html\u003e\n","FID_active_grids":256,"GridID":"H53","Shape_Length":5.6728730924267173e-05,"Shape_Area":1.3745483133119707e-10}},{"type":"Feature","id":41223,"geometry":{"type":"Polygon","coordinates":[[[115.45383805300003,-6.8537175149999712],[115.45382749000009,-6.853717612999958],[115.45384724000007,-6.8537349879999283],[115.45384716100011,-6.8537264489999643],[115.45383813700005,-6.8537265329999286],[115.45383805300003,-6.8537175149999712]]]},"properties":{"OBJECTID":41223,"FID_mangrove_utm":41044,"OBJECTID_1":41044,"Name":"18102566,9293","FolderPath":"JATIM/JATIM","SymbolID":0,"AltMode":0,"Base":0,"Clamped":-1,"Extruded":0,"Snippet":"","PopupInfo":"\u003chtml xmlns:fo=\"http://www.w3.org/1999/XSL/Format\" xmlns:msxsl=\"urn:schemas-microsoft-com:xslt\"\u003e\n\u003chead\u003e\n\u003cMETA http-equiv=\"Content-Type\" content=\"text/html\"\u003e\n\u003cmeta http-equiv=\"content-type\" content=\"text/html; charset=UTF-8\"\u003e\n\u003c/head\u003e\n\u003cbody style=\"margin:0px 0px 0px 0px;overflow:auto;background:#FFFFFF;\"\u003e\n\u003ctable style=\"font-family:Arial,Verdana,Times;font-size:12px;text-align:left;width:100%;border-collapse:collapse;padding:3px 3px 3px 3px\"\u003e\n\u003ctr style=\"text-align:center;font-weight:bold;background:#9CBCE2\"\u003e\n\u003ctd\u003e18102566,9293\u003c/td\u003e\n\u003c/tr\u003e\n\u003ctr\u003e\n\u003ctd\u003e\n\u003ctable style=\"font-family:Arial,Verdana,Times;font-size:12px;text-align:left;width:100%;border-spacing:0px; padding:3px 3px 3px 3px\"\u003e\n\u003ctr\u003e\n\u003ctd\u003eFID\u003c/td\u003e\n\u003ctd\u003e0\u003c/td\u003e\n\u003c/tr\u003e\n\u003ctr bgcolor=\"#D4E4F3\"\u003e\n\u003ctd\u003eShape_Leng\u003c/td\u003e\n\u003ctd\u003e18102566,9293\u003c/td\u003e\n\u003c/tr\u003e\n\u003c/table\u003e\n\u003c/td\u003e\n\u003c/tr\u003e\n\u003c/table\u003e\n\u003c/body\u003e\u003cscript type=\"text/javascript\"\u003e\n\t\t\t\tfunction changeImage(attElement, nameElement) {\n\t\t\t\tdocument.getElementById('imageAttachment').src = attElement;\n\t\t\t\tdocument.getElementById('imageName').innerHTML = nameElement;}\n\t\t\t\u003c/script\u003e\u003c/html\u003e\n","FID_active_grids":256,"GridID":"H53","Shape_Length":6.345060397004227e-05,"Shape_Area":9.0574780906574193e-11}},{"type":"Feature","id":41247,"geometry":{"type":"Polygon","coordinates":[[[115.44956110900011,-6.8518361079999295],[115.4495159920001,-6.8518365259999428],[115.44951607500002,-6.8518455449999465],[115.44950705200006,-6.8518456279999782],[115.44950713600008,-6.8518546469999251],[115.44948908900005,-6.851854813999978],[115.44948917200009,-6.8518638329999249],[115.44947112500006,-6.8518640009999672],[115.44947120900008,-6.8518730189999815],[115.44945316200005,-6.8518731869999669],[115.44945324600008,-6.8518822049999812],[115.44944422200001,-6.8518822889999456],[115.44944430600003,-6.8518913069999599],[115.44943528300007,-6.851891390999981],[115.44943536700009,-6.8519004099999279],[115.44942634300003,-6.8519004929999596],[115.44942642700005,-6.8519095119999633],[115.44940838000002,-6.8519096789999594],[115.44940846400004,-6.8519186979999631],[115.44939041700002,-6.8519188659999486],[115.44939058400007,-6.8519369029999666],[115.44937253700004,-6.8519370699999627],[115.44937254600006,-6.8519380359999786],[115.44939803900002,-6.8520124929999611],[115.44954606100009,-6.852552353999954],[115.44963787200004,-6.8526100089999318],[115.44974770100009,-6.8525882539999543],[115.44988325300005,-6.8525136269999507],[115.44988313200008,-6.8525005509999346],[115.44987410800002,-6.8525006349999558],[115.44987394100008,-6.8524825979999378],[115.44986491700001,-6.8524826819999589],[115.44986475000007,-6.8524646449999409],[115.44985572600001,-6.8524647279999726],[115.4498556420001,-6.8524557099999583],[115.44984661900003,-6.8524557929999332],[115.4498464510001,-6.8524377559999721],[115.44983742800002,-6.8524378399999364],[115.44983734400012,-6.8524288209999327],[115.44982832000005,-6.8524289049999538],[115.44982806900009,-6.8524018489999321],[115.44981904600002,-6.8524019329999533],[115.44981879400007,-6.8523748769999315],[115.4498097710001,-6.8523749609999527],[115.44980968700008,-6.8523659429999384],[115.44980066300002,-6.8523660259999701],[115.44980049600008,-6.8523479889999521],[115.4497734250001,-6.8523482399999693],[115.44977334100008,-6.852339221999955],[115.44975529400006,-6.8523393889999511],[115.44975521100002,-6.8523303709999368],[115.44974618700007,-6.852330454999958],[115.44974610300005,-6.8523214359999542],[115.44972805600003,-6.8523216029999503],[115.44972797300011,-6.852312584999936],[115.44971894900004,-6.8523126689999572],[115.44971886500002,-6.8523036499999534],[115.44970984200006,-6.8523037339999746],[115.44970967400002,-6.8522856969999566],[115.44970065100006,-6.8522857799999315],[115.44969922600001,-6.8521324649999542],[115.44969020300005,-6.8521325479999291],[115.44968970000002,-6.8520784369999319],[115.44968067700006,-6.8520785209999531],[115.44968034200008,-6.8520424459999276],[115.44967131800001,-6.8520425299999488],[115.44967115100008,-6.8520244929999308],[115.44966212700001,-6.8520245769999519],[115.44966179200003,-6.8519885019999265],[115.44965276800008,-6.8519885859999476],[115.44965268500005,-6.8519795669999439],[115.4496436610001,-6.8519796509999651],[115.44964299100002,-6.8519075029999499],[115.44963396700007,-6.8519075859999248],[115.44963388400004,-6.8518985679999673],[115.44962486000009,-6.8518986509999422],[115.44962477600006,-6.8518896329999279],[115.4496157530001,-6.8518897169999491],[115.44961558500006,-6.8518716789999417],[115.44959753800003,-6.8518718469999271],[115.44959745500012,-6.8518628279999803],[115.44958843100005,-6.8518629119999446],[115.44958834700003,-6.8518538929999409],[115.4495703,-6.8518540609999263],[115.4495702160001,-6.8518450419999795],[115.44956119300002,-6.8518451259999438],[115.44956110900011,-6.8518361079999295]]]},"properties":{"OBJECTID":41247,"FID_mangrove_utm":41068,"OBJECTID_1":41068,"Name":"18102566,9293","FolderPath":"JATIM/JATIM","SymbolID":0,"AltMode":0,"Base":0,"Clamped":-1,"Extruded":0,"Snippet":"","PopupInfo":"\u003chtml xmlns:fo=\"http://www.w3.org/1999/XSL/Format\" xmlns:msxsl=\"urn:schemas-microsoft-com:xslt\"\u003e\n\u003chead\u003e\n\u003cMETA http-equiv=\"Content-Type\" content=\"text/html\"\u003e\n\u003cmeta http-equiv=\"content-type\" content=\"text/html; charset=UTF-8\"\u003e\n\u003c/head\u003e\n\u003cbody style=\"margin:0px 0px 0px 0px;overflow:auto;background:#FFFFFF;\"\u003e\n\u003ctable style=\"font-family:Arial,Verdana,Times;font-size:12px;text-align:left;width:100%;border-collapse:collapse;padding:3px 3px 3px 3px\"\u003e\n\u003ctr style=\"text-align:center;font-weight:bold;background:#9CBCE2\"\u003e\n\u003ctd\u003e18102566,9293\u003c/td\u003e\n\u003c/tr\u003e\n\u003ctr\u003e\n\u003ctd\u003e\n\u003ctable style=\"font-family:Arial,Verdana,Times;font-size:12px;text-align:left;width:100%;border-spacing:0px; padding:3px 3px 3px 3px\"\u003e\n\u003ctr\u003e\n\u003ctd\u003eFID\u003c/td\u003e\n\u003ctd\u003e0\u003c/td\u003e\n\u003c/tr\u003e\n\u003ctr bgcolor=\"#D4E4F3\"\u003e\n\u003ctd\u003eShape_Leng\u003c/td\u003e\n\u003ctd\u003e18102566,9293\u003c/td\u003e\n\u003c/tr\u003e\n\u003c/table\u003e\n\u003c/td\u003e\n\u003c/tr\u003e\n\u003c/table\u003e\n\u003c/body\u003e\u003cscript type=\"text/javascript\"\u003e\n\t\t\t\tfunction changeImage(attElement, nameElement) {\n\t\t\t\tdocument.getElementById('imageAttachment').src = attElement;\n\t\t\t\tdocument.getElementById('imageName').innerHTML = nameElement;}\n\t\t\t\u003c/script\u003e\u003c/html\u003e\n","FID_active_grids":256,"GridID":"H53","Shape_Length":0.0022995925240176266,"Shape_Area":1.9745474134601717e-07}},{"type":"Feature","id":41249,"geometry":{"type":"Polygon","coordinates":[[[115.44934421000005,-6.8518020429999638],[115.44932604200005,-6.8518022109999492],[115.44934451200004,-6.8518561559999398],[115.44938080700001,-6.8518558189999794],[115.44938063900008,-6.8518377819999614],[115.44937161600001,-6.8518378659999257],[115.4493715320001,-6.8518288469999789],[115.44936250800004,-6.8518289309999432],[115.4493623410001,-6.8518108939999252],[115.44934429400007,-6.8518110609999781],[115.44934421000005,-6.8518020429999638]]]},"properties":{"OBJECTID":41249,"FID_mangrove_utm":41070,"OBJECTID_1":41070,"Name":"18102566,9293","FolderPath":"JATIM/JATIM","SymbolID":0,"AltMode":0,"Base":0,"Clamped":-1,"Extruded":0,"Snippet":"","PopupInfo":"\u003chtml xmlns:fo=\"http://www.w3.org/1999/XSL/Format\" xmlns:msxsl=\"urn:schemas-microsoft-com:xslt\"\u003e\n\u003chead\u003e\n\u003cMETA http-equiv=\"Content-Type\" content=\"text/html\"\u003e\n\u003cmeta http-equiv=\"content-type\" content=\"text/html; charset=UTF-8\"\u003e\n\u003c/head\u003e\n\u003cbody style=\"margin:0px 0px 0px 0px;overflow:auto;background:#FFFFFF;\"\u003e\n\u003ctable style=\"font-family:Arial,Verdana,Times;font-size:12px;text-align:left;width:100%;border-collapse:collapse;padding:3px 3px 3px 3px\"\u003e\n\u003ctr style=\"text-align:center;font-weight:bold;background:#9CBCE2\"\u003e\n\u003ctd\u003e18102566,9293\u003c/td\u003e\n\u003c/tr\u003e\n\u003ctr\u003e\n\u003ctd\u003e\n\u003ctable style=\"font-family:Arial,Verdana,Times;font-size:12px;text-align:left;width:100%;border-spacing:0px; padding:3px 3px 3px 3px\"\u003e\n\u003ctr\u003e\n\u003ctd\u003eFID\u003c/td\u003e\n\u003ctd\u003e0\u003c/td\u003e\n\u003c/tr\u003e\n\u003ctr bgcolor=\"#D4E4F3\"\u003e\n\u003ctd\u003eShape_Leng\u003c/td\u003e\n\u003ctd\u003e18102566,9293\u003c/td\u003e\n\u003c/tr\u003e\n\u003c/table\u003e\n\u003c/td\u003e\n\u003c/tr\u003e\n\u003c/table\u003e\n\u003c/body\u003e\u003cscript type=\"text/javascript\"\u003e\n\t\t\t\tfunction changeImage(attElement, nameElement) {\n\t\t\t\tdocument.getElementById('imageAttachment').src = attElement;\n\t\t\t\tdocument.getElementById('imageName').innerHTML = nameElement;}\n\t\t\t\u003c/script\u003e\u003c/html\u003e\n","FID_active_grids":256,"GridID":"H53","Shape_Length":0.00020169356318105997,"Shape_Area":1.7178108061385951e-09}},{"type":"Feature","id":41263,"geometry":{"type":"Polygon","coordinates":[[[115.44039399900009,-6.8500630709999655],[115.44038878700007,-6.8500631199999589],[115.44039401300006,-6.8500645639999789],[115.44039399900009,-6.8500630709999655]]]},"properties":{"OBJECTID":41263,"FID_mangrove_utm":41084,"OBJECTID_1":41084,"Name":"18102566,9293","FolderPath":"JATIM/JATIM","SymbolID":0,"AltMode":0,"Base":0,"Clamped":-1,"Extruded":0,"Snippet":"","PopupInfo":"\u003chtml xmlns:fo=\"http://www.w3.org/1999/XSL/Format\" xmlns:msxsl=\"urn:schemas-microsoft-com:xslt\"\u003e\n\u003chead\u003e\n\u003cMETA http-equiv=\"Content-Type\" content=\"text/html\"\u003e\n\u003cmeta http-equiv=\"content-type\" content=\"text/html; charset=UTF-8\"\u003e\n\u003c/head\u003e\n\u003cbody style=\"margin:0px 0px 0px 0px;overflow:auto;background:#FFFFFF;\"\u003e\n\u003ctable style=\"font-family:Arial,Verdana,Times;font-size:12px;text-align:left;width:100%;border-collapse:collapse;padding:3px 3px 3px 3px\"\u003e\n\u003ctr style=\"text-align:center;font-weight:bold;background:#9CBCE2\"\u003e\n\u003ctd\u003e18102566,9293\u003c/td\u003e\n\u003c/tr\u003e\n\u003ctr\u003e\n\u003ctd\u003e\n\u003ctable style=\"font-family:Arial,Verdana,Times;font-size:12px;text-align:left;width:100%;border-spacing:0px; padding:3px 3px 3px 3px\"\u003e\n\u003ctr\u003e\n\u003ctd\u003eFID\u003c/td\u003e\n\u003ctd\u003e0\u003c/td\u003e\n\u003c/tr\u003e\n\u003ctr bgcolor=\"#D4E4F3\"\u003e\n\u003ctd\u003eShape_Leng\u003c/td\u003e\n\u003ctd\u003e18102566,9293\u003c/td\u003e\n\u003c/tr\u003e\n\u003c/table\u003e\n\u003c/td\u003e\n\u003c/tr\u003e\n\u003c/table\u003e\n\u003c/body\u003e\u003cscript type=\"text/javascript\"\u003e\n\t\t\t\tfunction changeImage(attElement, nameElement) {\n\t\t\t\tdocument.getElementById('imageAttachment').src = attElement;\n\t\t\t\tdocument.getElementById('imageName').innerHTML = nameElement;}\n\t\t\t\u003c/script\u003e\u003c/html\u003e\n","FID_active_grids":256,"GridID":"H53","Shape_Length":1.2127123356966536e-05,"Shape_Area":3.8911010483040435e-12}},{"type":"Feature","id":41264,"geometry":{"type":"Polygon","coordinates":[[[115.44036684500009,-6.850054302999979],[115.44035721400007,-6.8500543919999473],[115.44036687000005,-6.8500570609999727],[115.44036684500009,-6.850054302999979]]]},"properties":{"OBJECTID":41264,"FID_mangrove_utm":41085,"OBJECTID_1":41085,"Name":"18102566,9293","FolderPath":"JATIM/JATIM","SymbolID":0,"AltMode":0,"Base":0,"Clamped":-1,"Extruded":0,"Snippet":"","PopupInfo":"\u003chtml xmlns:fo=\"http://www.w3.org/1999/XSL/Format\" xmlns:msxsl=\"urn:schemas-microsoft-com:xslt\"\u003e\n\u003chead\u003e\n\u003cMETA http-equiv=\"Content-Type\" content=\"text/html\"\u003e\n\u003cmeta http-equiv=\"content-type\" content=\"text/html; charset=UTF-8\"\u003e\n\u003c/head\u003e\n\u003cbody style=\"margin:0px 0px 0px 0px;overflow:auto;background:#FFFFFF;\"\u003e\n\u003ctable style=\"font-family:Arial,Verdana,Times;font-size:12px;text-align:left;width:100%;border-collapse:collapse;padding:3px 3px 3px 3px\"\u003e\n\u003ctr style=\"text-align:center;font-weight:bold;background:#9CBCE2\"\u003e\n\u003ctd\u003e18102566,9293\u003c/td\u003e\n\u003c/tr\u003e\n\u003ctr\u003e\n\u003ctd\u003e\n\u003ctable style=\"font-family:Arial,Verdana,Times;font-size:12px;text-align:left;width:100%;border-spacing:0px; padding:3px 3px 3px 3px\"\u003e\n\u003ctr\u003e\n\u003ctd\u003eFID\u003c/td\u003e\n\u003ctd\u003e0\u003c/td\u003e\n\u003c/tr\u003e\n\u003ctr bgcolor=\"#D4E4F3\"\u003e\n\u003ctd\u003eShape_Leng\u003c/td\u003e\n\u003ctd\u003e18102566,9293\u003c/td\u003e\n\u003c/tr\u003e\n\u003c/table\u003e\n\u003c/td\u003e\n\u003c/tr\u003e\n\u003c/table\u003e\n\u003c/body\u003e\u003cscript type=\"text/javascript\"\u003e\n\t\t\t\tfunction changeImage(attElement, nameElement) {\n\t\t\t\tdocument.getElementById('imageAttachment').src = attElement;\n\t\t\t\tdocument.getElementById('imageName').innerHTML = nameElement;}\n\t\t\t\u003c/script\u003e\u003c/html\u003e\n","FID_active_grids":256,"GridID":"H53","Shape_Length":2.2407603015401045e-05,"Shape_Area":1.328226148387535e-11}},{"type":"Feature","id":41265,"geometry":{"type":"Polygon","coordinates":[[[115.44033969000009,-6.8500455349999356],[115.44032564200006,-6.8500456649999251],[115.44033972800003,-6.8500495589999559],[115.44033969000009,-6.8500455349999356]]]},"properties":{"OBJECTID":41265,"FID_mangrove_utm":41086,"OBJECTID_1":41086,"Name":"18102566,9293","FolderPath":"JATIM/JATIM","SymbolID":0,"AltMode":0,"Base":0,"Clamped":-1,"Extruded":0,"Snippet":"","PopupInfo":"\u003chtml xmlns:fo=\"http://www.w3.org/1999/XSL/Format\" xmlns:msxsl=\"urn:schemas-microsoft-com:xslt\"\u003e\n\u003chead\u003e\n\u003cMETA http-equiv=\"Content-Type\" content=\"text/html\"\u003e\n\u003cmeta http-equiv=\"content-type\" content=\"text/html; charset=UTF-8\"\u003e\n\u003c/head\u003e\n\u003cbody style=\"margin:0px 0px 0px 0px;overflow:auto;background:#FFFFFF;\"\u003e\n\u003ctable style=\"font-family:Arial,Verdana,Times;font-size:12px;text-align:left;width:100%;border-collapse:collapse;padding:3px 3px 3px 3px\"\u003e\n\u003ctr style=\"text-align:center;font-weight:bold;background:#9CBCE2\"\u003e\n\u003ctd\u003e18102566,9293\u003c/td\u003e\n\u003c/tr\u003e\n\u003ctr\u003e\n\u003ctd\u003e\n\u003ctable style=\"font-family:Arial,Verdana,Times;font-size:12px;text-align:left;width:100%;border-spacing:0px; padding:3px 3px 3px 3px\"\u003e\n\u003ctr\u003e\n\u003ctd\u003eFID\u003c/td\u003e\n\u003ctd\u003e0\u003c/td\u003e\n\u003c/tr\u003e\n\u003ctr bgcolor=\"#D4E4F3\"\u003e\n\u003ctd\u003eShape_Leng\u003c/td\u003e\n\u003ctd\u003e18102566,9293\u003c/td\u003e\n\u003c/tr\u003e\n\u003c/table\u003e\n\u003c/td\u003e\n\u003c/tr\u003e\n\u003c/table\u003e\n\u003c/body\u003e\u003cscript type=\"text/javascript\"\u003e\n\t\t\t\tfunction changeImage(attElement, nameElement) {\n\t\t\t\tdocument.getElementById('imageAttachment').src = attElement;\n\t\t\t\tdocument.getElementById('imageName').innerHTML = nameElement;}\n\t\t\t\u003c/script\u003e\u003c/html\u003e\n","FID_active_grids":256,"GridID":"H53","Shape_Length":3.2687110615108823e-05,"Shape_Area":2.826704618973593e-11}},{"type":"Feature","id":41266,"geometry":{"type":"Polygon","coordinates":[[[115.43939856300005,-6.8497656229999393],[115.43939848000002,-6.8497566039999356],[115.43938945600007,-6.8497566879999567],[115.43938954000009,-6.8497657069999605],[115.43939856300005,-6.8497656229999393]]]},"properties":{"OBJECTID":41266,"FID_mangrove_utm":41087,"OBJECTID_1":41087,"Name":"18102566,9293","FolderPath":"JATIM/JATIM","SymbolID":0,"AltMode":0,"Base":0,"Clamped":-1,"Extruded":0,"Snippet":"","PopupInfo":"\u003chtml xmlns:fo=\"http://www.w3.org/1999/XSL/Format\" xmlns:msxsl=\"urn:schemas-microsoft-com:xslt\"\u003e\n\u003chead\u003e\n\u003cMETA http-equiv=\"Content-Type\" content=\"text/html\"\u003e\n\u003cmeta http-equiv=\"content-type\" content=\"text/html; charset=UTF-8\"\u003e\n\u003c/head\u003e\n\u003cbody style=\"margin:0px 0px 0px 0px;overflow:auto;background:#FFFFFF;\"\u003e\n\u003ctable style=\"font-family:Arial,Verdana,Times;font-size:12px;text-align:left;width:100%;border-collapse:collapse;padding:3px 3px 3px 3px\"\u003e\n\u003ctr style=\"text-align:center;font-weight:bold;background:#9CBCE2\"\u003e\n\u003ctd\u003e18102566,9293\u003c/td\u003e\n\u003c/tr\u003e\n\u003ctr\u003e\n\u003ctd\u003e\n\u003ctable style=\"font-family:Arial,Verdana,Times;font-size:12px;text-align:left;width:100%;border-spacing:0px; padding:3px 3px 3px 3px\"\u003e\n\u003ctr\u003e\n\u003ctd\u003eFID\u003c/td\u003e\n\u003ctd\u003e0\u003c/td\u003e\n\u003c/tr\u003e\n\u003ctr bgcolor=\"#D4E4F3\"\u003e\n\u003ctd\u003eShape_Leng\u003c/td\u003e\n\u003ctd\u003e18102566,9293\u003c/td\u003e\n\u003c/tr\u003e\n\u003c/table\u003e\n\u003c/td\u003e\n\u003c/tr\u003e\n\u003c/table\u003e\n\u003c/body\u003e\u003cscript type=\"text/javascript\"\u003e\n\t\t\t\tfunction changeImage(attElement, nameElement) {\n\t\t\t\tdocument.getElementById('imageAttachment').src = attElement;\n\t\t\t\tdocument.getElementById('imageName').innerHTML = nameElement;}\n\t\t\t\u003c/script\u003e\u003c/html\u003e\n","FID_active_grids":256,"GridID":"H53","Shape_Length":3.6086554935438008e-05,"Shape_Area":8.1389960141867193e-11}},{"type":"Feature","id":41267,"geometry":{"type":"Polygon","coordinates":[[[115.43934408700011,-6.8497300489999589],[115.43934400400008,-6.8497210309999446],[115.43933498000001,-6.8497211139999763],[115.43933506400003,-6.84973013299998],[115.43934408700011,-6.8497300489999589]]]},"properties":{"OBJECTID":41267,"FID_mangrove_utm":41088,"OBJECTID_1":41088,"Name":"18102566,9293","FolderPath":"JATIM/JATIM","SymbolID":0,"AltMode":0,"Base":0,"Clamped":-1,"Extruded":0,"Snippet":"","PopupInfo":"\u003chtml xmlns:fo=\"http://www.w3.org/1999/XSL/Format\" xmlns:msxsl=\"urn:schemas-microsoft-com:xslt\"\u003e\n\u003chead\u003e\n\u003cMETA http-equiv=\"Content-Type\" content=\"text/html\"\u003e\n\u003cmeta http-equiv=\"content-type\" content=\"text/html; charset=UTF-8\"\u003e\n\u003c/head\u003e\n\u003cbody style=\"margin:0px 0px 0px 0px;overflow:auto;background:#FFFFFF;\"\u003e\n\u003ctable style=\"font-family:Arial,Verdana,Times;font-size:12px;text-align:left;width:100%;border-collapse:collapse;padding:3px 3px 3px 3px\"\u003e\n\u003ctr style=\"text-align:center;font-weight:bold;background:#9CBCE2\"\u003e\n\u003ctd\u003e18102566,9293\u003c/td\u003e\n\u003c/tr\u003e\n\u003ctr\u003e\n\u003ctd\u003e\n\u003ctable style=\"font-family:Arial,Verdana,Times;font-size:12px;text-align:left;width:100%;border-spacing:0px; padding:3px 3px 3px 3px\"\u003e\n\u003ctr\u003e\n\u003ctd\u003eFID\u003c/td\u003e\n\u003ctd\u003e0\u003c/td\u003e\n\u003c/tr\u003e\n\u003ctr bgcolor=\"#D4E4F3\"\u003e\n\u003ctd\u003eShape_Leng\u003c/td\u003e\n\u003ctd\u003e18102566,9293\u003c/td\u003e\n\u003c/tr\u003e\n\u003c/table\u003e\n\u003c/td\u003e\n\u003c/tr\u003e\n\u003c/table\u003e\n\u003c/body\u003e\u003cscript type=\"text/javascript\"\u003e\n\t\t\t\tfunction changeImage(attElement, nameElement) {\n\t\t\t\tdocument.getElementById('imageAttachment').src = attElement;\n\t\t\t\tdocument.getElementById('imageName').innerHTML = nameElement;}\n\t\t\t\u003c/script\u003e\u003c/html\u003e\n","FID_active_grids":256,"GridID":"H53","Shape_Length":3.6085545963112797e-05,"Shape_Area":8.1385407715315738e-11}},{"type":"Feature","id":41268,"geometry":{"type":"Polygon","coordinates":[[[115.43932570600009,-6.8496941419999757],[115.43932562300006,-6.849685122999972],[115.43931659900011,-6.8496852059999469],[115.43931651500009,-6.8496761879999326],[115.43930749200001,-6.8496762709999643],[115.43930765900006,-6.8496943089999718],[115.43932570600009,-6.8496941419999757]]]},"properties":{"OBJECTID":41268,"FID_mangrove_utm":41089,"OBJECTID_1":41089,"Name":"18102566,9293","FolderPath":"JATIM/JATIM","SymbolID":0,"AltMode":0,"Base":0,"Clamped":-1,"Extruded":0,"Snippet":"","PopupInfo":"\u003chtml xmlns:fo=\"http://www.w3.org/1999/XSL/Format\" xmlns:msxsl=\"urn:schemas-microsoft-com:xslt\"\u003e\n\u003chead\u003e\n\u003cMETA http-equiv=\"Content-Type\" content=\"text/html\"\u003e\n\u003cmeta http-equiv=\"content-type\" content=\"text/html; charset=UTF-8\"\u003e\n\u003c/head\u003e\n\u003cbody style=\"margin:0px 0px 0px 0px;overflow:auto;background:#FFFFFF;\"\u003e\n\u003ctable style=\"font-family:Arial,Verdana,Times;font-size:12px;text-align:left;width:100%;border-collapse:collapse;padding:3px 3px 3px 3px\"\u003e\n\u003ctr style=\"text-align:center;font-weight:bold;background:#9CBCE2\"\u003e\n\u003ctd\u003e18102566,9293\u003c/td\u003e\n\u003c/tr\u003e\n\u003ctr\u003e\n\u003ctd\u003e\n\u003ctable style=\"font-family:Arial,Verdana,Times;font-size:12px;text-align:left;width:100%;border-spacing:0px; padding:3px 3px 3px 3px\"\u003e\n\u003ctr\u003e\n\u003ctd\u003eFID\u003c/td\u003e\n\u003ctd\u003e0\u003c/td\u003e\n\u003c/tr\u003e\n\u003ctr bgcolor=\"#D4E4F3\"\u003e\n\u003ctd\u003eShape_Leng\u003c/td\u003e\n\u003ctd\u003e18102566,9293\u003c/td\u003e\n\u003c/tr\u003e\n\u003c/table\u003e\n\u003c/td\u003e\n\u003c/tr\u003e\n\u003c/table\u003e\n\u003c/body\u003e\u003cscript type=\"text/javascript\"\u003e\n\t\t\t\tfunction changeImage(attElement, nameElement) {\n\t\t\t\tdocument.getElementById('imageAttachment').src = attElement;\n\t\t\t\tdocument.getElementById('imageName').innerHTML = nameElement;}\n\t\t\t\u003c/script\u003e\u003c/html\u003e\n","FID_active_grids":256,"GridID":"H53","Shape_Length":7.2172082336348053e-05,"Shape_Area":2.441697577245206e-10}},{"type":"Feature","id":41269,"geometry":{"type":"Polygon","coordinates":[[[115.43928008700004,-6.8496404469999561],[115.43927106300009,-6.849640529999931],[115.43927098000006,-6.8496315119999736],[115.43925293200004,-6.8496316789999696],[115.43925301600007,-6.8496406969999271],[115.43926204000002,-6.8496406139999522],[115.43926212300005,-6.8496496329999559],[115.43927114700011,-6.8496495489999347],[115.43927123000003,-6.8496585679999384],[115.4392802540001,-6.8496584839999741],[115.43928008700004,-6.8496404469999561]]]},"properties":{"OBJECTID":41269,"FID_mangrove_utm":41090,"OBJECTID_1":41090,"Name":"18102566,9293","FolderPath":"JATIM/JATIM","SymbolID":0,"AltMode":0,"Base":0,"Clamped":-1,"Extruded":0,"Snippet":"","PopupInfo":"\u003chtml xmlns:fo=\"http://www.w3.org/1999/XSL/Format\" xmlns:msxsl=\"urn:schemas-microsoft-com:xslt\"\u003e\n\u003chead\u003e\n\u003cMETA http-equiv=\"Content-Type\" content=\"text/html\"\u003e\n\u003cmeta http-equiv=\"content-type\" content=\"text/html; charset=UTF-8\"\u003e\n\u003c/head\u003e\n\u003cbody style=\"margin:0px 0px 0px 0px;overflow:auto;background:#FFFFFF;\"\u003e\n\u003ctable style=\"font-family:Arial,Verdana,Times;font-size:12px;text-align:left;width:100%;border-collapse:collapse;padding:3px 3px 3px 3px\"\u003e\n\u003ctr style=\"text-align:center;font-weight:bold;background:#9CBCE2\"\u003e\n\u003ctd\u003e18102566,9293\u003c/td\u003e\n\u003c/tr\u003e\n\u003ctr\u003e\n\u003ctd\u003e\n\u003ctable style=\"font-family:Arial,Verdana,Times;font-size:12px;text-align:left;width:100%;border-spacing:0px; padding:3px 3px 3px 3px\"\u003e\n\u003ctr\u003e\n\u003ctd\u003eFID\u003c/td\u003e\n\u003ctd\u003e0\u003c/td\u003e\n\u003c/tr\u003e\n\u003ctr bgcolor=\"#D4E4F3\"\u003e\n\u003ctd\u003eShape_Leng\u003c/td\u003e\n\u003ctd\u003e18102566,9293\u003c/td\u003e\n\u003c/tr\u003e\n\u003c/table\u003e\n\u003c/td\u003e\n\u003c/tr\u003e\n\u003c/table\u003e\n\u003c/body\u003e\u003cscript type=\"text/javascript\"\u003e\n\t\t\t\tfunction changeImage(attElement, nameElement) {\n\t\t\t\tdocument.getElementById('imageAttachment').src = attElement;\n\t\t\t\tdocument.getElementById('imageName').innerHTML = nameElement;}\n\t\t\t\u003c/script\u003e\u003c/html\u003e\n","FID_active_grids":256,"GridID":"H53","Shape_Length":0.00010825962795814019,"Shape_Area":4.0694064857627854e-10}},{"type":"Feature","id":41276,"geometry":{"type":"Polygon","coordinates":[[[115.4395827940001,-6.8491956909999772],[115.43953767700009,-6.8491961089999336],[115.43953776000001,-6.8492051269999479],[115.4395197130001,-6.8492052939999439],[115.43951979700012,-6.8492143129999477],[115.43942053700005,-6.8492152319999491],[115.43942062100007,-6.8492242499999634],[115.43940257400004,-6.8492244169999594],[115.43940265700007,-6.8492334359999631],[115.43938461000005,-6.8492336029999592],[115.43938469400007,-6.8492426219999629],[115.43933957600007,-6.8492430389999299],[115.4393396590001,-6.8492520579999336],[115.43933063600002,-6.8492521419999548],[115.43933071900005,-6.8492611599999691],[115.43931267200003,-6.8492613269999651],[115.43931283900008,-6.8492793649999726],[115.43930381500002,-6.8492794479999475],[115.43930398300006,-6.8492974859999549],[115.43929495900011,-6.8492975689999298],[115.43929504300002,-6.8493065879999335],[115.43928601900006,-6.8493066709999653],[115.43928635300006,-6.8493427459999339],[115.439250259,-6.849343079999926],[115.4392501750001,-6.8493340619999685],[115.43922310500011,-6.8493343119999395],[115.4392230410001,-6.8493274169999268],[115.43918092000001,-6.8494339169999421],[115.43919695300008,-6.8494337679999262],[115.43919703600011,-6.8494427869999299],[115.43921508400001,-6.8494426199999339],[115.43921516700004,-6.8494516389999376],[115.43922419100011,-6.8494515549999733],[115.43922444100008,-6.8494786109999382],[115.43925151200006,-6.8494783609999672],[115.43925142900002,-6.8494693419999635],[115.4392604520001,-6.8494692589999318],[115.43926053600001,-6.849478276999946],[115.43927858300003,-6.84947810999995],[115.43927866600006,-6.8494871289999537],[115.43929671400008,-6.8494869619999577],[115.43929679700011,-6.8494959809999614],[115.43931484400002,-6.8494958139999653],[115.43931501100008,-6.8495138509999265],[115.43933305900009,-6.8495136839999304],[115.43933314200001,-6.8495227029999342],[115.43934216600007,-6.8495226189999698],[115.43934224900011,-6.8495316379999736],[115.43936029600002,-6.8495314709999775],[115.43936038000004,-6.8495404899999812],[115.4393694040001,-6.8495404059999601],[115.43936948700002,-6.8495494249999638],[115.43937851100009,-6.8495493409999426],[115.43937859400012,-6.8495583599999463],[115.43938761800007,-6.8495582769999714],[115.4393877010001,-6.8495672949999289],[115.43939672500005,-6.849567211999954],[115.43939714300006,-6.8496123049999369],[115.43940616600003,-6.849612221999962],[115.43940633300008,-6.84963025899998],[115.43942438100009,-6.8496300919999271],[115.43942488200003,-6.8496842039999706],[115.43941585800007,-6.8496842879999349],[115.43941602600012,-6.8497023249999529],[115.43942504900008,-6.849702241999978],[115.43942521600002,-6.8497202789999392],[115.43941619300006,-6.8497203629999603],[115.43941627600009,-6.8497293809999746],[115.43942530000004,-6.8497292979999429],[115.43942555000001,-6.8497563539999646],[115.43941652700005,-6.8497564369999395],[115.43941677800001,-6.8497834939999507],[115.43942580100008,-6.8497834099999295],[115.43942571800005,-6.8497743909999258],[115.43943474100001,-6.8497743079999509],[115.4394346580001,-6.8497652889999472],[115.43946172800008,-6.8497650389999762],[115.43946189500002,-6.8497830759999374],[115.43951603700009,-6.8497825749999492],[115.43951595300007,-6.8497735559999455],[115.43952497700002,-6.8497734729999706],[115.43952489300011,-6.8497644539999669],[115.43953391700006,-6.8497643699999458],[115.43953383400003,-6.8497553519999315],[115.43955188100006,-6.8497551849999354],[115.43955179700004,-6.8497461659999317],[115.4395608210001,-6.8497460829999568],[115.43956073700008,-6.8497370639999531],[115.4395787840001,-6.849736896999957],[115.43957861700005,-6.8497188589999496],[115.43959666400008,-6.8497186919999535],[115.43959658100005,-6.8497096739999392],[115.43960560400001,-6.8497095899999749],[115.43960552100009,-6.8497005709999712],[115.43961454400005,-6.8497004879999395],[115.43961446100002,-6.8496914689999358],[115.43962348400009,-6.8496913859999609],[115.43962340100006,-6.8496823669999571],[115.43963242400002,-6.8496822839999254],[115.43963234100011,-6.8496732649999785],[115.43965038800002,-6.8496730979999256],[115.4396503050001,-6.8496640789999788],[115.43965932800006,-6.849663995999947],[115.43965916100001,-6.8496459579999396],[115.43966818500007,-6.8496458749999647],[115.43966810100005,-6.849636855999961],[115.43967712500012,-6.8496367719999398],[115.43967695700007,-6.8496187349999786],[115.43969500500009,-6.8496185679999257],[115.43969400200001,-6.8495103439999525],[115.43968497800006,-6.8495104269999274],[115.43968456100004,-6.8494653339999445],[115.43967553700008,-6.8494654169999762],[115.43967511900007,-6.8494203239999365],[115.43966609600011,-6.8494204069999682],[115.43966559400008,-6.8493662949999248],[115.43965657100011,-6.8493663779999565],[115.43965573500009,-6.8492761909999444],[115.43964671100002,-6.8492762749999656],[115.43964646100005,-6.8492492189999439],[115.4396374370001,-6.8492493019999756],[115.43963735400007,-6.8492402839999613],[115.43962833000001,-6.8492403669999362],[115.43962824700009,-6.8492313479999325],[115.43961922300002,-6.8492314319999537],[115.43961913900011,-6.8492224129999499],[115.43961011600004,-6.8492224969999711],[115.43961003200002,-6.8492134779999674],[115.43960100900006,-6.8492135619999317],[115.43960092500004,-6.849204542999928],[115.43958287800001,-6.8492047099999809],[115.4395827940001,-6.8491956909999772]]]},"properties":{"OBJECTID":41276,"FID_mangrove_utm":41097,"OBJECTID_1":41097,"Name":"18102566,9293","FolderPath":"JATIM/JATIM","SymbolID":0,"AltMode":0,"Base":0,"Clamped":-1,"Extruded":0,"Snippet":"","PopupInfo":"\u003chtml xmlns:fo=\"http://www.w3.org/1999/XSL/Format\" xmlns:msxsl=\"urn:schemas-microsoft-com:xslt\"\u003e\n\u003chead\u003e\n\u003cMETA http-equiv=\"Content-Type\" content=\"text/html\"\u003e\n\u003cmeta http-equiv=\"content-type\" content=\"text/html; charset=UTF-8\"\u003e\n\u003c/head\u003e\n\u003cbody style=\"margin:0px 0px 0px 0px;overflow:auto;background:#FFFFFF;\"\u003e\n\u003ctable style=\"font-family:Arial,Verdana,Times;font-size:12px;text-align:left;width:100%;border-collapse:collapse;padding:3px 3px 3px 3px\"\u003e\n\u003ctr style=\"text-align:center;font-weight:bold;background:#9CBCE2\"\u003e\n\u003ctd\u003e18102566,9293\u003c/td\u003e\n\u003c/tr\u003e\n\u003ctr\u003e\n\u003ctd\u003e\n\u003ctable style=\"font-family:Arial,Verdana,Times;font-size:12px;text-align:left;width:100%;border-spacing:0px; padding:3px 3px 3px 3px\"\u003e\n\u003ctr\u003e\n\u003ctd\u003eFID\u003c/td\u003e\n\u003ctd\u003e0\u003c/td\u003e\n\u003c/tr\u003e\n\u003ctr bgcolor=\"#D4E4F3\"\u003e\n\u003ctd\u003eShape_Leng\u003c/td\u003e\n\u003ctd\u003e18102566,9293\u003c/td\u003e\n\u003c/tr\u003e\n\u003c/table\u003e\n\u003c/td\u003e\n\u003c/tr\u003e\n\u003c/table\u003e\n\u003c/body\u003e\u003cscript type=\"text/javascript\"\u003e\n\t\t\t\tfunction changeImage(attElement, nameElement) {\n\t\t\t\tdocument.getElementById('imageAttachment').src = attElement;\n\t\t\t\tdocument.getElementById('imageName').innerHTML = nameElement;}\n\t\t\t\u003c/script\u003e\u003c/html\u003e\n","FID_active_grids":256,"GridID":"H53","Shape_Length":0.0023025896672483536,"Shape_Area":1.8174740981046806e-07}},{"type":"Feature","id":41280,"geometry":{"type":"Polygon","coordinates":[[[115.4393451740001,-6.8488731889999599],[115.43929103200003,-6.8488736899999481],[115.43929111600005,-6.8488827089999518],[115.4392820920001,-6.8488827919999267],[115.43928217600001,-6.8488918109999304],[115.43927315200006,-6.8488918939999621],[115.43927323600008,-6.8489009129999658],[115.43926421200001,-6.8489009969999302],[115.43926463000003,-6.8489460899999699],[115.4392736530001,-6.8489460069999382],[115.43927373700001,-6.8489550249999525],[115.43928276100007,-6.8489549419999776],[115.4392828440001,-6.8489639609999813],[115.43930089100002,-6.8489637939999284],[115.43930097500004,-6.8489728119999427],[115.43930999800011,-6.8489727289999678],[115.43931008200002,-6.8489817479999715],[115.43932812900005,-6.8489815809999754],[115.43932863000009,-6.8490356929999621],[115.43933765400004,-6.8490356089999409],[115.43933790500012,-6.8490626649999626],[115.43934692800008,-6.8490625819999309],[115.4393470120001,-6.8490716009999346],[115.43935603500006,-6.8490715169999703],[115.43935611900008,-6.849080535999974],[115.43937416600011,-6.849080368999978],[115.43937425000001,-6.8490893869999354],[115.43938327300009,-6.8490893039999605],[115.43938335700011,-6.8490983229999642],[115.4394104270001,-6.849098071999947],[115.43941034400007,-6.8490890529999433],[115.43941936700003,-6.8490889699999684],[115.43941928400011,-6.8490799509999647],[115.43942830700007,-6.849079867999933],[115.43942789000005,-6.8490347739999606],[115.43943691300001,-6.8490346909999289],[115.43943657900002,-6.8489986159999603],[115.43944560300008,-6.8489985319999391],[115.43944551900006,-6.8489895139999248],[115.4394364960001,-6.8489895969999566],[115.43943607800009,-6.8489445039999737],[115.43942705400002,-6.8489445869999486],[115.43942688700008,-6.8489265499999306],[115.43940884000006,-6.8489267169999266],[115.43940875600003,-6.8489176979999797],[115.43939973300007,-6.8489177819999441],[115.43939956600002,-6.8488997439999366],[115.43938151900011,-6.8488999109999327],[115.43938143500009,-6.848890891999929],[115.43937241200001,-6.8488909759999501],[115.4393723280001,-6.8488819569999464],[115.43934525700001,-6.8488822079999636],[115.4393451740001,-6.8488731889999599]]]},"properties":{"OBJECTID":41280,"FID_mangrove_utm":41101,"OBJECTID_1":41101,"Name":"18102566,9293","FolderPath":"JATIM/JATIM","SymbolID":0,"AltMode":0,"Base":0,"Clamped":-1,"Extruded":0,"Snippet":"","PopupInfo":"\u003chtml xmlns:fo=\"http://www.w3.org/1999/XSL/Format\" xmlns:msxsl=\"urn:schemas-microsoft-com:xslt\"\u003e\n\u003chead\u003e\n\u003cMETA http-equiv=\"Content-Type\" content=\"text/html\"\u003e\n\u003cmeta http-equiv=\"content-type\" content=\"text/html; charset=UTF-8\"\u003e\n\u003c/head\u003e\n\u003cbody style=\"margin:0px 0px 0px 0px;overflow:auto;background:#FFFFFF;\"\u003e\n\u003ctable style=\"font-family:Arial,Verdana,Times;font-size:12px;text-align:left;width:100%;border-collapse:collapse;padding:3px 3px 3px 3px\"\u003e\n\u003ctr style=\"text-align:center;font-weight:bold;background:#9CBCE2\"\u003e\n\u003ctd\u003e18102566,9293\u003c/td\u003e\n\u003c/tr\u003e\n\u003ctr\u003e\n\u003ctd\u003e\n\u003ctable style=\"font-family:Arial,Verdana,Times;font-size:12px;text-align:left;width:100%;border-spacing:0px; padding:3px 3px 3px 3px\"\u003e\n\u003ctr\u003e\n\u003ctd\u003eFID\u003c/td\u003e\n\u003ctd\u003e0\u003c/td\u003e\n\u003c/tr\u003e\n\u003ctr bgcolor=\"#D4E4F3\"\u003e\n\u003ctd\u003eShape_Leng\u003c/td\u003e\n\u003ctd\u003e18102566,9293\u003c/td\u003e\n\u003c/tr\u003e\n\u003c/table\u003e\n\u003c/td\u003e\n\u003c/tr\u003e\n\u003c/table\u003e\n\u003c/body\u003e\u003cscript type=\"text/javascript\"\u003e\n\t\t\t\tfunction changeImage(attElement, nameElement) {\n\t\t\t\tdocument.getElementById('imageAttachment').src = attElement;\n\t\t\t\tdocument.getElementById('imageName').innerHTML = nameElement;}\n\t\t\t\u003c/script\u003e\u003c/html\u003e\n","FID_active_grids":256,"GridID":"H53","Shape_Length":0.00081190981773928989,"Shape_Area":2.4579188121527498e-08}},{"type":"Feature","id":41282,"geometry":{"type":"Polygon","coordinates":[[[115.43858059500008,-6.8481677239999499],[115.43849276100002,-6.8481685369999354],[115.43857574200001,-6.848259933999941],[115.43869960000006,-6.8483500829999571],[115.43869923700004,-6.8483109379999405],[115.43869021400008,-6.8483110219999617],[115.43868996300012,-6.8482839659999399],[115.43868094000004,-6.8482840489999717],[115.43868060500006,-6.8482479739999462],[115.4386715820001,-6.8482480579999674],[115.43867149800008,-6.8482390389999637],[115.43866247500011,-6.848239122999928],[115.43866239100009,-6.8482301039999811],[115.43865336800002,-6.848230186999956],[115.43865320100008,-6.848212149999938],[115.43863515400005,-6.848212316999934],[115.43863507000003,-6.8482032979999303],[115.43862604600008,-6.8482033819999515],[115.43862596300005,-6.8481943629999478],[115.43860791600002,-6.8481945299999438],[115.43860783200012,-6.8481855109999401],[115.43858978500009,-6.8481856779999362],[115.43858970200006,-6.8481766589999324],[115.43858067800011,-6.8481767429999536],[115.43858059500008,-6.8481677239999499]]]},"properties":{"OBJECTID":41282,"FID_mangrove_utm":41103,"OBJECTID_1":41103,"Name":"18102566,9293","FolderPath":"JATIM/JATIM","SymbolID":0,"AltMode":0,"Base":0,"Clamped":-1,"Extruded":0,"Snippet":"","PopupInfo":"\u003chtml xmlns:fo=\"http://www.w3.org/1999/XSL/Format\" xmlns:msxsl=\"urn:schemas-microsoft-com:xslt\"\u003e\n\u003chead\u003e\n\u003cMETA http-equiv=\"Content-Type\" content=\"text/html\"\u003e\n\u003cmeta http-equiv=\"content-type\" content=\"text/html; charset=UTF-8\"\u003e\n\u003c/head\u003e\n\u003cbody style=\"margin:0px 0px 0px 0px;overflow:auto;background:#FFFFFF;\"\u003e\n\u003ctable style=\"font-family:Arial,Verdana,Times;font-size:12px;text-align:left;width:100%;border-collapse:collapse;padding:3px 3px 3px 3px\"\u003e\n\u003ctr style=\"text-align:center;font-weight:bold;background:#9CBCE2\"\u003e\n\u003ctd\u003e18102566,9293\u003c/td\u003e\n\u003c/tr\u003e\n\u003ctr\u003e\n\u003ctd\u003e\n\u003ctable style=\"font-family:Arial,Verdana,Times;font-size:12px;text-align:left;width:100%;border-spacing:0px; padding:3px 3px 3px 3px\"\u003e\n\u003ctr\u003e\n\u003ctd\u003eFID\u003c/td\u003e\n\u003ctd\u003e0\u003c/td\u003e\n\u003c/tr\u003e\n\u003ctr bgcolor=\"#D4E4F3\"\u003e\n\u003ctd\u003eShape_Leng\u003c/td\u003e\n\u003ctd\u003e18102566,9293\u003c/td\u003e\n\u003c/tr\u003e\n\u003c/table\u003e\n\u003c/td\u003e\n\u003c/tr\u003e\n\u003c/table\u003e\n\u003c/body\u003e\u003cscript type=\"text/javascript\"\u003e\n\t\t\t\tfunction changeImage(attElement, nameElement) {\n\t\t\t\tdocument.getElementById('imageAttachment').src = attElement;\n\t\t\t\tdocument.getElementById('imageName').innerHTML = nameElement;}\n\t\t\t\u003c/script\u003e\u003c/html\u003e\n","FID_active_grids":256,"GridID":"H53","Shape_Length":0.00066523960958741622,"Shape_Area":1.4389008072037753e-08}},{"type":"Feature","id":41283,"geometry":{"type":"Polygon","coordinates":[[[115.4384537630001,-6.8481147809999356],[115.43844403700007,-6.8481148699999608],[115.43848121700012,-6.8481558209999775],[115.43848108500003,-6.8481415859999402],[115.43847206100008,-6.8481416699999613],[115.43847189400003,-6.8481236319999539],[115.43845384700001,-6.8481237989999499],[115.4384537630001,-6.8481147809999356]]]},"properties":{"OBJECTID":41283,"FID_mangrove_utm":41104,"OBJECTID_1":41104,"Name":"18102566,9293","FolderPath":"JATIM/JATIM","SymbolID":0,"AltMode":0,"Base":0,"Clamped":-1,"Extruded":0,"Snippet":"","PopupInfo":"\u003chtml xmlns:fo=\"http://www.w3.org/1999/XSL/Format\" xmlns:msxsl=\"urn:schemas-microsoft-com:xslt\"\u003e\n\u003chead\u003e\n\u003cMETA http-equiv=\"Content-Type\" content=\"text/html\"\u003e\n\u003cmeta http-equiv=\"content-type\" content=\"text/html; charset=UTF-8\"\u003e\n\u003c/head\u003e\n\u003cbody style=\"margin:0px 0px 0px 0px;overflow:auto;background:#FFFFFF;\"\u003e\n\u003ctable style=\"font-family:Arial,Verdana,Times;font-size:12px;text-align:left;width:100%;border-collapse:collapse;padding:3px 3px 3px 3px\"\u003e\n\u003ctr style=\"text-align:center;font-weight:bold;background:#9CBCE2\"\u003e\n\u003ctd\u003e18102566,9293\u003c/td\u003e\n\u003c/tr\u003e\n\u003ctr\u003e\n\u003ctd\u003e\n\u003ctable style=\"font-family:Arial,Verdana,Times;font-size:12px;text-align:left;width:100%;border-spacing:0px; padding:3px 3px 3px 3px\"\u003e\n\u003ctr\u003e\n\u003ctd\u003eFID\u003c/td\u003e\n\u003ctd\u003e0\u003c/td\u003e\n\u003c/tr\u003e\n\u003ctr bgcolor=\"#D4E4F3\"\u003e\n\u003ctd\u003eShape_Leng\u003c/td\u003e\n\u003ctd\u003e18102566,9293\u003c/td\u003e\n\u003c/tr\u003e\n\u003c/table\u003e\n\u003c/td\u003e\n\u003c/tr\u003e\n\u003c/table\u003e\n\u003c/body\u003e\u003cscript type=\"text/javascript\"\u003e\n\t\t\t\tfunction changeImage(attElement, nameElement) {\n\t\t\t\tdocument.getElementById('imageAttachment').src = attElement;\n\t\t\t\tdocument.getElementById('imageName').innerHTML = nameElement;}\n\t\t\t\u003c/script\u003e\u003c/html\u003e\n","FID_active_grids":256,"GridID":"H53","Shape_Length":0.00013340261909156653,"Shape_Area":3.5280623697986375e-10}},{"type":"Feature","id":41285,"geometry":{"type":"Polygon","coordinates":[[[115.43828056200005,-6.8479269729999714],[115.4382549930001,-6.8479272099999662],[115.43834096500007,-6.8480013439999539],[115.4383444560001,-6.8480051899999808],[115.4383441440001,-6.8479714829999807],[115.43833512100002,-6.8479715659999556],[115.43833503700012,-6.8479625469999519],[115.43832601400004,-6.847962630999973],[115.43832593000002,-6.8479536119999693],[115.43831690700006,-6.8479536959999336],[115.43831682300004,-6.8479446769999299],[115.43829877600001,-6.847944843999926],[115.4382986920001,-6.8479358249999791],[115.43828064500008,-6.8479359919999752],[115.43828056200005,-6.8479269729999714]]]},"properties":{"OBJECTID":41285,"FID_mangrove_utm":41106,"OBJECTID_1":41106,"Name":"18102566,9293","FolderPath":"JATIM/JATIM","SymbolID":0,"AltMode":0,"Base":0,"Clamped":-1,"Extruded":0,"Snippet":"","PopupInfo":"\u003chtml xmlns:fo=\"http://www.w3.org/1999/XSL/Format\" xmlns:msxsl=\"urn:schemas-microsoft-com:xslt\"\u003e\n\u003chead\u003e\n\u003cMETA http-equiv=\"Content-Type\" content=\"text/html\"\u003e\n\u003cmeta http-equiv=\"content-type\" content=\"text/html; charset=UTF-8\"\u003e\n\u003c/head\u003e\n\u003cbody style=\"margin:0px 0px 0px 0px;overflow:auto;background:#FFFFFF;\"\u003e\n\u003ctable style=\"font-family:Arial,Verdana,Times;font-size:12px;text-align:left;width:100%;border-collapse:collapse;padding:3px 3px 3px 3px\"\u003e\n\u003ctr style=\"text-align:center;font-weight:bold;background:#9CBCE2\"\u003e\n\u003ctd\u003e18102566,9293\u003c/td\u003e\n\u003c/tr\u003e\n\u003ctr\u003e\n\u003ctd\u003e\n\u003ctable style=\"font-family:Arial,Verdana,Times;font-size:12px;text-align:left;width:100%;border-spacing:0px; padding:3px 3px 3px 3px\"\u003e\n\u003ctr\u003e\n\u003ctd\u003eFID\u003c/td\u003e\n\u003ctd\u003e0\u003c/td\u003e\n\u003c/tr\u003e\n\u003ctr bgcolor=\"#D4E4F3\"\u003e\n\u003ctd\u003eShape_Leng\u003c/td\u003e\n\u003ctd\u003e18102566,9293\u003c/td\u003e\n\u003c/tr\u003e\n\u003c/table\u003e\n\u003c/td\u003e\n\u003c/tr\u003e\n\u003c/table\u003e\n\u003c/body\u003e\u003cscript type=\"text/javascript\"\u003e\n\t\t\t\tfunction changeImage(attElement, nameElement) {\n\t\t\t\tdocument.getElementById('imageAttachment').src = attElement;\n\t\t\t\tdocument.getElementById('imageName').innerHTML = nameElement;}\n\t\t\t\u003c/script\u003e\u003c/html\u003e\n","FID_active_grids":256,"GridID":"H53","Shape_Length":0.00028625638594333304,"Shape_Area":1.9955564296576706e-09}},{"type":"Feature","id":41286,"geometry":{"type":"Polygon","coordinates":[[[115.43800768300002,-6.8476949909999689],[115.4379859280001,-6.8476951919999465],[115.43811702400001,-6.8478082379999705],[115.43811671800006,-6.8477751579999335],[115.43809867100003,-6.8477753249999296],[115.43809842000007,-6.8477482679999753],[115.43808939700011,-6.8477483519999396],[115.43808931300009,-6.8477393329999359],[115.43808029000002,-6.847739416999957],[115.43808020600011,-6.8477303979999533],[115.43807118200004,-6.8477304809999282],[115.43807109900001,-6.8477214629999708],[115.43806207500006,-6.8477215459999456],[115.43806199200003,-6.8477125269999419],[115.43804394500012,-6.847712693999938],[115.4380438610001,-6.8477036759999805],[115.43800776700004,-6.8477040089999264],[115.43800768300002,-6.8476949909999689]]]},"properties":{"OBJECTID":41286,"FID_mangrove_utm":41107,"OBJECTID_1":41107,"Name":"18102566,9293","FolderPath":"JATIM/JATIM","SymbolID":0,"AltMode":0,"Base":0,"Clamped":-1,"Extruded":0,"Snippet":"","PopupInfo":"\u003chtml xmlns:fo=\"http://www.w3.org/1999/XSL/Format\" xmlns:msxsl=\"urn:schemas-microsoft-com:xslt\"\u003e\n\u003chead\u003e\n\u003cMETA http-equiv=\"Content-Type\" content=\"text/html\"\u003e\n\u003cmeta http-equiv=\"content-type\" content=\"text/html; charset=UTF-8\"\u003e\n\u003c/head\u003e\n\u003cbody style=\"margin:0px 0px 0px 0px;overflow:auto;background:#FFFFFF;\"\u003e\n\u003ctable style=\"font-family:Arial,Verdana,Times;font-size:12px;text-align:left;width:100%;border-collapse:collapse;padding:3px 3px 3px 3px\"\u003e\n\u003ctr style=\"text-align:center;font-weight:bold;background:#9CBCE2\"\u003e\n\u003ctd\u003e18102566,9293\u003c/td\u003e\n\u003c/tr\u003e\n\u003ctr\u003e\n\u003ctd\u003e\n\u003ctable style=\"font-family:Arial,Verdana,Times;font-size:12px;text-align:left;width:100%;border-spacing:0px; padding:3px 3px 3px 3px\"\u003e\n\u003ctr\u003e\n\u003ctd\u003eFID\u003c/td\u003e\n\u003ctd\u003e0\u003c/td\u003e\n\u003c/tr\u003e\n\u003ctr bgcolor=\"#D4E4F3\"\u003e\n\u003ctd\u003eShape_Leng\u003c/td\u003e\n\u003ctd\u003e18102566,9293\u003c/td\u003e\n\u003c/tr\u003e\n\u003c/table\u003e\n\u003c/td\u003e\n\u003c/tr\u003e\n\u003c/table\u003e\n\u003c/body\u003e\u003cscript type=\"text/javascript\"\u003e\n\t\t\t\tfunction changeImage(attElement, nameElement) {\n\t\t\t\tdocument.getElementById('imageAttachment').src = attElement;\n\t\t\t\tdocument.getElementById('imageName').innerHTML = nameElement;}\n\t\t\t\u003c/script\u003e\u003c/html\u003e\n","FID_active_grids":256,"GridID":"H53","Shape_Length":0.00041740109372068841,"Shape_Area":3.8479326535083865e-09}},{"type":"Feature","id":41287,"geometry":{"type":"Polygon","coordinates":[[[115.43798052900001,-6.8476862219999362],[115.43797557900007,-6.8476862679999613],[115.43798056900005,-6.8476905709999301],[115.43798052900001,-6.8476862219999362]]]},"properties":{"OBJECTID":41287,"FID_mangrove_utm":41108,"OBJECTID_1":41108,"Name":"18102566,9293","FolderPath":"JATIM/JATIM","SymbolID":0,"AltMode":0,"Base":0,"Clamped":-1,"Extruded":0,"Snippet":"","PopupInfo":"\u003chtml xmlns:fo=\"http://www.w3.org/1999/XSL/Format\" xmlns:msxsl=\"urn:schemas-microsoft-com:xslt\"\u003e\n\u003chead\u003e\n\u003cMETA http-equiv=\"Content-Type\" content=\"text/html\"\u003e\n\u003cmeta http-equiv=\"content-type\" content=\"text/html; charset=UTF-8\"\u003e\n\u003c/head\u003e\n\u003cbody style=\"margin:0px 0px 0px 0px;overflow:auto;background:#FFFFFF;\"\u003e\n\u003ctable style=\"font-family:Arial,Verdana,Times;font-size:12px;text-align:left;width:100%;border-collapse:collapse;padding:3px 3px 3px 3px\"\u003e\n\u003ctr style=\"text-align:center;font-weight:bold;background:#9CBCE2\"\u003e\n\u003ctd\u003e18102566,9293\u003c/td\u003e\n\u003c/tr\u003e\n\u003ctr\u003e\n\u003ctd\u003e\n\u003ctable style=\"font-family:Arial,Verdana,Times;font-size:12px;text-align:left;width:100%;border-spacing:0px; padding:3px 3px 3px 3px\"\u003e\n\u003ctr\u003e\n\u003ctd\u003eFID\u003c/td\u003e\n\u003ctd\u003e0\u003c/td\u003e\n\u003c/tr\u003e\n\u003ctr bgcolor=\"#D4E4F3\"\u003e\n\u003ctd\u003eShape_Leng\u003c/td\u003e\n\u003ctd\u003e18102566,9293\u003c/td\u003e\n\u003c/tr\u003e\n\u003c/table\u003e\n\u003c/td\u003e\n\u003c/tr\u003e\n\u003c/table\u003e\n\u003c/body\u003e\u003cscript type=\"text/javascript\"\u003e\n\t\t\t\tfunction changeImage(attElement, nameElement) {\n\t\t\t\tdocument.getElementById('imageAttachment').src = attElement;\n\t\t\t\tdocument.getElementById('imageName').innerHTML = nameElement;}\n\t\t\t\u003c/script\u003e\u003c/html\u003e\n","FID_active_grids":256,"GridID":"H53","Shape_Length":1.5888472558412853e-05,"Shape_Area":1.0764694872455341e-11}},{"type":"Feature","id":41288,"geometry":{"type":"Polygon","coordinates":[[[115.43781601700005,-6.847462256999961],[115.43778894700006,-6.847462506999932],[115.43778903000009,-6.8474715259999357],[115.4377619600001,-6.8474717759999635],[115.43776204300002,-6.8474807949999672],[115.43775301900007,-6.8474808779999421],[115.4377531450001,-6.8474944609999397],[115.43786230900002,-6.8475885939999444],[115.43786163600009,-6.8475159519999806],[115.43785261300002,-6.8475160349999555],[115.43785244600008,-6.8474979979999375],[115.43784342200001,-6.8474980809999693],[115.43784325500008,-6.8474800439999512],[115.43783423200011,-6.8474801269999261],[115.43783414800009,-6.8474711079999793],[115.43781610100007,-6.8474712749999753],[115.43781601700005,-6.847462256999961]]]},"properties":{"OBJECTID":41288,"FID_mangrove_utm":41109,"OBJECTID_1":41109,"Name":"18102566,9293","FolderPath":"JATIM/JATIM","SymbolID":0,"AltMode":0,"Base":0,"Clamped":-1,"Extruded":0,"Snippet":"","PopupInfo":"\u003chtml xmlns:fo=\"http://www.w3.org/1999/XSL/Format\" xmlns:msxsl=\"urn:schemas-microsoft-com:xslt\"\u003e\n\u003chead\u003e\n\u003cMETA http-equiv=\"Content-Type\" content=\"text/html\"\u003e\n\u003cmeta http-equiv=\"content-type\" content=\"text/html; charset=UTF-8\"\u003e\n\u003c/head\u003e\n\u003cbody style=\"margin:0px 0px 0px 0px;overflow:auto;background:#FFFFFF;\"\u003e\n\u003ctable style=\"font-family:Arial,Verdana,Times;font-size:12px;text-align:left;width:100%;border-collapse:collapse;padding:3px 3px 3px 3px\"\u003e\n\u003ctr style=\"text-align:center;font-weight:bold;background:#9CBCE2\"\u003e\n\u003ctd\u003e18102566,9293\u003c/td\u003e\n\u003c/tr\u003e\n\u003ctr\u003e\n\u003ctd\u003e\n\u003ctable style=\"font-family:Arial,Verdana,Times;font-size:12px;text-align:left;width:100%;border-spacing:0px; padding:3px 3px 3px 3px\"\u003e\n\u003ctr\u003e\n\u003ctd\u003eFID\u003c/td\u003e\n\u003ctd\u003e0\u003c/td\u003e\n\u003c/tr\u003e\n\u003ctr bgcolor=\"#D4E4F3\"\u003e\n\u003ctd\u003eShape_Leng\u003c/td\u003e\n\u003ctd\u003e18102566,9293\u003c/td\u003e\n\u003c/tr\u003e\n\u003c/table\u003e\n\u003c/td\u003e\n\u003c/tr\u003e\n\u003c/table\u003e\n\u003c/body\u003e\u003cscript type=\"text/javascript\"\u003e\n\t\t\t\tfunction changeImage(attElement, nameElement) {\n\t\t\t\tdocument.getElementById('imageAttachment').src = attElement;\n\t\t\t\tdocument.getElementById('imageName').innerHTML = nameElement;}\n\t\t\t\u003c/script\u003e\u003c/html\u003e\n","FID_active_grids":256,"GridID":"H53","Shape_Length":0.00041081147035711054,"Shape_Area":7.0289991431098661e-09}},{"type":"Feature","id":41292,"geometry":{"type":"Polygon","coordinates":[[[115.43741505600008,-6.8470420479999348],[115.43736091500011,-6.8470425489999798],[115.43736099900002,-6.8470515679999266],[115.43735197500007,-6.8470516509999584],[115.43735214200001,-6.8470696879999764],[115.43734311800006,-6.8470697719999407],[115.43734336900002,-6.8470968279999624],[115.43733434500007,-6.8470969109999373],[115.43733401100008,-6.8470608369999582],[115.43729791700002,-6.8470611699999608],[115.43729800100004,-6.8470701889999646],[115.43727995300003,-6.8470703559999606],[115.43728003700005,-6.8470793749999643],[115.43729808400008,-6.8470792079999683],[115.4372981680001,-6.847088226999972],[115.43728221900005,-6.8470883739999522],[115.43732361400009,-6.8471240689999604],[115.43732557200008,-6.8471240509999802],[115.43732558800002,-6.8471257719999699],[115.43738570500011,-6.847177611999939],[115.43738923800004,-6.8471775789999469],[115.43738926700007,-6.8471806829999764],[115.43739605400003,-6.8471865359999811],[115.43741639200005,-6.8471863479999797],[115.43741647600007,-6.8471953669999266],[115.43745257,-6.8471950329999345],[115.43745265300004,-6.8472040509999488],[115.43748874800008,-6.8472037179999461],[115.43748858100003,-6.8471856799999387],[115.43747955700007,-6.8471857639999598],[115.43747939000002,-6.8471677259999524],[115.43748841400009,-6.8471676429999775],[115.43748833000006,-6.8471586239999738],[115.43749735400002,-6.847158540999942],[115.43749718700008,-6.8471405029999346],[115.43748816300001,-6.8471405869999558],[115.43748791300004,-6.8471135299999446],[115.43746986600001,-6.8471136969999407],[115.43746969900008,-6.8470956599999795],[115.43746067500001,-6.8470957429999544],[115.43746050800007,-6.8470777059999364],[115.43745148500011,-6.8470777889999681],[115.43745140100009,-6.8470687709999538],[115.43744237800001,-6.8470688539999287],[115.43744229400011,-6.847059834999925],[115.43742424700008,-6.8470600019999779],[115.43742416300006,-6.8470509829999742],[115.4374151400001,-6.8470510669999385],[115.43741505600008,-6.8470420479999348]]]},"properties":{"OBJECTID":41292,"FID_mangrove_utm":41113,"OBJECTID_1":41113,"Name":"18102566,9293","FolderPath":"JATIM/JATIM","SymbolID":0,"AltMode":0,"Base":0,"Clamped":-1,"Extruded":0,"Snippet":"","PopupInfo":"\u003chtml xmlns:fo=\"http://www.w3.org/1999/XSL/Format\" xmlns:msxsl=\"urn:schemas-microsoft-com:xslt\"\u003e\n\u003chead\u003e\n\u003cMETA http-equiv=\"Content-Type\" content=\"text/html\"\u003e\n\u003cmeta http-equiv=\"content-type\" content=\"text/html; charset=UTF-8\"\u003e\n\u003c/head\u003e\n\u003cbody style=\"margin:0px 0px 0px 0px;overflow:auto;background:#FFFFFF;\"\u003e\n\u003ctable style=\"font-family:Arial,Verdana,Times;font-size:12px;text-align:left;width:100%;border-collapse:collapse;padding:3px 3px 3px 3px\"\u003e\n\u003ctr style=\"text-align:center;font-weight:bold;background:#9CBCE2\"\u003e\n\u003ctd\u003e18102566,9293\u003c/td\u003e\n\u003c/tr\u003e\n\u003ctr\u003e\n\u003ctd\u003e\n\u003ctable style=\"font-family:Arial,Verdana,Times;font-size:12px;text-align:left;width:100%;border-spacing:0px; padding:3px 3px 3px 3px\"\u003e\n\u003ctr\u003e\n\u003ctd\u003eFID\u003c/td\u003e\n\u003ctd\u003e0\u003c/td\u003e\n\u003c/tr\u003e\n\u003ctr bgcolor=\"#D4E4F3\"\u003e\n\u003ctd\u003eShape_Leng\u003c/td\u003e\n\u003ctd\u003e18102566,9293\u003c/td\u003e\n\u003c/tr\u003e\n\u003c/table\u003e\n\u003c/td\u003e\n\u003c/tr\u003e\n\u003c/table\u003e\n\u003c/body\u003e\u003cscript type=\"text/javascript\"\u003e\n\t\t\t\tfunction changeImage(attElement, nameElement) {\n\t\t\t\tdocument.getElementById('imageAttachment').src = attElement;\n\t\t\t\tdocument.getElementById('imageName').innerHTML = nameElement;}\n\t\t\t\u003c/script\u003e\u003c/html\u003e\n","FID_active_grids":256,"GridID":"H53","Shape_Length":0.00082112852061603711,"Shape_Area":2.0227322388779947e-08}},{"type":"Feature","id":41297,"geometry":{"type":"Polygon","coordinates":[[[115.43714301400007,-6.8469002519999549],[115.43709789600007,-6.8469006689999787],[115.43709823000006,-6.8469367439999473],[115.43710725300002,-6.8469366599999262],[115.43710733700004,-6.8469456789999299],[115.43713440800002,-6.8469454289999589],[115.43713432400011,-6.8469364099999552],[115.43715237100002,-6.8469362429999592],[115.43715212100005,-6.8469091869999374],[115.4371430970001,-6.8469092699999692],[115.43714301400007,-6.8469002519999549]]]},"properties":{"OBJECTID":41297,"FID_mangrove_utm":41118,"OBJECTID_1":41118,"Name":"18102566,9293","FolderPath":"JATIM/JATIM","SymbolID":0,"AltMode":0,"Base":0,"Clamped":-1,"Extruded":0,"Snippet":"","PopupInfo":"\u003chtml xmlns:fo=\"http://www.w3.org/1999/XSL/Format\" xmlns:msxsl=\"urn:schemas-microsoft-com:xslt\"\u003e\n\u003chead\u003e\n\u003cMETA http-equiv=\"Content-Type\" content=\"text/html\"\u003e\n\u003cmeta http-equiv=\"content-type\" content=\"text/html; charset=UTF-8\"\u003e\n\u003c/head\u003e\n\u003cbody style=\"margin:0px 0px 0px 0px;overflow:auto;background:#FFFFFF;\"\u003e\n\u003ctable style=\"font-family:Arial,Verdana,Times;font-size:12px;text-align:left;width:100%;border-collapse:collapse;padding:3px 3px 3px 3px\"\u003e\n\u003ctr style=\"text-align:center;font-weight:bold;background:#9CBCE2\"\u003e\n\u003ctd\u003e18102566,9293\u003c/td\u003e\n\u003c/tr\u003e\n\u003ctr\u003e\n\u003ctd\u003e\n\u003ctable style=\"font-family:Arial,Verdana,Times;font-size:12px;text-align:left;width:100%;border-spacing:0px; padding:3px 3px 3px 3px\"\u003e\n\u003ctr\u003e\n\u003ctd\u003eFID\u003c/td\u003e\n\u003ctd\u003e0\u003c/td\u003e\n\u003c/tr\u003e\n\u003ctr bgcolor=\"#D4E4F3\"\u003e\n\u003ctd\u003eShape_Leng\u003c/td\u003e\n\u003ctd\u003e18102566,9293\u003c/td\u003e\n\u003c/tr\u003e\n\u003c/table\u003e\n\u003c/td\u003e\n\u003c/tr\u003e\n\u003c/table\u003e\n\u003c/body\u003e\u003cscript type=\"text/javascript\"\u003e\n\t\t\t\tfunction changeImage(attElement, nameElement) {\n\t\t\t\tdocument.getElementById('imageAttachment').src = attElement;\n\t\t\t\tdocument.getElementById('imageName').innerHTML = nameElement;}\n\t\t\t\u003c/script\u003e\u003c/html\u003e\n","FID_active_grids":256,"GridID":"H53","Shape_Length":0.00019847849192103514,"Shape_Area":2.1160790593824277e-09}},{"type":"Feature","id":41300,"geometry":{"type":"Polygon","coordinates":[[[115.43671631900008,-6.8466245919999551],[115.43669827200006,-6.8466247589999512],[115.43669835500009,-6.8466337779999549],[115.43668933100003,-6.8466338609999298],[115.4366895820001,-6.8466609169999515],[115.43668055800003,-6.8466610009999727],[115.43668064200006,-6.8466700189999301],[115.43668966500002,-6.8466699359999552],[115.43669013100009,-6.8467202519999546],[115.43680138200011,-6.84678615699994],[115.43680805700001,-6.8467860949999704],[115.43680789000007,-6.8467680579999524],[115.43679886600012,-6.8467681409999273],[115.43679878300009,-6.8467591219999804],[115.43689804200005,-6.8467582049999578],[115.43689812500008,-6.8467672229999721],[115.43690714900004,-6.8467671399999404],[115.43690756600006,-6.8468122339999695],[115.43697975500004,-6.8468115659999285],[115.4369795880001,-6.8467935289999673],[115.43697056400003,-6.8467936119999422],[115.43697031400006,-6.8467665559999773],[115.43696129000011,-6.8467666389999522],[115.43696120700008,-6.8467576209999379],[115.43695218300002,-6.8467577039999696],[115.4369521000001,-6.8467486849999659],[115.43691600600005,-6.846749018999958],[115.43691592200003,-6.8467399999999543],[115.43690689900006,-6.8467400839999755],[115.43690673200001,-6.846722045999968],[115.43689770800006,-6.8467221299999323],[115.43689762500003,-6.8467131109999286],[115.4368615300001,-6.8467134449999776],[115.43686144700007,-6.8467044259999739],[115.43684340000004,-6.8467045929999699],[115.43684331600002,-6.8466955739999662],[115.43682526900011,-6.8466957409999623],[115.43682518600008,-6.8466867219999585],[115.43681616200001,-6.8466868049999334],[115.4368160790001,-6.846677786999976],[115.43680705500003,-6.8466778699999509],[115.43680697200011,-6.8466688509999472],[115.43677087700007,-6.8466691849999393],[115.43677079400004,-6.8466601659999355],[115.43676177000009,-6.8466602499999567],[115.43676168700006,-6.846651230999953],[115.43673461600008,-6.8466514809999808],[115.43673453300005,-6.8466424629999665],[115.4367255090001,-6.8466425459999414],[115.43672542600007,-6.8466335269999377],[115.43671640200012,-6.8466336109999588],[115.43671631900008,-6.8466245919999551]]]},"properties":{"OBJECTID":41300,"FID_mangrove_utm":41121,"OBJECTID_1":41121,"Name":"18102566,9293","FolderPath":"JATIM/JATIM","SymbolID":0,"AltMode":0,"Base":0,"Clamped":-1,"Extruded":0,"Snippet":"","PopupInfo":"\u003chtml xmlns:fo=\"http://www.w3.org/1999/XSL/Format\" xmlns:msxsl=\"urn:schemas-microsoft-com:xslt\"\u003e\n\u003chead\u003e\n\u003cMETA http-equiv=\"Content-Type\" content=\"text/html\"\u003e\n\u003cmeta http-equiv=\"content-type\" content=\"text/html; charset=UTF-8\"\u003e\n\u003c/head\u003e\n\u003cbody style=\"margin:0px 0px 0px 0px;overflow:auto;background:#FFFFFF;\"\u003e\n\u003ctable style=\"font-family:Arial,Verdana,Times;font-size:12px;text-align:left;width:100%;border-collapse:collapse;padding:3px 3px 3px 3px\"\u003e\n\u003ctr style=\"text-align:center;font-weight:bold;background:#9CBCE2\"\u003e\n\u003ctd\u003e18102566,9293\u003c/td\u003e\n\u003c/tr\u003e\n\u003ctr\u003e\n\u003ctd\u003e\n\u003ctable style=\"font-family:Arial,Verdana,Times;font-size:12px;text-align:left;width:100%;border-spacing:0px; padding:3px 3px 3px 3px\"\u003e\n\u003ctr\u003e\n\u003ctd\u003eFID\u003c/td\u003e\n\u003ctd\u003e0\u003c/td\u003e\n\u003c/tr\u003e\n\u003ctr bgcolor=\"#D4E4F3\"\u003e\n\u003ctd\u003eShape_Leng\u003c/td\u003e\n\u003ctd\u003e18102566,9293\u003c/td\u003e\n\u003c/tr\u003e\n\u003c/table\u003e\n\u003c/td\u003e\n\u003c/tr\u003e\n\u003c/table\u003e\n\u003c/body\u003e\u003cscript type=\"text/javascript\"\u003e\n\t\t\t\tfunction changeImage(attElement, nameElement) {\n\t\t\t\tdocument.getElementById('imageAttachment').src = attElement;\n\t\t\t\tdocument.getElementById('imageName').innerHTML = nameElement;}\n\t\t\t\u003c/script\u003e\u003c/html\u003e\n","FID_active_grids":256,"GridID":"H53","Shape_Length":0.00099829194196308056,"Shape_Area":2.1853459611616367e-08}},{"type":"Feature","id":41303,"geometry":{"type":"Polygon","coordinates":[[[115.43329354400009,-6.8463495589999752],[115.43327105900005,-6.8463497669999356],[115.43329357800008,-6.8463532029999783],[115.43329354400009,-6.8463495589999752]]]},"properties":{"OBJECTID":41303,"FID_mangrove_utm":41124,"OBJECTID_1":41124,"Name":"18102566,9293","FolderPath":"JATIM/JATIM","SymbolID":0,"AltMode":0,"Base":0,"Clamped":-1,"Extruded":0,"Snippet":"","PopupInfo":"\u003chtml xmlns:fo=\"http://www.w3.org/1999/XSL/Format\" xmlns:msxsl=\"urn:schemas-microsoft-com:xslt\"\u003e\n\u003chead\u003e\n\u003cMETA http-equiv=\"Content-Type\" content=\"text/html\"\u003e\n\u003cmeta http-equiv=\"content-type\" content=\"text/html; charset=UTF-8\"\u003e\n\u003c/head\u003e\n\u003cbody style=\"margin:0px 0px 0px 0px;overflow:auto;background:#FFFFFF;\"\u003e\n\u003ctable style=\"font-family:Arial,Verdana,Times;font-size:12px;text-align:left;width:100%;border-collapse:collapse;padding:3px 3px 3px 3px\"\u003e\n\u003ctr style=\"text-align:center;font-weight:bold;background:#9CBCE2\"\u003e\n\u003ctd\u003e18102566,9293\u003c/td\u003e\n\u003c/tr\u003e\n\u003ctr\u003e\n\u003ctd\u003e\n\u003ctable style=\"font-family:Arial,Verdana,Times;font-size:12px;text-align:left;width:100%;border-spacing:0px; padding:3px 3px 3px 3px\"\u003e\n\u003ctr\u003e\n\u003ctd\u003eFID\u003c/td\u003e\n\u003ctd\u003e0\u003c/td\u003e\n\u003c/tr\u003e\n\u003ctr bgcolor=\"#D4E4F3\"\u003e\n\u003ctd\u003eShape_Leng\u003c/td\u003e\n\u003ctd\u003e18102566,9293\u003c/td\u003e\n\u003c/tr\u003e\n\u003c/table\u003e\n\u003c/td\u003e\n\u003c/tr\u003e\n\u003c/table\u003e\n\u003c/body\u003e\u003cscript type=\"text/javascript\"\u003e\n\t\t\t\tfunction changeImage(attElement, nameElement) {\n\t\t\t\tdocument.getElementById('imageAttachment').src = attElement;\n\t\t\t\tdocument.getElementById('imageName').innerHTML = nameElement;}\n\t\t\t\u003c/script\u003e\u003c/html\u003e\n","FID_active_grids":256,"GridID":"H53","Shape_Length":4.890974885033717e-05,"Shape_Area":4.0971206113960473e-11}},{"type":"Feature","id":41304,"geometry":{"type":"Polygon","coordinates":[[[115.43468042400002,-6.8460391009999739],[115.43466968500002,-6.8460391999999501],[115.43468045500003,-6.8460424429999307],[115.43468042400002,-6.8460391009999739]]]},"properties":{"OBJECTID":41304,"FID_mangrove_utm":41125,"OBJECTID_1":41125,"Name":"18102566,9293","FolderPath":"JATIM/JATIM","SymbolID":0,"AltMode":0,"Base":0,"Clamped":-1,"Extruded":0,"Snippet":"","PopupInfo":"\u003chtml xmlns:fo=\"http://www.w3.org/1999/XSL/Format\" xmlns:msxsl=\"urn:schemas-microsoft-com:xslt\"\u003e\n\u003chead\u003e\n\u003cMETA http-equiv=\"Content-Type\" content=\"text/html\"\u003e\n\u003cmeta http-equiv=\"content-type\" content=\"text/html; charset=UTF-8\"\u003e\n\u003c/head\u003e\n\u003cbody style=\"margin:0px 0px 0px 0px;overflow:auto;background:#FFFFFF;\"\u003e\n\u003ctable style=\"font-family:Arial,Verdana,Times;font-size:12px;text-align:left;width:100%;border-collapse:collapse;padding:3px 3px 3px 3px\"\u003e\n\u003ctr style=\"text-align:center;font-weight:bold;background:#9CBCE2\"\u003e\n\u003ctd\u003e18102566,9293\u003c/td\u003e\n\u003c/tr\u003e\n\u003ctr\u003e\n\u003ctd\u003e\n\u003ctable style=\"font-family:Arial,Verdana,Times;font-size:12px;text-align:left;width:100%;border-spacing:0px; padding:3px 3px 3px 3px\"\u003e\n\u003ctr\u003e\n\u003ctd\u003eFID\u003c/td\u003e\n\u003ctd\u003e0\u003c/td\u003e\n\u003c/tr\u003e\n\u003ctr bgcolor=\"#D4E4F3\"\u003e\n\u003ctd\u003eShape_Leng\u003c/td\u003e\n\u003ctd\u003e18102566,9293\u003c/td\u003e\n\u003c/tr\u003e\n\u003c/table\u003e\n\u003c/td\u003e\n\u003c/tr\u003e\n\u003c/table\u003e\n\u003c/body\u003e\u003cscript type=\"text/javascript\"\u003e\n\t\t\t\tfunction changeImage(attElement, nameElement) {\n\t\t\t\tdocument.getElementById('imageAttachment').src = attElement;\n\t\t\t\tdocument.getElementById('imageName').innerHTML = nameElement;}\n\t\t\t\u003c/script\u003e\u003c/html\u003e\n","FID_active_grids":256,"GridID":"H53","Shape_Length":2.5329264219717822e-05,"Shape_Area":1.7946403274739938e-11}},{"type":"Feature","id":41305,"geometry":{"type":"Polygon","coordinates":[[[115.43464416300003,-6.8460213969999586],[115.43461155600005,-6.8460216979999586],[115.4346623560001,-6.8460369939999737],[115.43466229400008,-6.8460302489999663],[115.43464424700005,-6.8460304159999623],[115.43464416300003,-6.8460213969999586]]]},"properties":{"OBJECTID":41305,"FID_mangrove_utm":41126,"OBJECTID_1":41126,"Name":"18102566,9293","FolderPath":"JATIM/JATIM","SymbolID":0,"AltMode":0,"Base":0,"Clamped":-1,"Extruded":0,"Snippet":"","PopupInfo":"\u003chtml xmlns:fo=\"http://www.w3.org/1999/XSL/Format\" xmlns:msxsl=\"urn:schemas-microsoft-com:xslt\"\u003e\n\u003chead\u003e\n\u003cMETA http-equiv=\"Content-Type\" content=\"text/html\"\u003e\n\u003cmeta http-equiv=\"content-type\" content=\"text/html; charset=UTF-8\"\u003e\n\u003c/head\u003e\n\u003cbody style=\"margin:0px 0px 0px 0px;overflow:auto;background:#FFFFFF;\"\u003e\n\u003ctable style=\"font-family:Arial,Verdana,Times;font-size:12px;text-align:left;width:100%;border-collapse:collapse;padding:3px 3px 3px 3px\"\u003e\n\u003ctr style=\"text-align:center;font-weight:bold;background:#9CBCE2\"\u003e\n\u003ctd\u003e18102566,9293\u003c/td\u003e\n\u003c/tr\u003e\n\u003ctr\u003e\n\u003ctd\u003e\n\u003ctable style=\"font-family:Arial,Verdana,Times;font-size:12px;text-align:left;width:100%;border-spacing:0px; padding:3px 3px 3px 3px\"\u003e\n\u003ctr\u003e\n\u003ctd\u003eFID\u003c/td\u003e\n\u003ctd\u003e0\u003c/td\u003e\n\u003c/tr\u003e\n\u003ctr bgcolor=\"#D4E4F3\"\u003e\n\u003ctd\u003eShape_Leng\u003c/td\u003e\n\u003ctd\u003e18102566,9293\u003c/td\u003e\n\u003c/tr\u003e\n\u003c/table\u003e\n\u003c/td\u003e\n\u003c/tr\u003e\n\u003c/table\u003e\n\u003c/body\u003e\u003cscript type=\"text/javascript\"\u003e\n\t\t\t\tfunction changeImage(attElement, nameElement) {\n\t\t\t\tdocument.getElementById('imageAttachment').src = attElement;\n\t\t\t\tdocument.getElementById('imageName').innerHTML = nameElement;}\n\t\t\t\u003c/script\u003e\u003c/html\u003e\n","FID_active_grids":256,"GridID":"H53","Shape_Length":0.00011947371376503914,"Shape_Area":2.3650616105856536e-10}},{"type":"Feature","id":41316,"geometry":{"type":"Polygon","coordinates":[[[115.42902958600007,-6.8448916749999285],[115.42901347300005,-6.8448918239999443],[115.42902962800008,-6.8448962409999581],[115.42902958600007,-6.8448916749999285]]]},"properties":{"OBJECTID":41316,"FID_mangrove_utm":41137,"OBJECTID_1":41137,"Name":"18102566,9293","FolderPath":"JATIM/JATIM","SymbolID":0,"AltMode":0,"Base":0,"Clamped":-1,"Extruded":0,"Snippet":"","PopupInfo":"\u003chtml xmlns:fo=\"http://www.w3.org/1999/XSL/Format\" xmlns:msxsl=\"urn:schemas-microsoft-com:xslt\"\u003e\n\u003chead\u003e\n\u003cMETA http-equiv=\"Content-Type\" content=\"text/html\"\u003e\n\u003cmeta http-equiv=\"content-type\" content=\"text/html; charset=UTF-8\"\u003e\n\u003c/head\u003e\n\u003cbody style=\"margin:0px 0px 0px 0px;overflow:auto;background:#FFFFFF;\"\u003e\n\u003ctable style=\"font-family:Arial,Verdana,Times;font-size:12px;text-align:left;width:100%;border-collapse:collapse;padding:3px 3px 3px 3px\"\u003e\n\u003ctr style=\"text-align:center;font-weight:bold;background:#9CBCE2\"\u003e\n\u003ctd\u003e18102566,9293\u003c/td\u003e\n\u003c/tr\u003e\n\u003ctr\u003e\n\u003ctd\u003e\n\u003ctable style=\"font-family:Arial,Verdana,Times;font-size:12px;text-align:left;width:100%;border-spacing:0px; padding:3px 3px 3px 3px\"\u003e\n\u003ctr\u003e\n\u003ctd\u003eFID\u003c/td\u003e\n\u003ctd\u003e0\u003c/td\u003e\n\u003c/tr\u003e\n\u003ctr bgcolor=\"#D4E4F3\"\u003e\n\u003ctd\u003eShape_Leng\u003c/td\u003e\n\u003ctd\u003e18102566,9293\u003c/td\u003e\n\u003c/tr\u003e\n\u003c/table\u003e\n\u003c/td\u003e\n\u003c/tr\u003e\n\u003c/table\u003e\n\u003c/body\u003e\u003cscript type=\"text/javascript\"\u003e\n\t\t\t\tfunction changeImage(attElement, nameElement) {\n\t\t\t\tdocument.getElementById('imageAttachment').src = attElement;\n\t\t\t\tdocument.getElementById('imageName').innerHTML = nameElement;}\n\t\t\t\u003c/script\u003e\u003c/html\u003e\n","FID_active_grids":256,"GridID":"H53","Shape_Length":3.7427834668875282e-05,"Shape_Area":3.6789108274370334e-11}},{"type":"Feature","id":41326,"geometry":{"type":"Polygon","coordinates":[[[115.42917138200005,-6.844610758999977],[115.42912626400005,-6.844611175999944],[115.42912634700008,-6.8446201939999582],[115.42910830000005,-6.8446203609999543],[115.42910838300008,-6.844629379999958],[115.42909033600006,-6.8446295459999646],[115.42909041900009,-6.8446385649999684],[115.42908139500003,-6.8446386479999433],[115.42908172900002,-6.8446747239999581],[115.42907270500007,-6.844674806999933],[115.4290727880001,-6.8446838259999367],[115.42906376500002,-6.8446839089999685],[115.42906384800006,-6.8446929279999722],[115.4290548240001,-6.8446930109999471],[115.42905490800001,-6.8447020299999508],[115.42904588400006,-6.8447021129999257],[115.42904613400003,-6.8447291699999369],[115.42903711000008,-6.8447292529999686],[115.42903727700002,-6.844747290999976],[115.42902825300007,-6.8447473739999509],[115.42902833700009,-6.8447563929999546],[115.42903736000005,-6.8447563089999335],[115.42903744400007,-6.8447653279999372],[115.42902842000001,-6.8447654119999584],[115.42902867000009,-6.8447924679999801],[115.42901062300007,-6.8447926349999761],[115.4290107060001,-6.8448016529999336],[115.42901973000005,-6.8448015699999587],[115.42902014600008,-6.844846663999931],[115.42902917000004,-6.8448465809999561],[115.4290293360001,-6.8448646189999636],[115.42903836000005,-6.8448645349999424],[115.42903844300008,-6.8448735539999461],[115.42905649000011,-6.8448733879999395],[115.42905640700008,-6.8448643689999358],[115.42906543100003,-6.8448642859999609],[115.42906518100006,-6.8448372289999497],[115.42907420400002,-6.8448371459999748],[115.42907403800007,-6.8448191079999674],[115.42908306200002,-6.8448190249999357],[115.42908297800011,-6.8448100059999319],[115.42909200200006,-6.8448099229999571],[115.42909183500001,-6.8447918849999496],[115.42910085900007,-6.8447918019999747],[115.42910069200002,-6.8447737639999673],[115.42910971600008,-6.8447736809999356],[115.42910954900003,-6.8447556429999281],[115.4291185730001,-6.8447555599999532],[115.42911849000006,-6.8447465409999495],[115.42912751300003,-6.8447464579999746],[115.42912743000011,-6.8447374389999709],[115.42913645400006,-6.8447373559999392],[115.42913637000004,-6.8447283369999354],[115.42916344100001,-6.8447280869999645],[115.4291633580001,-6.8447190689999502],[115.42917238100006,-6.844718984999929],[115.42917221500011,-6.8447009479999679],[115.42918123800007,-6.8447008639999467],[115.42918107200001,-6.8446828269999287],[115.42919009500008,-6.8446827429999644],[115.42918967900005,-6.8446376489999352],[115.4291806550001,-6.8446377329999564],[115.42918057200006,-6.8446287139999527],[115.42917154800011,-6.8446287969999275],[115.42917138200005,-6.844610758999977]]]},"properties":{"OBJECTID":41326,"FID_mangrove_utm":41147,"OBJECTID_1":41147,"Name":"18102566,9293","FolderPath":"JATIM/JATIM","SymbolID":0,"AltMode":0,"Base":0,"Clamped":-1,"Extruded":0,"Snippet":"","PopupInfo":"\u003chtml xmlns:fo=\"http://www.w3.org/1999/XSL/Format\" xmlns:msxsl=\"urn:schemas-microsoft-com:xslt\"\u003e\n\u003chead\u003e\n\u003cMETA http-equiv=\"Content-Type\" content=\"text/html\"\u003e\n\u003cmeta http-equiv=\"content-type\" content=\"text/html; charset=UTF-8\"\u003e\n\u003c/head\u003e\n\u003cbody style=\"margin:0px 0px 0px 0px;overflow:auto;background:#FFFFFF;\"\u003e\n\u003ctable style=\"font-family:Arial,Verdana,Times;font-size:12px;text-align:left;width:100%;border-collapse:collapse;padding:3px 3px 3px 3px\"\u003e\n\u003ctr style=\"text-align:center;font-weight:bold;background:#9CBCE2\"\u003e\n\u003ctd\u003e18102566,9293\u003c/td\u003e\n\u003c/tr\u003e\n\u003ctr\u003e\n\u003ctd\u003e\n\u003ctable style=\"font-family:Arial,Verdana,Times;font-size:12px;text-align:left;width:100%;border-spacing:0px; padding:3px 3px 3px 3px\"\u003e\n\u003ctr\u003e\n\u003ctd\u003eFID\u003c/td\u003e\n\u003ctd\u003e0\u003c/td\u003e\n\u003c/tr\u003e\n\u003ctr bgcolor=\"#D4E4F3\"\u003e\n\u003ctd\u003eShape_Leng\u003c/td\u003e\n\u003ctd\u003e18102566,9293\u003c/td\u003e\n\u003c/tr\u003e\n\u003c/table\u003e\n\u003c/td\u003e\n\u003c/tr\u003e\n\u003c/table\u003e\n\u003c/body\u003e\u003cscript type=\"text/javascript\"\u003e\n\t\t\t\tfunction changeImage(attElement, nameElement) {\n\t\t\t\tdocument.getElementById('imageAttachment').src = attElement;\n\t\t\t\tdocument.getElementById('imageName').innerHTML = nameElement;}\n\t\t\t\u003c/script\u003e\u003c/html\u003e\n","FID_active_grids":256,"GridID":"H53","Shape_Length":0.00090212644122027934,"Shape_Area":2.1649546066207638e-08}}]}