{"type":"FeatureCollection","features":[{"type":"Feature","id":28767,"geometry":{"type":"Polygon","coordinates":[[[114.02988192800001,-7.0711082339999507],[114.02988181000001,-7.0710901679999552],[114.02986372500004,-7.0710902849999684],[114.02986384300004,-7.0711083519999534],[114.02988192800001,-7.0711082339999507]]]},"properties":{"OBJECTID":28767,"FID_mangrove_utm":28668,"OBJECTID_1":28668,"Name":"18102566,9293","FolderPath":"JATIM/JATIM","SymbolID":0,"AltMode":0,"Base":0,"Clamped":-1,"Extruded":0,"Snippet":"","PopupInfo":"\u003chtml xmlns:fo=\"http://www.w3.org/1999/XSL/Format\" xmlns:msxsl=\"urn:schemas-microsoft-com:xslt\"\u003e\n\u003chead\u003e\n\u003cMETA http-equiv=\"Content-Type\" content=\"text/html\"\u003e\n\u003cmeta http-equiv=\"content-type\" content=\"text/html; charset=UTF-8\"\u003e\n\u003c/head\u003e\n\u003cbody style=\"margin:0px 0px 0px 0px;overflow:auto;background:#FFFFFF;\"\u003e\n\u003ctable style=\"font-family:Arial,Verdana,Times;font-size:12px;text-align:left;width:100%;border-collapse:collapse;padding:3px 3px 3px 3px\"\u003e\n\u003ctr style=\"text-align:center;font-weight:bold;background:#9CBCE2\"\u003e\n\u003ctd\u003e18102566,9293\u003c/td\u003e\n\u003c/tr\u003e\n\u003ctr\u003e\n\u003ctd\u003e\n\u003ctable style=\"font-family:Arial,Verdana,Times;font-size:12px;text-align:left;width:100%;border-spacing:0px; padding:3px 3px 3px 3px\"\u003e\n\u003ctr\u003e\n\u003ctd\u003eFID\u003c/td\u003e\n\u003ctd\u003e0\u003c/td\u003e\n\u003c/tr\u003e\n\u003ctr bgcolor=\"#D4E4F3\"\u003e\n\u003ctd\u003eShape_Leng\u003c/td\u003e\n\u003ctd\u003e18102566,9293\u003c/td\u003e\n\u003c/tr\u003e\n\u003c/table\u003e\n\u003c/td\u003e\n\u003c/tr\u003e\n\u003c/table\u003e\n\u003c/body\u003e\u003cscript type=\"text/javascript\"\u003e\n\t\t\t\tfunction changeImage(attElement, nameElement) {\n\t\t\t\tdocument.getElementById('imageAttachment').src = attElement;\n\t\t\t\tdocument.getElementById('imageName').innerHTML = nameElement;}\n\t\t\t\u003c/script\u003e\u003c/html\u003e\n","FID_active_grids":172,"GridID":"L31","Shape_Length":7.230453402559606e-05,"Shape_Area":3.2674651669520763e-10}}]}