{"type":"FeatureCollection","features":[{"type":"Feature","id":39367,"geometry":{"type":"Polygon","coordinates":[[[113.54048010700001,-6.8930471009999792],[113.54047106400003,-6.8930471489999263],[113.54047120900009,-6.8930742599999348],[113.54046216600011,-6.8930743089999282],[113.54046211800005,-6.8930652709999549],[113.54045307500007,-6.8930653199999483],[113.54045317100008,-6.8930833939999729],[113.54046221400006,-6.893083345999969],[113.54046226200001,-6.8930923829999529],[113.54048034800007,-6.8930922859999555],[113.54048039600002,-6.8931013229999394],[113.54048943900011,-6.8931012749999354],[113.54048953500001,-6.89311934899996],[113.5404985780001,-6.8931193009999561],[113.54049862600004,-6.89312833799994],[113.54048958300007,-6.8931283869999334],[113.54048967900007,-6.893146460999958],[113.54048063700009,-6.893146508999962],[113.54048087700005,-6.8931916939999383],[113.54046279200008,-6.8931917899999462],[113.54046284000003,-6.8932008269999301],[113.54045379700005,-6.8932008749999341],[113.54045394200011,-6.893227986999932],[113.54044489900002,-6.893228034999936],[113.54044499500003,-6.8932461089999606],[113.54043595200005,-6.8932461569999646],[113.54043619300001,-6.8932913419999409],[113.5404452360001,-6.8932912939999369],[113.54044528400004,-6.8933003309999776],[113.54045432700002,-6.8933002829999737],[113.54045447100009,-6.8933273939999253],[113.54042734300003,-6.8933275389999267],[113.54042739100009,-6.8933365759999674],[113.54040930500003,-6.8933366719999754],[113.54040935400008,-6.8933457089999592],[113.54039126800001,-6.8933458049999672],[113.54039131600007,-6.8933548419999511],[113.54043653000008,-6.8933546019999312],[113.54043643400007,-6.8933365279999634],[113.54045451900004,-6.8933364309999661],[113.54045456800009,-6.89334546799995],[113.54044552500011,-6.8933455159999539],[113.54044557300006,-6.8933545539999272],[113.54050887200003,-6.8933542169999669],[113.54050882400009,-6.8933451799999261],[113.54048169600003,-6.893345323999938],[113.54048164800008,-6.8933362869999542],[113.54049069100006,-6.8933362389999502],[113.54049064200001,-6.8933272019999663],[113.5404996850001,-6.8933271539999623],[113.54049973300005,-6.8933361909999462],[113.54050877600002,-6.8933361429999422],[113.54050863200007,-6.8933090309999443],[113.54051767500005,-6.8933089829999403],[113.54051757800005,-6.8932909089999725],[113.54049949300008,-6.8932910049999805],[113.54049944400003,-6.8932819679999398],[113.54047231600009,-6.8932821129999411],[113.54047236400004,-6.893291149999925],[113.54046332100006,-6.893291197999929],[113.54046317700011,-6.8932640869999773],[113.54050839100012,-6.893263845999968],[113.54050829500011,-6.8932457719999434],[113.54049020900004,-6.8932458679999513],[113.54049016100009,-6.8932368309999674],[113.54049920400007,-6.8932367829999635],[113.54049915600001,-6.8932277459999796],[113.54050819800011,-6.8932276979999756],[113.54050805400004,-6.8932005869999671],[113.54051709700002,-6.8932005389999631],[113.54051704800008,-6.8931915019999792],[113.5405080060001,-6.8931915499999263],[113.54050781300009,-6.8931554009999445],[113.54051685600007,-6.8931553529999405],[113.54051680800001,-6.8931463159999566],[113.5405258510001,-6.8931462679999527],[113.54052580200005,-6.8931372309999688],[113.54053484500002,-6.8931371829999648],[113.54053479700008,-6.8931281459999809],[113.54054384000005,-6.8931280979999769],[113.54054388800012,-6.8931371349999608],[113.54055293100009,-6.8931370869999569],[113.54055278600003,-6.8931099759999483],[113.54054374300006,-6.8931100239999523],[113.54054369500011,-6.8931009869999684],[113.54051656700005,-6.8931011309999803],[113.54051651900011,-6.8930920939999396],[113.54049843300004,-6.8930921899999475],[113.54049838500009,-6.8930831529999637],[113.54048934200011,-6.8930832009999676],[113.54048919800005,-6.8930560899999591],[113.54048015500007,-6.8930561379999631],[113.54048010700001,-6.8930471009999792]],[[113.54050757200002,-6.8931102159999682],[113.54052565800009,-6.8931101199999603],[113.54052570600004,-6.8931191569999442],[113.54050762000008,-6.8931192529999521],[113.54050757200002,-6.8931102159999682]],[[113.54047188300001,-6.8932007789999261],[113.54048092500011,-6.893200730999979],[113.54048097400005,-6.8932097679999629],[113.54047193100007,-6.8932098159999668],[113.54047188300001,-6.8932007789999261]]]},"properties":{"OBJECTID":39367,"FID_mangrove_utm":39190,"OBJECTID_1":39190,"Name":"18102566,9293","FolderPath":"JATIM/JATIM","SymbolID":0,"AltMode":0,"Base":0,"Clamped":-1,"Extruded":0,"Snippet":"","PopupInfo":"\u003chtml xmlns:fo=\"http://www.w3.org/1999/XSL/Format\" xmlns:msxsl=\"urn:schemas-microsoft-com:xslt\"\u003e\n\u003chead\u003e\n\u003cMETA http-equiv=\"Content-Type\" content=\"text/html\"\u003e\n\u003cmeta http-equiv=\"content-type\" content=\"text/html; charset=UTF-8\"\u003e\n\u003c/head\u003e\n\u003cbody style=\"margin:0px 0px 0px 0px;overflow:auto;background:#FFFFFF;\"\u003e\n\u003ctable style=\"font-family:Arial,Verdana,Times;font-size:12px;text-align:left;width:100%;border-collapse:collapse;padding:3px 3px 3px 3px\"\u003e\n\u003ctr style=\"text-align:center;font-weight:bold;background:#9CBCE2\"\u003e\n\u003ctd\u003e18102566,9293\u003c/td\u003e\n\u003c/tr\u003e\n\u003ctr\u003e\n\u003ctd\u003e\n\u003ctable style=\"font-family:Arial,Verdana,Times;font-size:12px;text-align:left;width:100%;border-spacing:0px; padding:3px 3px 3px 3px\"\u003e\n\u003ctr\u003e\n\u003ctd\u003eFID\u003c/td\u003e\n\u003ctd\u003e0\u003c/td\u003e\n\u003c/tr\u003e\n\u003ctr bgcolor=\"#D4E4F3\"\u003e\n\u003ctd\u003eShape_Leng\u003c/td\u003e\n\u003ctd\u003e18102566,9293\u003c/td\u003e\n\u003c/tr\u003e\n\u003c/table\u003e\n\u003c/td\u003e\n\u003c/tr\u003e\n\u003c/table\u003e\n\u003c/body\u003e\u003cscript type=\"text/javascript\"\u003e\n\t\t\t\tfunction changeImage(attElement, nameElement) {\n\t\t\t\tdocument.getElementById('imageAttachment').src = attElement;\n\t\t\t\tdocument.getElementById('imageName').innerHTML = nameElement;}\n\t\t\t\u003c/script\u003e\u003c/html\u003e\n","FID_active_grids":251,"GridID":"H20","Shape_Length":0.0015006452719534837,"Shape_Area":1.438318193186199e-08}}]}