{"type":"FeatureCollection","features":[{"type":"Feature","id":52,"geometry":{"type":"Polygon","coordinates":[[[114.22942401100011,-8.603502424999931],[114.22942393400001,-8.6034933939999405],[114.22941486000002,-8.6034934709999789],[114.22941493700012,-8.6035025009999799],[114.22942401100011,-8.603502424999931]]]},"properties":{"OBJECTID":52,"FID_mangrove_utm":52,"OBJECTID_1":52,"Name":"18102566,9293","FolderPath":"JATIM/JATIM","SymbolID":0,"AltMode":0,"Base":0,"Clamped":-1,"Extruded":0,"Snippet":"","PopupInfo":"\u003chtml xmlns:fo=\"http://www.w3.org/1999/XSL/Format\" xmlns:msxsl=\"urn:schemas-microsoft-com:xslt\"\u003e\n\u003chead\u003e\n\u003cMETA http-equiv=\"Content-Type\" content=\"text/html\"\u003e\n\u003cmeta http-equiv=\"content-type\" content=\"text/html; charset=UTF-8\"\u003e\n\u003c/head\u003e\n\u003cbody style=\"margin:0px 0px 0px 0px;overflow:auto;background:#FFFFFF;\"\u003e\n\u003ctable style=\"font-family:Arial,Verdana,Times;font-size:12px;text-align:left;width:100%;border-collapse:collapse;padding:3px 3px 3px 3px\"\u003e\n\u003ctr style=\"text-align:center;font-weight:bold;background:#9CBCE2\"\u003e\n\u003ctd\u003e18102566,9293\u003c/td\u003e\n\u003c/tr\u003e\n\u003ctr\u003e\n\u003ctd\u003e\n\u003ctable style=\"font-family:Arial,Verdana,Times;font-size:12px;text-align:left;width:100%;border-spacing:0px; padding:3px 3px 3px 3px\"\u003e\n\u003ctr\u003e\n\u003ctd\u003eFID\u003c/td\u003e\n\u003ctd\u003e0\u003c/td\u003e\n\u003c/tr\u003e\n\u003ctr bgcolor=\"#D4E4F3\"\u003e\n\u003ctd\u003eShape_Leng\u003c/td\u003e\n\u003ctd\u003e18102566,9293\u003c/td\u003e\n\u003c/tr\u003e\n\u003c/table\u003e\n\u003c/td\u003e\n\u003c/tr\u003e\n\u003c/table\u003e\n\u003c/body\u003e\u003cscript type=\"text/javascript\"\u003e\n\t\t\t\tfunction changeImage(attElement, nameElement) {\n\t\t\t\tdocument.getElementById('imageAttachment').src = attElement;\n\t\t\t\tdocument.getElementById('imageName').innerHTML = nameElement;}\n\t\t\t\u003c/script\u003e\u003c/html\u003e\n","FID_active_grids":5,"GridID":"AK35","Shape_Length":3.6210301478998532e-05,"Shape_Area":8.1948647386680815e-11}},{"type":"Feature","id":53,"geometry":{"type":"Polygon","coordinates":[[[114.22926060600003,-8.6034947659999261],[114.22926052900004,-8.6034857359999251],[114.22925145500005,-8.603485811999974],[114.22925153200003,-8.6034948429999645],[114.22926060600003,-8.6034947659999261]]]},"properties":{"OBJECTID":53,"FID_mangrove_utm":53,"OBJECTID_1":53,"Name":"18102566,9293","FolderPath":"JATIM/JATIM","SymbolID":0,"AltMode":0,"Base":0,"Clamped":-1,"Extruded":0,"Snippet":"","PopupInfo":"\u003chtml xmlns:fo=\"http://www.w3.org/1999/XSL/Format\" xmlns:msxsl=\"urn:schemas-microsoft-com:xslt\"\u003e\n\u003chead\u003e\n\u003cMETA http-equiv=\"Content-Type\" content=\"text/html\"\u003e\n\u003cmeta http-equiv=\"content-type\" content=\"text/html; charset=UTF-8\"\u003e\n\u003c/head\u003e\n\u003cbody style=\"margin:0px 0px 0px 0px;overflow:auto;background:#FFFFFF;\"\u003e\n\u003ctable style=\"font-family:Arial,Verdana,Times;font-size:12px;text-align:left;width:100%;border-collapse:collapse;padding:3px 3px 3px 3px\"\u003e\n\u003ctr style=\"text-align:center;font-weight:bold;background:#9CBCE2\"\u003e\n\u003ctd\u003e18102566,9293\u003c/td\u003e\n\u003c/tr\u003e\n\u003ctr\u003e\n\u003ctd\u003e\n\u003ctable style=\"font-family:Arial,Verdana,Times;font-size:12px;text-align:left;width:100%;border-spacing:0px; padding:3px 3px 3px 3px\"\u003e\n\u003ctr\u003e\n\u003ctd\u003eFID\u003c/td\u003e\n\u003ctd\u003e0\u003c/td\u003e\n\u003c/tr\u003e\n\u003ctr bgcolor=\"#D4E4F3\"\u003e\n\u003ctd\u003eShape_Leng\u003c/td\u003e\n\u003ctd\u003e18102566,9293\u003c/td\u003e\n\u003c/tr\u003e\n\u003c/table\u003e\n\u003c/td\u003e\n\u003c/tr\u003e\n\u003c/table\u003e\n\u003c/body\u003e\u003cscript type=\"text/javascript\"\u003e\n\t\t\t\tfunction changeImage(attElement, nameElement) {\n\t\t\t\tdocument.getElementById('imageAttachment').src = attElement;\n\t\t\t\tdocument.getElementById('imageName').innerHTML = nameElement;}\n\t\t\t\u003c/script\u003e\u003c/html\u003e\n","FID_active_grids":5,"GridID":"AK35","Shape_Length":3.6210301477059856e-05,"Shape_Area":8.1948647377983761e-11}},{"type":"Feature","id":54,"geometry":{"type":"Polygon","coordinates":[[[114.22932412200009,-8.6034942329999353],[114.2293240460001,-8.6034852019999448],[114.22931497200011,-8.6034852779999369],[114.2293150480001,-8.6034943089999274],[114.22932412200009,-8.6034942329999353]]]},"properties":{"OBJECTID":54,"FID_mangrove_utm":54,"OBJECTID_1":54,"Name":"18102566,9293","FolderPath":"JATIM/JATIM","SymbolID":0,"AltMode":0,"Base":0,"Clamped":-1,"Extruded":0,"Snippet":"","PopupInfo":"\u003chtml xmlns:fo=\"http://www.w3.org/1999/XSL/Format\" xmlns:msxsl=\"urn:schemas-microsoft-com:xslt\"\u003e\n\u003chead\u003e\n\u003cMETA http-equiv=\"Content-Type\" content=\"text/html\"\u003e\n\u003cmeta http-equiv=\"content-type\" content=\"text/html; charset=UTF-8\"\u003e\n\u003c/head\u003e\n\u003cbody style=\"margin:0px 0px 0px 0px;overflow:auto;background:#FFFFFF;\"\u003e\n\u003ctable style=\"font-family:Arial,Verdana,Times;font-size:12px;text-align:left;width:100%;border-collapse:collapse;padding:3px 3px 3px 3px\"\u003e\n\u003ctr style=\"text-align:center;font-weight:bold;background:#9CBCE2\"\u003e\n\u003ctd\u003e18102566,9293\u003c/td\u003e\n\u003c/tr\u003e\n\u003ctr\u003e\n\u003ctd\u003e\n\u003ctable style=\"font-family:Arial,Verdana,Times;font-size:12px;text-align:left;width:100%;border-spacing:0px; padding:3px 3px 3px 3px\"\u003e\n\u003ctr\u003e\n\u003ctd\u003eFID\u003c/td\u003e\n\u003ctd\u003e0\u003c/td\u003e\n\u003c/tr\u003e\n\u003ctr bgcolor=\"#D4E4F3\"\u003e\n\u003ctd\u003eShape_Leng\u003c/td\u003e\n\u003ctd\u003e18102566,9293\u003c/td\u003e\n\u003c/tr\u003e\n\u003c/table\u003e\n\u003c/td\u003e\n\u003c/tr\u003e\n\u003c/table\u003e\n\u003c/body\u003e\u003cscript type=\"text/javascript\"\u003e\n\t\t\t\tfunction changeImage(attElement, nameElement) {\n\t\t\t\tdocument.getElementById('imageAttachment').src = attElement;\n\t\t\t\tdocument.getElementById('imageName').innerHTML = nameElement;}\n\t\t\t\u003c/script\u003e\u003c/html\u003e\n","FID_active_grids":5,"GridID":"AK35","Shape_Length":3.6211276058030042e-05,"Shape_Area":8.195306982684954e-11}},{"type":"Feature","id":55,"geometry":{"type":"Polygon","coordinates":[[[114.22938756200006,-8.6034846679999646],[114.22938763900004,-8.6034936989999551],[114.22937856500005,-8.6034937749999472],[114.22937864200003,-8.6035028059999377],[114.22940586300001,-8.6035025779999614],[114.22940578700002,-8.6034935469999709],[114.22939671300003,-8.603493622999963],[114.22939663600005,-8.6034845919999725],[114.22938756200006,-8.6034846679999646]]]},"properties":{"OBJECTID":55,"FID_mangrove_utm":55,"OBJECTID_1":55,"Name":"18102566,9293","FolderPath":"JATIM/JATIM","SymbolID":0,"AltMode":0,"Base":0,"Clamped":-1,"Extruded":0,"Snippet":"","PopupInfo":"\u003chtml xmlns:fo=\"http://www.w3.org/1999/XSL/Format\" xmlns:msxsl=\"urn:schemas-microsoft-com:xslt\"\u003e\n\u003chead\u003e\n\u003cMETA http-equiv=\"Content-Type\" content=\"text/html\"\u003e\n\u003cmeta http-equiv=\"content-type\" content=\"text/html; charset=UTF-8\"\u003e\n\u003c/head\u003e\n\u003cbody style=\"margin:0px 0px 0px 0px;overflow:auto;background:#FFFFFF;\"\u003e\n\u003ctable style=\"font-family:Arial,Verdana,Times;font-size:12px;text-align:left;width:100%;border-collapse:collapse;padding:3px 3px 3px 3px\"\u003e\n\u003ctr style=\"text-align:center;font-weight:bold;background:#9CBCE2\"\u003e\n\u003ctd\u003e18102566,9293\u003c/td\u003e\n\u003c/tr\u003e\n\u003ctr\u003e\n\u003ctd\u003e\n\u003ctable style=\"font-family:Arial,Verdana,Times;font-size:12px;text-align:left;width:100%;border-spacing:0px; padding:3px 3px 3px 3px\"\u003e\n\u003ctr\u003e\n\u003ctd\u003eFID\u003c/td\u003e\n\u003ctd\u003e0\u003c/td\u003e\n\u003c/tr\u003e\n\u003ctr bgcolor=\"#D4E4F3\"\u003e\n\u003ctd\u003eShape_Leng\u003c/td\u003e\n\u003ctd\u003e18102566,9293\u003c/td\u003e\n\u003c/tr\u003e\n\u003c/table\u003e\n\u003c/td\u003e\n\u003c/tr\u003e\n\u003c/table\u003e\n\u003c/body\u003e\u003cscript type=\"text/javascript\"\u003e\n\t\t\t\tfunction changeImage(attElement, nameElement) {\n\t\t\t\tdocument.getElementById('imageAttachment').src = attElement;\n\t\t\t\tdocument.getElementById('imageName').innerHTML = nameElement;}\n\t\t\t\u003c/script\u003e\u003c/html\u003e\n","FID_active_grids":5,"GridID":"AK35","Shape_Length":9.0570214086680535e-05,"Shape_Area":3.2780795385312702e-10}},{"type":"Feature","id":56,"geometry":{"type":"Polygon","coordinates":[[[114.22943293100002,-8.6034842869999579],[114.22943285500003,-8.6034752559999674],[114.22942378100004,-8.6034753329999489],[114.22942385800002,-8.6034843639999394],[114.22943293100002,-8.6034842869999579]]]},"properties":{"OBJECTID":56,"FID_mangrove_utm":56,"OBJECTID_1":56,"Name":"18102566,9293","FolderPath":"JATIM/JATIM","SymbolID":0,"AltMode":0,"Base":0,"Clamped":-1,"Extruded":0,"Snippet":"","PopupInfo":"\u003chtml xmlns:fo=\"http://www.w3.org/1999/XSL/Format\" xmlns:msxsl=\"urn:schemas-microsoft-com:xslt\"\u003e\n\u003chead\u003e\n\u003cMETA http-equiv=\"Content-Type\" content=\"text/html\"\u003e\n\u003cmeta http-equiv=\"content-type\" content=\"text/html; charset=UTF-8\"\u003e\n\u003c/head\u003e\n\u003cbody style=\"margin:0px 0px 0px 0px;overflow:auto;background:#FFFFFF;\"\u003e\n\u003ctable style=\"font-family:Arial,Verdana,Times;font-size:12px;text-align:left;width:100%;border-collapse:collapse;padding:3px 3px 3px 3px\"\u003e\n\u003ctr style=\"text-align:center;font-weight:bold;background:#9CBCE2\"\u003e\n\u003ctd\u003e18102566,9293\u003c/td\u003e\n\u003c/tr\u003e\n\u003ctr\u003e\n\u003ctd\u003e\n\u003ctable style=\"font-family:Arial,Verdana,Times;font-size:12px;text-align:left;width:100%;border-spacing:0px; padding:3px 3px 3px 3px\"\u003e\n\u003ctr\u003e\n\u003ctd\u003eFID\u003c/td\u003e\n\u003ctd\u003e0\u003c/td\u003e\n\u003c/tr\u003e\n\u003ctr bgcolor=\"#D4E4F3\"\u003e\n\u003ctd\u003eShape_Leng\u003c/td\u003e\n\u003ctd\u003e18102566,9293\u003c/td\u003e\n\u003c/tr\u003e\n\u003c/table\u003e\n\u003c/td\u003e\n\u003c/tr\u003e\n\u003c/table\u003e\n\u003c/body\u003e\u003cscript type=\"text/javascript\"\u003e\n\t\t\t\tfunction changeImage(attElement, nameElement) {\n\t\t\t\tdocument.getElementById('imageAttachment').src = attElement;\n\t\t\t\tdocument.getElementById('imageName').innerHTML = nameElement;}\n\t\t\t\u003c/script\u003e\u003c/html\u003e\n","FID_active_grids":5,"GridID":"AK35","Shape_Length":3.6210301435620822e-05,"Shape_Area":8.1948668873379456e-11}},{"type":"Feature","id":57,"geometry":{"type":"Polygon","coordinates":[[[114.2297775830001,-8.6034633289999647],[114.22977750700011,-8.6034542979999742],[114.22975935900001,-8.6034544499999583],[114.22975943600011,-8.6034634809999488],[114.2297775830001,-8.6034633289999647]]]},"properties":{"OBJECTID":57,"FID_mangrove_utm":57,"OBJECTID_1":57,"Name":"18102566,9293","FolderPath":"JATIM/JATIM","SymbolID":0,"AltMode":0,"Base":0,"Clamped":-1,"Extruded":0,"Snippet":"","PopupInfo":"\u003chtml xmlns:fo=\"http://www.w3.org/1999/XSL/Format\" xmlns:msxsl=\"urn:schemas-microsoft-com:xslt\"\u003e\n\u003chead\u003e\n\u003cMETA http-equiv=\"Content-Type\" content=\"text/html\"\u003e\n\u003cmeta http-equiv=\"content-type\" content=\"text/html; charset=UTF-8\"\u003e\n\u003c/head\u003e\n\u003cbody style=\"margin:0px 0px 0px 0px;overflow:auto;background:#FFFFFF;\"\u003e\n\u003ctable style=\"font-family:Arial,Verdana,Times;font-size:12px;text-align:left;width:100%;border-collapse:collapse;padding:3px 3px 3px 3px\"\u003e\n\u003ctr style=\"text-align:center;font-weight:bold;background:#9CBCE2\"\u003e\n\u003ctd\u003e18102566,9293\u003c/td\u003e\n\u003c/tr\u003e\n\u003ctr\u003e\n\u003ctd\u003e\n\u003ctable style=\"font-family:Arial,Verdana,Times;font-size:12px;text-align:left;width:100%;border-spacing:0px; padding:3px 3px 3px 3px\"\u003e\n\u003ctr\u003e\n\u003ctd\u003eFID\u003c/td\u003e\n\u003ctd\u003e0\u003c/td\u003e\n\u003c/tr\u003e\n\u003ctr bgcolor=\"#D4E4F3\"\u003e\n\u003ctd\u003eShape_Leng\u003c/td\u003e\n\u003ctd\u003e18102566,9293\u003c/td\u003e\n\u003c/tr\u003e\n\u003c/table\u003e\n\u003c/td\u003e\n\u003c/tr\u003e\n\u003c/table\u003e\n\u003c/body\u003e\u003cscript type=\"text/javascript\"\u003e\n\t\t\t\tfunction changeImage(attElement, nameElement) {\n\t\t\t\tdocument.getElementById('imageAttachment').src = attElement;\n\t\t\t\tdocument.getElementById('imageName').innerHTML = nameElement;}\n\t\t\t\u003c/script\u003e\u003c/html\u003e\n","FID_active_grids":5,"GridID":"AK35","Shape_Length":5.4358921202447708e-05,"Shape_Area":1.6390170072263852e-10}},{"type":"Feature","id":58,"geometry":{"type":"Polygon","coordinates":[[[114.22938756200006,-8.6034846679999646],[114.22938748600006,-8.6034756379999635],[114.22936933800008,-8.6034757899999477],[114.22936926200009,-8.6034667589999572],[114.22935111400011,-8.6034669119999307],[114.22935088400004,-8.6034398189999592],[114.22933273700005,-8.6034399719999328],[114.22933281300004,-8.6034490029999802],[114.22932373900005,-8.6034490789999722],[114.22932381600003,-8.6034581099999627],[114.22933289000002,-8.6034580329999812],[114.22933296600002,-8.6034670639999717],[114.22934204000001,-8.6034669879999797],[114.22934219300009,-8.6034850499999607],[114.22938756200006,-8.6034846679999646]]]},"properties":{"OBJECTID":58,"FID_mangrove_utm":58,"OBJECTID_1":58,"Name":"18102566,9293","FolderPath":"JATIM/JATIM","SymbolID":0,"AltMode":0,"Base":0,"Clamped":-1,"Extruded":0,"Snippet":"","PopupInfo":"\u003chtml xmlns:fo=\"http://www.w3.org/1999/XSL/Format\" xmlns:msxsl=\"urn:schemas-microsoft-com:xslt\"\u003e\n\u003chead\u003e\n\u003cMETA http-equiv=\"Content-Type\" content=\"text/html\"\u003e\n\u003cmeta http-equiv=\"content-type\" content=\"text/html; charset=UTF-8\"\u003e\n\u003c/head\u003e\n\u003cbody style=\"margin:0px 0px 0px 0px;overflow:auto;background:#FFFFFF;\"\u003e\n\u003ctable style=\"font-family:Arial,Verdana,Times;font-size:12px;text-align:left;width:100%;border-collapse:collapse;padding:3px 3px 3px 3px\"\u003e\n\u003ctr style=\"text-align:center;font-weight:bold;background:#9CBCE2\"\u003e\n\u003ctd\u003e18102566,9293\u003c/td\u003e\n\u003c/tr\u003e\n\u003ctr\u003e\n\u003ctd\u003e\n\u003ctable style=\"font-family:Arial,Verdana,Times;font-size:12px;text-align:left;width:100%;border-spacing:0px; padding:3px 3px 3px 3px\"\u003e\n\u003ctr\u003e\n\u003ctd\u003eFID\u003c/td\u003e\n\u003ctd\u003e0\u003c/td\u003e\n\u003c/tr\u003e\n\u003ctr bgcolor=\"#D4E4F3\"\u003e\n\u003ctd\u003eShape_Leng\u003c/td\u003e\n\u003ctd\u003e18102566,9293\u003c/td\u003e\n\u003c/tr\u003e\n\u003c/table\u003e\n\u003c/td\u003e\n\u003c/tr\u003e\n\u003c/table\u003e\n\u003c/body\u003e\u003cscript type=\"text/javascript\"\u003e\n\t\t\t\tfunction changeImage(attElement, nameElement) {\n\t\t\t\tdocument.getElementById('imageAttachment').src = attElement;\n\t\t\t\tdocument.getElementById('imageName').innerHTML = nameElement;}\n\t\t\t\u003c/script\u003e\u003c/html\u003e\n","FID_active_grids":5,"GridID":"AK35","Shape_Length":0.00021735072936226421,"Shape_Area":1.22924255436867e-09}},{"type":"Feature","id":59,"geometry":{"type":"Polygon","coordinates":[[[114.22933273700005,-8.6034399719999328],[114.22933266000007,-8.6034309409999423],[114.22932358600008,-8.6034310169999344],[114.22932366300006,-8.6034400479999817],[114.22933273700005,-8.6034399719999328]]]},"properties":{"OBJECTID":59,"FID_mangrove_utm":59,"OBJECTID_1":59,"Name":"18102566,9293","FolderPath":"JATIM/JATIM","SymbolID":0,"AltMode":0,"Base":0,"Clamped":-1,"Extruded":0,"Snippet":"","PopupInfo":"\u003chtml xmlns:fo=\"http://www.w3.org/1999/XSL/Format\" xmlns:msxsl=\"urn:schemas-microsoft-com:xslt\"\u003e\n\u003chead\u003e\n\u003cMETA http-equiv=\"Content-Type\" content=\"text/html\"\u003e\n\u003cmeta http-equiv=\"content-type\" content=\"text/html; charset=UTF-8\"\u003e\n\u003c/head\u003e\n\u003cbody style=\"margin:0px 0px 0px 0px;overflow:auto;background:#FFFFFF;\"\u003e\n\u003ctable style=\"font-family:Arial,Verdana,Times;font-size:12px;text-align:left;width:100%;border-collapse:collapse;padding:3px 3px 3px 3px\"\u003e\n\u003ctr style=\"text-align:center;font-weight:bold;background:#9CBCE2\"\u003e\n\u003ctd\u003e18102566,9293\u003c/td\u003e\n\u003c/tr\u003e\n\u003ctr\u003e\n\u003ctd\u003e\n\u003ctable style=\"font-family:Arial,Verdana,Times;font-size:12px;text-align:left;width:100%;border-spacing:0px; padding:3px 3px 3px 3px\"\u003e\n\u003ctr\u003e\n\u003ctd\u003eFID\u003c/td\u003e\n\u003ctd\u003e0\u003c/td\u003e\n\u003c/tr\u003e\n\u003ctr bgcolor=\"#D4E4F3\"\u003e\n\u003ctd\u003eShape_Leng\u003c/td\u003e\n\u003ctd\u003e18102566,9293\u003c/td\u003e\n\u003c/tr\u003e\n\u003c/table\u003e\n\u003c/td\u003e\n\u003c/tr\u003e\n\u003c/table\u003e\n\u003c/body\u003e\u003cscript type=\"text/javascript\"\u003e\n\t\t\t\tfunction changeImage(attElement, nameElement) {\n\t\t\t\tdocument.getElementById('imageAttachment').src = attElement;\n\t\t\t\tdocument.getElementById('imageName').innerHTML = nameElement;}\n\t\t\t\u003c/script\u003e\u003c/html\u003e\n","FID_active_grids":5,"GridID":"AK35","Shape_Length":3.6211293056203032e-05,"Shape_Area":8.1953146086124952e-11}},{"type":"Feature","id":60,"geometry":{"type":"Polygon","coordinates":[[[114.22932351000009,-8.6034219859999439],[114.2293234330001,-8.6034129549999534],[114.22930528500001,-8.603413107999927],[114.2293053620001,-8.6034221389999743],[114.22932351000009,-8.6034219859999439]]]},"properties":{"OBJECTID":60,"FID_mangrove_utm":60,"OBJECTID_1":60,"Name":"18102566,9293","FolderPath":"JATIM/JATIM","SymbolID":0,"AltMode":0,"Base":0,"Clamped":-1,"Extruded":0,"Snippet":"","PopupInfo":"\u003chtml xmlns:fo=\"http://www.w3.org/1999/XSL/Format\" xmlns:msxsl=\"urn:schemas-microsoft-com:xslt\"\u003e\n\u003chead\u003e\n\u003cMETA http-equiv=\"Content-Type\" content=\"text/html\"\u003e\n\u003cmeta http-equiv=\"content-type\" content=\"text/html; charset=UTF-8\"\u003e\n\u003c/head\u003e\n\u003cbody style=\"margin:0px 0px 0px 0px;overflow:auto;background:#FFFFFF;\"\u003e\n\u003ctable style=\"font-family:Arial,Verdana,Times;font-size:12px;text-align:left;width:100%;border-collapse:collapse;padding:3px 3px 3px 3px\"\u003e\n\u003ctr style=\"text-align:center;font-weight:bold;background:#9CBCE2\"\u003e\n\u003ctd\u003e18102566,9293\u003c/td\u003e\n\u003c/tr\u003e\n\u003ctr\u003e\n\u003ctd\u003e\n\u003ctable style=\"font-family:Arial,Verdana,Times;font-size:12px;text-align:left;width:100%;border-spacing:0px; padding:3px 3px 3px 3px\"\u003e\n\u003ctr\u003e\n\u003ctd\u003eFID\u003c/td\u003e\n\u003ctd\u003e0\u003c/td\u003e\n\u003c/tr\u003e\n\u003ctr bgcolor=\"#D4E4F3\"\u003e\n\u003ctd\u003eShape_Leng\u003c/td\u003e\n\u003ctd\u003e18102566,9293\u003c/td\u003e\n\u003c/tr\u003e\n\u003c/table\u003e\n\u003c/td\u003e\n\u003c/tr\u003e\n\u003c/table\u003e\n\u003c/body\u003e\u003cscript type=\"text/javascript\"\u003e\n\t\t\t\tfunction changeImage(attElement, nameElement) {\n\t\t\t\tdocument.getElementById('imageAttachment').src = attElement;\n\t\t\t\tdocument.getElementById('imageName').innerHTML = nameElement;}\n\t\t\t\u003c/script\u003e\u003c/html\u003e\n","FID_active_grids":5,"GridID":"AK35","Shape_Length":5.4359946490032006e-05,"Shape_Area":1.6390636969127858e-10}},{"type":"Feature","id":61,"geometry":{"type":"Polygon","coordinates":[[[114.22961402500005,-8.6034376089999682],[114.22961394800006,-8.6034285779999777],[114.22955043200011,-8.6034291109999685],[114.22955035500001,-8.6034200809999675],[114.22953220700003,-8.6034202329999516],[114.22953213100004,-8.6034112019999611],[114.22951398300006,-8.6034113549999347],[114.22951390600008,-8.6034023239999442],[114.22952298000007,-8.6034022479999521],[114.22952290400008,-8.6033932169999616],[114.22953197800007,-8.6033931409999695],[114.22953190100009,-8.603384109999979],[114.22954097500008,-8.6033840329999407],[114.2295408980001,-8.6033750029999396],[114.22951367700011,-8.6033752309999727],[114.22951360000002,-8.6033662009999716],[114.22949545200004,-8.6033663529999558],[114.22949552900002,-8.6033753839999463],[114.22947738100004,-8.6033755359999304],[114.22947730500005,-8.6033665049999399],[114.22946823100006,-8.6033665819999783],[114.22946830800004,-8.6033756129999688],[114.22945923400005,-8.6033756889999609],[114.22945931000004,-8.6033847199999514],[114.22948653200001,-8.6033844909999289],[114.22948660800012,-8.6033935219999762],[114.22945938700002,-8.6033937499999524],[114.22945946400012,-8.6034027809999429],[114.2294866850001,-8.6034025529999667],[114.22948676200008,-8.6034115829999678],[114.22945954000011,-8.6034118119999334],[114.22945961700009,-8.6034208429999808],[114.22943239500012,-8.6034210719999464],[114.2294324720001,-8.6034301019999475],[114.22944154600009,-8.6034300259999554],[114.22944200500001,-8.6034842109999659],[114.2294692270001,-8.6034839819999434],[114.22946907400001,-8.6034659209999518],[114.22948722100011,-8.6034657679999782],[114.22948737400009,-8.6034838299999592],[114.22955996500002,-8.60348321999993],[114.22955988800004,-8.6034741889999395],[114.22956896200003,-8.6034741129999475],[114.22956888600004,-8.603465081999957],[114.22957795900004,-8.6034650059999649],[114.22957803600002,-8.6034740369999554],[114.22960525700012,-8.6034738079999329],[114.22960518100001,-8.6034647769999424],[114.22961425500012,-8.6034647009999503],[114.22961417800002,-8.6034556699999598],[114.2296595470001,-8.6034552889999532],[114.22965962400008,-8.6034643199999437],[114.22970499300004,-8.603463938999937],[114.22970506900003,-8.6034729699999275],[114.22972321700001,-8.6034728169999539],[114.22972314000003,-8.6034637859999634],[114.22973221400002,-8.6034637099999713],[114.22973236700011,-8.6034817719999523],[114.2297414410001,-8.6034816949999708],[114.22974151800008,-8.6034907259999613],[114.22975966500007,-8.6034905739999772],[114.22975958900008,-8.6034815429999298],[114.22977773600007,-8.6034813899999563],[114.22977766000008,-8.6034723599999552],[114.22974136500011,-8.6034726649999698],[114.22974121100003,-8.6034546029999319],[114.22968676900007,-8.6034550599999307],[114.22968669200009,-8.6034460299999296],[114.22966854400011,-8.6034461819999706],[114.22966831500003,-8.6034190899999317],[114.22965924100004,-8.6034191659999806],[114.22965901100008,-8.6033920729999522],[114.2296408630001,-8.6033922259999258],[114.22964117000004,-8.6034283489999552],[114.22962302200006,-8.6034285019999288],[114.22962309900004,-8.6034375319999299],[114.22961402500005,-8.6034376089999682],[114.22961410100004,-8.6034466389999693],[114.22959595400005,-8.6034467919999429],[114.22959603000004,-8.6034558229999334],[114.22958695700004,-8.6034558989999255],[114.22958688000006,-8.603446867999935],[114.22957780600007,-8.603446943999927],[114.22957788300005,-8.6034559749999744],[114.22955973500007,-8.603456127999948],[114.22955981200005,-8.603465157999949],[114.22951444300008,-8.6034655399999451],[114.2295143660001,-8.6034565089999546],[114.22948714500001,-8.6034567369999309],[114.22948706800003,-8.6034477069999298],[114.22947799400004,-8.6034477829999787],[114.22947791800004,-8.6034387519999314],[114.22948699100004,-8.6034386759999393],[114.22948691500005,-8.6034296449999488],[114.22947784100006,-8.6034297209999409],[114.22947776400008,-8.6034206899999504],[114.22950498600005,-8.6034204619999741],[114.22950506200004,-8.6034294929999646],[114.22951413600003,-8.6034294159999263],[114.22951421300002,-8.6034384469999736],[114.22961402500005,-8.6034376089999682]],[[114.22965947000012,-8.6034462579999627],[114.22965039700011,-8.6034463339999547],[114.22965032000002,-8.6034373039999537],[114.22965939400001,-8.6034372269999722],[114.22965947000012,-8.6034462579999627]]]},"properties":{"OBJECTID":61,"FID_mangrove_utm":61,"OBJECTID_1":61,"Name":"18102566,9293","FolderPath":"JATIM/JATIM","SymbolID":0,"AltMode":0,"Base":0,"Clamped":-1,"Extruded":0,"Snippet":"","PopupInfo":"\u003chtml xmlns:fo=\"http://www.w3.org/1999/XSL/Format\" xmlns:msxsl=\"urn:schemas-microsoft-com:xslt\"\u003e\n\u003chead\u003e\n\u003cMETA http-equiv=\"Content-Type\" content=\"text/html\"\u003e\n\u003cmeta http-equiv=\"content-type\" content=\"text/html; charset=UTF-8\"\u003e\n\u003c/head\u003e\n\u003cbody style=\"margin:0px 0px 0px 0px;overflow:auto;background:#FFFFFF;\"\u003e\n\u003ctable style=\"font-family:Arial,Verdana,Times;font-size:12px;text-align:left;width:100%;border-collapse:collapse;padding:3px 3px 3px 3px\"\u003e\n\u003ctr style=\"text-align:center;font-weight:bold;background:#9CBCE2\"\u003e\n\u003ctd\u003e18102566,9293\u003c/td\u003e\n\u003c/tr\u003e\n\u003ctr\u003e\n\u003ctd\u003e\n\u003ctable style=\"font-family:Arial,Verdana,Times;font-size:12px;text-align:left;width:100%;border-spacing:0px; padding:3px 3px 3px 3px\"\u003e\n\u003ctr\u003e\n\u003ctd\u003eFID\u003c/td\u003e\n\u003ctd\u003e0\u003c/td\u003e\n\u003c/tr\u003e\n\u003ctr bgcolor=\"#D4E4F3\"\u003e\n\u003ctd\u003eShape_Leng\u003c/td\u003e\n\u003ctd\u003e18102566,9293\u003c/td\u003e\n\u003c/tr\u003e\n\u003c/table\u003e\n\u003c/td\u003e\n\u003c/tr\u003e\n\u003c/table\u003e\n\u003c/body\u003e\u003cscript type=\"text/javascript\"\u003e\n\t\t\t\tfunction changeImage(attElement, nameElement) {\n\t\t\t\tdocument.getElementById('imageAttachment').src = attElement;\n\t\t\t\tdocument.getElementById('imageName').innerHTML = nameElement;}\n\t\t\t\u003c/script\u003e\u003c/html\u003e\n","FID_active_grids":5,"GridID":"AK35","Shape_Length":0.0017756030923062273,"Shape_Area":1.3030063481374398e-08}}]}