{"type":"FeatureCollection","features":[{"type":"Feature","id":26157,"geometry":{"type":"Polygon","coordinates":[[[115.68023705100006,-7.1017868499999395],[115.68023696000012,-7.1017778349999503],[115.68022793400007,-7.1017779259999543],[115.68022802600001,-7.1017869419999329],[115.68023705100006,-7.1017868499999395]]]},"properties":{"OBJECTID":26157,"FID_mangrove_utm":26067,"OBJECTID_1":26067,"Name":"18102566,9293","FolderPath":"JATIM/JATIM","SymbolID":0,"AltMode":0,"Base":0,"Clamped":-1,"Extruded":0,"Snippet":"","PopupInfo":"\u003chtml xmlns:fo=\"http://www.w3.org/1999/XSL/Format\" xmlns:msxsl=\"urn:schemas-microsoft-com:xslt\"\u003e\n\u003chead\u003e\n\u003cMETA http-equiv=\"Content-Type\" content=\"text/html\"\u003e\n\u003cmeta http-equiv=\"content-type\" content=\"text/html; charset=UTF-8\"\u003e\n\u003c/head\u003e\n\u003cbody style=\"margin:0px 0px 0px 0px;overflow:auto;background:#FFFFFF;\"\u003e\n\u003ctable style=\"font-family:Arial,Verdana,Times;font-size:12px;text-align:left;width:100%;border-collapse:collapse;padding:3px 3px 3px 3px\"\u003e\n\u003ctr style=\"text-align:center;font-weight:bold;background:#9CBCE2\"\u003e\n\u003ctd\u003e18102566,9293\u003c/td\u003e\n\u003c/tr\u003e\n\u003ctr\u003e\n\u003ctd\u003e\n\u003ctable style=\"font-family:Arial,Verdana,Times;font-size:12px;text-align:left;width:100%;border-spacing:0px; padding:3px 3px 3px 3px\"\u003e\n\u003ctr\u003e\n\u003ctd\u003eFID\u003c/td\u003e\n\u003ctd\u003e0\u003c/td\u003e\n\u003c/tr\u003e\n\u003ctr bgcolor=\"#D4E4F3\"\u003e\n\u003ctd\u003eShape_Leng\u003c/td\u003e\n\u003ctd\u003e18102566,9293\u003c/td\u003e\n\u003c/tr\u003e\n\u003c/table\u003e\n\u003c/td\u003e\n\u003c/tr\u003e\n\u003c/table\u003e\n\u003c/body\u003e\u003cscript type=\"text/javascript\"\u003e\n\t\t\t\tfunction changeImage(attElement, nameElement) {\n\t\t\t\tdocument.getElementById('imageAttachment').src = attElement;\n\t\t\t\tdocument.getElementById('imageName').innerHTML = nameElement;}\n\t\t\t\u003c/script\u003e\u003c/html\u003e\n","FID_active_grids":163,"GridID":"M58","Shape_Length":3.6083856343970337e-05,"Shape_Area":8.1377767787885777e-11}},{"type":"Feature","id":26410,"geometry":{"type":"Polygon","coordinates":[[[115.69376601100009,-7.0972138339999447],[115.69376592000003,-7.0972048179999661],[115.69374786900005,-7.0972050009999634],[115.6937479610001,-7.097214016999942],[115.69376601100009,-7.0972138339999447]]]},"properties":{"OBJECTID":26410,"FID_mangrove_utm":26319,"OBJECTID_1":26319,"Name":"18102566,9293","FolderPath":"JATIM/JATIM","SymbolID":0,"AltMode":0,"Base":0,"Clamped":-1,"Extruded":0,"Snippet":"","PopupInfo":"\u003chtml xmlns:fo=\"http://www.w3.org/1999/XSL/Format\" xmlns:msxsl=\"urn:schemas-microsoft-com:xslt\"\u003e\n\u003chead\u003e\n\u003cMETA http-equiv=\"Content-Type\" content=\"text/html\"\u003e\n\u003cmeta http-equiv=\"content-type\" content=\"text/html; charset=UTF-8\"\u003e\n\u003c/head\u003e\n\u003cbody style=\"margin:0px 0px 0px 0px;overflow:auto;background:#FFFFFF;\"\u003e\n\u003ctable style=\"font-family:Arial,Verdana,Times;font-size:12px;text-align:left;width:100%;border-collapse:collapse;padding:3px 3px 3px 3px\"\u003e\n\u003ctr style=\"text-align:center;font-weight:bold;background:#9CBCE2\"\u003e\n\u003ctd\u003e18102566,9293\u003c/td\u003e\n\u003c/tr\u003e\n\u003ctr\u003e\n\u003ctd\u003e\n\u003ctable style=\"font-family:Arial,Verdana,Times;font-size:12px;text-align:left;width:100%;border-spacing:0px; padding:3px 3px 3px 3px\"\u003e\n\u003ctr\u003e\n\u003ctd\u003eFID\u003c/td\u003e\n\u003ctd\u003e0\u003c/td\u003e\n\u003c/tr\u003e\n\u003ctr bgcolor=\"#D4E4F3\"\u003e\n\u003ctd\u003eShape_Leng\u003c/td\u003e\n\u003ctd\u003e18102566,9293\u003c/td\u003e\n\u003c/tr\u003e\n\u003c/table\u003e\n\u003c/td\u003e\n\u003c/tr\u003e\n\u003c/table\u003e\n\u003c/body\u003e\u003cscript type=\"text/javascript\"\u003e\n\t\t\t\tfunction changeImage(attElement, nameElement) {\n\t\t\t\tdocument.getElementById('imageAttachment').src = attElement;\n\t\t\t\tdocument.getElementById('imageName').innerHTML = nameElement;}\n\t\t\t\u003c/script\u003e\u003c/html\u003e\n","FID_active_grids":163,"GridID":"M58","Shape_Length":5.4135783786310305e-05,"Shape_Area":1.6276005202386072e-10}},{"type":"Feature","id":26482,"geometry":{"type":"Polygon","coordinates":[[[115.69718775500007,-7.0964127619999431],[115.69718766300002,-7.0964037469999539],[115.69717863800008,-7.0964038379999579],[115.69717873000002,-7.0964128539999365],[115.69718775500007,-7.0964127619999431]]]},"properties":{"OBJECTID":26482,"FID_mangrove_utm":26390,"OBJECTID_1":26390,"Name":"18102566,9293","FolderPath":"JATIM/JATIM","SymbolID":0,"AltMode":0,"Base":0,"Clamped":-1,"Extruded":0,"Snippet":"","PopupInfo":"\u003chtml xmlns:fo=\"http://www.w3.org/1999/XSL/Format\" xmlns:msxsl=\"urn:schemas-microsoft-com:xslt\"\u003e\n\u003chead\u003e\n\u003cMETA http-equiv=\"Content-Type\" content=\"text/html\"\u003e\n\u003cmeta http-equiv=\"content-type\" content=\"text/html; charset=UTF-8\"\u003e\n\u003c/head\u003e\n\u003cbody style=\"margin:0px 0px 0px 0px;overflow:auto;background:#FFFFFF;\"\u003e\n\u003ctable style=\"font-family:Arial,Verdana,Times;font-size:12px;text-align:left;width:100%;border-collapse:collapse;padding:3px 3px 3px 3px\"\u003e\n\u003ctr style=\"text-align:center;font-weight:bold;background:#9CBCE2\"\u003e\n\u003ctd\u003e18102566,9293\u003c/td\u003e\n\u003c/tr\u003e\n\u003ctr\u003e\n\u003ctd\u003e\n\u003ctable style=\"font-family:Arial,Verdana,Times;font-size:12px;text-align:left;width:100%;border-spacing:0px; padding:3px 3px 3px 3px\"\u003e\n\u003ctr\u003e\n\u003ctd\u003eFID\u003c/td\u003e\n\u003ctd\u003e0\u003c/td\u003e\n\u003c/tr\u003e\n\u003ctr bgcolor=\"#D4E4F3\"\u003e\n\u003ctd\u003eShape_Leng\u003c/td\u003e\n\u003ctd\u003e18102566,9293\u003c/td\u003e\n\u003c/tr\u003e\n\u003c/table\u003e\n\u003c/td\u003e\n\u003c/tr\u003e\n\u003c/table\u003e\n\u003c/body\u003e\u003cscript type=\"text/javascript\"\u003e\n\t\t\t\tfunction changeImage(attElement, nameElement) {\n\t\t\t\tdocument.getElementById('imageAttachment').src = attElement;\n\t\t\t\tdocument.getElementById('imageName').innerHTML = nameElement;}\n\t\t\t\u003c/script\u003e\u003c/html\u003e\n","FID_active_grids":163,"GridID":"M58","Shape_Length":3.6082866441963123e-05,"Shape_Area":8.1373305327809946e-11}},{"type":"Feature","id":27009,"geometry":{"type":"Polygon","coordinates":[[[115.69901921300004,-7.0847812529999601],[115.69901912100011,-7.0847722369999815],[115.69901009600005,-7.0847723289999749],[115.6990101880001,-7.0847813439999641],[115.69901921300004,-7.0847812529999601]]]},"properties":{"OBJECTID":27009,"FID_mangrove_utm":26917,"OBJECTID_1":26917,"Name":"18102566,9293","FolderPath":"JATIM/JATIM","SymbolID":0,"AltMode":0,"Base":0,"Clamped":-1,"Extruded":0,"Snippet":"","PopupInfo":"\u003chtml xmlns:fo=\"http://www.w3.org/1999/XSL/Format\" xmlns:msxsl=\"urn:schemas-microsoft-com:xslt\"\u003e\n\u003chead\u003e\n\u003cMETA http-equiv=\"Content-Type\" content=\"text/html\"\u003e\n\u003cmeta http-equiv=\"content-type\" content=\"text/html; charset=UTF-8\"\u003e\n\u003c/head\u003e\n\u003cbody style=\"margin:0px 0px 0px 0px;overflow:auto;background:#FFFFFF;\"\u003e\n\u003ctable style=\"font-family:Arial,Verdana,Times;font-size:12px;text-align:left;width:100%;border-collapse:collapse;padding:3px 3px 3px 3px\"\u003e\n\u003ctr style=\"text-align:center;font-weight:bold;background:#9CBCE2\"\u003e\n\u003ctd\u003e18102566,9293\u003c/td\u003e\n\u003c/tr\u003e\n\u003ctr\u003e\n\u003ctd\u003e\n\u003ctable style=\"font-family:Arial,Verdana,Times;font-size:12px;text-align:left;width:100%;border-spacing:0px; padding:3px 3px 3px 3px\"\u003e\n\u003ctr\u003e\n\u003ctd\u003eFID\u003c/td\u003e\n\u003ctd\u003e0\u003c/td\u003e\n\u003c/tr\u003e\n\u003ctr bgcolor=\"#D4E4F3\"\u003e\n\u003ctd\u003eShape_Leng\u003c/td\u003e\n\u003ctd\u003e18102566,9293\u003c/td\u003e\n\u003c/tr\u003e\n\u003c/table\u003e\n\u003c/td\u003e\n\u003c/tr\u003e\n\u003c/table\u003e\n\u003c/body\u003e\u003cscript type=\"text/javascript\"\u003e\n\t\t\t\tfunction changeImage(attElement, nameElement) {\n\t\t\t\tdocument.getElementById('imageAttachment').src = attElement;\n\t\t\t\tdocument.getElementById('imageName').innerHTML = nameElement;}\n\t\t\t\u003c/script\u003e\u003c/html\u003e\n","FID_active_grids":163,"GridID":"M58","Shape_Length":3.6082866441963123e-05,"Shape_Area":8.1373305327809946e-11}},{"type":"Feature","id":27075,"geometry":{"type":"Polygon","coordinates":[[[115.6789065800001,-7.0835869579999553],[115.67889755500005,-7.0835870489999593],[115.67889764600011,-7.0835960649999379],[115.67890667100005,-7.0835959739999339],[115.6789065800001,-7.0835869579999553]]]},"properties":{"OBJECTID":27075,"FID_mangrove_utm":26983,"OBJECTID_1":26983,"Name":"18102566,9293","FolderPath":"JATIM/JATIM","SymbolID":0,"AltMode":0,"Base":0,"Clamped":-1,"Extruded":0,"Snippet":"","PopupInfo":"\u003chtml xmlns:fo=\"http://www.w3.org/1999/XSL/Format\" xmlns:msxsl=\"urn:schemas-microsoft-com:xslt\"\u003e\n\u003chead\u003e\n\u003cMETA http-equiv=\"Content-Type\" content=\"text/html\"\u003e\n\u003cmeta http-equiv=\"content-type\" content=\"text/html; charset=UTF-8\"\u003e\n\u003c/head\u003e\n\u003cbody style=\"margin:0px 0px 0px 0px;overflow:auto;background:#FFFFFF;\"\u003e\n\u003ctable style=\"font-family:Arial,Verdana,Times;font-size:12px;text-align:left;width:100%;border-collapse:collapse;padding:3px 3px 3px 3px\"\u003e\n\u003ctr style=\"text-align:center;font-weight:bold;background:#9CBCE2\"\u003e\n\u003ctd\u003e18102566,9293\u003c/td\u003e\n\u003c/tr\u003e\n\u003ctr\u003e\n\u003ctd\u003e\n\u003ctable style=\"font-family:Arial,Verdana,Times;font-size:12px;text-align:left;width:100%;border-spacing:0px; padding:3px 3px 3px 3px\"\u003e\n\u003ctr\u003e\n\u003ctd\u003eFID\u003c/td\u003e\n\u003ctd\u003e0\u003c/td\u003e\n\u003c/tr\u003e\n\u003ctr bgcolor=\"#D4E4F3\"\u003e\n\u003ctd\u003eShape_Leng\u003c/td\u003e\n\u003ctd\u003e18102566,9293\u003c/td\u003e\n\u003c/tr\u003e\n\u003c/table\u003e\n\u003c/td\u003e\n\u003c/tr\u003e\n\u003c/table\u003e\n\u003c/body\u003e\u003cscript type=\"text/javascript\"\u003e\n\t\t\t\tfunction changeImage(attElement, nameElement) {\n\t\t\t\tdocument.getElementById('imageAttachment').src = attElement;\n\t\t\t\tdocument.getElementById('imageName').innerHTML = nameElement;}\n\t\t\t\u003c/script\u003e\u003c/html\u003e\n","FID_active_grids":163,"GridID":"M58","Shape_Length":3.6083835945459921e-05,"Shape_Area":8.1377680781535157e-11}},{"type":"Feature","id":27077,"geometry":{"type":"Polygon","coordinates":[[[115.6789065800001,-7.0835869579999553],[115.67891560500004,-7.0835868669999513],[115.6789155140001,-7.0835778509999727],[115.67890648900004,-7.0835779419999767],[115.6789065800001,-7.0835869579999553]]]},"properties":{"OBJECTID":27077,"FID_mangrove_utm":26985,"OBJECTID_1":26985,"Name":"18102566,9293","FolderPath":"JATIM/JATIM","SymbolID":0,"AltMode":0,"Base":0,"Clamped":-1,"Extruded":0,"Snippet":"","PopupInfo":"\u003chtml xmlns:fo=\"http://www.w3.org/1999/XSL/Format\" xmlns:msxsl=\"urn:schemas-microsoft-com:xslt\"\u003e\n\u003chead\u003e\n\u003cMETA http-equiv=\"Content-Type\" content=\"text/html\"\u003e\n\u003cmeta http-equiv=\"content-type\" content=\"text/html; charset=UTF-8\"\u003e\n\u003c/head\u003e\n\u003cbody style=\"margin:0px 0px 0px 0px;overflow:auto;background:#FFFFFF;\"\u003e\n\u003ctable style=\"font-family:Arial,Verdana,Times;font-size:12px;text-align:left;width:100%;border-collapse:collapse;padding:3px 3px 3px 3px\"\u003e\n\u003ctr style=\"text-align:center;font-weight:bold;background:#9CBCE2\"\u003e\n\u003ctd\u003e18102566,9293\u003c/td\u003e\n\u003c/tr\u003e\n\u003ctr\u003e\n\u003ctd\u003e\n\u003ctable style=\"font-family:Arial,Verdana,Times;font-size:12px;text-align:left;width:100%;border-spacing:0px; padding:3px 3px 3px 3px\"\u003e\n\u003ctr\u003e\n\u003ctd\u003eFID\u003c/td\u003e\n\u003ctd\u003e0\u003c/td\u003e\n\u003c/tr\u003e\n\u003ctr bgcolor=\"#D4E4F3\"\u003e\n\u003ctd\u003eShape_Leng\u003c/td\u003e\n\u003ctd\u003e18102566,9293\u003c/td\u003e\n\u003c/tr\u003e\n\u003c/table\u003e\n\u003c/td\u003e\n\u003c/tr\u003e\n\u003c/table\u003e\n\u003c/body\u003e\u003cscript type=\"text/javascript\"\u003e\n\t\t\t\tfunction changeImage(attElement, nameElement) {\n\t\t\t\tdocument.getElementById('imageAttachment').src = attElement;\n\t\t\t\tdocument.getElementById('imageName').innerHTML = nameElement;}\n\t\t\t\u003c/script\u003e\u003c/html\u003e\n","FID_active_grids":163,"GridID":"M58","Shape_Length":3.6083835945459921e-05,"Shape_Area":8.1377680781535157e-11}},{"type":"Feature","id":27093,"geometry":{"type":"Polygon","coordinates":[[[115.67786451100005,-7.0831827039999666],[115.67786442000011,-7.0831736879999312],[115.67785539500005,-7.0831737789999352],[115.67785548600011,-7.0831827949999706],[115.67786451100005,-7.0831827039999666]]]},"properties":{"OBJECTID":27093,"FID_mangrove_utm":27001,"OBJECTID_1":27001,"Name":"18102566,9293","FolderPath":"JATIM/JATIM","SymbolID":0,"AltMode":0,"Base":0,"Clamped":-1,"Extruded":0,"Snippet":"","PopupInfo":"\u003chtml xmlns:fo=\"http://www.w3.org/1999/XSL/Format\" xmlns:msxsl=\"urn:schemas-microsoft-com:xslt\"\u003e\n\u003chead\u003e\n\u003cMETA http-equiv=\"Content-Type\" content=\"text/html\"\u003e\n\u003cmeta http-equiv=\"content-type\" content=\"text/html; charset=UTF-8\"\u003e\n\u003c/head\u003e\n\u003cbody style=\"margin:0px 0px 0px 0px;overflow:auto;background:#FFFFFF;\"\u003e\n\u003ctable style=\"font-family:Arial,Verdana,Times;font-size:12px;text-align:left;width:100%;border-collapse:collapse;padding:3px 3px 3px 3px\"\u003e\n\u003ctr style=\"text-align:center;font-weight:bold;background:#9CBCE2\"\u003e\n\u003ctd\u003e18102566,9293\u003c/td\u003e\n\u003c/tr\u003e\n\u003ctr\u003e\n\u003ctd\u003e\n\u003ctable style=\"font-family:Arial,Verdana,Times;font-size:12px;text-align:left;width:100%;border-spacing:0px; padding:3px 3px 3px 3px\"\u003e\n\u003ctr\u003e\n\u003ctd\u003eFID\u003c/td\u003e\n\u003ctd\u003e0\u003c/td\u003e\n\u003c/tr\u003e\n\u003ctr bgcolor=\"#D4E4F3\"\u003e\n\u003ctd\u003eShape_Leng\u003c/td\u003e\n\u003ctd\u003e18102566,9293\u003c/td\u003e\n\u003c/tr\u003e\n\u003c/table\u003e\n\u003c/td\u003e\n\u003c/tr\u003e\n\u003c/table\u003e\n\u003c/body\u003e\u003cscript type=\"text/javascript\"\u003e\n\t\t\t\tfunction changeImage(attElement, nameElement) {\n\t\t\t\tdocument.getElementById('imageAttachment').src = attElement;\n\t\t\t\tdocument.getElementById('imageName').innerHTML = nameElement;}\n\t\t\t\u003c/script\u003e\u003c/html\u003e\n","FID_active_grids":163,"GridID":"M58","Shape_Length":3.6083836059140972e-05,"Shape_Area":8.1377681294547016e-11}},{"type":"Feature","id":27140,"geometry":{"type":"Polygon","coordinates":[[[115.6894562010001,-7.082533749999925],[115.68945611000004,-7.0825247349999358],[115.68943806000004,-7.0825249169999438],[115.6894381510001,-7.0825339329999792],[115.6894562010001,-7.082533749999925]]]},"properties":{"OBJECTID":27140,"FID_mangrove_utm":27048,"OBJECTID_1":27048,"Name":"18102566,9293","FolderPath":"JATIM/JATIM","SymbolID":0,"AltMode":0,"Base":0,"Clamped":-1,"Extruded":0,"Snippet":"","PopupInfo":"\u003chtml xmlns:fo=\"http://www.w3.org/1999/XSL/Format\" xmlns:msxsl=\"urn:schemas-microsoft-com:xslt\"\u003e\n\u003chead\u003e\n\u003cMETA http-equiv=\"Content-Type\" content=\"text/html\"\u003e\n\u003cmeta http-equiv=\"content-type\" content=\"text/html; charset=UTF-8\"\u003e\n\u003c/head\u003e\n\u003cbody style=\"margin:0px 0px 0px 0px;overflow:auto;background:#FFFFFF;\"\u003e\n\u003ctable style=\"font-family:Arial,Verdana,Times;font-size:12px;text-align:left;width:100%;border-collapse:collapse;padding:3px 3px 3px 3px\"\u003e\n\u003ctr style=\"text-align:center;font-weight:bold;background:#9CBCE2\"\u003e\n\u003ctd\u003e18102566,9293\u003c/td\u003e\n\u003c/tr\u003e\n\u003ctr\u003e\n\u003ctd\u003e\n\u003ctable style=\"font-family:Arial,Verdana,Times;font-size:12px;text-align:left;width:100%;border-spacing:0px; padding:3px 3px 3px 3px\"\u003e\n\u003ctr\u003e\n\u003ctd\u003eFID\u003c/td\u003e\n\u003ctd\u003e0\u003c/td\u003e\n\u003c/tr\u003e\n\u003ctr bgcolor=\"#D4E4F3\"\u003e\n\u003ctd\u003eShape_Leng\u003c/td\u003e\n\u003ctd\u003e18102566,9293\u003c/td\u003e\n\u003c/tr\u003e\n\u003c/table\u003e\n\u003c/td\u003e\n\u003c/tr\u003e\n\u003c/table\u003e\n\u003c/body\u003e\u003cscript type=\"text/javascript\"\u003e\n\t\t\t\tfunction changeImage(attElement, nameElement) {\n\t\t\t\tdocument.getElementById('imageAttachment').src = attElement;\n\t\t\t\tdocument.getElementById('imageName').innerHTML = nameElement;}\n\t\t\t\u003c/script\u003e\u003c/html\u003e\n","FID_active_grids":163,"GridID":"M58","Shape_Length":5.4133763709021775e-05,"Shape_Area":1.6274638268400917e-10}},{"type":"Feature","id":27146,"geometry":{"type":"Polygon","coordinates":[[[115.66415773800009,-7.0826624459999721],[115.66415764700002,-7.0826534299999366],[115.66414862200008,-7.0826535209999406],[115.66414871300003,-7.0826625359999298],[115.66415773800009,-7.0826624459999721]]]},"properties":{"OBJECTID":27146,"FID_mangrove_utm":27054,"OBJECTID_1":27054,"Name":"18102566,9293","FolderPath":"JATIM/JATIM","SymbolID":0,"AltMode":0,"Base":0,"Clamped":-1,"Extruded":0,"Snippet":"","PopupInfo":"\u003chtml xmlns:fo=\"http://www.w3.org/1999/XSL/Format\" xmlns:msxsl=\"urn:schemas-microsoft-com:xslt\"\u003e\n\u003chead\u003e\n\u003cMETA http-equiv=\"Content-Type\" content=\"text/html\"\u003e\n\u003cmeta http-equiv=\"content-type\" content=\"text/html; charset=UTF-8\"\u003e\n\u003c/head\u003e\n\u003cbody style=\"margin:0px 0px 0px 0px;overflow:auto;background:#FFFFFF;\"\u003e\n\u003ctable style=\"font-family:Arial,Verdana,Times;font-size:12px;text-align:left;width:100%;border-collapse:collapse;padding:3px 3px 3px 3px\"\u003e\n\u003ctr style=\"text-align:center;font-weight:bold;background:#9CBCE2\"\u003e\n\u003ctd\u003e18102566,9293\u003c/td\u003e\n\u003c/tr\u003e\n\u003ctr\u003e\n\u003ctd\u003e\n\u003ctable style=\"font-family:Arial,Verdana,Times;font-size:12px;text-align:left;width:100%;border-spacing:0px; padding:3px 3px 3px 3px\"\u003e\n\u003ctr\u003e\n\u003ctd\u003eFID\u003c/td\u003e\n\u003ctd\u003e0\u003c/td\u003e\n\u003c/tr\u003e\n\u003ctr bgcolor=\"#D4E4F3\"\u003e\n\u003ctd\u003eShape_Leng\u003c/td\u003e\n\u003ctd\u003e18102566,9293\u003c/td\u003e\n\u003c/tr\u003e\n\u003c/table\u003e\n\u003c/td\u003e\n\u003c/tr\u003e\n\u003c/table\u003e\n\u003c/body\u003e\u003cscript type=\"text/javascript\"\u003e\n\t\t\t\tfunction changeImage(attElement, nameElement) {\n\t\t\t\tdocument.getElementById('imageAttachment').src = attElement;\n\t\t\t\tdocument.getElementById('imageName').innerHTML = nameElement;}\n\t\t\t\u003c/script\u003e\u003c/html\u003e\n","FID_active_grids":163,"GridID":"M58","Shape_Length":3.6082826036154582e-05,"Shape_Area":8.1373123083656846e-11}},{"type":"Feature","id":27507,"geometry":{"type":"Polygon","coordinates":[[[115.67527974600011,-7.0765905999999745],[115.67527965500005,-7.0765815849999285],[115.67527063000011,-7.0765816749999431],[115.67527072100006,-7.0765906909999785],[115.67527974600011,-7.0765905999999745]]]},"properties":{"OBJECTID":27507,"FID_mangrove_utm":27415,"OBJECTID_1":27415,"Name":"18102566,9293","FolderPath":"JATIM/JATIM","SymbolID":0,"AltMode":0,"Base":0,"Clamped":-1,"Extruded":0,"Snippet":"","PopupInfo":"\u003chtml xmlns:fo=\"http://www.w3.org/1999/XSL/Format\" xmlns:msxsl=\"urn:schemas-microsoft-com:xslt\"\u003e\n\u003chead\u003e\n\u003cMETA http-equiv=\"Content-Type\" content=\"text/html\"\u003e\n\u003cmeta http-equiv=\"content-type\" content=\"text/html; charset=UTF-8\"\u003e\n\u003c/head\u003e\n\u003cbody style=\"margin:0px 0px 0px 0px;overflow:auto;background:#FFFFFF;\"\u003e\n\u003ctable style=\"font-family:Arial,Verdana,Times;font-size:12px;text-align:left;width:100%;border-collapse:collapse;padding:3px 3px 3px 3px\"\u003e\n\u003ctr style=\"text-align:center;font-weight:bold;background:#9CBCE2\"\u003e\n\u003ctd\u003e18102566,9293\u003c/td\u003e\n\u003c/tr\u003e\n\u003ctr\u003e\n\u003ctd\u003e\n\u003ctable style=\"font-family:Arial,Verdana,Times;font-size:12px;text-align:left;width:100%;border-spacing:0px; padding:3px 3px 3px 3px\"\u003e\n\u003ctr\u003e\n\u003ctd\u003eFID\u003c/td\u003e\n\u003ctd\u003e0\u003c/td\u003e\n\u003c/tr\u003e\n\u003ctr bgcolor=\"#D4E4F3\"\u003e\n\u003ctd\u003eShape_Leng\u003c/td\u003e\n\u003ctd\u003e18102566,9293\u003c/td\u003e\n\u003c/tr\u003e\n\u003c/table\u003e\n\u003c/td\u003e\n\u003c/tr\u003e\n\u003c/table\u003e\n\u003c/body\u003e\u003cscript type=\"text/javascript\"\u003e\n\t\t\t\tfunction changeImage(attElement, nameElement) {\n\t\t\t\tdocument.getElementById('imageAttachment').src = attElement;\n\t\t\t\tdocument.getElementById('imageName').innerHTML = nameElement;}\n\t\t\t\u003c/script\u003e\u003c/html\u003e\n","FID_active_grids":163,"GridID":"M58","Shape_Length":3.6082826093561935e-05,"Shape_Area":8.1373123342749149e-11}},{"type":"Feature","id":27631,"geometry":{"type":"Polygon","coordinates":[[[115.67796814000008,-7.0737774289999606],[115.67796804900001,-7.0737684129999252],[115.67794999900002,-7.0737685949999332],[115.67795009000008,-7.0737776099999792],[115.67796814000008,-7.0737774289999606]]]},"properties":{"OBJECTID":27631,"FID_mangrove_utm":27539,"OBJECTID_1":27539,"Name":"18102566,9293","FolderPath":"JATIM/JATIM","SymbolID":0,"AltMode":0,"Base":0,"Clamped":-1,"Extruded":0,"Snippet":"","PopupInfo":"\u003chtml xmlns:fo=\"http://www.w3.org/1999/XSL/Format\" xmlns:msxsl=\"urn:schemas-microsoft-com:xslt\"\u003e\n\u003chead\u003e\n\u003cMETA http-equiv=\"Content-Type\" content=\"text/html\"\u003e\n\u003cmeta http-equiv=\"content-type\" content=\"text/html; charset=UTF-8\"\u003e\n\u003c/head\u003e\n\u003cbody style=\"margin:0px 0px 0px 0px;overflow:auto;background:#FFFFFF;\"\u003e\n\u003ctable style=\"font-family:Arial,Verdana,Times;font-size:12px;text-align:left;width:100%;border-collapse:collapse;padding:3px 3px 3px 3px\"\u003e\n\u003ctr style=\"text-align:center;font-weight:bold;background:#9CBCE2\"\u003e\n\u003ctd\u003e18102566,9293\u003c/td\u003e\n\u003c/tr\u003e\n\u003ctr\u003e\n\u003ctd\u003e\n\u003ctable style=\"font-family:Arial,Verdana,Times;font-size:12px;text-align:left;width:100%;border-spacing:0px; padding:3px 3px 3px 3px\"\u003e\n\u003ctr\u003e\n\u003ctd\u003eFID\u003c/td\u003e\n\u003ctd\u003e0\u003c/td\u003e\n\u003c/tr\u003e\n\u003ctr bgcolor=\"#D4E4F3\"\u003e\n\u003ctd\u003eShape_Leng\u003c/td\u003e\n\u003ctd\u003e18102566,9293\u003c/td\u003e\n\u003c/tr\u003e\n\u003c/table\u003e\n\u003c/td\u003e\n\u003c/tr\u003e\n\u003c/table\u003e\n\u003c/body\u003e\u003cscript type=\"text/javascript\"\u003e\n\t\t\t\tfunction changeImage(attElement, nameElement) {\n\t\t\t\tdocument.getElementById('imageAttachment').src = attElement;\n\t\t\t\tdocument.getElementById('imageName').innerHTML = nameElement;}\n\t\t\t\u003c/script\u003e\u003c/html\u003e\n","FID_active_grids":163,"GridID":"M58","Shape_Length":5.4133743600318498e-05,"Shape_Area":1.6274629219533618e-10}},{"type":"Feature","id":27636,"geometry":{"type":"Polygon","coordinates":[[[115.69521760200007,-7.0730264159999479],[115.69519052800001,-7.0730266889999598],[115.69519061900007,-7.073035703999949],[115.69518159500001,-7.0730357959999424],[115.69518168600007,-7.0730448109999315],[115.69515461200001,-7.0730450849999329],[115.69515470300007,-7.0730540999999789],[115.69514567900001,-7.073054190999926],[115.69514613500007,-7.0730992679999645],[115.69515516000001,-7.0730991769999605],[115.69515525100007,-7.0731081919999497],[115.69516427600001,-7.0731081009999457],[115.69516436700007,-7.0731171159999349],[115.69520046500008,-7.0731167519999758],[115.69520055700002,-7.073125766999965],[115.69525470400004,-7.0731252199999517],[115.69525452200003,-7.0731071889999271],[115.69527257100003,-7.073107006999976],[115.69527220600003,-7.0730709449999267],[115.69526318100009,-7.073071036999977],[115.69526309000003,-7.0730620209999415],[115.69525406500009,-7.0730621119999455],[115.69525397400002,-7.0730530969999563],[115.69524495000007,-7.0730531879999603],[115.69524485800002,-7.0730441729999711],[115.69523583400007,-7.0730442639999751],[115.69523574200002,-7.0730352489999291],[115.69521769300002,-7.073035430999937],[115.69521760200007,-7.0730264159999479]]]},"properties":{"OBJECTID":27636,"FID_mangrove_utm":27544,"OBJECTID_1":27544,"Name":"18102566,9293","FolderPath":"JATIM/JATIM","SymbolID":0,"AltMode":0,"Base":0,"Clamped":-1,"Extruded":0,"Snippet":"","PopupInfo":"\u003chtml xmlns:fo=\"http://www.w3.org/1999/XSL/Format\" xmlns:msxsl=\"urn:schemas-microsoft-com:xslt\"\u003e\n\u003chead\u003e\n\u003cMETA http-equiv=\"Content-Type\" content=\"text/html\"\u003e\n\u003cmeta http-equiv=\"content-type\" content=\"text/html; charset=UTF-8\"\u003e\n\u003c/head\u003e\n\u003cbody style=\"margin:0px 0px 0px 0px;overflow:auto;background:#FFFFFF;\"\u003e\n\u003ctable style=\"font-family:Arial,Verdana,Times;font-size:12px;text-align:left;width:100%;border-collapse:collapse;padding:3px 3px 3px 3px\"\u003e\n\u003ctr style=\"text-align:center;font-weight:bold;background:#9CBCE2\"\u003e\n\u003ctd\u003e18102566,9293\u003c/td\u003e\n\u003c/tr\u003e\n\u003ctr\u003e\n\u003ctd\u003e\n\u003ctable style=\"font-family:Arial,Verdana,Times;font-size:12px;text-align:left;width:100%;border-spacing:0px; padding:3px 3px 3px 3px\"\u003e\n\u003ctr\u003e\n\u003ctd\u003eFID\u003c/td\u003e\n\u003ctd\u003e0\u003c/td\u003e\n\u003c/tr\u003e\n\u003ctr bgcolor=\"#D4E4F3\"\u003e\n\u003ctd\u003eShape_Leng\u003c/td\u003e\n\u003ctd\u003e18102566,9293\u003c/td\u003e\n\u003c/tr\u003e\n\u003c/table\u003e\n\u003c/td\u003e\n\u003c/tr\u003e\n\u003c/table\u003e\n\u003c/body\u003e\u003cscript type=\"text/javascript\"\u003e\n\t\t\t\tfunction changeImage(attElement, nameElement) {\n\t\t\t\tdocument.getElementById('imageAttachment').src = attElement;\n\t\t\t\tdocument.getElementById('imageName').innerHTML = nameElement;}\n\t\t\t\u003c/script\u003e\u003c/html\u003e\n","FID_active_grids":163,"GridID":"M58","Shape_Length":0.00045104604125608913,"Shape_Area":9.3573690704821037e-09}},{"type":"Feature","id":27642,"geometry":{"type":"Polygon","coordinates":[[[115.68005298700007,-7.0728728189999401],[115.68005289600001,-7.072863803999951],[115.68004387100007,-7.0728638949999549],[115.68004396200001,-7.0728729099999441],[115.68005298700007,-7.0728728189999401]]]},"properties":{"OBJECTID":27642,"FID_mangrove_utm":27550,"OBJECTID_1":27550,"Name":"18102566,9293","FolderPath":"JATIM/JATIM","SymbolID":0,"AltMode":0,"Base":0,"Clamped":-1,"Extruded":0,"Snippet":"","PopupInfo":"\u003chtml xmlns:fo=\"http://www.w3.org/1999/XSL/Format\" xmlns:msxsl=\"urn:schemas-microsoft-com:xslt\"\u003e\n\u003chead\u003e\n\u003cMETA http-equiv=\"Content-Type\" content=\"text/html\"\u003e\n\u003cmeta http-equiv=\"content-type\" content=\"text/html; charset=UTF-8\"\u003e\n\u003c/head\u003e\n\u003cbody style=\"margin:0px 0px 0px 0px;overflow:auto;background:#FFFFFF;\"\u003e\n\u003ctable style=\"font-family:Arial,Verdana,Times;font-size:12px;text-align:left;width:100%;border-collapse:collapse;padding:3px 3px 3px 3px\"\u003e\n\u003ctr style=\"text-align:center;font-weight:bold;background:#9CBCE2\"\u003e\n\u003ctd\u003e18102566,9293\u003c/td\u003e\n\u003c/tr\u003e\n\u003ctr\u003e\n\u003ctd\u003e\n\u003ctable style=\"font-family:Arial,Verdana,Times;font-size:12px;text-align:left;width:100%;border-spacing:0px; padding:3px 3px 3px 3px\"\u003e\n\u003ctr\u003e\n\u003ctd\u003eFID\u003c/td\u003e\n\u003ctd\u003e0\u003c/td\u003e\n\u003c/tr\u003e\n\u003ctr bgcolor=\"#D4E4F3\"\u003e\n\u003ctd\u003eShape_Leng\u003c/td\u003e\n\u003ctd\u003e18102566,9293\u003c/td\u003e\n\u003c/tr\u003e\n\u003c/table\u003e\n\u003c/td\u003e\n\u003c/tr\u003e\n\u003c/table\u003e\n\u003c/body\u003e\u003cscript type=\"text/javascript\"\u003e\n\t\t\t\tfunction changeImage(attElement, nameElement) {\n\t\t\t\tdocument.getElementById('imageAttachment').src = attElement;\n\t\t\t\tdocument.getElementById('imageName').innerHTML = nameElement;}\n\t\t\t\u003c/script\u003e\u003c/html\u003e\n","FID_active_grids":163,"GridID":"M58","Shape_Length":3.6081836068485205e-05,"Shape_Area":8.1368655876981039e-11}},{"type":"Feature","id":27668,"geometry":{"type":"Polygon","coordinates":[[[115.69264448100012,-7.0720515919999798],[115.69262643200011,-7.0720517739999309],[115.69262652300006,-7.0720607899999663],[115.69258140000011,-7.0720612449999294],[115.69258176500011,-7.0720973069999786],[115.69257274000006,-7.0720973979999258],[115.69257283200011,-7.0721064129999718],[115.69256380700006,-7.0721065039999758],[115.69256408100011,-7.072133550999979],[115.69255505600006,-7.0721336419999261],[115.69255514700001,-7.0721426569999721],[115.69254612300006,-7.0721427479999761],[115.69254630500006,-7.0721607789999439],[115.69253728000001,-7.0721608699999479],[115.69253737200006,-7.0721698859999265],[115.69252834700001,-7.0721699769999304],[115.69252852900001,-7.0721880079999551],[115.69251048000001,-7.072188189999963],[115.69251057100007,-7.0721972049999522],[115.69251959600001,-7.0721971139999482],[115.69251977800002,-7.0722151449999728],[115.69252880300007,-7.0722150539999689],[115.69252907700002,-7.0722420999999258],[115.69253810100008,-7.0722420089999787],[115.69253819200003,-7.0722510239999679],[115.69254721700008,-7.0722509329999639],[115.69254730800003,-7.0722599489999425],[115.69255633300008,-7.0722598579999385],[115.69255651500009,-7.0722778889999631],[115.69256554000003,-7.0722777969999697],[115.69256563100009,-7.0722868129999483],[115.69257465600003,-7.0722867219999443],[115.69257474700009,-7.0722957369999335],[115.69258377200003,-7.0722956459999295],[115.6925838630001,-7.0723046609999756],[115.69259288800004,-7.0723045699999716],[115.6925927960001,-7.0722955549999256],[115.69260182100004,-7.0722954639999784],[115.69260200300005,-7.0723134949999462],[115.6926110280001,-7.0723134029999528],[115.69261111900005,-7.0723224189999314],[115.6926201440001,-7.0723223279999274],[115.69262023500005,-7.0723313429999735],[115.69268340800011,-7.0723307049999562],[115.69268349900005,-7.0723397209999348],[115.69271057300011,-7.0723394469999334],[115.69271048100006,-7.0723304319999443],[115.69274658000006,-7.0723300679999284],[115.69274648900011,-7.0723210519999498],[115.69276453800001,-7.0723208699999418],[115.69276444700006,-7.0723118539999632],[115.69277347100001,-7.0723117629999592],[115.69277356300006,-7.0723207789999378],[115.69278258700001,-7.0723206879999339],[115.69278249600006,-7.0723116719999553],[115.69279152100012,-7.0723115809999513],[115.69279142900007,-7.0723025659999621],[115.69280045400001,-7.0723024749999581],[115.69280036300006,-7.0722934589999795],[115.69281841200007,-7.0722932769999716],[115.69281832100012,-7.0722842609999361],[115.69282734600006,-7.0722841699999321],[115.69282716300006,-7.0722661399999538],[115.69283618800011,-7.0722660479999604],[115.69283609700005,-7.0722570329999712],[115.69285414600006,-7.0722568509999633],[115.69285369000011,-7.0722117739999248],[115.69286271400006,-7.0722116829999777],[115.69286262300011,-7.0722026669999423],[115.69285359900005,-7.0722027579999462],[115.6928533250001,-7.0721757119999324],[115.69284430000005,-7.0721758029999364],[115.6928442090001,-7.0721667879999472],[115.6928261600001,-7.0721669699999552],[115.69282606900003,-7.072157954999966],[115.69280801900004,-7.072158136999974],[115.69280792800009,-7.0721491209999385],[115.69278987900009,-7.0721493039999359],[115.69278978800003,-7.0721402879999573],[115.69275368900003,-7.0721406529999626],[115.69275350700002,-7.072122621999938],[115.69273545700003,-7.072122803999946],[115.69273536600008,-7.0721137889999568],[115.69271731700007,-7.0721139709999647],[115.69271722600001,-7.0721049559999756],[115.69269917600002,-7.0721051379999267],[115.69269899400001,-7.0720871069999589],[115.69268094500001,-7.0720872889999669],[115.69268085400006,-7.0720782739999777],[115.69266280400007,-7.0720784559999288],[115.69266271300012,-7.0720694409999396],[115.69265368800006,-7.0720695319999436],[115.69265359700012,-7.072060515999965],[115.69264457300005,-7.072060606999969],[115.69264448100012,-7.0720515919999798]],[[115.69256417200006,-7.0721425659999682],[115.69257319600001,-7.0721424749999642],[115.69257328800006,-7.0721514899999534],[115.69256426300001,-7.0721515819999468],[115.69256417200006,-7.0721425659999682]]]},"properties":{"OBJECTID":27668,"FID_mangrove_utm":27576,"OBJECTID_1":27576,"Name":"18102566,9293","FolderPath":"JATIM/JATIM","SymbolID":0,"AltMode":0,"Base":0,"Clamped":-1,"Extruded":0,"Snippet":"","PopupInfo":"\u003chtml xmlns:fo=\"http://www.w3.org/1999/XSL/Format\" xmlns:msxsl=\"urn:schemas-microsoft-com:xslt\"\u003e\n\u003chead\u003e\n\u003cMETA http-equiv=\"Content-Type\" content=\"text/html\"\u003e\n\u003cmeta http-equiv=\"content-type\" content=\"text/html; charset=UTF-8\"\u003e\n\u003c/head\u003e\n\u003cbody style=\"margin:0px 0px 0px 0px;overflow:auto;background:#FFFFFF;\"\u003e\n\u003ctable style=\"font-family:Arial,Verdana,Times;font-size:12px;text-align:left;width:100%;border-collapse:collapse;padding:3px 3px 3px 3px\"\u003e\n\u003ctr style=\"text-align:center;font-weight:bold;background:#9CBCE2\"\u003e\n\u003ctd\u003e18102566,9293\u003c/td\u003e\n\u003c/tr\u003e\n\u003ctr\u003e\n\u003ctd\u003e\n\u003ctable style=\"font-family:Arial,Verdana,Times;font-size:12px;text-align:left;width:100%;border-spacing:0px; padding:3px 3px 3px 3px\"\u003e\n\u003ctr\u003e\n\u003ctd\u003eFID\u003c/td\u003e\n\u003ctd\u003e0\u003c/td\u003e\n\u003c/tr\u003e\n\u003ctr bgcolor=\"#D4E4F3\"\u003e\n\u003ctd\u003eShape_Leng\u003c/td\u003e\n\u003ctd\u003e18102566,9293\u003c/td\u003e\n\u003c/tr\u003e\n\u003c/table\u003e\n\u003c/td\u003e\n\u003c/tr\u003e\n\u003c/table\u003e\n\u003c/body\u003e\u003cscript type=\"text/javascript\"\u003e\n\t\t\t\tfunction changeImage(attElement, nameElement) {\n\t\t\t\tdocument.getElementById('imageAttachment').src = attElement;\n\t\t\t\tdocument.getElementById('imageName').innerHTML = nameElement;}\n\t\t\t\u003c/script\u003e\u003c/html\u003e\n","FID_active_grids":163,"GridID":"M58","Shape_Length":0.0013531270736745643,"Shape_Area":6.3467902709112384e-08}},{"type":"Feature","id":27887,"geometry":{"type":"Polygon","coordinates":[[[115.66437578000011,-7.0666524699999513],[115.66437581200012,-7.0666556269999319],[115.66438483700006,-7.0666555369999742],[115.66438492700001,-7.0666645529999528],[115.66442102700012,-7.0666641909999726],[115.66442111800006,-7.0666732059999617],[115.66445721700006,-7.0666728439999815],[115.66445730800001,-7.0666818599999601],[115.66446633300006,-7.0666817699999456],[115.66446624200012,-7.066672753999967],[115.66449331700005,-7.0666724819999445],[115.66449340700001,-7.0666814979999799],[115.66451145700012,-7.0666813169999614],[115.66451136600006,-7.0666723009999259],[115.66452941600005,-7.0666721199999643],[115.66452932600009,-7.0666631049999751],[115.66453835100003,-7.0666630139999711],[115.6645384410001,-7.0666720299999497],[115.66456551600004,-7.0666717579999272],[115.66456560600011,-7.0666807739999626],[115.66457463100005,-7.0666806839999481],[115.66457472200011,-7.0666896999999267],[115.66460179700005,-7.066689427999961],[115.66460188700012,-7.0666984439999396],[115.66461091200006,-7.0666983529999357],[115.66461100300012,-7.0667073689999711],[115.66465612700006,-7.0667069169999763],[115.66465621800012,-7.0667159319999655],[115.66469231700012,-7.0667155699999284],[115.66469240800006,-7.0667245859999639],[115.66471045800006,-7.0667244049999454],[115.66471054800002,-7.0667334209999808],[115.66473762300006,-7.0667331489999583],[115.66473780400008,-7.0667511809999723],[115.66474682900002,-7.0667510899999684],[115.66474692000008,-7.066760105999947],[115.66478301900008,-7.0667597439999668],[115.66478311000003,-7.0667687599999454],[115.66481018400009,-7.0667684879999797],[115.66481027500004,-7.0667775039999583],[115.66482832500003,-7.0667773229999398],[115.66482814400001,-7.066759291999972],[115.66485521800007,-7.0667590199999495],[115.66485512800011,-7.0667500039999709],[115.66486415300005,-7.0667499139999563],[115.66486406200011,-7.0667408979999777],[115.66487308700005,-7.0667408069999738],[115.6648729960001,-7.0667317919999277],[115.66488202100004,-7.0667317009999806],[115.66488184000002,-7.066713669999956],[115.66490891500007,-7.0667133979999335],[115.66490882400001,-7.0667043819999549],[115.66491784900006,-7.0667042919999403],[115.66491775800012,-7.0666952759999617],[115.66492678300006,-7.0666951859999472],[115.66492649200006,-7.0666661999999292],[115.66468948600004,-7.0666636449999487],[115.66437578000011,-7.0666524699999513]]]},"properties":{"OBJECTID":27887,"FID_mangrove_utm":27795,"OBJECTID_1":27795,"Name":"18102566,9293","FolderPath":"JATIM/JATIM","SymbolID":0,"AltMode":0,"Base":0,"Clamped":-1,"Extruded":0,"Snippet":"","PopupInfo":"\u003chtml xmlns:fo=\"http://www.w3.org/1999/XSL/Format\" xmlns:msxsl=\"urn:schemas-microsoft-com:xslt\"\u003e\n\u003chead\u003e\n\u003cMETA http-equiv=\"Content-Type\" content=\"text/html\"\u003e\n\u003cmeta http-equiv=\"content-type\" content=\"text/html; charset=UTF-8\"\u003e\n\u003c/head\u003e\n\u003cbody style=\"margin:0px 0px 0px 0px;overflow:auto;background:#FFFFFF;\"\u003e\n\u003ctable style=\"font-family:Arial,Verdana,Times;font-size:12px;text-align:left;width:100%;border-collapse:collapse;padding:3px 3px 3px 3px\"\u003e\n\u003ctr style=\"text-align:center;font-weight:bold;background:#9CBCE2\"\u003e\n\u003ctd\u003e18102566,9293\u003c/td\u003e\n\u003c/tr\u003e\n\u003ctr\u003e\n\u003ctd\u003e\n\u003ctable style=\"font-family:Arial,Verdana,Times;font-size:12px;text-align:left;width:100%;border-spacing:0px; padding:3px 3px 3px 3px\"\u003e\n\u003ctr\u003e\n\u003ctd\u003eFID\u003c/td\u003e\n\u003ctd\u003e0\u003c/td\u003e\n\u003c/tr\u003e\n\u003ctr bgcolor=\"#D4E4F3\"\u003e\n\u003ctd\u003eShape_Leng\u003c/td\u003e\n\u003ctd\u003e18102566,9293\u003c/td\u003e\n\u003c/tr\u003e\n\u003c/table\u003e\n\u003c/td\u003e\n\u003c/tr\u003e\n\u003c/table\u003e\n\u003c/body\u003e\u003cscript type=\"text/javascript\"\u003e\n\t\t\t\tfunction changeImage(attElement, nameElement) {\n\t\t\t\tdocument.getElementById('imageAttachment').src = attElement;\n\t\t\t\tdocument.getElementById('imageName').innerHTML = nameElement;}\n\t\t\t\u003c/script\u003e\u003c/html\u003e\n","FID_active_grids":163,"GridID":"M58","Shape_Length":0.0013950872829218684,"Shape_Area":2.6681863472046313e-08}},{"type":"Feature","id":27888,"geometry":{"type":"Polygon","coordinates":[[[115.66403277500001,-7.0666500499999643],[115.66403267700002,-7.0666402479999419],[115.6640055900001,-7.0666392829999722],[115.66400570100006,-7.0666503219999299],[115.66403277500001,-7.0666500499999643]]]},"properties":{"OBJECTID":27888,"FID_mangrove_utm":27796,"OBJECTID_1":27796,"Name":"18102566,9293","FolderPath":"JATIM/JATIM","SymbolID":0,"AltMode":0,"Base":0,"Clamped":-1,"Extruded":0,"Snippet":"","PopupInfo":"\u003chtml xmlns:fo=\"http://www.w3.org/1999/XSL/Format\" xmlns:msxsl=\"urn:schemas-microsoft-com:xslt\"\u003e\n\u003chead\u003e\n\u003cMETA http-equiv=\"Content-Type\" content=\"text/html\"\u003e\n\u003cmeta http-equiv=\"content-type\" content=\"text/html; charset=UTF-8\"\u003e\n\u003c/head\u003e\n\u003cbody style=\"margin:0px 0px 0px 0px;overflow:auto;background:#FFFFFF;\"\u003e\n\u003ctable style=\"font-family:Arial,Verdana,Times;font-size:12px;text-align:left;width:100%;border-collapse:collapse;padding:3px 3px 3px 3px\"\u003e\n\u003ctr style=\"text-align:center;font-weight:bold;background:#9CBCE2\"\u003e\n\u003ctd\u003e18102566,9293\u003c/td\u003e\n\u003c/tr\u003e\n\u003ctr\u003e\n\u003ctd\u003e\n\u003ctable style=\"font-family:Arial,Verdana,Times;font-size:12px;text-align:left;width:100%;border-spacing:0px; padding:3px 3px 3px 3px\"\u003e\n\u003ctr\u003e\n\u003ctd\u003eFID\u003c/td\u003e\n\u003ctd\u003e0\u003c/td\u003e\n\u003c/tr\u003e\n\u003ctr bgcolor=\"#D4E4F3\"\u003e\n\u003ctd\u003eShape_Leng\u003c/td\u003e\n\u003ctd\u003e18102566,9293\u003c/td\u003e\n\u003c/tr\u003e\n\u003c/table\u003e\n\u003c/td\u003e\n\u003c/tr\u003e\n\u003c/table\u003e\n\u003c/body\u003e\u003cscript type=\"text/javascript\"\u003e\n\t\t\t\tfunction changeImage(attElement, nameElement) {\n\t\t\t\tdocument.getElementById('imageAttachment').src = attElement;\n\t\t\t\tdocument.getElementById('imageName').innerHTML = nameElement;}\n\t\t\t\u003c/script\u003e\u003c/html\u003e\n","FID_active_grids":163,"GridID":"M58","Shape_Length":7.5021598147980486e-05,"Shape_Area":2.8215614004133882e-10}},{"type":"Feature","id":27889,"geometry":{"type":"Polygon","coordinates":[[[115.66396960100008,-7.066650683999967],[115.66396947400006,-7.0666379959999404],[115.66394238700002,-7.0666370309999706],[115.66394252600003,-7.0666509549999432],[115.66396960100008,-7.066650683999967]]]},"properties":{"OBJECTID":27889,"FID_mangrove_utm":27797,"OBJECTID_1":27797,"Name":"18102566,9293","FolderPath":"JATIM/JATIM","SymbolID":0,"AltMode":0,"Base":0,"Clamped":-1,"Extruded":0,"Snippet":"","PopupInfo":"\u003chtml xmlns:fo=\"http://www.w3.org/1999/XSL/Format\" xmlns:msxsl=\"urn:schemas-microsoft-com:xslt\"\u003e\n\u003chead\u003e\n\u003cMETA http-equiv=\"Content-Type\" content=\"text/html\"\u003e\n\u003cmeta http-equiv=\"content-type\" content=\"text/html; charset=UTF-8\"\u003e\n\u003c/head\u003e\n\u003cbody style=\"margin:0px 0px 0px 0px;overflow:auto;background:#FFFFFF;\"\u003e\n\u003ctable style=\"font-family:Arial,Verdana,Times;font-size:12px;text-align:left;width:100%;border-collapse:collapse;padding:3px 3px 3px 3px\"\u003e\n\u003ctr style=\"text-align:center;font-weight:bold;background:#9CBCE2\"\u003e\n\u003ctd\u003e18102566,9293\u003c/td\u003e\n\u003c/tr\u003e\n\u003ctr\u003e\n\u003ctd\u003e\n\u003ctable style=\"font-family:Arial,Verdana,Times;font-size:12px;text-align:left;width:100%;border-spacing:0px; padding:3px 3px 3px 3px\"\u003e\n\u003ctr\u003e\n\u003ctd\u003eFID\u003c/td\u003e\n\u003ctd\u003e0\u003c/td\u003e\n\u003c/tr\u003e\n\u003ctr bgcolor=\"#D4E4F3\"\u003e\n\u003ctd\u003eShape_Leng\u003c/td\u003e\n\u003ctd\u003e18102566,9293\u003c/td\u003e\n\u003c/tr\u003e\n\u003c/table\u003e\n\u003c/td\u003e\n\u003c/tr\u003e\n\u003c/table\u003e\n\u003c/body\u003e\u003cscript type=\"text/javascript\"\u003e\n\t\t\t\tfunction changeImage(attElement, nameElement) {\n\t\t\t\tdocument.getElementById('imageAttachment').src = attElement;\n\t\t\t\tdocument.getElementById('imageName').innerHTML = nameElement;}\n\t\t\t\u003c/script\u003e\u003c/html\u003e\n","FID_active_grids":163,"GridID":"M58","Shape_Length":8.079386973604532e-05,"Shape_Area":3.602936355376351e-10}},{"type":"Feature","id":27892,"geometry":{"type":"Polygon","coordinates":[[[115.66322909200005,-7.0666116199999465],[115.66322910600002,-7.066613024999981],[115.66324715600001,-7.0666128439999625],[115.66324724700007,-7.0666218589999517],[115.66323822200002,-7.0666219499999556],[115.66323849300011,-7.0666489969999589],[115.66324751800005,-7.0666489069999443],[115.66324770000006,-7.0666669379999689],[115.66325672400001,-7.0666668479999544],[115.66325699600009,-7.0666938949999576],[115.66326602100003,-7.066693804999943],[115.66326611200009,-7.0667028209999785],[115.66327513700003,-7.0667027299999745],[115.6632752270001,-7.0667117459999531],[115.66328425200004,-7.0667116559999386],[115.6632843430001,-7.0667206709999277],[115.66329336700005,-7.06672058099997],[115.66329354900006,-7.0667386119999378],[115.66333867300011,-7.066738159999943],[115.66333849200009,-7.066720127999929],[115.66334751700003,-7.0667200379999713],[115.66334733600002,-7.0667020059999572],[115.66335636100007,-7.0667019159999427],[115.66335627000001,-7.0666928999999641],[115.66336529500006,-7.0666928099999495],[115.6633650230001,-7.0666657619999569],[115.66337404800004,-7.0666656719999423],[115.66337395800008,-7.0666566559999637],[115.66336493300003,-7.0666567459999783],[115.66336484200008,-7.0666477309999323],[115.66337386700002,-7.0666476399999283],[115.66337359500005,-7.0666205929999251],[115.66336457000011,-7.0666206829999396],[115.6633645280001,-7.0666164449999656],[115.66322909200005,-7.0666116199999465]]]},"properties":{"OBJECTID":27892,"FID_mangrove_utm":27800,"OBJECTID_1":27800,"Name":"18102566,9293","FolderPath":"JATIM/JATIM","SymbolID":0,"AltMode":0,"Base":0,"Clamped":-1,"Extruded":0,"Snippet":"","PopupInfo":"\u003chtml xmlns:fo=\"http://www.w3.org/1999/XSL/Format\" xmlns:msxsl=\"urn:schemas-microsoft-com:xslt\"\u003e\n\u003chead\u003e\n\u003cMETA http-equiv=\"Content-Type\" content=\"text/html\"\u003e\n\u003cmeta http-equiv=\"content-type\" content=\"text/html; charset=UTF-8\"\u003e\n\u003c/head\u003e\n\u003cbody style=\"margin:0px 0px 0px 0px;overflow:auto;background:#FFFFFF;\"\u003e\n\u003ctable style=\"font-family:Arial,Verdana,Times;font-size:12px;text-align:left;width:100%;border-collapse:collapse;padding:3px 3px 3px 3px\"\u003e\n\u003ctr style=\"text-align:center;font-weight:bold;background:#9CBCE2\"\u003e\n\u003ctd\u003e18102566,9293\u003c/td\u003e\n\u003c/tr\u003e\n\u003ctr\u003e\n\u003ctd\u003e\n\u003ctable style=\"font-family:Arial,Verdana,Times;font-size:12px;text-align:left;width:100%;border-spacing:0px; padding:3px 3px 3px 3px\"\u003e\n\u003ctr\u003e\n\u003ctd\u003eFID\u003c/td\u003e\n\u003ctd\u003e0\u003c/td\u003e\n\u003c/tr\u003e\n\u003ctr bgcolor=\"#D4E4F3\"\u003e\n\u003ctd\u003eShape_Leng\u003c/td\u003e\n\u003ctd\u003e18102566,9293\u003c/td\u003e\n\u003c/tr\u003e\n\u003c/table\u003e\n\u003c/td\u003e\n\u003c/tr\u003e\n\u003c/table\u003e\n\u003c/body\u003e\u003cscript type=\"text/javascript\"\u003e\n\t\t\t\tfunction changeImage(attElement, nameElement) {\n\t\t\t\tdocument.getElementById('imageAttachment').src = attElement;\n\t\t\t\tdocument.getElementById('imageName').innerHTML = nameElement;}\n\t\t\t\u003c/script\u003e\u003c/html\u003e\n","FID_active_grids":163,"GridID":"M58","Shape_Length":0.00057413299015269886,"Shape_Area":1.2466155589393429e-08}},{"type":"Feature","id":27893,"geometry":{"type":"Polygon","coordinates":[[[115.66267832000005,-7.0665919979999785],[115.66267840600005,-7.0666005119999795],[115.66268743100011,-7.0666004209999755],[115.66268752100007,-7.0666094369999541],[115.66270557100006,-7.0666092559999356],[115.66270575200008,-7.0666272879999497],[115.66271477700002,-7.0666271969999457],[115.66271495800004,-7.0666452289999597],[115.66272398300009,-7.0666451379999558],[115.66272407400004,-7.0666541539999344],[115.66273309900009,-7.0666540639999766],[115.66273318900005,-7.0666630799999552],[115.6627963630001,-7.0666624459999525],[115.66279627300003,-7.0666534299999739],[115.66280529800008,-7.0666533399999594],[115.66280520700002,-7.0666443239999808],[115.66284130700001,-7.0666439619999437],[115.6628411260001,-7.0666259309999759],[115.66285015100004,-7.066625839999972],[115.6628500600001,-7.0666168239999365],[115.66286811000009,-7.0666166439999643],[115.66286793000006,-7.066598752999937],[115.66267832000005,-7.0665919979999785]]]},"properties":{"OBJECTID":27893,"FID_mangrove_utm":27801,"OBJECTID_1":27801,"Name":"18102566,9293","FolderPath":"JATIM/JATIM","SymbolID":0,"AltMode":0,"Base":0,"Clamped":-1,"Extruded":0,"Snippet":"","PopupInfo":"\u003chtml xmlns:fo=\"http://www.w3.org/1999/XSL/Format\" xmlns:msxsl=\"urn:schemas-microsoft-com:xslt\"\u003e\n\u003chead\u003e\n\u003cMETA http-equiv=\"Content-Type\" content=\"text/html\"\u003e\n\u003cmeta http-equiv=\"content-type\" content=\"text/html; charset=UTF-8\"\u003e\n\u003c/head\u003e\n\u003cbody style=\"margin:0px 0px 0px 0px;overflow:auto;background:#FFFFFF;\"\u003e\n\u003ctable style=\"font-family:Arial,Verdana,Times;font-size:12px;text-align:left;width:100%;border-collapse:collapse;padding:3px 3px 3px 3px\"\u003e\n\u003ctr style=\"text-align:center;font-weight:bold;background:#9CBCE2\"\u003e\n\u003ctd\u003e18102566,9293\u003c/td\u003e\n\u003c/tr\u003e\n\u003ctr\u003e\n\u003ctd\u003e\n\u003ctable style=\"font-family:Arial,Verdana,Times;font-size:12px;text-align:left;width:100%;border-spacing:0px; padding:3px 3px 3px 3px\"\u003e\n\u003ctr\u003e\n\u003ctd\u003eFID\u003c/td\u003e\n\u003ctd\u003e0\u003c/td\u003e\n\u003c/tr\u003e\n\u003ctr bgcolor=\"#D4E4F3\"\u003e\n\u003ctd\u003eShape_Leng\u003c/td\u003e\n\u003ctd\u003e18102566,9293\u003c/td\u003e\n\u003c/tr\u003e\n\u003c/table\u003e\n\u003c/td\u003e\n\u003c/tr\u003e\n\u003c/table\u003e\n\u003c/body\u003e\u003cscript type=\"text/javascript\"\u003e\n\t\t\t\tfunction changeImage(attElement, nameElement) {\n\t\t\t\tdocument.getElementById('imageAttachment').src = attElement;\n\t\t\t\tdocument.getElementById('imageName').innerHTML = nameElement;}\n\t\t\t\u003c/script\u003e\u003c/html\u003e\n","FID_active_grids":163,"GridID":"M58","Shape_Length":0.00051386661194631152,"Shape_Area":8.7682235325856383e-09}},{"type":"Feature","id":27894,"geometry":{"type":"Polygon","coordinates":[[[115.66264221600011,-7.0665918579999811],[115.66264220400001,-7.066590711999936],[115.6626241460001,-7.0665900679999254],[115.66262416600011,-7.0665920389999428],[115.66264221600011,-7.0665918579999811]]]},"properties":{"OBJECTID":27894,"FID_mangrove_utm":27802,"OBJECTID_1":27802,"Name":"18102566,9293","FolderPath":"JATIM/JATIM","SymbolID":0,"AltMode":0,"Base":0,"Clamped":-1,"Extruded":0,"Snippet":"","PopupInfo":"\u003chtml xmlns:fo=\"http://www.w3.org/1999/XSL/Format\" xmlns:msxsl=\"urn:schemas-microsoft-com:xslt\"\u003e\n\u003chead\u003e\n\u003cMETA http-equiv=\"Content-Type\" content=\"text/html\"\u003e\n\u003cmeta http-equiv=\"content-type\" content=\"text/html; charset=UTF-8\"\u003e\n\u003c/head\u003e\n\u003cbody style=\"margin:0px 0px 0px 0px;overflow:auto;background:#FFFFFF;\"\u003e\n\u003ctable style=\"font-family:Arial,Verdana,Times;font-size:12px;text-align:left;width:100%;border-collapse:collapse;padding:3px 3px 3px 3px\"\u003e\n\u003ctr style=\"text-align:center;font-weight:bold;background:#9CBCE2\"\u003e\n\u003ctd\u003e18102566,9293\u003c/td\u003e\n\u003c/tr\u003e\n\u003ctr\u003e\n\u003ctd\u003e\n\u003ctable style=\"font-family:Arial,Verdana,Times;font-size:12px;text-align:left;width:100%;border-spacing:0px; padding:3px 3px 3px 3px\"\u003e\n\u003ctr\u003e\n\u003ctd\u003eFID\u003c/td\u003e\n\u003ctd\u003e0\u003c/td\u003e\n\u003c/tr\u003e\n\u003ctr bgcolor=\"#D4E4F3\"\u003e\n\u003ctd\u003eShape_Leng\u003c/td\u003e\n\u003ctd\u003e18102566,9293\u003c/td\u003e\n\u003c/tr\u003e\n\u003c/table\u003e\n\u003c/td\u003e\n\u003c/tr\u003e\n\u003c/table\u003e\n\u003c/body\u003e\u003cscript type=\"text/javascript\"\u003e\n\t\t\t\tfunction changeImage(attElement, nameElement) {\n\t\t\t\tdocument.getElementById('imageAttachment').src = attElement;\n\t\t\t\tdocument.getElementById('imageName').innerHTML = nameElement;}\n\t\t\t\u003c/script\u003e\u003c/html\u003e\n","FID_active_grids":163,"GridID":"M58","Shape_Length":3.9237551539224242e-05,"Shape_Area":2.8133455475414986e-11}},{"type":"Feature","id":27895,"geometry":{"type":"Polygon","coordinates":[[[115.66623412200011,-7.0665558389999319],[115.66624314600006,-7.0665557489999742],[115.66624323700012,-7.0665647639999634],[115.66632446100004,-7.0665639499999315],[115.6663243700001,-7.0665549339999529],[115.66633339500004,-7.066554842999949],[115.66633338500003,-7.0665538149999634],[115.66623406000008,-7.0665497169999298],[115.66623412200011,-7.0665558389999319]]]},"properties":{"OBJECTID":27895,"FID_mangrove_utm":27803,"OBJECTID_1":27803,"Name":"18102566,9293","FolderPath":"JATIM/JATIM","SymbolID":0,"AltMode":0,"Base":0,"Clamped":-1,"Extruded":0,"Snippet":"","PopupInfo":"\u003chtml xmlns:fo=\"http://www.w3.org/1999/XSL/Format\" xmlns:msxsl=\"urn:schemas-microsoft-com:xslt\"\u003e\n\u003chead\u003e\n\u003cMETA http-equiv=\"Content-Type\" content=\"text/html\"\u003e\n\u003cmeta http-equiv=\"content-type\" content=\"text/html; charset=UTF-8\"\u003e\n\u003c/head\u003e\n\u003cbody style=\"margin:0px 0px 0px 0px;overflow:auto;background:#FFFFFF;\"\u003e\n\u003ctable style=\"font-family:Arial,Verdana,Times;font-size:12px;text-align:left;width:100%;border-collapse:collapse;padding:3px 3px 3px 3px\"\u003e\n\u003ctr style=\"text-align:center;font-weight:bold;background:#9CBCE2\"\u003e\n\u003ctd\u003e18102566,9293\u003c/td\u003e\n\u003c/tr\u003e\n\u003ctr\u003e\n\u003ctd\u003e\n\u003ctable style=\"font-family:Arial,Verdana,Times;font-size:12px;text-align:left;width:100%;border-spacing:0px; padding:3px 3px 3px 3px\"\u003e\n\u003ctr\u003e\n\u003ctd\u003eFID\u003c/td\u003e\n\u003ctd\u003e0\u003c/td\u003e\n\u003c/tr\u003e\n\u003ctr bgcolor=\"#D4E4F3\"\u003e\n\u003ctd\u003eShape_Leng\u003c/td\u003e\n\u003ctd\u003e18102566,9293\u003c/td\u003e\n\u003c/tr\u003e\n\u003c/table\u003e\n\u003c/td\u003e\n\u003c/tr\u003e\n\u003c/table\u003e\n\u003c/body\u003e\u003cscript type=\"text/javascript\"\u003e\n\t\t\t\tfunction changeImage(attElement, nameElement) {\n\t\t\t\tdocument.getElementById('imageAttachment').src = attElement;\n\t\t\t\tdocument.getElementById('imageName').innerHTML = nameElement;}\n\t\t\t\u003c/script\u003e\u003c/html\u003e\n","FID_active_grids":163,"GridID":"M58","Shape_Length":0.00022386976979942884,"Shape_Area":1.0873318518006043e-09}},{"type":"Feature","id":27897,"geometry":{"type":"Polygon","coordinates":[[[115.66623412200011,-7.0665558389999319],[115.66619802200012,-7.066556200999969],[115.66619794200005,-7.0665482269999416],[115.66611667600012,-7.0665448749999769],[115.66611670800012,-7.0665479999999548],[115.66612573200007,-7.0665479099999402],[115.66612591400008,-7.0665659409999648],[115.66613493900002,-7.0665658509999503],[115.66613502900009,-7.0665748659999394],[115.66618015400002,-7.0665744139999447],[115.66618024400009,-7.0665834299999801],[115.66621634400008,-7.0665830669999536],[115.66621625300002,-7.0665740519999645],[115.66622527800007,-7.0665739609999605],[115.66622518700001,-7.066564944999925],[115.66623421200006,-7.0665648549999673],[115.66623412200011,-7.0665558389999319]]]},"properties":{"OBJECTID":27897,"FID_mangrove_utm":27805,"OBJECTID_1":27805,"Name":"18102566,9293","FolderPath":"JATIM/JATIM","SymbolID":0,"AltMode":0,"Base":0,"Clamped":-1,"Extruded":0,"Snippet":"","PopupInfo":"\u003chtml xmlns:fo=\"http://www.w3.org/1999/XSL/Format\" xmlns:msxsl=\"urn:schemas-microsoft-com:xslt\"\u003e\n\u003chead\u003e\n\u003cMETA http-equiv=\"Content-Type\" content=\"text/html\"\u003e\n\u003cmeta http-equiv=\"content-type\" content=\"text/html; charset=UTF-8\"\u003e\n\u003c/head\u003e\n\u003cbody style=\"margin:0px 0px 0px 0px;overflow:auto;background:#FFFFFF;\"\u003e\n\u003ctable style=\"font-family:Arial,Verdana,Times;font-size:12px;text-align:left;width:100%;border-collapse:collapse;padding:3px 3px 3px 3px\"\u003e\n\u003ctr style=\"text-align:center;font-weight:bold;background:#9CBCE2\"\u003e\n\u003ctd\u003e18102566,9293\u003c/td\u003e\n\u003c/tr\u003e\n\u003ctr\u003e\n\u003ctd\u003e\n\u003ctable style=\"font-family:Arial,Verdana,Times;font-size:12px;text-align:left;width:100%;border-spacing:0px; padding:3px 3px 3px 3px\"\u003e\n\u003ctr\u003e\n\u003ctd\u003eFID\u003c/td\u003e\n\u003ctd\u003e0\u003c/td\u003e\n\u003c/tr\u003e\n\u003ctr bgcolor=\"#D4E4F3\"\u003e\n\u003ctd\u003eShape_Leng\u003c/td\u003e\n\u003ctd\u003e18102566,9293\u003c/td\u003e\n\u003c/tr\u003e\n\u003c/table\u003e\n\u003c/td\u003e\n\u003c/tr\u003e\n\u003c/table\u003e\n\u003c/body\u003e\u003cscript type=\"text/javascript\"\u003e\n\t\t\t\tfunction changeImage(attElement, nameElement) {\n\t\t\t\tdocument.getElementById('imageAttachment').src = attElement;\n\t\t\t\tdocument.getElementById('imageName').innerHTML = nameElement;}\n\t\t\t\u003c/script\u003e\u003c/html\u003e\n","FID_active_grids":163,"GridID":"M58","Shape_Length":0.0003089785594773206,"Shape_Area":2.8513579645192574e-09}},{"type":"Feature","id":27912,"geometry":{"type":"Polygon","coordinates":[[[115.66990918300007,-7.065815660999931],[115.66991820800001,-7.0658155709999733],[115.66991791300006,-7.0657862839999552],[115.66972148000002,-7.0659077119999552],[115.6697566680001,-7.0659073589999366],[115.66975657700004,-7.065898342999958],[115.66987390000008,-7.0658971649999671],[115.66987380900002,-7.0658881489999317],[115.66988283400008,-7.065888058999974],[115.66988265300006,-7.0658700269999599],[115.66990070200006,-7.0658698459999414],[115.66990061200011,-7.0658608299999628],[115.66990963600006,-7.0658607399999482],[115.66990918300007,-7.065815660999931]]]},"properties":{"OBJECTID":27912,"FID_mangrove_utm":27820,"OBJECTID_1":27820,"Name":"18102566,9293","FolderPath":"JATIM/JATIM","SymbolID":0,"AltMode":0,"Base":0,"Clamped":-1,"Extruded":0,"Snippet":"","PopupInfo":"\u003chtml xmlns:fo=\"http://www.w3.org/1999/XSL/Format\" xmlns:msxsl=\"urn:schemas-microsoft-com:xslt\"\u003e\n\u003chead\u003e\n\u003cMETA http-equiv=\"Content-Type\" content=\"text/html\"\u003e\n\u003cmeta http-equiv=\"content-type\" content=\"text/html; charset=UTF-8\"\u003e\n\u003c/head\u003e\n\u003cbody style=\"margin:0px 0px 0px 0px;overflow:auto;background:#FFFFFF;\"\u003e\n\u003ctable style=\"font-family:Arial,Verdana,Times;font-size:12px;text-align:left;width:100%;border-collapse:collapse;padding:3px 3px 3px 3px\"\u003e\n\u003ctr style=\"text-align:center;font-weight:bold;background:#9CBCE2\"\u003e\n\u003ctd\u003e18102566,9293\u003c/td\u003e\n\u003c/tr\u003e\n\u003ctr\u003e\n\u003ctd\u003e\n\u003ctable style=\"font-family:Arial,Verdana,Times;font-size:12px;text-align:left;width:100%;border-spacing:0px; padding:3px 3px 3px 3px\"\u003e\n\u003ctr\u003e\n\u003ctd\u003eFID\u003c/td\u003e\n\u003ctd\u003e0\u003c/td\u003e\n\u003c/tr\u003e\n\u003ctr bgcolor=\"#D4E4F3\"\u003e\n\u003ctd\u003eShape_Leng\u003c/td\u003e\n\u003ctd\u003e18102566,9293\u003c/td\u003e\n\u003c/tr\u003e\n\u003c/table\u003e\n\u003c/td\u003e\n\u003c/tr\u003e\n\u003c/table\u003e\n\u003c/body\u003e\u003cscript type=\"text/javascript\"\u003e\n\t\t\t\tfunction changeImage(attElement, nameElement) {\n\t\t\t\tdocument.getElementById('imageAttachment').src = attElement;\n\t\t\t\tdocument.getElementById('imageName').innerHTML = nameElement;}\n\t\t\t\u003c/script\u003e\u003c/html\u003e\n","FID_active_grids":163,"GridID":"M58","Shape_Length":0.00054803034486161531,"Shape_Area":8.7121174430996948e-09}},{"type":"Feature","id":27924,"geometry":{"type":"Polygon","coordinates":[[[115.67006178800011,-7.0657329799999502],[115.67008886300005,-7.0657327079999277],[115.67008868100004,-7.0657146769999599],[115.67009770600009,-7.0657145859999559],[115.67009761600002,-7.0657055699999773],[115.67010664000009,-7.0657054799999628],[115.67010645900007,-7.0656874479999487],[115.67011548400001,-7.0656873579999342],[115.67011539300006,-7.0656783419999556],[115.67012441800011,-7.0656782509999516],[115.67012432700005,-7.0656692359999624],[115.67013335200011,-7.0656691449999585],[115.67013319200009,-7.0656532079999579],[115.66998967300003,-7.0657419249999407],[115.66998968100006,-7.0657427199999461],[115.66999870600011,-7.0657426299999315],[115.66999888700002,-7.0657606609999561],[115.67005303600001,-7.0657601179999574],[115.67005294500007,-7.0657511019999788],[115.67006197000001,-7.0657510109999748],[115.67006178800011,-7.0657329799999502]]]},"properties":{"OBJECTID":27924,"FID_mangrove_utm":27832,"OBJECTID_1":27832,"Name":"18102566,9293","FolderPath":"JATIM/JATIM","SymbolID":0,"AltMode":0,"Base":0,"Clamped":-1,"Extruded":0,"Snippet":"","PopupInfo":"\u003chtml xmlns:fo=\"http://www.w3.org/1999/XSL/Format\" xmlns:msxsl=\"urn:schemas-microsoft-com:xslt\"\u003e\n\u003chead\u003e\n\u003cMETA http-equiv=\"Content-Type\" content=\"text/html\"\u003e\n\u003cmeta http-equiv=\"content-type\" content=\"text/html; charset=UTF-8\"\u003e\n\u003c/head\u003e\n\u003cbody style=\"margin:0px 0px 0px 0px;overflow:auto;background:#FFFFFF;\"\u003e\n\u003ctable style=\"font-family:Arial,Verdana,Times;font-size:12px;text-align:left;width:100%;border-collapse:collapse;padding:3px 3px 3px 3px\"\u003e\n\u003ctr style=\"text-align:center;font-weight:bold;background:#9CBCE2\"\u003e\n\u003ctd\u003e18102566,9293\u003c/td\u003e\n\u003c/tr\u003e\n\u003ctr\u003e\n\u003ctd\u003e\n\u003ctable style=\"font-family:Arial,Verdana,Times;font-size:12px;text-align:left;width:100%;border-spacing:0px; padding:3px 3px 3px 3px\"\u003e\n\u003ctr\u003e\n\u003ctd\u003eFID\u003c/td\u003e\n\u003ctd\u003e0\u003c/td\u003e\n\u003c/tr\u003e\n\u003ctr bgcolor=\"#D4E4F3\"\u003e\n\u003ctd\u003eShape_Leng\u003c/td\u003e\n\u003ctd\u003e18102566,9293\u003c/td\u003e\n\u003c/tr\u003e\n\u003c/table\u003e\n\u003c/td\u003e\n\u003c/tr\u003e\n\u003c/table\u003e\n\u003c/body\u003e\u003cscript type=\"text/javascript\"\u003e\n\t\t\t\tfunction changeImage(attElement, nameElement) {\n\t\t\t\tdocument.getElementById('imageAttachment').src = attElement;\n\t\t\t\tdocument.getElementById('imageName').innerHTML = nameElement;}\n\t\t\t\u003c/script\u003e\u003c/html\u003e\n","FID_active_grids":163,"GridID":"M58","Shape_Length":0.00043805743543929416,"Shape_Area":4.9513171845716251e-09}},{"type":"Feature","id":27937,"geometry":{"type":"Polygon","coordinates":[[[115.65855283400003,-7.0656253409999294],[115.65855290000002,-7.0656319699999699],[115.65854387600007,-7.0656320599999276],[115.6585440560001,-7.0656500919999417],[115.65857113100003,-7.0656498209999654],[115.65857122200009,-7.065658836999944],[115.65858927200009,-7.0656586559999255],[115.65858936200004,-7.0656676719999609],[115.6585983870001,-7.065667580999957],[115.65859847800004,-7.0656765969999356],[115.65863457700004,-7.0656762359999448],[115.6586346680001,-7.0656852519999802],[115.65864369300004,-7.0656851609999762],[115.65864378300012,-7.0656941769999548],[115.65865280800006,-7.0656940869999403],[115.65865289900012,-7.0657031019999295],[115.65867997300006,-7.0657028309999532],[115.65868015400008,-7.0657208629999673],[115.65868917900002,-7.0657207729999527],[115.65868927000008,-7.0657297889999313],[115.65870732000008,-7.0657296079999696],[115.65870741000003,-7.0657386239999482],[115.65872546000003,-7.0657384429999297],[115.65872555100009,-7.0657474589999651],[115.65873457500004,-7.0657473679999612],[115.65873475600006,-7.0657653999999752],[115.65872573100012,-7.0657654899999329],[115.65872582200006,-7.0657745059999684],[115.65873484700001,-7.0657744159999538],[115.65873539000006,-7.0658285109999497],[115.65874441500011,-7.0658284209999351],[115.65874468600009,-7.0658554679999384],[115.65876273600009,-7.0658552879999661],[115.65876282600004,-7.0658643029999553],[115.6587718510001,-7.0658642129999407],[115.65877194200004,-7.0658732289999762],[115.65880804200003,-7.0658728669999391],[115.65880795100009,-7.0658638509999605],[115.65884405100007,-7.0658634899999697],[115.65884396000001,-7.0658544739999343],[115.65885298500007,-7.0658543839999766],[115.65885280500004,-7.0658363519999625],[115.65889792900009,-7.0658358999999678],[115.65889774800007,-7.0658178679999537],[115.65893384800006,-7.0658175069999629],[115.65893393900001,-7.0658265229999415],[115.65895198800001,-7.0658263419999798],[115.65895189800005,-7.0658173259999444],[115.6589970230001,-7.0658168739999496],[115.65899675100002,-7.0657898269999464],[115.65900577600007,-7.0657897359999424],[115.65900559500005,-7.0657717039999284],[115.65902364500005,-7.0657715239999561],[115.65902355500009,-7.0657625079999775],[115.65903258000003,-7.0657624169999735],[115.65903239900001,-7.0657443859999489],[115.65904142400007,-7.0657442949999449],[115.65904122200004,-7.0657241629999703],[115.65878004900003,-7.065665709999962],[115.65855283400003,-7.0656253409999294]],[[115.65875253500008,-7.0657381719999535],[115.65877961000001,-7.0657379009999772],[115.65877970000008,-7.0657469159999664],[115.65878872500002,-7.0657468259999519],[115.65878881600008,-7.0657558419999305],[115.65876174100003,-7.0657561129999635],[115.65876165000009,-7.0657470969999281],[115.65875262500003,-7.0657471879999321],[115.65875253500008,-7.0657381719999535]]]},"properties":{"OBJECTID":27937,"FID_mangrove_utm":27845,"OBJECTID_1":27845,"Name":"18102566,9293","FolderPath":"JATIM/JATIM","SymbolID":0,"AltMode":0,"Base":0,"Clamped":-1,"Extruded":0,"Snippet":"","PopupInfo":"\u003chtml xmlns:fo=\"http://www.w3.org/1999/XSL/Format\" xmlns:msxsl=\"urn:schemas-microsoft-com:xslt\"\u003e\n\u003chead\u003e\n\u003cMETA http-equiv=\"Content-Type\" content=\"text/html\"\u003e\n\u003cmeta http-equiv=\"content-type\" content=\"text/html; charset=UTF-8\"\u003e\n\u003c/head\u003e\n\u003cbody style=\"margin:0px 0px 0px 0px;overflow:auto;background:#FFFFFF;\"\u003e\n\u003ctable style=\"font-family:Arial,Verdana,Times;font-size:12px;text-align:left;width:100%;border-collapse:collapse;padding:3px 3px 3px 3px\"\u003e\n\u003ctr style=\"text-align:center;font-weight:bold;background:#9CBCE2\"\u003e\n\u003ctd\u003e18102566,9293\u003c/td\u003e\n\u003c/tr\u003e\n\u003ctr\u003e\n\u003ctd\u003e\n\u003ctable style=\"font-family:Arial,Verdana,Times;font-size:12px;text-align:left;width:100%;border-spacing:0px; padding:3px 3px 3px 3px\"\u003e\n\u003ctr\u003e\n\u003ctd\u003eFID\u003c/td\u003e\n\u003ctd\u003e0\u003c/td\u003e\n\u003c/tr\u003e\n\u003ctr bgcolor=\"#D4E4F3\"\u003e\n\u003ctd\u003eShape_Leng\u003c/td\u003e\n\u003ctd\u003e18102566,9293\u003c/td\u003e\n\u003c/tr\u003e\n\u003c/table\u003e\n\u003c/td\u003e\n\u003c/tr\u003e\n\u003c/table\u003e\n\u003c/body\u003e\u003cscript type=\"text/javascript\"\u003e\n\t\t\t\tfunction changeImage(attElement, nameElement) {\n\t\t\t\tdocument.getElementById('imageAttachment').src = attElement;\n\t\t\t\tdocument.getElementById('imageName').innerHTML = nameElement;}\n\t\t\t\u003c/script\u003e\u003c/html\u003e\n","FID_active_grids":163,"GridID":"M58","Shape_Length":0.0015446100893999936,"Shape_Area":5.2403301735559166e-08}},{"type":"Feature","id":27939,"geometry":{"type":"Polygon","coordinates":[[[115.67040291700005,-7.0655492229999481],[115.6704119420001,-7.0655491319999442],[115.67041176000009,-7.0655311009999764],[115.67043883500003,-7.0655308289999539],[115.67043874400008,-7.0655218129999753],[115.67044776900002,-7.0655217229999607],[115.67044740600011,-7.0654856599999789],[115.67045643100005,-7.0654855689999749],[115.67045615900008,-7.0654585219999717],[115.67044800200006,-7.0654586039999572],[115.67023186100005,-7.0655922139999348],[115.6702318990001,-7.065596022999955],[115.67024092400004,-7.0655959319999511],[115.6702410150001,-7.0656049479999297],[115.67025004000004,-7.0656048569999257],[115.67025013000011,-7.0656138729999611],[115.67025915500005,-7.0656137819999572],[115.67025933600007,-7.0656318139999712],[115.67027738600007,-7.0656316329999527],[115.67027747700001,-7.0656406479999418],[115.67032260100007,-7.0656401949999577],[115.67032251000001,-7.0656311799999685],[115.67035860900012,-7.065630816999942],[115.67035851800006,-7.0656218019999528],[115.67036754300011,-7.0656217109999488],[115.67036727100003,-7.0655946639999456],[115.67037629600009,-7.0655945729999416],[115.67037620500003,-7.065585556999963],[115.67038523000008,-7.0655854669999485],[115.67038513900002,-7.0655764509999699],[115.67041221400007,-7.0655761789999474],[115.67041203200006,-7.0655581479999796],[115.67040300800011,-7.0655582389999267],[115.67040291700005,-7.0655492229999481]]]},"properties":{"OBJECTID":27939,"FID_mangrove_utm":27847,"OBJECTID_1":27847,"Name":"18102566,9293","FolderPath":"JATIM/JATIM","SymbolID":0,"AltMode":0,"Base":0,"Clamped":-1,"Extruded":0,"Snippet":"","PopupInfo":"\u003chtml xmlns:fo=\"http://www.w3.org/1999/XSL/Format\" xmlns:msxsl=\"urn:schemas-microsoft-com:xslt\"\u003e\n\u003chead\u003e\n\u003cMETA http-equiv=\"Content-Type\" content=\"text/html\"\u003e\n\u003cmeta http-equiv=\"content-type\" content=\"text/html; charset=UTF-8\"\u003e\n\u003c/head\u003e\n\u003cbody style=\"margin:0px 0px 0px 0px;overflow:auto;background:#FFFFFF;\"\u003e\n\u003ctable style=\"font-family:Arial,Verdana,Times;font-size:12px;text-align:left;width:100%;border-collapse:collapse;padding:3px 3px 3px 3px\"\u003e\n\u003ctr style=\"text-align:center;font-weight:bold;background:#9CBCE2\"\u003e\n\u003ctd\u003e18102566,9293\u003c/td\u003e\n\u003c/tr\u003e\n\u003ctr\u003e\n\u003ctd\u003e\n\u003ctable style=\"font-family:Arial,Verdana,Times;font-size:12px;text-align:left;width:100%;border-spacing:0px; padding:3px 3px 3px 3px\"\u003e\n\u003ctr\u003e\n\u003ctd\u003eFID\u003c/td\u003e\n\u003ctd\u003e0\u003c/td\u003e\n\u003c/tr\u003e\n\u003ctr bgcolor=\"#D4E4F3\"\u003e\n\u003ctd\u003eShape_Leng\u003c/td\u003e\n\u003ctd\u003e18102566,9293\u003c/td\u003e\n\u003c/tr\u003e\n\u003c/table\u003e\n\u003c/td\u003e\n\u003c/tr\u003e\n\u003c/table\u003e\n\u003c/body\u003e\u003cscript type=\"text/javascript\"\u003e\n\t\t\t\tfunction changeImage(attElement, nameElement) {\n\t\t\t\tdocument.getElementById('imageAttachment').src = attElement;\n\t\t\t\tdocument.getElementById('imageName').innerHTML = nameElement;}\n\t\t\t\u003c/script\u003e\u003c/html\u003e\n","FID_active_grids":163,"GridID":"M58","Shape_Length":0.00073515779018826926,"Shape_Area":1.6711462578132592e-08}},{"type":"Feature","id":27944,"geometry":{"type":"Polygon","coordinates":[[[115.65795612200009,-7.0655251619999717],[115.65795616800006,-7.0655297439999458],[115.65796519300011,-7.0655296529999418],[115.65796537400001,-7.0655476849999559],[115.65798342400001,-7.0655475039999374],[115.65798351400008,-7.0655565199999728],[115.65801058900001,-7.0655562489999397],[115.65801068000007,-7.0655652649999752],[115.65804678000006,-7.0655649029999381],[115.65804687000002,-7.0655739189999736],[115.65805589500007,-7.065573828999959],[115.65805598500003,-7.0655828449999376],[115.65806501000009,-7.0655827539999336],[115.65806510100003,-7.0655917699999691],[115.65810120100002,-7.0655914089999783],[115.65810129100009,-7.0656004249999569],[115.65811934100009,-7.0656002439999384],[115.65811943100005,-7.0656092599999738],[115.65814650600009,-7.0656089889999407],[115.65814659700004,-7.0656180049999762],[115.65817367200009,-7.0656177339999431],[115.65817358100003,-7.0656087179999645],[115.65822773100001,-7.0656081749999657],[115.65822782100008,-7.0656171909999443],[115.65825489600002,-7.0656169199999681],[115.65825480600006,-7.0656079039999327],[115.65831798000011,-7.0656072719999656],[115.65831807100005,-7.0656162879999442],[115.65832709600011,-7.0656161969999403],[115.65832718600007,-7.0656252129999757],[115.65833621100001,-7.0656251229999611],[115.65833630200007,-7.0656341389999398],[115.65838142600001,-7.065633686999945],[115.65838151700007,-7.0656427029999804],[115.65839054200001,-7.0656426119999765],[115.65839063200008,-7.0656516279999551],[115.65843575700001,-7.0656511759999603],[115.65843584800007,-7.0656601919999389],[115.65845389700007,-7.0656600109999772],[115.65845398800002,-7.0656690269999558],[115.65849911300006,-7.065668574999961],[115.65849902200011,-7.0656595599999719],[115.65850804700005,-7.0656594689999679],[115.6585079570001,-7.0656504529999324],[115.65851698200004,-7.0656503629999747],[115.65851689100009,-7.0656413469999393],[115.65852591600003,-7.0656412569999816],[115.65852582600007,-7.0656322409999461],[115.65851680100002,-7.0656323309999607],[115.65851671000007,-7.0656233149999252],[115.65852573500001,-7.0656232249999675],[115.65852570800007,-7.0656205209999712],[115.65801540300004,-7.0655298549999657],[115.65795612200009,-7.0655251619999717]]]},"properties":{"OBJECTID":27944,"FID_mangrove_utm":27852,"OBJECTID_1":27852,"Name":"18102566,9293","FolderPath":"JATIM/JATIM","SymbolID":0,"AltMode":0,"Base":0,"Clamped":-1,"Extruded":0,"Snippet":"","PopupInfo":"\u003chtml xmlns:fo=\"http://www.w3.org/1999/XSL/Format\" xmlns:msxsl=\"urn:schemas-microsoft-com:xslt\"\u003e\n\u003chead\u003e\n\u003cMETA http-equiv=\"Content-Type\" content=\"text/html\"\u003e\n\u003cmeta http-equiv=\"content-type\" content=\"text/html; charset=UTF-8\"\u003e\n\u003c/head\u003e\n\u003cbody style=\"margin:0px 0px 0px 0px;overflow:auto;background:#FFFFFF;\"\u003e\n\u003ctable style=\"font-family:Arial,Verdana,Times;font-size:12px;text-align:left;width:100%;border-collapse:collapse;padding:3px 3px 3px 3px\"\u003e\n\u003ctr style=\"text-align:center;font-weight:bold;background:#9CBCE2\"\u003e\n\u003ctd\u003e18102566,9293\u003c/td\u003e\n\u003c/tr\u003e\n\u003ctr\u003e\n\u003ctd\u003e\n\u003ctable style=\"font-family:Arial,Verdana,Times;font-size:12px;text-align:left;width:100%;border-spacing:0px; padding:3px 3px 3px 3px\"\u003e\n\u003ctr\u003e\n\u003ctd\u003eFID\u003c/td\u003e\n\u003ctd\u003e0\u003c/td\u003e\n\u003c/tr\u003e\n\u003ctr bgcolor=\"#D4E4F3\"\u003e\n\u003ctd\u003eShape_Leng\u003c/td\u003e\n\u003ctd\u003e18102566,9293\u003c/td\u003e\n\u003c/tr\u003e\n\u003c/table\u003e\n\u003c/td\u003e\n\u003c/tr\u003e\n\u003c/table\u003e\n\u003c/body\u003e\u003cscript type=\"text/javascript\"\u003e\n\t\t\t\tfunction changeImage(attElement, nameElement) {\n\t\t\t\tdocument.getElementById('imageAttachment').src = attElement;\n\t\t\t\tdocument.getElementById('imageName').innerHTML = nameElement;}\n\t\t\t\u003c/script\u003e\u003c/html\u003e\n","FID_active_grids":163,"GridID":"M58","Shape_Length":0.001397111371372938,"Shape_Area":2.4434283049371688e-08}},{"type":"Feature","id":27948,"geometry":{"type":"Polygon","coordinates":[[[115.65768513100011,-7.0655037099999731],[115.65768514800004,-7.0655054069999323],[115.6576941730001,-7.0655053159999284],[115.65769426400004,-7.0655143319999638],[115.6577032890001,-7.0655142419999493],[115.65770347000011,-7.0655322739999633],[115.65771249400007,-7.0655321829999593],[115.65771258500001,-7.0655411989999379],[115.65773063500001,-7.0655410179999762],[115.65773072500008,-7.0655500339999548],[115.65774877500007,-7.0655498539999257],[115.65774895600009,-7.0655678849999504],[115.65776700600009,-7.0655677049999781],[115.6577671870001,-7.0655857359999459],[115.65783036200003,-7.0655851039999789],[115.65783027100008,-7.0655760879999434],[115.65783929600002,-7.0655759979999289],[115.65783911500012,-7.0655579659999717],[115.65785716500011,-7.0655577849999531],[115.65785707500004,-7.0655487689999745],[115.65786610000009,-7.06554867899996],[115.65786591900007,-7.0655306469999459],[115.65787494400001,-7.0655305569999314],[115.65787482500002,-7.0655187259999366],[115.65768513100011,-7.0655037099999731]]]},"properties":{"OBJECTID":27948,"FID_mangrove_utm":27856,"OBJECTID_1":27856,"Name":"18102566,9293","FolderPath":"JATIM/JATIM","SymbolID":0,"AltMode":0,"Base":0,"Clamped":-1,"Extruded":0,"Snippet":"","PopupInfo":"\u003chtml xmlns:fo=\"http://www.w3.org/1999/XSL/Format\" xmlns:msxsl=\"urn:schemas-microsoft-com:xslt\"\u003e\n\u003chead\u003e\n\u003cMETA http-equiv=\"Content-Type\" content=\"text/html\"\u003e\n\u003cmeta http-equiv=\"content-type\" content=\"text/html; charset=UTF-8\"\u003e\n\u003c/head\u003e\n\u003cbody style=\"margin:0px 0px 0px 0px;overflow:auto;background:#FFFFFF;\"\u003e\n\u003ctable style=\"font-family:Arial,Verdana,Times;font-size:12px;text-align:left;width:100%;border-collapse:collapse;padding:3px 3px 3px 3px\"\u003e\n\u003ctr style=\"text-align:center;font-weight:bold;background:#9CBCE2\"\u003e\n\u003ctd\u003e18102566,9293\u003c/td\u003e\n\u003c/tr\u003e\n\u003ctr\u003e\n\u003ctd\u003e\n\u003ctable style=\"font-family:Arial,Verdana,Times;font-size:12px;text-align:left;width:100%;border-spacing:0px; padding:3px 3px 3px 3px\"\u003e\n\u003ctr\u003e\n\u003ctd\u003eFID\u003c/td\u003e\n\u003ctd\u003e0\u003c/td\u003e\n\u003c/tr\u003e\n\u003ctr bgcolor=\"#D4E4F3\"\u003e\n\u003ctd\u003eShape_Leng\u003c/td\u003e\n\u003ctd\u003e18102566,9293\u003c/td\u003e\n\u003c/tr\u003e\n\u003c/table\u003e\n\u003c/td\u003e\n\u003c/tr\u003e\n\u003c/table\u003e\n\u003c/body\u003e\u003cscript type=\"text/javascript\"\u003e\n\t\t\t\tfunction changeImage(attElement, nameElement) {\n\t\t\t\tdocument.getElementById('imageAttachment').src = attElement;\n\t\t\t\tdocument.getElementById('imageName').innerHTML = nameElement;}\n\t\t\t\u003c/script\u003e\u003c/html\u003e\n","FID_active_grids":163,"GridID":"M58","Shape_Length":0.0005285943832692145,"Shape_Area":9.0534292162918991e-09}},{"type":"Feature","id":27959,"geometry":{"type":"Polygon","coordinates":[[[115.65670053000008,-7.06542576399994],[115.65670070400006,-7.0654431269999804],[115.65670972900011,-7.0654430369999659],[115.65671000000009,-7.0654700849999585],[115.65670097500004,-7.0654701749999731],[115.65670151800009,-7.065524269999969],[115.65671956800009,-7.0655240899999399],[115.65671992900002,-7.0655601529999785],[115.65676505400006,-7.0655597009999269],[115.6567649640001,-7.0655506859999377],[115.65677398900004,-7.0655505949999338],[115.65677371800007,-7.0655235479999305],[115.65678274300001,-7.0655234569999266],[115.65678265200006,-7.065514440999948],[115.65679167700011,-7.0655143509999334],[115.6567914960001,-7.0654963189999762],[115.65680052100004,-7.0654962289999617],[115.65680043100008,-7.0654872129999262],[115.65680945600002,-7.0654871229999685],[115.65680936500007,-7.0654781069999331],[115.65681839000001,-7.0654780159999291],[115.65681830000005,-7.0654690009999399],[115.65688147500009,-7.0654683679999266],[115.65688138400003,-7.065459351999948],[115.65689040900008,-7.0654592619999335],[115.65689050000003,-7.0654682779999689],[115.65694464900002,-7.0654677359999596],[115.65694474000009,-7.0654767519999382],[115.65695376500003,-7.0654766609999342],[115.65695403600012,-7.0655037089999269],[115.65696306100006,-7.0655036189999691],[115.65696315100001,-7.0655126349999477],[115.65698120100001,-7.0655124539999292],[115.65698129200007,-7.0655214699999647],[115.65699031700001,-7.0655213789999607],[115.65699040700008,-7.0655303949999393],[115.65699943200002,-7.0655303049999247],[115.65699952300008,-7.0655393209999602],[115.65704464700002,-7.0655388689999654],[115.65704473800008,-7.065547884999944],[115.65708083800007,-7.0655475239999532],[115.65708092800003,-7.0655565389999424],[115.65710800300008,-7.0655562679999662],[115.65710809300003,-7.0655652839999448],[115.65712614300003,-7.0655651039999725],[115.65712623400009,-7.0655741199999511],[115.65713525900003,-7.0655740289999471],[115.6571353490001,-7.0655830449999257],[115.65714437400004,-7.065582954999968],[115.6571444650001,-7.0655919709999466],[115.6571625150001,-7.0655917899999281],[115.65716260500005,-7.0656008059999635],[115.6571896800001,-7.0656005349999305],[115.65718958900004,-7.0655915189999519],[115.65721666400009,-7.0655912479999756],[115.65721657400002,-7.0655822319999402],[115.65723462400001,-7.0655820509999785],[115.65723453300006,-7.065573034999943],[115.657243558,-7.0655729449999285],[115.6572433770001,-7.0655549129999713],[115.65726142700009,-7.0655547329999422],[115.65726151800004,-7.0655637479999314],[115.6572705430001,-7.0655636579999737],[115.65727045200003,-7.0655546419999382],[115.65727947700009,-7.0655545519999805],[115.65727938700002,-7.0655455359999451],[115.65729743700001,-7.0655453549999265],[115.65729734600006,-7.0655363389999479],[115.65732442100011,-7.0655360679999717],[115.65732433100004,-7.0655270529999257],[115.65735140600009,-7.06552678099996],[115.65735131500003,-7.0655177659999708],[115.65738741500002,-7.0655174039999338],[115.65738723400011,-7.0654993719999766],[115.65740528400011,-7.0654991919999475],[115.65740519400003,-7.0654901759999689],[115.65741421900009,-7.0654900859999543],[115.65741414000001,-7.0654822569999283],[115.65670053000008,-7.06542576399994]]]},"properties":{"OBJECTID":27959,"FID_mangrove_utm":27867,"OBJECTID_1":27867,"Name":"18102566,9293","FolderPath":"JATIM/JATIM","SymbolID":0,"AltMode":0,"Base":0,"Clamped":-1,"Extruded":0,"Snippet":"","PopupInfo":"\u003chtml xmlns:fo=\"http://www.w3.org/1999/XSL/Format\" xmlns:msxsl=\"urn:schemas-microsoft-com:xslt\"\u003e\n\u003chead\u003e\n\u003cMETA http-equiv=\"Content-Type\" content=\"text/html\"\u003e\n\u003cmeta http-equiv=\"content-type\" content=\"text/html; charset=UTF-8\"\u003e\n\u003c/head\u003e\n\u003cbody style=\"margin:0px 0px 0px 0px;overflow:auto;background:#FFFFFF;\"\u003e\n\u003ctable style=\"font-family:Arial,Verdana,Times;font-size:12px;text-align:left;width:100%;border-collapse:collapse;padding:3px 3px 3px 3px\"\u003e\n\u003ctr style=\"text-align:center;font-weight:bold;background:#9CBCE2\"\u003e\n\u003ctd\u003e18102566,9293\u003c/td\u003e\n\u003c/tr\u003e\n\u003ctr\u003e\n\u003ctd\u003e\n\u003ctable style=\"font-family:Arial,Verdana,Times;font-size:12px;text-align:left;width:100%;border-spacing:0px; padding:3px 3px 3px 3px\"\u003e\n\u003ctr\u003e\n\u003ctd\u003eFID\u003c/td\u003e\n\u003ctd\u003e0\u003c/td\u003e\n\u003c/tr\u003e\n\u003ctr bgcolor=\"#D4E4F3\"\u003e\n\u003ctd\u003eShape_Leng\u003c/td\u003e\n\u003ctd\u003e18102566,9293\u003c/td\u003e\n\u003c/tr\u003e\n\u003c/table\u003e\n\u003c/td\u003e\n\u003c/tr\u003e\n\u003c/table\u003e\n\u003c/body\u003e\u003cscript type=\"text/javascript\"\u003e\n\t\t\t\tfunction changeImage(attElement, nameElement) {\n\t\t\t\tdocument.getElementById('imageAttachment').src = attElement;\n\t\t\t\tdocument.getElementById('imageName').innerHTML = nameElement;}\n\t\t\t\u003c/script\u003e\u003c/html\u003e\n","FID_active_grids":163,"GridID":"M58","Shape_Length":0.0019589750600074959,"Shape_Area":5.4308024112651921e-08}},{"type":"Feature","id":27965,"geometry":{"type":"Polygon","coordinates":[[[115.65605015000006,-7.0653742749999537],[115.65605027300001,-7.0653865199999473],[115.65605929800006,-7.0653864289999433],[115.65605947900008,-7.0654044609999573],[115.65606850400002,-7.0654043709999428],[115.65606886600006,-7.0654404339999815],[115.65607789100011,-7.0654403439999669],[115.65607798100007,-7.0654493599999455],[115.65606895600001,-7.0654494499999601],[115.65606904600008,-7.0654584659999387],[115.65607807100002,-7.0654583759999809],[115.65607816200009,-7.0654673919999595],[115.65609621200008,-7.065467210999941],[115.6560963930001,-7.0654852429999551],[115.65610541800004,-7.0654851529999405],[115.65610550800011,-7.0654941679999297],[115.6561235580001,-7.0654939879999574],[115.65612364800006,-7.065503003999936],[115.65614169800006,-7.0655028229999743],[115.65614178900012,-7.0655118389999529],[115.65618691400005,-7.0655113869999582],[115.6561868230001,-7.0655023709999796],[115.65623194800003,-7.0655019199999742],[115.6562320380001,-7.0655109359999528],[115.65625008800009,-7.0655107549999343],[115.65624999800002,-7.0655017389999557],[115.65625902300008,-7.0655016489999412],[115.65625911300003,-7.0655106649999766],[115.65629521300002,-7.0655103029999395],[115.65629512300006,-7.0655012879999504],[115.65630414800012,-7.0655011969999464],[115.65630423800008,-7.065510212999925],[115.65632228800007,-7.0655100319999633],[115.65632219800011,-7.0655010169999741],[115.65634024800011,-7.0655008359999556],[115.65634015700005,-7.065491819999977],[115.65635820700004,-7.0654916389999585],[115.65635811700008,-7.0654826229999799],[115.65636714200002,-7.0654825329999653],[115.65636696100012,-7.0654645009999513],[115.65637598600006,-7.0654644109999367],[115.65637580500004,-7.0654463789999795],[115.65638483000009,-7.065446288999965],[115.65638474000002,-7.0654372729999295],[115.65639376500008,-7.0654371829999718],[115.65639367400001,-7.0654281669999364],[115.65640269900007,-7.0654280759999324],[115.65640260900011,-7.0654190609999432],[115.6564206590001,-7.0654188799999815],[115.65642083900002,-7.0654369119999387],[115.65642986400007,-7.0654368209999348],[115.65642995500002,-7.0654458369999702],[115.65652923000005,-7.0654448439999555],[115.6565291390001,-7.0654358279999769],[115.65654718900009,-7.0654356469999584],[115.65654700800008,-7.0654176149999444],[115.65655603300002,-7.0654175249999298],[115.65655600100001,-7.065414321999981],[115.65605015000006,-7.0653742749999537]]]},"properties":{"OBJECTID":27965,"FID_mangrove_utm":27873,"OBJECTID_1":27873,"Name":"18102566,9293","FolderPath":"JATIM/JATIM","SymbolID":0,"AltMode":0,"Base":0,"Clamped":-1,"Extruded":0,"Snippet":"","PopupInfo":"\u003chtml xmlns:fo=\"http://www.w3.org/1999/XSL/Format\" xmlns:msxsl=\"urn:schemas-microsoft-com:xslt\"\u003e\n\u003chead\u003e\n\u003cMETA http-equiv=\"Content-Type\" content=\"text/html\"\u003e\n\u003cmeta http-equiv=\"content-type\" content=\"text/html; charset=UTF-8\"\u003e\n\u003c/head\u003e\n\u003cbody style=\"margin:0px 0px 0px 0px;overflow:auto;background:#FFFFFF;\"\u003e\n\u003ctable style=\"font-family:Arial,Verdana,Times;font-size:12px;text-align:left;width:100%;border-collapse:collapse;padding:3px 3px 3px 3px\"\u003e\n\u003ctr style=\"text-align:center;font-weight:bold;background:#9CBCE2\"\u003e\n\u003ctd\u003e18102566,9293\u003c/td\u003e\n\u003c/tr\u003e\n\u003ctr\u003e\n\u003ctd\u003e\n\u003ctable style=\"font-family:Arial,Verdana,Times;font-size:12px;text-align:left;width:100%;border-spacing:0px; padding:3px 3px 3px 3px\"\u003e\n\u003ctr\u003e\n\u003ctd\u003eFID\u003c/td\u003e\n\u003ctd\u003e0\u003c/td\u003e\n\u003c/tr\u003e\n\u003ctr bgcolor=\"#D4E4F3\"\u003e\n\u003ctd\u003eShape_Leng\u003c/td\u003e\n\u003ctd\u003e18102566,9293\u003c/td\u003e\n\u003c/tr\u003e\n\u003c/table\u003e\n\u003c/td\u003e\n\u003c/tr\u003e\n\u003c/table\u003e\n\u003c/body\u003e\u003cscript type=\"text/javascript\"\u003e\n\t\t\t\tfunction changeImage(attElement, nameElement) {\n\t\t\t\tdocument.getElementById('imageAttachment').src = attElement;\n\t\t\t\tdocument.getElementById('imageName').innerHTML = nameElement;}\n\t\t\t\u003c/script\u003e\u003c/html\u003e\n","FID_active_grids":163,"GridID":"M58","Shape_Length":0.0013709460517854492,"Shape_Area":4.0035102321722212e-08}},{"type":"Feature","id":27969,"geometry":{"type":"Polygon","coordinates":[[[115.65587004500003,-7.0654153739999401],[115.65589712000008,-7.0654151029999639],[115.6558973010001,-7.0654331349999779],[115.65592437500004,-7.0654328639999449],[115.65592428500008,-7.0654238479999663],[115.65598746000001,-7.0654232159999424],[115.65598737000005,-7.0654141999999638],[115.65601444400011,-7.0654139289999307],[115.65601435400004,-7.0654049129999521],[115.65602337900009,-7.0654048219999481],[115.65602305100003,-7.0653721299999575],[115.65586948900011,-7.0653599729999428],[115.65587004500003,-7.0654153739999401]]]},"properties":{"OBJECTID":27969,"FID_mangrove_utm":27876,"OBJECTID_1":27876,"Name":"18102566,9293","FolderPath":"JATIM/JATIM","SymbolID":0,"AltMode":0,"Base":0,"Clamped":-1,"Extruded":0,"Snippet":"","PopupInfo":"\u003chtml xmlns:fo=\"http://www.w3.org/1999/XSL/Format\" xmlns:msxsl=\"urn:schemas-microsoft-com:xslt\"\u003e\n\u003chead\u003e\n\u003cMETA http-equiv=\"Content-Type\" content=\"text/html\"\u003e\n\u003cmeta http-equiv=\"content-type\" content=\"text/html; charset=UTF-8\"\u003e\n\u003c/head\u003e\n\u003cbody style=\"margin:0px 0px 0px 0px;overflow:auto;background:#FFFFFF;\"\u003e\n\u003ctable style=\"font-family:Arial,Verdana,Times;font-size:12px;text-align:left;width:100%;border-collapse:collapse;padding:3px 3px 3px 3px\"\u003e\n\u003ctr style=\"text-align:center;font-weight:bold;background:#9CBCE2\"\u003e\n\u003ctd\u003e18102566,9293\u003c/td\u003e\n\u003c/tr\u003e\n\u003ctr\u003e\n\u003ctd\u003e\n\u003ctable style=\"font-family:Arial,Verdana,Times;font-size:12px;text-align:left;width:100%;border-spacing:0px; padding:3px 3px 3px 3px\"\u003e\n\u003ctr\u003e\n\u003ctd\u003eFID\u003c/td\u003e\n\u003ctd\u003e0\u003c/td\u003e\n\u003c/tr\u003e\n\u003ctr bgcolor=\"#D4E4F3\"\u003e\n\u003ctd\u003eShape_Leng\u003c/td\u003e\n\u003ctd\u003e18102566,9293\u003c/td\u003e\n\u003c/tr\u003e\n\u003c/table\u003e\n\u003c/td\u003e\n\u003c/tr\u003e\n\u003c/table\u003e\n\u003c/body\u003e\u003cscript type=\"text/javascript\"\u003e\n\t\t\t\tfunction changeImage(attElement, nameElement) {\n\t\t\t\tdocument.getElementById('imageAttachment').src = attElement;\n\t\t\t\tdocument.getElementById('imageName').innerHTML = nameElement;}\n\t\t\t\u003c/script\u003e\u003c/html\u003e\n","FID_active_grids":163,"GridID":"M58","Shape_Length":0.00044065284311573156,"Shape_Area":8.4267641945428174e-09}},{"type":"Feature","id":28288,"geometry":{"type":"Polygon","coordinates":[[[115.69777527800011,-7.0590974759999767],[115.69766698600006,-7.059098568999957],[115.69766707700001,-7.0591075839999462],[115.69764000400005,-7.0591078569999581],[115.6976400960001,-7.0591168729999367],[115.69760399800009,-7.0591172369999526],[115.69760408900004,-7.0591262519999418],[115.69758604100002,-7.0591264339999498],[115.69758613200008,-7.0591354499999284],[115.69755905900001,-7.0591357229999403],[115.69755915000007,-7.0591447379999295],[115.69727939600011,-7.0591475599999285],[115.69727930500005,-7.0591385449999393],[115.69726125700004,-7.0591387269999473],[115.6972611650001,-7.0591297119999581],[115.69722506800008,-7.059130075999974],[115.69722515900003,-7.0591390909999632],[115.69719808600007,-7.0591393639999751],[115.69719817700002,-7.0591483799999537],[115.69718012900012,-7.0591485619999617],[115.69718022000006,-7.0591575769999508],[115.69716217100006,-7.0591577589999588],[115.69716226200001,-7.0591667749999374],[115.6971442140001,-7.0591669569999453],[115.69714430500005,-7.0591759719999345],[115.69712625600005,-7.0591761539999425],[115.69712634700011,-7.0591851689999316],[115.69700000700004,-7.0591864439999767],[115.6970000980001,-7.0591954589999659],[115.69684668500008,-7.0591970069999661],[115.69684659300003,-7.0591879909999307],[115.69681049600001,-7.059188355999936],[115.69681058700007,-7.0591973709999252],[115.6967474170001,-7.059198007999953],[115.69674750800004,-7.0592070239999316],[115.6966211670001,-7.0592082979999304],[115.69662107600004,-7.0591992829999413],[115.69660302800003,-7.0591994649999492],[115.69660293700008,-7.0591904489999706],[115.69654879100005,-7.0591909949999376],[115.69654869900012,-7.0591819799999485],[115.69647650500008,-7.0591827079999803],[115.69647659600002,-7.0591917239999589],[115.69645854700002,-7.0591919059999668],[115.69645863800008,-7.059200920999956],[115.69644059000007,-7.059201102999964],[115.69644068100001,-7.0592101179999531],[115.69643165700006,-7.0592102099999465],[115.69643174800001,-7.0592192249999357],[115.69641369900012,-7.0592194069999437],[115.69641379000007,-7.0592284219999328],[115.69639574100006,-7.0592286039999408],[115.69639583300011,-7.0592376199999762],[115.69638680800006,-7.0592377109999802],[115.69638689900012,-7.0592467259999694],[115.69637787500005,-7.0592468169999734],[115.69637796600011,-7.059255832999952],[115.69636894200005,-7.0592559239999559],[115.69636903300011,-7.0592649389999451],[115.69634196000004,-7.059265211999957],[115.69634212900007,-7.05928197399993],[115.69644139400009,-7.0592806379999615],[115.69644131900009,-7.0592732259999593],[115.69645034300004,-7.0592731349999553],[115.69645025200009,-7.0592641199999662],[115.6964683010001,-7.0592639379999582],[115.69646839200004,-7.0592729529999474],[115.69647741600011,-7.0592728619999434],[115.69647749000001,-7.0592801519999284],[115.69689929900005,-7.0592744729999595],[115.69782106600007,-7.0591629239999634],[115.69782103800003,-7.0591601279999736],[115.69781201300009,-7.0591602189999776],[115.69781192200003,-7.0591512039999316],[115.69778484900007,-7.0591514769999435],[115.69778448500006,-7.0591154159999405],[115.69777546000012,-7.0591155069999445],[115.69777527800011,-7.0590974759999767]]]},"properties":{"OBJECTID":28288,"FID_mangrove_utm":28195,"OBJECTID_1":28195,"Name":"18102566,9293","FolderPath":"JATIM/JATIM","SymbolID":0,"AltMode":0,"Base":0,"Clamped":-1,"Extruded":0,"Snippet":"","PopupInfo":"\u003chtml xmlns:fo=\"http://www.w3.org/1999/XSL/Format\" xmlns:msxsl=\"urn:schemas-microsoft-com:xslt\"\u003e\n\u003chead\u003e\n\u003cMETA http-equiv=\"Content-Type\" content=\"text/html\"\u003e\n\u003cmeta http-equiv=\"content-type\" content=\"text/html; charset=UTF-8\"\u003e\n\u003c/head\u003e\n\u003cbody style=\"margin:0px 0px 0px 0px;overflow:auto;background:#FFFFFF;\"\u003e\n\u003ctable style=\"font-family:Arial,Verdana,Times;font-size:12px;text-align:left;width:100%;border-collapse:collapse;padding:3px 3px 3px 3px\"\u003e\n\u003ctr style=\"text-align:center;font-weight:bold;background:#9CBCE2\"\u003e\n\u003ctd\u003e18102566,9293\u003c/td\u003e\n\u003c/tr\u003e\n\u003ctr\u003e\n\u003ctd\u003e\n\u003ctable style=\"font-family:Arial,Verdana,Times;font-size:12px;text-align:left;width:100%;border-spacing:0px; padding:3px 3px 3px 3px\"\u003e\n\u003ctr\u003e\n\u003ctd\u003eFID\u003c/td\u003e\n\u003ctd\u003e0\u003c/td\u003e\n\u003c/tr\u003e\n\u003ctr bgcolor=\"#D4E4F3\"\u003e\n\u003ctd\u003eShape_Leng\u003c/td\u003e\n\u003ctd\u003e18102566,9293\u003c/td\u003e\n\u003c/tr\u003e\n\u003c/table\u003e\n\u003c/td\u003e\n\u003c/tr\u003e\n\u003c/table\u003e\n\u003c/body\u003e\u003cscript type=\"text/javascript\"\u003e\n\t\t\t\tfunction changeImage(attElement, nameElement) {\n\t\t\t\tdocument.getElementById('imageAttachment').src = attElement;\n\t\t\t\tdocument.getElementById('imageName').innerHTML = nameElement;}\n\t\t\t\u003c/script\u003e\u003c/html\u003e\n","FID_active_grids":163,"GridID":"M58","Shape_Length":0.0033426357081801005,"Shape_Area":1.0545514023065461e-07}}]}