{"type":"FeatureCollection","features":[{"type":"Feature","id":25713,"geometry":{"type":"Polygon","coordinates":[[[113.79610108000008,-7.1249586629999726],[113.79611012500004,-7.124958607999929],[113.79611007000005,-7.1249495729999808],[113.79608293400008,-7.1249497369999517],[113.79608298900007,-7.1249587719999568],[113.79609203400003,-7.1249587179999594],[113.79609208900001,-7.1249677529999644],[113.79610113500007,-7.1249676979999776],[113.79610108000008,-7.1249586629999726]]]},"properties":{"OBJECTID":25713,"FID_mangrove_utm":25627,"OBJECTID_1":25627,"Name":"18102566,9293","FolderPath":"JATIM/JATIM","SymbolID":0,"AltMode":0,"Base":0,"Clamped":-1,"Extruded":0,"Snippet":"","PopupInfo":"\u003chtml xmlns:fo=\"http://www.w3.org/1999/XSL/Format\" xmlns:msxsl=\"urn:schemas-microsoft-com:xslt\"\u003e\n\u003chead\u003e\n\u003cMETA http-equiv=\"Content-Type\" content=\"text/html\"\u003e\n\u003cmeta http-equiv=\"content-type\" content=\"text/html; charset=UTF-8\"\u003e\n\u003c/head\u003e\n\u003cbody style=\"margin:0px 0px 0px 0px;overflow:auto;background:#FFFFFF;\"\u003e\n\u003ctable style=\"font-family:Arial,Verdana,Times;font-size:12px;text-align:left;width:100%;border-collapse:collapse;padding:3px 3px 3px 3px\"\u003e\n\u003ctr style=\"text-align:center;font-weight:bold;background:#9CBCE2\"\u003e\n\u003ctd\u003e18102566,9293\u003c/td\u003e\n\u003c/tr\u003e\n\u003ctr\u003e\n\u003ctd\u003e\n\u003ctable style=\"font-family:Arial,Verdana,Times;font-size:12px;text-align:left;width:100%;border-spacing:0px; padding:3px 3px 3px 3px\"\u003e\n\u003ctr\u003e\n\u003ctd\u003eFID\u003c/td\u003e\n\u003ctd\u003e0\u003c/td\u003e\n\u003c/tr\u003e\n\u003ctr bgcolor=\"#D4E4F3\"\u003e\n\u003ctd\u003eShape_Leng\u003c/td\u003e\n\u003ctd\u003e18102566,9293\u003c/td\u003e\n\u003c/tr\u003e\n\u003c/table\u003e\n\u003c/td\u003e\n\u003c/tr\u003e\n\u003c/table\u003e\n\u003c/body\u003e\u003cscript type=\"text/javascript\"\u003e\n\t\t\t\tfunction changeImage(attElement, nameElement) {\n\t\t\t\tdocument.getElementById('imageAttachment').src = attElement;\n\t\t\t\tdocument.getElementById('imageName').innerHTML = nameElement;}\n\t\t\t\u003c/script\u003e\u003c/html\u003e\n","FID_active_grids":134,"GridID":"N25","Shape_Length":9.0413660701197328e-05,"Shape_Area":3.2692546060386725e-10}},{"type":"Feature","id":25715,"geometry":{"type":"Polygon","coordinates":[[[113.79594698000005,-7.1249053829999411],[113.79591984400008,-7.1249055469999689],[113.79591989800008,-7.124914581999974],[113.79592894400002,-7.1249145269999303],[113.79592899900001,-7.1249235619999354],[113.79593804400008,-7.124923507999938],[113.79593809900007,-7.1249325429999431],[113.79595619000008,-7.1249324329999695],[113.7959561350001,-7.1249233979999644],[113.79594708900004,-7.1249234529999512],[113.79594698000005,-7.1249053829999411]]]},"properties":{"OBJECTID":25715,"FID_mangrove_utm":25629,"OBJECTID_1":25629,"Name":"18102566,9293","FolderPath":"JATIM/JATIM","SymbolID":0,"AltMode":0,"Base":0,"Clamped":-1,"Extruded":0,"Snippet":"","PopupInfo":"\u003chtml xmlns:fo=\"http://www.w3.org/1999/XSL/Format\" xmlns:msxsl=\"urn:schemas-microsoft-com:xslt\"\u003e\n\u003chead\u003e\n\u003cMETA http-equiv=\"Content-Type\" content=\"text/html\"\u003e\n\u003cmeta http-equiv=\"content-type\" content=\"text/html; charset=UTF-8\"\u003e\n\u003c/head\u003e\n\u003cbody style=\"margin:0px 0px 0px 0px;overflow:auto;background:#FFFFFF;\"\u003e\n\u003ctable style=\"font-family:Arial,Verdana,Times;font-size:12px;text-align:left;width:100%;border-collapse:collapse;padding:3px 3px 3px 3px\"\u003e\n\u003ctr style=\"text-align:center;font-weight:bold;background:#9CBCE2\"\u003e\n\u003ctd\u003e18102566,9293\u003c/td\u003e\n\u003c/tr\u003e\n\u003ctr\u003e\n\u003ctd\u003e\n\u003ctable style=\"font-family:Arial,Verdana,Times;font-size:12px;text-align:left;width:100%;border-spacing:0px; padding:3px 3px 3px 3px\"\u003e\n\u003ctr\u003e\n\u003ctd\u003eFID\u003c/td\u003e\n\u003ctd\u003e0\u003c/td\u003e\n\u003c/tr\u003e\n\u003ctr bgcolor=\"#D4E4F3\"\u003e\n\u003ctd\u003eShape_Leng\u003c/td\u003e\n\u003ctd\u003e18102566,9293\u003c/td\u003e\n\u003c/tr\u003e\n\u003c/table\u003e\n\u003c/td\u003e\n\u003c/tr\u003e\n\u003c/table\u003e\n\u003c/body\u003e\u003cscript type=\"text/javascript\"\u003e\n\t\t\t\tfunction changeImage(attElement, nameElement) {\n\t\t\t\tdocument.getElementById('imageAttachment').src = attElement;\n\t\t\t\tdocument.getElementById('imageName').innerHTML = nameElement;}\n\t\t\t\u003c/script\u003e\u003c/html\u003e\n","FID_active_grids":134,"GridID":"N25","Shape_Length":0.00012657631799994375,"Shape_Area":5.7209459537134437e-10}},{"type":"Feature","id":25719,"geometry":{"type":"Polygon","coordinates":[[[113.79595591600003,-7.1248872579999443],[113.79595586100004,-7.1248782229999392],[113.79594681500009,-7.124878277999926],[113.79594687000008,-7.1248873129999311],[113.79595591600003,-7.1248872579999443]]]},"properties":{"OBJECTID":25719,"FID_mangrove_utm":25633,"OBJECTID_1":25633,"Name":"18102566,9293","FolderPath":"JATIM/JATIM","SymbolID":0,"AltMode":0,"Base":0,"Clamped":-1,"Extruded":0,"Snippet":"","PopupInfo":"\u003chtml xmlns:fo=\"http://www.w3.org/1999/XSL/Format\" xmlns:msxsl=\"urn:schemas-microsoft-com:xslt\"\u003e\n\u003chead\u003e\n\u003cMETA http-equiv=\"Content-Type\" content=\"text/html\"\u003e\n\u003cmeta http-equiv=\"content-type\" content=\"text/html; charset=UTF-8\"\u003e\n\u003c/head\u003e\n\u003cbody style=\"margin:0px 0px 0px 0px;overflow:auto;background:#FFFFFF;\"\u003e\n\u003ctable style=\"font-family:Arial,Verdana,Times;font-size:12px;text-align:left;width:100%;border-collapse:collapse;padding:3px 3px 3px 3px\"\u003e\n\u003ctr style=\"text-align:center;font-weight:bold;background:#9CBCE2\"\u003e\n\u003ctd\u003e18102566,9293\u003c/td\u003e\n\u003c/tr\u003e\n\u003ctr\u003e\n\u003ctd\u003e\n\u003ctable style=\"font-family:Arial,Verdana,Times;font-size:12px;text-align:left;width:100%;border-spacing:0px; padding:3px 3px 3px 3px\"\u003e\n\u003ctr\u003e\n\u003ctd\u003eFID\u003c/td\u003e\n\u003ctd\u003e0\u003c/td\u003e\n\u003c/tr\u003e\n\u003ctr bgcolor=\"#D4E4F3\"\u003e\n\u003ctd\u003eShape_Leng\u003c/td\u003e\n\u003ctd\u003e18102566,9293\u003c/td\u003e\n\u003c/tr\u003e\n\u003c/table\u003e\n\u003c/td\u003e\n\u003c/tr\u003e\n\u003c/table\u003e\n\u003c/body\u003e\u003cscript type=\"text/javascript\"\u003e\n\t\t\t\tfunction changeImage(attElement, nameElement) {\n\t\t\t\tdocument.getElementById('imageAttachment').src = attElement;\n\t\t\t\tdocument.getElementById('imageName').innerHTML = nameElement;}\n\t\t\t\u003c/script\u003e\u003c/html\u003e\n","FID_active_grids":134,"GridID":"N25","Shape_Length":3.6162669105706046e-05,"Shape_Area":8.1733634552256773e-11}},{"type":"Feature","id":25722,"geometry":{"type":"Polygon","coordinates":[[[113.79600091300006,-7.1248490819999688],[113.79599185300003,-7.1248468139999659],[113.79599187800011,-7.1248508989999664],[113.79598283200005,-7.1248509529999637],[113.79598288700004,-7.1248599889999582],[113.79595575100006,-7.1248601529999291],[113.79595580600005,-7.1248691879999342],[113.79596485100001,-7.1248691329999474],[113.7959649610001,-7.1248872029999575],[113.79597400600005,-7.1248871479999707],[113.79597428000011,-7.1249323239999285],[113.79600141600008,-7.1249321599999575],[113.79600147100007,-7.1249411949999626],[113.79601956200008,-7.1249410849999322],[113.79601967100007,-7.1249591549999423],[113.79603776200008,-7.1249590459999581],[113.79603781700007,-7.1249680809999631],[113.79607399800011,-7.1249678619999486],[113.79607377900004,-7.1249317219999284],[113.7960828250001,-7.1249316669999416],[113.79608266000002,-7.1249045619999265],[113.79607361500007,-7.1249046169999701],[113.79607372400005,-7.1249226869999802],[113.7960646790001,-7.1249227409999776],[113.79606462400011,-7.1249137059999725],[113.79605557900004,-7.1249137609999593],[113.79605536000008,-7.1248776209999392],[113.79604631400002,-7.1248776759999259],[113.79604626000003,-7.1248686399999315],[113.79601007800011,-7.124868858999946],[113.79601002300001,-7.124859823999941],[113.79600097800005,-7.1248598789999278],[113.79600091300006,-7.1248490819999688]],[[113.79598305200011,-7.1248870939999733],[113.79601018800008,-7.1248869299999456],[113.79601029700007,-7.1249049999999556],[113.79600125200011,-7.124905053999953],[113.79600119700001,-7.124896018999948],[113.79598310600011,-7.1248961289999784],[113.79598305200011,-7.1248870939999733]]]},"properties":{"OBJECTID":25722,"FID_mangrove_utm":25636,"OBJECTID_1":25636,"Name":"18102566,9293","FolderPath":"JATIM/JATIM","SymbolID":0,"AltMode":0,"Base":0,"Clamped":-1,"Extruded":0,"Snippet":"","PopupInfo":"\u003chtml xmlns:fo=\"http://www.w3.org/1999/XSL/Format\" xmlns:msxsl=\"urn:schemas-microsoft-com:xslt\"\u003e\n\u003chead\u003e\n\u003cMETA http-equiv=\"Content-Type\" content=\"text/html\"\u003e\n\u003cmeta http-equiv=\"content-type\" content=\"text/html; charset=UTF-8\"\u003e\n\u003c/head\u003e\n\u003cbody style=\"margin:0px 0px 0px 0px;overflow:auto;background:#FFFFFF;\"\u003e\n\u003ctable style=\"font-family:Arial,Verdana,Times;font-size:12px;text-align:left;width:100%;border-collapse:collapse;padding:3px 3px 3px 3px\"\u003e\n\u003ctr style=\"text-align:center;font-weight:bold;background:#9CBCE2\"\u003e\n\u003ctd\u003e18102566,9293\u003c/td\u003e\n\u003c/tr\u003e\n\u003ctr\u003e\n\u003ctd\u003e\n\u003ctable style=\"font-family:Arial,Verdana,Times;font-size:12px;text-align:left;width:100%;border-spacing:0px; padding:3px 3px 3px 3px\"\u003e\n\u003ctr\u003e\n\u003ctd\u003eFID\u003c/td\u003e\n\u003ctd\u003e0\u003c/td\u003e\n\u003c/tr\u003e\n\u003ctr bgcolor=\"#D4E4F3\"\u003e\n\u003ctd\u003eShape_Leng\u003c/td\u003e\n\u003ctd\u003e18102566,9293\u003c/td\u003e\n\u003c/tr\u003e\n\u003c/table\u003e\n\u003c/td\u003e\n\u003c/tr\u003e\n\u003c/table\u003e\n\u003c/body\u003e\u003cscript type=\"text/javascript\"\u003e\n\t\t\t\tfunction changeImage(attElement, nameElement) {\n\t\t\t\tdocument.getElementById('imageAttachment').src = attElement;\n\t\t\t\tdocument.getElementById('imageName').innerHTML = nameElement;}\n\t\t\t\u003c/script\u003e\u003c/html\u003e\n","FID_active_grids":134,"GridID":"N25","Shape_Length":0.00062088777360983524,"Shape_Area":8.0358774236514485e-09}},{"type":"Feature","id":25804,"geometry":{"type":"Polygon","coordinates":[[[113.78246404900005,-7.1241153559999475],[113.78246407300003,-7.1241193569999268],[113.78245502700008,-7.1241194119999705],[113.78245508200007,-7.1241284469999755],[113.78244603700011,-7.1241285009999729],[113.7824461460001,-7.1241465719999724],[113.78245519100005,-7.1241465169999287],[113.78245524600004,-7.12415555299998],[113.78247333600007,-7.1241554439999391],[113.78247339100005,-7.1241644789999441],[113.78249148200007,-7.1241643699999599],[113.78249159100005,-7.12418243999997],[113.78250063600001,-7.1241823859999727],[113.78250069100011,-7.1241914209999777],[113.78250973600007,-7.1241913669999803],[113.78250979100005,-7.1242004019999285],[113.78251883600001,-7.1242003469999418],[113.78251894500011,-7.1242184179999413],[113.78253703600001,-7.1242183089999571],[113.78253687300003,-7.1241912029999526],[113.7825459180001,-7.1241911489999552],[113.7825458640001,-7.1241821129999607],[113.78255490900005,-7.1241820589999634],[113.78255485500006,-7.1241730239999583],[113.78256390000001,-7.1241729689999715],[113.78256384600002,-7.1241639339999665],[113.78257289100009,-7.1241638799999691],[113.7825728360001,-7.1241548449999641],[113.78253665500006,-7.124155061999943],[113.78253670900006,-7.1241640979999374],[113.78250052700002,-7.1241643149999732],[113.78250047300003,-7.1241552799999681],[113.7825095180001,-7.1241552259999708],[113.7825094640001,-7.1241461909999657],[113.78252755500012,-7.1241460819999816],[113.78252752800006,-7.1241416759999652],[113.7825147530001,-7.124140238999928],[113.78250033900008,-7.1241331649999324],[113.78250041800004,-7.1241462449999631],[113.78249137300008,-7.1241462999999499],[113.78249126700007,-7.1241287129999478],[113.78246404900005,-7.1241153559999475]]]},"properties":{"OBJECTID":25804,"FID_mangrove_utm":25718,"OBJECTID_1":25718,"Name":"18102566,9293","FolderPath":"JATIM/JATIM","SymbolID":0,"AltMode":0,"Base":0,"Clamped":-1,"Extruded":0,"Snippet":"","PopupInfo":"\u003chtml xmlns:fo=\"http://www.w3.org/1999/XSL/Format\" xmlns:msxsl=\"urn:schemas-microsoft-com:xslt\"\u003e\n\u003chead\u003e\n\u003cMETA http-equiv=\"Content-Type\" content=\"text/html\"\u003e\n\u003cmeta http-equiv=\"content-type\" content=\"text/html; charset=UTF-8\"\u003e\n\u003c/head\u003e\n\u003cbody style=\"margin:0px 0px 0px 0px;overflow:auto;background:#FFFFFF;\"\u003e\n\u003ctable style=\"font-family:Arial,Verdana,Times;font-size:12px;text-align:left;width:100%;border-collapse:collapse;padding:3px 3px 3px 3px\"\u003e\n\u003ctr style=\"text-align:center;font-weight:bold;background:#9CBCE2\"\u003e\n\u003ctd\u003e18102566,9293\u003c/td\u003e\n\u003c/tr\u003e\n\u003ctr\u003e\n\u003ctd\u003e\n\u003ctable style=\"font-family:Arial,Verdana,Times;font-size:12px;text-align:left;width:100%;border-spacing:0px; padding:3px 3px 3px 3px\"\u003e\n\u003ctr\u003e\n\u003ctd\u003eFID\u003c/td\u003e\n\u003ctd\u003e0\u003c/td\u003e\n\u003c/tr\u003e\n\u003ctr bgcolor=\"#D4E4F3\"\u003e\n\u003ctd\u003eShape_Leng\u003c/td\u003e\n\u003ctd\u003e18102566,9293\u003c/td\u003e\n\u003c/tr\u003e\n\u003c/table\u003e\n\u003c/td\u003e\n\u003c/tr\u003e\n\u003c/table\u003e\n\u003c/body\u003e\u003cscript type=\"text/javascript\"\u003e\n\t\t\t\tfunction changeImage(attElement, nameElement) {\n\t\t\t\tdocument.getElementById('imageAttachment').src = attElement;\n\t\t\t\tdocument.getElementById('imageName').innerHTML = nameElement;}\n\t\t\t\u003c/script\u003e\u003c/html\u003e\n","FID_active_grids":134,"GridID":"N25","Shape_Length":0.00054132139979444591,"Shape_Area":4.5410323894296967e-09}},{"type":"Feature","id":25861,"geometry":{"type":"Polygon","coordinates":[[[113.77474523000001,-7.1236597739999752],[113.77474517600001,-7.1236507389999701],[113.77473613100005,-7.1236507929999675],[113.77473618500005,-7.123659828999962],[113.77474523000001,-7.1236597739999752]]]},"properties":{"OBJECTID":25861,"FID_mangrove_utm":25775,"OBJECTID_1":25775,"Name":"18102566,9293","FolderPath":"JATIM/JATIM","SymbolID":0,"AltMode":0,"Base":0,"Clamped":-1,"Extruded":0,"Snippet":"","PopupInfo":"\u003chtml xmlns:fo=\"http://www.w3.org/1999/XSL/Format\" xmlns:msxsl=\"urn:schemas-microsoft-com:xslt\"\u003e\n\u003chead\u003e\n\u003cMETA http-equiv=\"Content-Type\" content=\"text/html\"\u003e\n\u003cmeta http-equiv=\"content-type\" content=\"text/html; charset=UTF-8\"\u003e\n\u003c/head\u003e\n\u003cbody style=\"margin:0px 0px 0px 0px;overflow:auto;background:#FFFFFF;\"\u003e\n\u003ctable style=\"font-family:Arial,Verdana,Times;font-size:12px;text-align:left;width:100%;border-collapse:collapse;padding:3px 3px 3px 3px\"\u003e\n\u003ctr style=\"text-align:center;font-weight:bold;background:#9CBCE2\"\u003e\n\u003ctd\u003e18102566,9293\u003c/td\u003e\n\u003c/tr\u003e\n\u003ctr\u003e\n\u003ctd\u003e\n\u003ctable style=\"font-family:Arial,Verdana,Times;font-size:12px;text-align:left;width:100%;border-spacing:0px; padding:3px 3px 3px 3px\"\u003e\n\u003ctr\u003e\n\u003ctd\u003eFID\u003c/td\u003e\n\u003ctd\u003e0\u003c/td\u003e\n\u003c/tr\u003e\n\u003ctr bgcolor=\"#D4E4F3\"\u003e\n\u003ctd\u003eShape_Leng\u003c/td\u003e\n\u003ctd\u003e18102566,9293\u003c/td\u003e\n\u003c/tr\u003e\n\u003c/table\u003e\n\u003c/td\u003e\n\u003c/tr\u003e\n\u003c/table\u003e\n\u003c/body\u003e\u003cscript type=\"text/javascript\"\u003e\n\t\t\t\tfunction changeImage(attElement, nameElement) {\n\t\t\t\tdocument.getElementById('imageAttachment').src = attElement;\n\t\t\t\tdocument.getElementById('imageName').innerHTML = nameElement;}\n\t\t\t\u003c/script\u003e\u003c/html\u003e\n","FID_active_grids":134,"GridID":"N25","Shape_Length":3.6161651046292338e-05,"Shape_Area":8.1729040100833007e-11}},{"type":"Feature","id":25863,"geometry":{"type":"Polygon","coordinates":[[[113.77471804000004,-7.1236509019999517],[113.77471798500005,-7.1236418669999466],[113.7747089400001,-7.123641920999944],[113.77470899400009,-7.123650955999949],[113.77471804000004,-7.1236509019999517]]]},"properties":{"OBJECTID":25863,"FID_mangrove_utm":25777,"OBJECTID_1":25777,"Name":"18102566,9293","FolderPath":"JATIM/JATIM","SymbolID":0,"AltMode":0,"Base":0,"Clamped":-1,"Extruded":0,"Snippet":"","PopupInfo":"\u003chtml xmlns:fo=\"http://www.w3.org/1999/XSL/Format\" xmlns:msxsl=\"urn:schemas-microsoft-com:xslt\"\u003e\n\u003chead\u003e\n\u003cMETA http-equiv=\"Content-Type\" content=\"text/html\"\u003e\n\u003cmeta http-equiv=\"content-type\" content=\"text/html; charset=UTF-8\"\u003e\n\u003c/head\u003e\n\u003cbody style=\"margin:0px 0px 0px 0px;overflow:auto;background:#FFFFFF;\"\u003e\n\u003ctable style=\"font-family:Arial,Verdana,Times;font-size:12px;text-align:left;width:100%;border-collapse:collapse;padding:3px 3px 3px 3px\"\u003e\n\u003ctr style=\"text-align:center;font-weight:bold;background:#9CBCE2\"\u003e\n\u003ctd\u003e18102566,9293\u003c/td\u003e\n\u003c/tr\u003e\n\u003ctr\u003e\n\u003ctd\u003e\n\u003ctable style=\"font-family:Arial,Verdana,Times;font-size:12px;text-align:left;width:100%;border-spacing:0px; padding:3px 3px 3px 3px\"\u003e\n\u003ctr\u003e\n\u003ctd\u003eFID\u003c/td\u003e\n\u003ctd\u003e0\u003c/td\u003e\n\u003c/tr\u003e\n\u003ctr bgcolor=\"#D4E4F3\"\u003e\n\u003ctd\u003eShape_Leng\u003c/td\u003e\n\u003ctd\u003e18102566,9293\u003c/td\u003e\n\u003c/tr\u003e\n\u003c/table\u003e\n\u003c/td\u003e\n\u003c/tr\u003e\n\u003c/table\u003e\n\u003c/body\u003e\u003cscript type=\"text/javascript\"\u003e\n\t\t\t\tfunction changeImage(attElement, nameElement) {\n\t\t\t\tdocument.getElementById('imageAttachment').src = attElement;\n\t\t\t\tdocument.getElementById('imageName').innerHTML = nameElement;}\n\t\t\t\u003c/script\u003e\u003c/html\u003e\n","FID_active_grids":134,"GridID":"N25","Shape_Length":3.6161651053000324e-05,"Shape_Area":8.1729035100910326e-11}},{"type":"Feature","id":25865,"geometry":{"type":"Polygon","coordinates":[[[113.77437414700012,-7.1236258599999474],[113.77437409300001,-7.1236168249999423],[113.77436504700006,-7.1236168789999397],[113.77436510200005,-7.1236259139999447],[113.77437414700012,-7.1236258599999474]]]},"properties":{"OBJECTID":25865,"FID_mangrove_utm":25779,"OBJECTID_1":25779,"Name":"18102566,9293","FolderPath":"JATIM/JATIM","SymbolID":0,"AltMode":0,"Base":0,"Clamped":-1,"Extruded":0,"Snippet":"","PopupInfo":"\u003chtml xmlns:fo=\"http://www.w3.org/1999/XSL/Format\" xmlns:msxsl=\"urn:schemas-microsoft-com:xslt\"\u003e\n\u003chead\u003e\n\u003cMETA http-equiv=\"Content-Type\" content=\"text/html\"\u003e\n\u003cmeta http-equiv=\"content-type\" content=\"text/html; charset=UTF-8\"\u003e\n\u003c/head\u003e\n\u003cbody style=\"margin:0px 0px 0px 0px;overflow:auto;background:#FFFFFF;\"\u003e\n\u003ctable style=\"font-family:Arial,Verdana,Times;font-size:12px;text-align:left;width:100%;border-collapse:collapse;padding:3px 3px 3px 3px\"\u003e\n\u003ctr style=\"text-align:center;font-weight:bold;background:#9CBCE2\"\u003e\n\u003ctd\u003e18102566,9293\u003c/td\u003e\n\u003c/tr\u003e\n\u003ctr\u003e\n\u003ctd\u003e\n\u003ctable style=\"font-family:Arial,Verdana,Times;font-size:12px;text-align:left;width:100%;border-spacing:0px; padding:3px 3px 3px 3px\"\u003e\n\u003ctr\u003e\n\u003ctd\u003eFID\u003c/td\u003e\n\u003ctd\u003e0\u003c/td\u003e\n\u003c/tr\u003e\n\u003ctr bgcolor=\"#D4E4F3\"\u003e\n\u003ctd\u003eShape_Leng\u003c/td\u003e\n\u003ctd\u003e18102566,9293\u003c/td\u003e\n\u003c/tr\u003e\n\u003c/table\u003e\n\u003c/td\u003e\n\u003c/tr\u003e\n\u003c/table\u003e\n\u003c/body\u003e\u003cscript type=\"text/javascript\"\u003e\n\t\t\t\tfunction changeImage(attElement, nameElement) {\n\t\t\t\tdocument.getElementById('imageAttachment').src = attElement;\n\t\t\t\tdocument.getElementById('imageName').innerHTML = nameElement;}\n\t\t\t\u003c/script\u003e\u003c/html\u003e\n","FID_active_grids":134,"GridID":"N25","Shape_Length":3.6161651167364599e-05,"Shape_Area":8.1729035617560176e-11}},{"type":"Feature","id":25869,"geometry":{"type":"Polygon","coordinates":[[[113.77436499300006,-7.1236078439999346],[113.77436493900007,-7.1235988079999402],[113.77434684800005,-7.1235989169999812],[113.77434690200005,-7.1236079519999294],[113.77436499300006,-7.1236078439999346]]]},"properties":{"OBJECTID":25869,"FID_mangrove_utm":25783,"OBJECTID_1":25783,"Name":"18102566,9293","FolderPath":"JATIM/JATIM","SymbolID":0,"AltMode":0,"Base":0,"Clamped":-1,"Extruded":0,"Snippet":"","PopupInfo":"\u003chtml xmlns:fo=\"http://www.w3.org/1999/XSL/Format\" xmlns:msxsl=\"urn:schemas-microsoft-com:xslt\"\u003e\n\u003chead\u003e\n\u003cMETA http-equiv=\"Content-Type\" content=\"text/html\"\u003e\n\u003cmeta http-equiv=\"content-type\" content=\"text/html; charset=UTF-8\"\u003e\n\u003c/head\u003e\n\u003cbody style=\"margin:0px 0px 0px 0px;overflow:auto;background:#FFFFFF;\"\u003e\n\u003ctable style=\"font-family:Arial,Verdana,Times;font-size:12px;text-align:left;width:100%;border-collapse:collapse;padding:3px 3px 3px 3px\"\u003e\n\u003ctr style=\"text-align:center;font-weight:bold;background:#9CBCE2\"\u003e\n\u003ctd\u003e18102566,9293\u003c/td\u003e\n\u003c/tr\u003e\n\u003ctr\u003e\n\u003ctd\u003e\n\u003ctable style=\"font-family:Arial,Verdana,Times;font-size:12px;text-align:left;width:100%;border-spacing:0px; padding:3px 3px 3px 3px\"\u003e\n\u003ctr\u003e\n\u003ctd\u003eFID\u003c/td\u003e\n\u003ctd\u003e0\u003c/td\u003e\n\u003c/tr\u003e\n\u003ctr bgcolor=\"#D4E4F3\"\u003e\n\u003ctd\u003eShape_Leng\u003c/td\u003e\n\u003ctd\u003e18102566,9293\u003c/td\u003e\n\u003c/tr\u003e\n\u003c/table\u003e\n\u003c/td\u003e\n\u003c/tr\u003e\n\u003c/table\u003e\n\u003c/body\u003e\u003cscript type=\"text/javascript\"\u003e\n\t\t\t\tfunction changeImage(attElement, nameElement) {\n\t\t\t\tdocument.getElementById('imageAttachment').src = attElement;\n\t\t\t\tdocument.getElementById('imageName').innerHTML = nameElement;}\n\t\t\t\u003c/script\u003e\u003c/html\u003e\n","FID_active_grids":134,"GridID":"N25","Shape_Length":5.4253973429822965e-05,"Shape_Area":1.6346708912097364e-10}},{"type":"Feature","id":25901,"geometry":{"type":"Polygon","coordinates":[[[113.77365808500008,-7.1233861969999452],[113.77365813900008,-7.1233952319999503],[113.77366718500002,-7.1233951779999529],[113.77366723900002,-7.123404212999958],[113.77368533000003,-7.1234041049999632],[113.77368527600004,-7.1233950689999688],[113.77369432100011,-7.1233950149999714],[113.77369426700011,-7.1233859799999664],[113.77365808500008,-7.1233861969999452]]]},"properties":{"OBJECTID":25901,"FID_mangrove_utm":25814,"OBJECTID_1":25814,"Name":"18102566,9293","FolderPath":"JATIM/JATIM","SymbolID":0,"AltMode":0,"Base":0,"Clamped":-1,"Extruded":0,"Snippet":"","PopupInfo":"\u003chtml xmlns:fo=\"http://www.w3.org/1999/XSL/Format\" xmlns:msxsl=\"urn:schemas-microsoft-com:xslt\"\u003e\n\u003chead\u003e\n\u003cMETA http-equiv=\"Content-Type\" content=\"text/html\"\u003e\n\u003cmeta http-equiv=\"content-type\" content=\"text/html; charset=UTF-8\"\u003e\n\u003c/head\u003e\n\u003cbody style=\"margin:0px 0px 0px 0px;overflow:auto;background:#FFFFFF;\"\u003e\n\u003ctable style=\"font-family:Arial,Verdana,Times;font-size:12px;text-align:left;width:100%;border-collapse:collapse;padding:3px 3px 3px 3px\"\u003e\n\u003ctr style=\"text-align:center;font-weight:bold;background:#9CBCE2\"\u003e\n\u003ctd\u003e18102566,9293\u003c/td\u003e\n\u003c/tr\u003e\n\u003ctr\u003e\n\u003ctd\u003e\n\u003ctable style=\"font-family:Arial,Verdana,Times;font-size:12px;text-align:left;width:100%;border-spacing:0px; padding:3px 3px 3px 3px\"\u003e\n\u003ctr\u003e\n\u003ctd\u003eFID\u003c/td\u003e\n\u003ctd\u003e0\u003c/td\u003e\n\u003c/tr\u003e\n\u003ctr bgcolor=\"#D4E4F3\"\u003e\n\u003ctd\u003eShape_Leng\u003c/td\u003e\n\u003ctd\u003e18102566,9293\u003c/td\u003e\n\u003c/tr\u003e\n\u003c/table\u003e\n\u003c/td\u003e\n\u003c/tr\u003e\n\u003c/table\u003e\n\u003c/body\u003e\u003cscript type=\"text/javascript\"\u003e\n\t\t\t\tfunction changeImage(attElement, nameElement) {\n\t\t\t\tdocument.getElementById('imageAttachment').src = attElement;\n\t\t\t\tdocument.getElementById('imageName').innerHTML = nameElement;}\n\t\t\t\u003c/script\u003e\u003c/html\u003e\n","FID_active_grids":134,"GridID":"N25","Shape_Length":0.00010850694098997692,"Shape_Area":4.9038325958201557e-10}},{"type":"Feature","id":25904,"geometry":{"type":"Polygon","coordinates":[[[113.77365808500008,-7.1233861969999452],[113.77365803000009,-7.1233771619999402],[113.77364898500002,-7.1233772159999376],[113.77364903900002,-7.1233862509999426],[113.77365808500008,-7.1233861969999452]]]},"properties":{"OBJECTID":25904,"FID_mangrove_utm":25817,"OBJECTID_1":25817,"Name":"18102566,9293","FolderPath":"JATIM/JATIM","SymbolID":0,"AltMode":0,"Base":0,"Clamped":-1,"Extruded":0,"Snippet":"","PopupInfo":"\u003chtml xmlns:fo=\"http://www.w3.org/1999/XSL/Format\" xmlns:msxsl=\"urn:schemas-microsoft-com:xslt\"\u003e\n\u003chead\u003e\n\u003cMETA http-equiv=\"Content-Type\" content=\"text/html\"\u003e\n\u003cmeta http-equiv=\"content-type\" content=\"text/html; charset=UTF-8\"\u003e\n\u003c/head\u003e\n\u003cbody style=\"margin:0px 0px 0px 0px;overflow:auto;background:#FFFFFF;\"\u003e\n\u003ctable style=\"font-family:Arial,Verdana,Times;font-size:12px;text-align:left;width:100%;border-collapse:collapse;padding:3px 3px 3px 3px\"\u003e\n\u003ctr style=\"text-align:center;font-weight:bold;background:#9CBCE2\"\u003e\n\u003ctd\u003e18102566,9293\u003c/td\u003e\n\u003c/tr\u003e\n\u003ctr\u003e\n\u003ctd\u003e\n\u003ctable style=\"font-family:Arial,Verdana,Times;font-size:12px;text-align:left;width:100%;border-spacing:0px; padding:3px 3px 3px 3px\"\u003e\n\u003ctr\u003e\n\u003ctd\u003eFID\u003c/td\u003e\n\u003ctd\u003e0\u003c/td\u003e\n\u003c/tr\u003e\n\u003ctr bgcolor=\"#D4E4F3\"\u003e\n\u003ctd\u003eShape_Leng\u003c/td\u003e\n\u003ctd\u003e18102566,9293\u003c/td\u003e\n\u003c/tr\u003e\n\u003c/table\u003e\n\u003c/td\u003e\n\u003c/tr\u003e\n\u003c/table\u003e\n\u003c/body\u003e\u003cscript type=\"text/javascript\"\u003e\n\t\t\t\tfunction changeImage(attElement, nameElement) {\n\t\t\t\tdocument.getElementById('imageAttachment').src = attElement;\n\t\t\t\tdocument.getElementById('imageName').innerHTML = nameElement;}\n\t\t\t\u003c/script\u003e\u003c/html\u003e\n","FID_active_grids":134,"GridID":"N25","Shape_Length":3.6161651280369948e-05,"Shape_Area":8.1729036128070924e-11}},{"type":"Feature","id":25907,"geometry":{"type":"Polygon","coordinates":[[[113.77380258300002,-7.1233470579999789],[113.77376991800008,-7.1233403479999424],[113.77376635900009,-7.1233403689999477],[113.77376652200007,-7.1233674749999523],[113.77374843100006,-7.1233675839999364],[113.77374864800004,-7.123403724999946],[113.7737576940001,-7.1234036699999592],[113.7737576400001,-7.1233946349999542],[113.77376668500006,-7.1233945809999568],[113.77376673900005,-7.1234036159999619],[113.77377578500011,-7.1234035619999645],[113.77377583900011,-7.1234125969999695],[113.77380297600007,-7.1234124339999312],[113.77380303000007,-7.1234214699999256],[113.77381207600001,-7.1234214149999389],[113.77381213000001,-7.1234304499999439],[113.77382117600007,-7.1234303959999465],[113.77382123000007,-7.1234394309999516],[113.77387550300011,-7.123439105999978],[113.77387544900012,-7.1234300699999267],[113.77388449400007,-7.1234300159999293],[113.77388444000007,-7.1234209809999811],[113.77390253100009,-7.1234208719999401],[113.77390263900008,-7.1234389429999396],[113.77392977600005,-7.1234387799999581],[113.77392983000004,-7.1234478149999632],[113.7739388760001,-7.1234477609999658],[113.7739389300001,-7.1234567959999708],[113.77392988500003,-7.1234568499999682],[113.77392993900003,-7.1234658859999627],[113.7739570760001,-7.1234657229999812],[113.7739571300001,-7.1234747579999294],[113.77396617500006,-7.123474703999932],[113.77396623000004,-7.123483738999937],[113.77397527500011,-7.1234836849999397],[113.7739753300001,-7.1234927199999447],[113.77398437500005,-7.1234926659999473],[113.77398442900005,-7.1235017009999524],[113.77401156600001,-7.1235015379999709],[113.77401162000001,-7.1235105729999759],[113.77402971100003,-7.1235104649999812],[113.77402965700003,-7.1235014299999762],[113.77404774800004,-7.1235013209999352],[113.77404780200004,-7.1235103559999402],[113.77413825700012,-7.1235098129999415],[113.77413820300001,-7.1235007779999364],[113.77408393000007,-7.1235011039999563],[113.77408387600008,-7.1234920689999512],[113.77405673900012,-7.1234922309999433],[113.77405668500001,-7.1234831959999383],[113.77402954800004,-7.1234833589999766],[113.77402944000005,-7.1234652889999666],[113.77401134900003,-7.1234653969999613],[113.77401129400005,-7.1234563619999562],[113.77398415800008,-7.1234565249999378],[113.77398404900009,-7.1234384539999382],[113.77397500400002,-7.123438508999925],[113.77397494900003,-7.1234294729999306],[113.77394781300006,-7.1234296359999689],[113.77394770400008,-7.1234115659999588],[113.77395674900004,-7.1234115109999721],[113.77395664100004,-7.123393440999962],[113.77396568600011,-7.1233933869999646],[113.77396563600007,-7.1233850339999663],[113.7739630320001,-7.1233843669999715],[113.77392945000008,-7.1233845689999384],[113.77392939700007,-7.1233757489999334],[113.77392857300003,-7.1233755379999479],[113.77392035000003,-7.1233755879999308],[113.77392033700005,-7.1233734279999794],[113.77387742200006,-7.1233624329999543],[113.77387503900002,-7.1233619429999635],[113.77387506800005,-7.1233668239999588],[113.77385697700004,-7.1233669319999535],[113.77385692500002,-7.1233582219999789],[113.77385538700003,-7.123357905999967],[113.77383883200002,-7.1233580059999326],[113.77383881100002,-7.1233545009999375],[113.77381265300005,-7.1233491269999263],[113.77380259500001,-7.1233491879999633],[113.77380258300002,-7.1233470579999789]],[[113.77394792100006,-7.1234477069999684],[113.77395696700012,-7.1234476519999248],[113.77395702100011,-7.1234566879999761],[113.77394797600004,-7.1234567419999735],[113.77394792100006,-7.1234477069999684]]]},"properties":{"OBJECTID":25907,"FID_mangrove_utm":25820,"OBJECTID_1":25820,"Name":"18102566,9293","FolderPath":"JATIM/JATIM","SymbolID":0,"AltMode":0,"Base":0,"Clamped":-1,"Extruded":0,"Snippet":"","PopupInfo":"\u003chtml xmlns:fo=\"http://www.w3.org/1999/XSL/Format\" xmlns:msxsl=\"urn:schemas-microsoft-com:xslt\"\u003e\n\u003chead\u003e\n\u003cMETA http-equiv=\"Content-Type\" content=\"text/html\"\u003e\n\u003cmeta http-equiv=\"content-type\" content=\"text/html; charset=UTF-8\"\u003e\n\u003c/head\u003e\n\u003cbody style=\"margin:0px 0px 0px 0px;overflow:auto;background:#FFFFFF;\"\u003e\n\u003ctable style=\"font-family:Arial,Verdana,Times;font-size:12px;text-align:left;width:100%;border-collapse:collapse;padding:3px 3px 3px 3px\"\u003e\n\u003ctr style=\"text-align:center;font-weight:bold;background:#9CBCE2\"\u003e\n\u003ctd\u003e18102566,9293\u003c/td\u003e\n\u003c/tr\u003e\n\u003ctr\u003e\n\u003ctd\u003e\n\u003ctable style=\"font-family:Arial,Verdana,Times;font-size:12px;text-align:left;width:100%;border-spacing:0px; padding:3px 3px 3px 3px\"\u003e\n\u003ctr\u003e\n\u003ctd\u003eFID\u003c/td\u003e\n\u003ctd\u003e0\u003c/td\u003e\n\u003c/tr\u003e\n\u003ctr bgcolor=\"#D4E4F3\"\u003e\n\u003ctd\u003eShape_Leng\u003c/td\u003e\n\u003ctd\u003e18102566,9293\u003c/td\u003e\n\u003c/tr\u003e\n\u003c/table\u003e\n\u003c/td\u003e\n\u003c/tr\u003e\n\u003c/table\u003e\n\u003c/body\u003e\u003cscript type=\"text/javascript\"\u003e\n\t\t\t\tfunction changeImage(attElement, nameElement) {\n\t\t\t\tdocument.getElementById('imageAttachment').src = attElement;\n\t\t\t\tdocument.getElementById('imageName').innerHTML = nameElement;}\n\t\t\t\u003c/script\u003e\u003c/html\u003e\n","FID_active_grids":134,"GridID":"N25","Shape_Length":0.0012712969958361554,"Shape_Area":1.9059940489233787e-08}},{"type":"Feature","id":26044,"geometry":{"type":"Polygon","coordinates":[[[113.7658664060001,-7.1213456579999388],[113.7658663520001,-7.1213366229999338],[113.76585730600004,-7.1213366769999311],[113.76585736000004,-7.1213457119999362],[113.7658664060001,-7.1213456579999388]]]},"properties":{"OBJECTID":26044,"FID_mangrove_utm":25957,"OBJECTID_1":25957,"Name":"18102566,9293","FolderPath":"JATIM/JATIM","SymbolID":0,"AltMode":0,"Base":0,"Clamped":-1,"Extruded":0,"Snippet":"","PopupInfo":"\u003chtml xmlns:fo=\"http://www.w3.org/1999/XSL/Format\" xmlns:msxsl=\"urn:schemas-microsoft-com:xslt\"\u003e\n\u003chead\u003e\n\u003cMETA http-equiv=\"Content-Type\" content=\"text/html\"\u003e\n\u003cmeta http-equiv=\"content-type\" content=\"text/html; charset=UTF-8\"\u003e\n\u003c/head\u003e\n\u003cbody style=\"margin:0px 0px 0px 0px;overflow:auto;background:#FFFFFF;\"\u003e\n\u003ctable style=\"font-family:Arial,Verdana,Times;font-size:12px;text-align:left;width:100%;border-collapse:collapse;padding:3px 3px 3px 3px\"\u003e\n\u003ctr style=\"text-align:center;font-weight:bold;background:#9CBCE2\"\u003e\n\u003ctd\u003e18102566,9293\u003c/td\u003e\n\u003c/tr\u003e\n\u003ctr\u003e\n\u003ctd\u003e\n\u003ctable style=\"font-family:Arial,Verdana,Times;font-size:12px;text-align:left;width:100%;border-spacing:0px; padding:3px 3px 3px 3px\"\u003e\n\u003ctr\u003e\n\u003ctd\u003eFID\u003c/td\u003e\n\u003ctd\u003e0\u003c/td\u003e\n\u003c/tr\u003e\n\u003ctr bgcolor=\"#D4E4F3\"\u003e\n\u003ctd\u003eShape_Leng\u003c/td\u003e\n\u003ctd\u003e18102566,9293\u003c/td\u003e\n\u003c/tr\u003e\n\u003c/table\u003e\n\u003c/td\u003e\n\u003c/tr\u003e\n\u003c/table\u003e\n\u003c/body\u003e\u003cscript type=\"text/javascript\"\u003e\n\t\t\t\tfunction changeImage(attElement, nameElement) {\n\t\t\t\tdocument.getElementById('imageAttachment').src = attElement;\n\t\t\t\tdocument.getElementById('imageName').innerHTML = nameElement;}\n\t\t\t\u003c/script\u003e\u003c/html\u003e\n","FID_active_grids":134,"GridID":"N25","Shape_Length":3.6162645220052866e-05,"Shape_Area":8.1733526580585915e-11}},{"type":"Feature","id":26046,"geometry":{"type":"Polygon","coordinates":[[[113.76462673500009,-7.1212807879999787],[113.7646266810001,-7.1212717519999273],[113.76459049800008,-7.1212719689999631],[113.76459055300006,-7.1212810039999681],[113.76462673500009,-7.1212807879999787]]]},"properties":{"OBJECTID":26046,"FID_mangrove_utm":25959,"OBJECTID_1":25959,"Name":"18102566,9293","FolderPath":"JATIM/JATIM","SymbolID":0,"AltMode":0,"Base":0,"Clamped":-1,"Extruded":0,"Snippet":"","PopupInfo":"\u003chtml xmlns:fo=\"http://www.w3.org/1999/XSL/Format\" xmlns:msxsl=\"urn:schemas-microsoft-com:xslt\"\u003e\n\u003chead\u003e\n\u003cMETA http-equiv=\"Content-Type\" content=\"text/html\"\u003e\n\u003cmeta http-equiv=\"content-type\" content=\"text/html; charset=UTF-8\"\u003e\n\u003c/head\u003e\n\u003cbody style=\"margin:0px 0px 0px 0px;overflow:auto;background:#FFFFFF;\"\u003e\n\u003ctable style=\"font-family:Arial,Verdana,Times;font-size:12px;text-align:left;width:100%;border-collapse:collapse;padding:3px 3px 3px 3px\"\u003e\n\u003ctr style=\"text-align:center;font-weight:bold;background:#9CBCE2\"\u003e\n\u003ctd\u003e18102566,9293\u003c/td\u003e\n\u003c/tr\u003e\n\u003ctr\u003e\n\u003ctd\u003e\n\u003ctable style=\"font-family:Arial,Verdana,Times;font-size:12px;text-align:left;width:100%;border-spacing:0px; padding:3px 3px 3px 3px\"\u003e\n\u003ctr\u003e\n\u003ctd\u003eFID\u003c/td\u003e\n\u003ctd\u003e0\u003c/td\u003e\n\u003c/tr\u003e\n\u003ctr bgcolor=\"#D4E4F3\"\u003e\n\u003ctd\u003eShape_Leng\u003c/td\u003e\n\u003ctd\u003e18102566,9293\u003c/td\u003e\n\u003c/tr\u003e\n\u003c/table\u003e\n\u003c/td\u003e\n\u003c/tr\u003e\n\u003c/table\u003e\n\u003c/body\u003e\u003cscript type=\"text/javascript\"\u003e\n\t\t\t\tfunction changeImage(attElement, nameElement) {\n\t\t\t\tdocument.getElementById('imageAttachment').src = attElement;\n\t\t\t\tdocument.getElementById('imageName').innerHTML = nameElement;}\n\t\t\t\u003c/script\u003e\u003c/html\u003e\n","FID_active_grids":134,"GridID":"N25","Shape_Length":9.0437624298471942e-05,"Shape_Area":3.2693877924850647e-10}},{"type":"Feature","id":26047,"geometry":{"type":"Polygon","coordinates":[[[113.76473528100007,-7.121280138999964],[113.76473522700007,-7.1212711029999696],[113.76472618100001,-7.1212711569999669],[113.76472623600012,-7.1212801929999614],[113.76473528100007,-7.121280138999964]]]},"properties":{"OBJECTID":26047,"FID_mangrove_utm":25960,"OBJECTID_1":25960,"Name":"18102566,9293","FolderPath":"JATIM/JATIM","SymbolID":0,"AltMode":0,"Base":0,"Clamped":-1,"Extruded":0,"Snippet":"","PopupInfo":"\u003chtml xmlns:fo=\"http://www.w3.org/1999/XSL/Format\" xmlns:msxsl=\"urn:schemas-microsoft-com:xslt\"\u003e\n\u003chead\u003e\n\u003cMETA http-equiv=\"Content-Type\" content=\"text/html\"\u003e\n\u003cmeta http-equiv=\"content-type\" content=\"text/html; charset=UTF-8\"\u003e\n\u003c/head\u003e\n\u003cbody style=\"margin:0px 0px 0px 0px;overflow:auto;background:#FFFFFF;\"\u003e\n\u003ctable style=\"font-family:Arial,Verdana,Times;font-size:12px;text-align:left;width:100%;border-collapse:collapse;padding:3px 3px 3px 3px\"\u003e\n\u003ctr style=\"text-align:center;font-weight:bold;background:#9CBCE2\"\u003e\n\u003ctd\u003e18102566,9293\u003c/td\u003e\n\u003c/tr\u003e\n\u003ctr\u003e\n\u003ctd\u003e\n\u003ctable style=\"font-family:Arial,Verdana,Times;font-size:12px;text-align:left;width:100%;border-spacing:0px; padding:3px 3px 3px 3px\"\u003e\n\u003ctr\u003e\n\u003ctd\u003eFID\u003c/td\u003e\n\u003ctd\u003e0\u003c/td\u003e\n\u003c/tr\u003e\n\u003ctr bgcolor=\"#D4E4F3\"\u003e\n\u003ctd\u003eShape_Leng\u003c/td\u003e\n\u003ctd\u003e18102566,9293\u003c/td\u003e\n\u003c/tr\u003e\n\u003c/table\u003e\n\u003c/td\u003e\n\u003c/tr\u003e\n\u003c/table\u003e\n\u003c/body\u003e\u003cscript type=\"text/javascript\"\u003e\n\t\t\t\tfunction changeImage(attElement, nameElement) {\n\t\t\t\tdocument.getElementById('imageAttachment').src = attElement;\n\t\t\t\tdocument.getElementById('imageName').innerHTML = nameElement;}\n\t\t\t\u003c/script\u003e\u003c/html\u003e\n","FID_active_grids":134,"GridID":"N25","Shape_Length":3.616365110984246e-05,"Shape_Area":8.1738081021908076e-11}},{"type":"Feature","id":26052,"geometry":{"type":"Polygon","coordinates":[[[113.76342335300001,-7.1212337679999678],[113.76341430800005,-7.1212338219999651],[113.76341436200005,-7.1212428579999596],[113.763423407,-7.1212428039999622],[113.76342335300001,-7.1212337679999678]]]},"properties":{"OBJECTID":26052,"FID_mangrove_utm":25965,"OBJECTID_1":25965,"Name":"18102566,9293","FolderPath":"JATIM/JATIM","SymbolID":0,"AltMode":0,"Base":0,"Clamped":-1,"Extruded":0,"Snippet":"","PopupInfo":"\u003chtml xmlns:fo=\"http://www.w3.org/1999/XSL/Format\" xmlns:msxsl=\"urn:schemas-microsoft-com:xslt\"\u003e\n\u003chead\u003e\n\u003cMETA http-equiv=\"Content-Type\" content=\"text/html\"\u003e\n\u003cmeta http-equiv=\"content-type\" content=\"text/html; charset=UTF-8\"\u003e\n\u003c/head\u003e\n\u003cbody style=\"margin:0px 0px 0px 0px;overflow:auto;background:#FFFFFF;\"\u003e\n\u003ctable style=\"font-family:Arial,Verdana,Times;font-size:12px;text-align:left;width:100%;border-collapse:collapse;padding:3px 3px 3px 3px\"\u003e\n\u003ctr style=\"text-align:center;font-weight:bold;background:#9CBCE2\"\u003e\n\u003ctd\u003e18102566,9293\u003c/td\u003e\n\u003c/tr\u003e\n\u003ctr\u003e\n\u003ctd\u003e\n\u003ctable style=\"font-family:Arial,Verdana,Times;font-size:12px;text-align:left;width:100%;border-spacing:0px; padding:3px 3px 3px 3px\"\u003e\n\u003ctr\u003e\n\u003ctd\u003eFID\u003c/td\u003e\n\u003ctd\u003e0\u003c/td\u003e\n\u003c/tr\u003e\n\u003ctr bgcolor=\"#D4E4F3\"\u003e\n\u003ctd\u003eShape_Leng\u003c/td\u003e\n\u003ctd\u003e18102566,9293\u003c/td\u003e\n\u003c/tr\u003e\n\u003c/table\u003e\n\u003c/td\u003e\n\u003c/tr\u003e\n\u003c/table\u003e\n\u003c/body\u003e\u003cscript type=\"text/javascript\"\u003e\n\t\t\t\tfunction changeImage(attElement, nameElement) {\n\t\t\t\tdocument.getElementById('imageAttachment').src = attElement;\n\t\t\t\tdocument.getElementById('imageName').innerHTML = nameElement;}\n\t\t\t\u003c/script\u003e\u003c/html\u003e\n","FID_active_grids":134,"GridID":"N25","Shape_Length":3.6162644992604313e-05,"Shape_Area":8.1733535553270678e-11}},{"type":"Feature","id":26053,"geometry":{"type":"Polygon","coordinates":[[[113.7634684730001,-7.1212154269999814],[113.76345942700004,-7.1212154809999788],[113.76345948100004,-7.1212245169999733],[113.7634685270001,-7.1212244629999759],[113.7634684730001,-7.1212154269999814]]]},"properties":{"OBJECTID":26053,"FID_mangrove_utm":25966,"OBJECTID_1":25966,"Name":"18102566,9293","FolderPath":"JATIM/JATIM","SymbolID":0,"AltMode":0,"Base":0,"Clamped":-1,"Extruded":0,"Snippet":"","PopupInfo":"\u003chtml xmlns:fo=\"http://www.w3.org/1999/XSL/Format\" xmlns:msxsl=\"urn:schemas-microsoft-com:xslt\"\u003e\n\u003chead\u003e\n\u003cMETA http-equiv=\"Content-Type\" content=\"text/html\"\u003e\n\u003cmeta http-equiv=\"content-type\" content=\"text/html; charset=UTF-8\"\u003e\n\u003c/head\u003e\n\u003cbody style=\"margin:0px 0px 0px 0px;overflow:auto;background:#FFFFFF;\"\u003e\n\u003ctable style=\"font-family:Arial,Verdana,Times;font-size:12px;text-align:left;width:100%;border-collapse:collapse;padding:3px 3px 3px 3px\"\u003e\n\u003ctr style=\"text-align:center;font-weight:bold;background:#9CBCE2\"\u003e\n\u003ctd\u003e18102566,9293\u003c/td\u003e\n\u003c/tr\u003e\n\u003ctr\u003e\n\u003ctd\u003e\n\u003ctable style=\"font-family:Arial,Verdana,Times;font-size:12px;text-align:left;width:100%;border-spacing:0px; padding:3px 3px 3px 3px\"\u003e\n\u003ctr\u003e\n\u003ctd\u003eFID\u003c/td\u003e\n\u003ctd\u003e0\u003c/td\u003e\n\u003c/tr\u003e\n\u003ctr bgcolor=\"#D4E4F3\"\u003e\n\u003ctd\u003eShape_Leng\u003c/td\u003e\n\u003ctd\u003e18102566,9293\u003c/td\u003e\n\u003c/tr\u003e\n\u003c/table\u003e\n\u003c/td\u003e\n\u003c/tr\u003e\n\u003c/table\u003e\n\u003c/body\u003e\u003cscript type=\"text/javascript\"\u003e\n\t\t\t\tfunction changeImage(attElement, nameElement) {\n\t\t\t\tdocument.getElementById('imageAttachment').src = attElement;\n\t\t\t\tdocument.getElementById('imageName').innerHTML = nameElement;}\n\t\t\t\u003c/script\u003e\u003c/html\u003e\n","FID_active_grids":134,"GridID":"N25","Shape_Length":3.6164645163185728e-05,"Shape_Area":8.1742572484980082e-11}},{"type":"Feature","id":26054,"geometry":{"type":"Polygon","coordinates":[[[113.76350476300001,-7.1212332819999347],[113.76350470900002,-7.1212242459999402],[113.76352280000003,-7.1212241379999455],[113.76352274600004,-7.1212151029999404],[113.76349560900007,-7.1212152649999325],[113.76349571700007,-7.121233335999932],[113.76350476300001,-7.1212332819999347]]]},"properties":{"OBJECTID":26054,"FID_mangrove_utm":25967,"OBJECTID_1":25967,"Name":"18102566,9293","FolderPath":"JATIM/JATIM","SymbolID":0,"AltMode":0,"Base":0,"Clamped":-1,"Extruded":0,"Snippet":"","PopupInfo":"\u003chtml xmlns:fo=\"http://www.w3.org/1999/XSL/Format\" xmlns:msxsl=\"urn:schemas-microsoft-com:xslt\"\u003e\n\u003chead\u003e\n\u003cMETA http-equiv=\"Content-Type\" content=\"text/html\"\u003e\n\u003cmeta http-equiv=\"content-type\" content=\"text/html; charset=UTF-8\"\u003e\n\u003c/head\u003e\n\u003cbody style=\"margin:0px 0px 0px 0px;overflow:auto;background:#FFFFFF;\"\u003e\n\u003ctable style=\"font-family:Arial,Verdana,Times;font-size:12px;text-align:left;width:100%;border-collapse:collapse;padding:3px 3px 3px 3px\"\u003e\n\u003ctr style=\"text-align:center;font-weight:bold;background:#9CBCE2\"\u003e\n\u003ctd\u003e18102566,9293\u003c/td\u003e\n\u003c/tr\u003e\n\u003ctr\u003e\n\u003ctd\u003e\n\u003ctable style=\"font-family:Arial,Verdana,Times;font-size:12px;text-align:left;width:100%;border-spacing:0px; padding:3px 3px 3px 3px\"\u003e\n\u003ctr\u003e\n\u003ctd\u003eFID\u003c/td\u003e\n\u003ctd\u003e0\u003c/td\u003e\n\u003c/tr\u003e\n\u003ctr bgcolor=\"#D4E4F3\"\u003e\n\u003ctd\u003eShape_Leng\u003c/td\u003e\n\u003ctd\u003e18102566,9293\u003c/td\u003e\n\u003c/tr\u003e\n\u003c/table\u003e\n\u003c/td\u003e\n\u003c/tr\u003e\n\u003c/table\u003e\n\u003c/body\u003e\u003cscript type=\"text/javascript\"\u003e\n\t\t\t\tfunction changeImage(attElement, nameElement) {\n\t\t\t\tdocument.getElementById('imageAttachment').src = attElement;\n\t\t\t\tdocument.getElementById('imageName').innerHTML = nameElement;}\n\t\t\t\u003c/script\u003e\u003c/html\u003e\n","FID_active_grids":134,"GridID":"N25","Shape_Length":9.0417612453285812e-05,"Shape_Area":3.2693416823704283e-10}},{"type":"Feature","id":26055,"geometry":{"type":"Polygon","coordinates":[[[113.76364033800007,-7.1212143999999284],[113.76354083700005,-7.1212149949999457],[113.76354089100005,-7.1212240299999507],[113.76354993700011,-7.1212239759999534],[113.7635499910001,-7.1212330109999584],[113.76356808200001,-7.1212329029999637],[113.76356802800001,-7.1212238679999587],[113.76361325500011,-7.1212235969999256],[113.7636133100001,-7.1212326329999769],[113.76362235500005,-7.1212325789999795],[113.76362246300005,-7.1212506489999328],[113.76364055400006,-7.121250540999938],[113.76364033800007,-7.1212143999999284]]]},"properties":{"OBJECTID":26055,"FID_mangrove_utm":25968,"OBJECTID_1":25968,"Name":"18102566,9293","FolderPath":"JATIM/JATIM","SymbolID":0,"AltMode":0,"Base":0,"Clamped":-1,"Extruded":0,"Snippet":"","PopupInfo":"\u003chtml xmlns:fo=\"http://www.w3.org/1999/XSL/Format\" xmlns:msxsl=\"urn:schemas-microsoft-com:xslt\"\u003e\n\u003chead\u003e\n\u003cMETA http-equiv=\"Content-Type\" content=\"text/html\"\u003e\n\u003cmeta http-equiv=\"content-type\" content=\"text/html; charset=UTF-8\"\u003e\n\u003c/head\u003e\n\u003cbody style=\"margin:0px 0px 0px 0px;overflow:auto;background:#FFFFFF;\"\u003e\n\u003ctable style=\"font-family:Arial,Verdana,Times;font-size:12px;text-align:left;width:100%;border-collapse:collapse;padding:3px 3px 3px 3px\"\u003e\n\u003ctr style=\"text-align:center;font-weight:bold;background:#9CBCE2\"\u003e\n\u003ctd\u003e18102566,9293\u003c/td\u003e\n\u003c/tr\u003e\n\u003ctr\u003e\n\u003ctd\u003e\n\u003ctable style=\"font-family:Arial,Verdana,Times;font-size:12px;text-align:left;width:100%;border-spacing:0px; padding:3px 3px 3px 3px\"\u003e\n\u003ctr\u003e\n\u003ctd\u003eFID\u003c/td\u003e\n\u003ctd\u003e0\u003c/td\u003e\n\u003c/tr\u003e\n\u003ctr bgcolor=\"#D4E4F3\"\u003e\n\u003ctd\u003eShape_Leng\u003c/td\u003e\n\u003ctd\u003e18102566,9293\u003c/td\u003e\n\u003c/tr\u003e\n\u003c/table\u003e\n\u003c/td\u003e\n\u003c/tr\u003e\n\u003c/table\u003e\n\u003c/body\u003e\u003cscript type=\"text/javascript\"\u003e\n\t\t\t\tfunction changeImage(attElement, nameElement) {\n\t\t\t\tdocument.getElementById('imageAttachment').src = attElement;\n\t\t\t\tdocument.getElementById('imageName').innerHTML = nameElement;}\n\t\t\t\u003c/script\u003e\u003c/html\u003e\n","FID_active_grids":134,"GridID":"N25","Shape_Length":0.00028935817778686279,"Shape_Area":1.6346119864296428e-09}},{"type":"Feature","id":26064,"geometry":{"type":"Polygon","coordinates":[[[113.76191058200004,-7.1208813809999469],[113.76190153700009,-7.1208814349999443],[113.76190175300007,-7.1209175769999433],[113.761892708,-7.1209176309999407],[113.76189287000011,-7.1209447369999452],[113.76190191600006,-7.1209446829999479],[113.76190213200005,-7.1209808239999575],[113.7619111780001,-7.1209807699999601],[113.7619112860001,-7.1209988409999596],[113.76192033100006,-7.1209987869999622],[113.76192049400004,-7.1210258929999668],[113.76192953900011,-7.1210258389999694],[113.7619295930001,-7.1210348739999745],[113.76193863900005,-7.1210348199999771],[113.76193869300005,-7.1210438549999253],[113.76194773800012,-7.121043800999928],[113.7619477930001,-7.121052835999933],[113.76195683800006,-7.1210527819999356],[113.76195694600005,-7.1210708529999351],[113.76196599200011,-7.1210707989999378],[113.76196615400011,-7.1210979049999423],[113.76197520000005,-7.121097850999945],[113.76197525400005,-7.12110688599995],[113.76199334500006,-7.1211067779999553],[113.76199339900006,-7.1211158139999498],[113.76202053600002,-7.1211156519999577],[113.76202064400002,-7.1211337219999677],[113.76202968900009,-7.1211336679999704],[113.76202974300008,-7.1211427039999649],[113.76203878900003,-7.1211426499999675],[113.76203889700002,-7.1211607199999776],[113.7620660340001,-7.1211605579999286],[113.7620660880001,-7.1211695929999337],[113.76204799700008,-7.1211697019999747],[113.76204821300007,-7.1212058429999274],[113.76205725900002,-7.1212057889999301],[113.76205720500002,-7.1211967529999356],[113.76207529600003,-7.1211966449999409],[113.76207535000003,-7.1212056809999353],[113.76211153200006,-7.1212054649999459],[113.76211137000007,-7.1211783589999413],[113.76210232400001,-7.1211784129999387],[113.76210221600002,-7.1211603419999392],[113.76209317100006,-7.1211603959999366],[113.76209284600009,-7.1211061839999275],[113.76208380000003,-7.1211062379999248],[113.76208374600003,-7.1210972029999766],[113.76207470100007,-7.121097256999974],[113.7620744300001,-7.1210520799999699],[113.76205633900008,-7.1210521879999646],[113.76205628500009,-7.1210431529999596],[113.76203819400007,-7.1210432609999543],[113.76203808600008,-7.1210251899999548],[113.76202904000002,-7.1210252439999522],[113.76202898600002,-7.1210162089999471],[113.76201994100006,-7.1210162629999445],[113.76201988600008,-7.1210072279999395],[113.76201084100001,-7.1210072819999368],[113.76201078700001,-7.1209982459999424],[113.76200174100006,-7.1209982999999397],[113.76200168700007,-7.1209892649999347],[113.76199264200011,-7.120989318999932],[113.76199258700001,-7.120980283999927],[113.76198354200005,-7.1209803379999812],[113.76198338000006,-7.1209532319999767],[113.76197433400012,-7.120953285999974],[113.76197422600001,-7.1209352149999745],[113.76196518000006,-7.1209352689999719],[113.76196496400007,-7.1208991279999623],[113.76192878200004,-7.1208993439999517],[113.76192872800004,-7.1208903079999573],[113.76191063700003,-7.1208904169999414],[113.76191058200004,-7.1208813809999469]]]},"properties":{"OBJECTID":26064,"FID_mangrove_utm":25977,"OBJECTID_1":25977,"Name":"18102566,9293","FolderPath":"JATIM/JATIM","SymbolID":0,"AltMode":0,"Base":0,"Clamped":-1,"Extruded":0,"Snippet":"","PopupInfo":"\u003chtml xmlns:fo=\"http://www.w3.org/1999/XSL/Format\" xmlns:msxsl=\"urn:schemas-microsoft-com:xslt\"\u003e\n\u003chead\u003e\n\u003cMETA http-equiv=\"Content-Type\" content=\"text/html\"\u003e\n\u003cmeta http-equiv=\"content-type\" content=\"text/html; charset=UTF-8\"\u003e\n\u003c/head\u003e\n\u003cbody style=\"margin:0px 0px 0px 0px;overflow:auto;background:#FFFFFF;\"\u003e\n\u003ctable style=\"font-family:Arial,Verdana,Times;font-size:12px;text-align:left;width:100%;border-collapse:collapse;padding:3px 3px 3px 3px\"\u003e\n\u003ctr style=\"text-align:center;font-weight:bold;background:#9CBCE2\"\u003e\n\u003ctd\u003e18102566,9293\u003c/td\u003e\n\u003c/tr\u003e\n\u003ctr\u003e\n\u003ctd\u003e\n\u003ctable style=\"font-family:Arial,Verdana,Times;font-size:12px;text-align:left;width:100%;border-spacing:0px; padding:3px 3px 3px 3px\"\u003e\n\u003ctr\u003e\n\u003ctd\u003eFID\u003c/td\u003e\n\u003ctd\u003e0\u003c/td\u003e\n\u003c/tr\u003e\n\u003ctr bgcolor=\"#D4E4F3\"\u003e\n\u003ctd\u003eShape_Leng\u003c/td\u003e\n\u003ctd\u003e18102566,9293\u003c/td\u003e\n\u003c/tr\u003e\n\u003c/table\u003e\n\u003c/td\u003e\n\u003c/tr\u003e\n\u003c/table\u003e\n\u003c/body\u003e\u003cscript type=\"text/javascript\"\u003e\n\t\t\t\tfunction changeImage(attElement, nameElement) {\n\t\t\t\tdocument.getElementById('imageAttachment').src = attElement;\n\t\t\t\tdocument.getElementById('imageName').innerHTML = nameElement;}\n\t\t\t\u003c/script\u003e\u003c/html\u003e\n","FID_active_grids":134,"GridID":"N25","Shape_Length":0.0011390033765895525,"Shape_Area":2.5663996205910026e-08}},{"type":"Feature","id":26065,"geometry":{"type":"Polygon","coordinates":[[[113.76178389100005,-7.1208731019999618],[113.76178383700005,-7.1208640669999568],[113.76177479100011,-7.1208641209999541],[113.7617748450001,-7.1208731559999592],[113.76178389100005,-7.1208731019999618]]]},"properties":{"OBJECTID":26065,"FID_mangrove_utm":25978,"OBJECTID_1":25978,"Name":"18102566,9293","FolderPath":"JATIM/JATIM","SymbolID":0,"AltMode":0,"Base":0,"Clamped":-1,"Extruded":0,"Snippet":"","PopupInfo":"\u003chtml xmlns:fo=\"http://www.w3.org/1999/XSL/Format\" xmlns:msxsl=\"urn:schemas-microsoft-com:xslt\"\u003e\n\u003chead\u003e\n\u003cMETA http-equiv=\"Content-Type\" content=\"text/html\"\u003e\n\u003cmeta http-equiv=\"content-type\" content=\"text/html; charset=UTF-8\"\u003e\n\u003c/head\u003e\n\u003cbody style=\"margin:0px 0px 0px 0px;overflow:auto;background:#FFFFFF;\"\u003e\n\u003ctable style=\"font-family:Arial,Verdana,Times;font-size:12px;text-align:left;width:100%;border-collapse:collapse;padding:3px 3px 3px 3px\"\u003e\n\u003ctr style=\"text-align:center;font-weight:bold;background:#9CBCE2\"\u003e\n\u003ctd\u003e18102566,9293\u003c/td\u003e\n\u003c/tr\u003e\n\u003ctr\u003e\n\u003ctd\u003e\n\u003ctable style=\"font-family:Arial,Verdana,Times;font-size:12px;text-align:left;width:100%;border-spacing:0px; padding:3px 3px 3px 3px\"\u003e\n\u003ctr\u003e\n\u003ctd\u003eFID\u003c/td\u003e\n\u003ctd\u003e0\u003c/td\u003e\n\u003c/tr\u003e\n\u003ctr bgcolor=\"#D4E4F3\"\u003e\n\u003ctd\u003eShape_Leng\u003c/td\u003e\n\u003ctd\u003e18102566,9293\u003c/td\u003e\n\u003c/tr\u003e\n\u003c/table\u003e\n\u003c/td\u003e\n\u003c/tr\u003e\n\u003c/table\u003e\n\u003c/body\u003e\u003cscript type=\"text/javascript\"\u003e\n\t\t\t\tfunction changeImage(attElement, nameElement) {\n\t\t\t\tdocument.getElementById('imageAttachment').src = attElement;\n\t\t\t\tdocument.getElementById('imageName').innerHTML = nameElement;}\n\t\t\t\u003c/script\u003e\u003c/html\u003e\n","FID_active_grids":134,"GridID":"N25","Shape_Length":3.6162644992683236e-05,"Shape_Area":8.1733525553425342e-11}},{"type":"Feature","id":26068,"geometry":{"type":"Polygon","coordinates":[[[113.76175632100001,-7.1208009819999347],[113.76174727600005,-7.1208010359999321],[113.76174738400005,-7.1208191059999422],[113.7617564300001,-7.1208190519999448],[113.7617565920001,-7.1208461579999494],[113.76177468300011,-7.1208460499999546],[113.76177452100001,-7.1208189439999501],[113.76176547500006,-7.1208189979999474],[113.76176542100006,-7.1208099629999424],[113.761756375,-7.1208100169999398],[113.76175632100001,-7.1208009819999347]]]},"properties":{"OBJECTID":26068,"FID_mangrove_utm":25981,"OBJECTID_1":25981,"Name":"18102566,9293","FolderPath":"JATIM/JATIM","SymbolID":0,"AltMode":0,"Base":0,"Clamped":-1,"Extruded":0,"Snippet":"","PopupInfo":"\u003chtml xmlns:fo=\"http://www.w3.org/1999/XSL/Format\" xmlns:msxsl=\"urn:schemas-microsoft-com:xslt\"\u003e\n\u003chead\u003e\n\u003cMETA http-equiv=\"Content-Type\" content=\"text/html\"\u003e\n\u003cmeta http-equiv=\"content-type\" content=\"text/html; charset=UTF-8\"\u003e\n\u003c/head\u003e\n\u003cbody style=\"margin:0px 0px 0px 0px;overflow:auto;background:#FFFFFF;\"\u003e\n\u003ctable style=\"font-family:Arial,Verdana,Times;font-size:12px;text-align:left;width:100%;border-collapse:collapse;padding:3px 3px 3px 3px\"\u003e\n\u003ctr style=\"text-align:center;font-weight:bold;background:#9CBCE2\"\u003e\n\u003ctd\u003e18102566,9293\u003c/td\u003e\n\u003c/tr\u003e\n\u003ctr\u003e\n\u003ctd\u003e\n\u003ctable style=\"font-family:Arial,Verdana,Times;font-size:12px;text-align:left;width:100%;border-spacing:0px; padding:3px 3px 3px 3px\"\u003e\n\u003ctr\u003e\n\u003ctd\u003eFID\u003c/td\u003e\n\u003ctd\u003e0\u003c/td\u003e\n\u003c/tr\u003e\n\u003ctr bgcolor=\"#D4E4F3\"\u003e\n\u003ctd\u003eShape_Leng\u003c/td\u003e\n\u003ctd\u003e18102566,9293\u003c/td\u003e\n\u003c/tr\u003e\n\u003c/table\u003e\n\u003c/td\u003e\n\u003c/tr\u003e\n\u003c/table\u003e\n\u003c/body\u003e\u003cscript type=\"text/javascript\"\u003e\n\t\t\t\tfunction changeImage(attElement, nameElement) {\n\t\t\t\tdocument.getElementById('imageAttachment').src = attElement;\n\t\t\t\tdocument.getElementById('imageName').innerHTML = nameElement;}\n\t\t\t\u003c/script\u003e\u003c/html\u003e\n","FID_active_grids":134,"GridID":"N25","Shape_Length":0.00014462858082380366,"Shape_Area":7.3557472984650449e-10}},{"type":"Feature","id":26071,"geometry":{"type":"Polygon","coordinates":[[[113.76178340400008,-7.1207917839999482],[113.76178335000009,-7.1207827489999431],[113.76177430400003,-7.1207828029999405],[113.76177435800003,-7.1207918379999455],[113.76178340400008,-7.1207917839999482]]]},"properties":{"OBJECTID":26071,"FID_mangrove_utm":25984,"OBJECTID_1":25984,"Name":"18102566,9293","FolderPath":"JATIM/JATIM","SymbolID":0,"AltMode":0,"Base":0,"Clamped":-1,"Extruded":0,"Snippet":"","PopupInfo":"\u003chtml xmlns:fo=\"http://www.w3.org/1999/XSL/Format\" xmlns:msxsl=\"urn:schemas-microsoft-com:xslt\"\u003e\n\u003chead\u003e\n\u003cMETA http-equiv=\"Content-Type\" content=\"text/html\"\u003e\n\u003cmeta http-equiv=\"content-type\" content=\"text/html; charset=UTF-8\"\u003e\n\u003c/head\u003e\n\u003cbody style=\"margin:0px 0px 0px 0px;overflow:auto;background:#FFFFFF;\"\u003e\n\u003ctable style=\"font-family:Arial,Verdana,Times;font-size:12px;text-align:left;width:100%;border-collapse:collapse;padding:3px 3px 3px 3px\"\u003e\n\u003ctr style=\"text-align:center;font-weight:bold;background:#9CBCE2\"\u003e\n\u003ctd\u003e18102566,9293\u003c/td\u003e\n\u003c/tr\u003e\n\u003ctr\u003e\n\u003ctd\u003e\n\u003ctable style=\"font-family:Arial,Verdana,Times;font-size:12px;text-align:left;width:100%;border-spacing:0px; padding:3px 3px 3px 3px\"\u003e\n\u003ctr\u003e\n\u003ctd\u003eFID\u003c/td\u003e\n\u003ctd\u003e0\u003c/td\u003e\n\u003c/tr\u003e\n\u003ctr bgcolor=\"#D4E4F3\"\u003e\n\u003ctd\u003eShape_Leng\u003c/td\u003e\n\u003ctd\u003e18102566,9293\u003c/td\u003e\n\u003c/tr\u003e\n\u003c/table\u003e\n\u003c/td\u003e\n\u003c/tr\u003e\n\u003c/table\u003e\n\u003c/body\u003e\u003cscript type=\"text/javascript\"\u003e\n\t\t\t\tfunction changeImage(attElement, nameElement) {\n\t\t\t\tdocument.getElementById('imageAttachment').src = attElement;\n\t\t\t\tdocument.getElementById('imageName').innerHTML = nameElement;}\n\t\t\t\u003c/script\u003e\u003c/html\u003e\n","FID_active_grids":134,"GridID":"N25","Shape_Length":3.6162645220052866e-05,"Shape_Area":8.1733526580585915e-11}},{"type":"Feature","id":26072,"geometry":{"type":"Polygon","coordinates":[[[113.76186476000009,-7.1207822629999669],[113.76186486800009,-7.1208003329999769],[113.76187391300004,-7.1208002789999796],[113.76187402200003,-7.1208183499999791],[113.7618830670001,-7.1208182959999249],[113.76188317500009,-7.1208363669999812],[113.76186508400008,-7.120836474999976],[113.76186513800008,-7.120845509999981],[113.76187418400002,-7.1208454559999268],[113.76187423800002,-7.1208544909999318],[113.76190137500009,-7.1208543289999398],[113.76190121200011,-7.1208272229999352],[113.76191025800006,-7.1208271689999378],[113.76191020400006,-7.1208181339999328],[113.76189211300004,-7.1208182419999275],[113.76189205900005,-7.1208092059999331],[113.76190110400012,-7.1208091519999357],[113.76190105000001,-7.1208001169999307],[113.76189200500005,-7.120800170999928],[113.76189195000006,-7.1207911359999798],[113.76188290500011,-7.1207911899999772],[113.76188285100011,-7.1207821549999721],[113.76186476000009,-7.1207822629999669]]]},"properties":{"OBJECTID":26072,"FID_mangrove_utm":25985,"OBJECTID_1":25985,"Name":"18102566,9293","FolderPath":"JATIM/JATIM","SymbolID":0,"AltMode":0,"Base":0,"Clamped":-1,"Extruded":0,"Snippet":"","PopupInfo":"\u003chtml xmlns:fo=\"http://www.w3.org/1999/XSL/Format\" xmlns:msxsl=\"urn:schemas-microsoft-com:xslt\"\u003e\n\u003chead\u003e\n\u003cMETA http-equiv=\"Content-Type\" content=\"text/html\"\u003e\n\u003cmeta http-equiv=\"content-type\" content=\"text/html; charset=UTF-8\"\u003e\n\u003c/head\u003e\n\u003cbody style=\"margin:0px 0px 0px 0px;overflow:auto;background:#FFFFFF;\"\u003e\n\u003ctable style=\"font-family:Arial,Verdana,Times;font-size:12px;text-align:left;width:100%;border-collapse:collapse;padding:3px 3px 3px 3px\"\u003e\n\u003ctr style=\"text-align:center;font-weight:bold;background:#9CBCE2\"\u003e\n\u003ctd\u003e18102566,9293\u003c/td\u003e\n\u003c/tr\u003e\n\u003ctr\u003e\n\u003ctd\u003e\n\u003ctable style=\"font-family:Arial,Verdana,Times;font-size:12px;text-align:left;width:100%;border-spacing:0px; padding:3px 3px 3px 3px\"\u003e\n\u003ctr\u003e\n\u003ctd\u003eFID\u003c/td\u003e\n\u003ctd\u003e0\u003c/td\u003e\n\u003c/tr\u003e\n\u003ctr bgcolor=\"#D4E4F3\"\u003e\n\u003ctd\u003eShape_Leng\u003c/td\u003e\n\u003ctd\u003e18102566,9293\u003c/td\u003e\n\u003c/tr\u003e\n\u003c/table\u003e\n\u003c/td\u003e\n\u003c/tr\u003e\n\u003c/table\u003e\n\u003c/body\u003e\u003cscript type=\"text/javascript\"\u003e\n\t\t\t\tfunction changeImage(attElement, nameElement) {\n\t\t\t\tdocument.getElementById('imageAttachment').src = attElement;\n\t\t\t\tdocument.getElementById('imageName').innerHTML = nameElement;}\n\t\t\t\u003c/script\u003e\u003c/html\u003e\n","FID_active_grids":134,"GridID":"N25","Shape_Length":0.0002892961789110795,"Shape_Area":1.7980926559068223e-09}},{"type":"Feature","id":26080,"geometry":{"type":"Polygon","coordinates":[[[113.76186476000009,-7.1207822629999669],[113.7618646520001,-7.1207641919999674],[113.76185560600004,-7.1207642459999647],[113.76185555200004,-7.1207552109999597],[113.76183746100003,-7.1207553189999544],[113.76183751500002,-7.1207643539999594],[113.76184656000009,-7.1207642999999621],[113.76184661500008,-7.1207733349999671],[113.76185566000004,-7.1207732809999698],[113.76185571400003,-7.1207823169999642],[113.76186476000009,-7.1207822629999669]]]},"properties":{"OBJECTID":26080,"FID_mangrove_utm":25993,"OBJECTID_1":25993,"Name":"18102566,9293","FolderPath":"JATIM/JATIM","SymbolID":0,"AltMode":0,"Base":0,"Clamped":-1,"Extruded":0,"Snippet":"","PopupInfo":"\u003chtml xmlns:fo=\"http://www.w3.org/1999/XSL/Format\" xmlns:msxsl=\"urn:schemas-microsoft-com:xslt\"\u003e\n\u003chead\u003e\n\u003cMETA http-equiv=\"Content-Type\" content=\"text/html\"\u003e\n\u003cmeta http-equiv=\"content-type\" content=\"text/html; charset=UTF-8\"\u003e\n\u003c/head\u003e\n\u003cbody style=\"margin:0px 0px 0px 0px;overflow:auto;background:#FFFFFF;\"\u003e\n\u003ctable style=\"font-family:Arial,Verdana,Times;font-size:12px;text-align:left;width:100%;border-collapse:collapse;padding:3px 3px 3px 3px\"\u003e\n\u003ctr style=\"text-align:center;font-weight:bold;background:#9CBCE2\"\u003e\n\u003ctd\u003e18102566,9293\u003c/td\u003e\n\u003c/tr\u003e\n\u003ctr\u003e\n\u003ctd\u003e\n\u003ctable style=\"font-family:Arial,Verdana,Times;font-size:12px;text-align:left;width:100%;border-spacing:0px; padding:3px 3px 3px 3px\"\u003e\n\u003ctr\u003e\n\u003ctd\u003eFID\u003c/td\u003e\n\u003ctd\u003e0\u003c/td\u003e\n\u003c/tr\u003e\n\u003ctr bgcolor=\"#D4E4F3\"\u003e\n\u003ctd\u003eShape_Leng\u003c/td\u003e\n\u003ctd\u003e18102566,9293\u003c/td\u003e\n\u003c/tr\u003e\n\u003c/table\u003e\n\u003c/td\u003e\n\u003c/tr\u003e\n\u003c/table\u003e\n\u003c/body\u003e\u003cscript type=\"text/javascript\"\u003e\n\t\t\t\tfunction changeImage(attElement, nameElement) {\n\t\t\t\tdocument.getElementById('imageAttachment').src = attElement;\n\t\t\t\tdocument.getElementById('imageName').innerHTML = nameElement;}\n\t\t\t\u003c/script\u003e\u003c/html\u003e\n","FID_active_grids":134,"GridID":"N25","Shape_Length":0.00010848694149302515,"Shape_Area":4.0866309739967453e-10}},{"type":"Feature","id":26082,"geometry":{"type":"Polygon","coordinates":[[[113.7618464520001,-7.1207462289999626],[113.76184634400011,-7.1207281589999525],[113.76183729900004,-7.1207282129999498],[113.76183740700003,-7.1207462829999599],[113.7618464520001,-7.1207462289999626]]]},"properties":{"OBJECTID":26082,"FID_mangrove_utm":25995,"OBJECTID_1":25995,"Name":"18102566,9293","FolderPath":"JATIM/JATIM","SymbolID":0,"AltMode":0,"Base":0,"Clamped":-1,"Extruded":0,"Snippet":"","PopupInfo":"\u003chtml xmlns:fo=\"http://www.w3.org/1999/XSL/Format\" xmlns:msxsl=\"urn:schemas-microsoft-com:xslt\"\u003e\n\u003chead\u003e\n\u003cMETA http-equiv=\"Content-Type\" content=\"text/html\"\u003e\n\u003cmeta http-equiv=\"content-type\" content=\"text/html; charset=UTF-8\"\u003e\n\u003c/head\u003e\n\u003cbody style=\"margin:0px 0px 0px 0px;overflow:auto;background:#FFFFFF;\"\u003e\n\u003ctable style=\"font-family:Arial,Verdana,Times;font-size:12px;text-align:left;width:100%;border-collapse:collapse;padding:3px 3px 3px 3px\"\u003e\n\u003ctr style=\"text-align:center;font-weight:bold;background:#9CBCE2\"\u003e\n\u003ctd\u003e18102566,9293\u003c/td\u003e\n\u003c/tr\u003e\n\u003ctr\u003e\n\u003ctd\u003e\n\u003ctable style=\"font-family:Arial,Verdana,Times;font-size:12px;text-align:left;width:100%;border-spacing:0px; padding:3px 3px 3px 3px\"\u003e\n\u003ctr\u003e\n\u003ctd\u003eFID\u003c/td\u003e\n\u003ctd\u003e0\u003c/td\u003e\n\u003c/tr\u003e\n\u003ctr bgcolor=\"#D4E4F3\"\u003e\n\u003ctd\u003eShape_Leng\u003c/td\u003e\n\u003ctd\u003e18102566,9293\u003c/td\u003e\n\u003c/tr\u003e\n\u003c/table\u003e\n\u003c/td\u003e\n\u003c/tr\u003e\n\u003c/table\u003e\n\u003c/body\u003e\u003cscript type=\"text/javascript\"\u003e\n\t\t\t\tfunction changeImage(attElement, nameElement) {\n\t\t\t\tdocument.getElementById('imageAttachment').src = attElement;\n\t\t\t\tdocument.getElementById('imageName').innerHTML = nameElement;}\n\t\t\t\u003c/script\u003e\u003c/html\u003e\n","FID_active_grids":134,"GridID":"N25","Shape_Length":5.4230968028892371e-05,"Shape_Area":1.6344898335225924e-10}},{"type":"Feature","id":26098,"geometry":{"type":"Polygon","coordinates":[[[113.76180895100003,-7.120526191999943],[113.76180590900003,-7.1205205799999476],[113.76179082700003,-7.1205206699999621],[113.76179088100002,-7.1205297049999672],[113.76179992600009,-7.1205296509999698],[113.76180003500008,-7.1205477219999693],[113.76179098900002,-7.1205477759999667],[113.76179093500002,-7.1205387409999616],[113.76176379800006,-7.1205389029999537],[113.76176369000007,-7.1205208319999542],[113.76175464500011,-7.1205208859999516],[113.76175469900011,-7.1205299209999566],[113.76174565300005,-7.120529974999954],[113.76174581500004,-7.1205570809999585],[113.76170963300001,-7.1205572979999374],[113.76170957900001,-7.120548261999943],[113.76170053400006,-7.1205483159999403],[113.76170069600005,-7.1205754219999449],[113.7616916500001,-7.1205754759999422],[113.76169208300007,-7.1206477589999508],[113.76168303700001,-7.1206478129999482],[113.76168309200011,-7.1206568479999532],[113.76169213700007,-7.1206567939999559],[113.76169224500006,-7.1206748649999554],[113.76170129100001,-7.120674810999958],[113.76170134500001,-7.1206838459999631],[113.76171039000008,-7.1206837919999657],[113.76171049900006,-7.1207018629999652],[113.76171954400002,-7.1207018089999679],[113.76171959800001,-7.1207108439999729],[113.76172864400007,-7.1207107899999755],[113.76172886000006,-7.1207469319999745],[113.76174695100008,-7.1207468239999798],[113.76174689700008,-7.1207377879999285],[113.76175594300003,-7.1207377339999312],[113.76175572600005,-7.1207015929999784],[113.76176477200011,-7.120701538999981],[113.7617648800001,-7.1207196099999805],[113.76179201700006,-7.1207194469999422],[113.76179196300006,-7.1207104119999372],[113.761782917,-7.1207104659999345],[113.76178286300001,-7.1207014309999295],[113.76177381700006,-7.1207014849999268],[113.76177370900007,-7.1206834139999273],[113.76175561800005,-7.1206835219999789],[113.76175545600006,-7.1206564159999743],[113.76176450100002,-7.120656361999977],[113.76176444700002,-7.1206473269999719],[113.76175540200006,-7.1206473809999693],[113.76175534800007,-7.1206383449999748],[113.76174630200001,-7.1206383989999722],[113.76174603200002,-7.1205932229999576],[113.76175507700009,-7.1205931689999602],[113.76175502300009,-7.1205841329999657],[113.76176406900004,-7.1205840789999684],[113.76176412300003,-7.1205931149999628],[113.76178221400005,-7.1205930069999681],[113.76178226800005,-7.1206020419999732],[113.7617732220001,-7.1206020959999705],[113.76177327700009,-7.1206111309999756],[113.76178232200004,-7.1206110769999782],[113.76178237600004,-7.1206201129999727],[113.7617914220001,-7.1206200589999753],[113.7617915300001,-7.1206381289999285],[113.76180057500005,-7.1206380749999312],[113.76180084600003,-7.1206832519999352],[113.7618098910001,-7.1206831979999379],[113.76181000000008,-7.1207012689999374],[113.76183713600005,-7.1207011069999453],[113.76183702800006,-7.1206830359999458],[113.761846074,-7.1206829819999484],[113.76184603400009,-7.1206764489999728],[113.76184544900002,-7.1206739499999685],[113.7618098370001,-7.1206741629999328],[113.7618097830001,-7.1206651269999384],[113.76183692000006,-7.1206649649999463],[113.76183686600007,-7.1206559299999412],[113.7618412170001,-7.120655903999932],[113.76181221600007,-7.1205322139999794],[113.76181079100002,-7.1205295859999751],[113.76180897200004,-7.1205295969999725],[113.76180895100003,-7.120526191999943]]]},"properties":{"OBJECTID":26098,"FID_mangrove_utm":26011,"OBJECTID_1":26011,"Name":"18102566,9293","FolderPath":"JATIM/JATIM","SymbolID":0,"AltMode":0,"Base":0,"Clamped":-1,"Extruded":0,"Snippet":"","PopupInfo":"\u003chtml xmlns:fo=\"http://www.w3.org/1999/XSL/Format\" xmlns:msxsl=\"urn:schemas-microsoft-com:xslt\"\u003e\n\u003chead\u003e\n\u003cMETA http-equiv=\"Content-Type\" content=\"text/html\"\u003e\n\u003cmeta http-equiv=\"content-type\" content=\"text/html; charset=UTF-8\"\u003e\n\u003c/head\u003e\n\u003cbody style=\"margin:0px 0px 0px 0px;overflow:auto;background:#FFFFFF;\"\u003e\n\u003ctable style=\"font-family:Arial,Verdana,Times;font-size:12px;text-align:left;width:100%;border-collapse:collapse;padding:3px 3px 3px 3px\"\u003e\n\u003ctr style=\"text-align:center;font-weight:bold;background:#9CBCE2\"\u003e\n\u003ctd\u003e18102566,9293\u003c/td\u003e\n\u003c/tr\u003e\n\u003ctr\u003e\n\u003ctd\u003e\n\u003ctable style=\"font-family:Arial,Verdana,Times;font-size:12px;text-align:left;width:100%;border-spacing:0px; padding:3px 3px 3px 3px\"\u003e\n\u003ctr\u003e\n\u003ctd\u003eFID\u003c/td\u003e\n\u003ctd\u003e0\u003c/td\u003e\n\u003c/tr\u003e\n\u003ctr bgcolor=\"#D4E4F3\"\u003e\n\u003ctd\u003eShape_Leng\u003c/td\u003e\n\u003ctd\u003e18102566,9293\u003c/td\u003e\n\u003c/tr\u003e\n\u003c/table\u003e\n\u003c/td\u003e\n\u003c/tr\u003e\n\u003c/table\u003e\n\u003c/body\u003e\u003cscript type=\"text/javascript\"\u003e\n\t\t\t\tfunction changeImage(attElement, nameElement) {\n\t\t\t\tdocument.getElementById('imageAttachment').src = attElement;\n\t\t\t\tdocument.getElementById('imageName').innerHTML = nameElement;}\n\t\t\t\u003c/script\u003e\u003c/html\u003e\n","FID_active_grids":134,"GridID":"N25","Shape_Length":0.0012995856406236126,"Shape_Area":1.8575704683168847e-08}},{"type":"Feature","id":26102,"geometry":{"type":"Polygon","coordinates":[[[113.76151751300006,-7.1201970179999421],[113.76151745900006,-7.120187982999937],[113.7615084140001,-7.1201880369999344],[113.7615084680001,-7.1201970719999395],[113.76151751300006,-7.1201970179999421]]]},"properties":{"OBJECTID":26102,"FID_mangrove_utm":26015,"OBJECTID_1":26015,"Name":"18102566,9293","FolderPath":"JATIM/JATIM","SymbolID":0,"AltMode":0,"Base":0,"Clamped":-1,"Extruded":0,"Snippet":"","PopupInfo":"\u003chtml xmlns:fo=\"http://www.w3.org/1999/XSL/Format\" xmlns:msxsl=\"urn:schemas-microsoft-com:xslt\"\u003e\n\u003chead\u003e\n\u003cMETA http-equiv=\"Content-Type\" content=\"text/html\"\u003e\n\u003cmeta http-equiv=\"content-type\" content=\"text/html; charset=UTF-8\"\u003e\n\u003c/head\u003e\n\u003cbody style=\"margin:0px 0px 0px 0px;overflow:auto;background:#FFFFFF;\"\u003e\n\u003ctable style=\"font-family:Arial,Verdana,Times;font-size:12px;text-align:left;width:100%;border-collapse:collapse;padding:3px 3px 3px 3px\"\u003e\n\u003ctr style=\"text-align:center;font-weight:bold;background:#9CBCE2\"\u003e\n\u003ctd\u003e18102566,9293\u003c/td\u003e\n\u003c/tr\u003e\n\u003ctr\u003e\n\u003ctd\u003e\n\u003ctable style=\"font-family:Arial,Verdana,Times;font-size:12px;text-align:left;width:100%;border-spacing:0px; padding:3px 3px 3px 3px\"\u003e\n\u003ctr\u003e\n\u003ctd\u003eFID\u003c/td\u003e\n\u003ctd\u003e0\u003c/td\u003e\n\u003c/tr\u003e\n\u003ctr bgcolor=\"#D4E4F3\"\u003e\n\u003ctd\u003eShape_Leng\u003c/td\u003e\n\u003ctd\u003e18102566,9293\u003c/td\u003e\n\u003c/tr\u003e\n\u003c/table\u003e\n\u003c/td\u003e\n\u003c/tr\u003e\n\u003c/table\u003e\n\u003c/body\u003e\u003cscript type=\"text/javascript\"\u003e\n\t\t\t\tfunction changeImage(attElement, nameElement) {\n\t\t\t\tdocument.getElementById('imageAttachment').src = attElement;\n\t\t\t\tdocument.getElementById('imageName').innerHTML = nameElement;}\n\t\t\t\u003c/script\u003e\u003c/html\u003e\n","FID_active_grids":134,"GridID":"N25","Shape_Length":3.6160645049471444e-05,"Shape_Area":8.1724490648969045e-11}},{"type":"Feature","id":26103,"geometry":{"type":"Polygon","coordinates":[[[113.76133627800004,-7.1201438869999265],[113.76130914200007,-7.1201440489999754],[113.76130919600007,-7.1201530839999805],[113.76131824100003,-7.1201530299999263],[113.76131829500002,-7.1201620649999313],[113.76132734100008,-7.120162010999934],[113.76132744900008,-7.1201800819999335],[113.76133649400003,-7.1201800279999361],[113.76133627800004,-7.1201438869999265]]]},"properties":{"OBJECTID":26103,"FID_mangrove_utm":26016,"OBJECTID_1":26016,"Name":"18102566,9293","FolderPath":"JATIM/JATIM","SymbolID":0,"AltMode":0,"Base":0,"Clamped":-1,"Extruded":0,"Snippet":"","PopupInfo":"\u003chtml xmlns:fo=\"http://www.w3.org/1999/XSL/Format\" xmlns:msxsl=\"urn:schemas-microsoft-com:xslt\"\u003e\n\u003chead\u003e\n\u003cMETA http-equiv=\"Content-Type\" content=\"text/html\"\u003e\n\u003cmeta http-equiv=\"content-type\" content=\"text/html; charset=UTF-8\"\u003e\n\u003c/head\u003e\n\u003cbody style=\"margin:0px 0px 0px 0px;overflow:auto;background:#FFFFFF;\"\u003e\n\u003ctable style=\"font-family:Arial,Verdana,Times;font-size:12px;text-align:left;width:100%;border-collapse:collapse;padding:3px 3px 3px 3px\"\u003e\n\u003ctr style=\"text-align:center;font-weight:bold;background:#9CBCE2\"\u003e\n\u003ctd\u003e18102566,9293\u003c/td\u003e\n\u003c/tr\u003e\n\u003ctr\u003e\n\u003ctd\u003e\n\u003ctable style=\"font-family:Arial,Verdana,Times;font-size:12px;text-align:left;width:100%;border-spacing:0px; padding:3px 3px 3px 3px\"\u003e\n\u003ctr\u003e\n\u003ctd\u003eFID\u003c/td\u003e\n\u003ctd\u003e0\u003c/td\u003e\n\u003c/tr\u003e\n\u003ctr bgcolor=\"#D4E4F3\"\u003e\n\u003ctd\u003eShape_Leng\u003c/td\u003e\n\u003ctd\u003e18102566,9293\u003c/td\u003e\n\u003c/tr\u003e\n\u003c/table\u003e\n\u003c/td\u003e\n\u003c/tr\u003e\n\u003c/table\u003e\n\u003c/body\u003e\u003cscript type=\"text/javascript\"\u003e\n\t\t\t\tfunction changeImage(attElement, nameElement) {\n\t\t\t\tdocument.getElementById('imageAttachment').src = attElement;\n\t\t\t\tdocument.getElementById('imageName').innerHTML = nameElement;}\n\t\t\t\u003c/script\u003e\u003c/html\u003e\n","FID_active_grids":134,"GridID":"N25","Shape_Length":0.00012655625801485487,"Shape_Area":5.7209849679978478e-10}},{"type":"Feature","id":26104,"geometry":{"type":"Polygon","coordinates":[[[113.76135436900006,-7.1201437789999318],[113.7613453240001,-7.1201438329999291],[113.7613454320001,-7.1201619029999392],[113.76136352300011,-7.1201617949999445],[113.76136346900012,-7.1201527599999395],[113.76135442300006,-7.1201528139999368],[113.76135436900006,-7.1201437789999318]]]},"properties":{"OBJECTID":26104,"FID_mangrove_utm":26017,"OBJECTID_1":26017,"Name":"18102566,9293","FolderPath":"JATIM/JATIM","SymbolID":0,"AltMode":0,"Base":0,"Clamped":-1,"Extruded":0,"Snippet":"","PopupInfo":"\u003chtml xmlns:fo=\"http://www.w3.org/1999/XSL/Format\" xmlns:msxsl=\"urn:schemas-microsoft-com:xslt\"\u003e\n\u003chead\u003e\n\u003cMETA http-equiv=\"Content-Type\" content=\"text/html\"\u003e\n\u003cmeta http-equiv=\"content-type\" content=\"text/html; charset=UTF-8\"\u003e\n\u003c/head\u003e\n\u003cbody style=\"margin:0px 0px 0px 0px;overflow:auto;background:#FFFFFF;\"\u003e\n\u003ctable style=\"font-family:Arial,Verdana,Times;font-size:12px;text-align:left;width:100%;border-collapse:collapse;padding:3px 3px 3px 3px\"\u003e\n\u003ctr style=\"text-align:center;font-weight:bold;background:#9CBCE2\"\u003e\n\u003ctd\u003e18102566,9293\u003c/td\u003e\n\u003c/tr\u003e\n\u003ctr\u003e\n\u003ctd\u003e\n\u003ctable style=\"font-family:Arial,Verdana,Times;font-size:12px;text-align:left;width:100%;border-spacing:0px; padding:3px 3px 3px 3px\"\u003e\n\u003ctr\u003e\n\u003ctd\u003eFID\u003c/td\u003e\n\u003ctd\u003e0\u003c/td\u003e\n\u003c/tr\u003e\n\u003ctr bgcolor=\"#D4E4F3\"\u003e\n\u003ctd\u003eShape_Leng\u003c/td\u003e\n\u003ctd\u003e18102566,9293\u003c/td\u003e\n\u003c/tr\u003e\n\u003c/table\u003e\n\u003c/td\u003e\n\u003c/tr\u003e\n\u003c/table\u003e\n\u003c/body\u003e\u003cscript type=\"text/javascript\"\u003e\n\t\t\t\tfunction changeImage(attElement, nameElement) {\n\t\t\t\tdocument.getElementById('imageAttachment').src = attElement;\n\t\t\t\tdocument.getElementById('imageName').innerHTML = nameElement;}\n\t\t\t\u003c/script\u003e\u003c/html\u003e\n","FID_active_grids":134,"GridID":"N25","Shape_Length":7.2323290269523321e-05,"Shape_Area":2.4518253488130671e-10}}]}