{"type":"FeatureCollection","features":[{"type":"Feature","id":19070,"geometry":{"type":"Polygon","coordinates":[[[114.68026611400001,-7.1757193049999728],[114.6802660410001,-7.17571027799994],[114.68025700300007,-7.1757103499999744],[114.6802570750001,-7.1757193769999503],[114.68026611400001,-7.1757193049999728]]]},"properties":{"OBJECTID":19070,"FID_mangrove_utm":19014,"OBJECTID_1":19014,"Name":"18102566,9293","FolderPath":"JATIM/JATIM","SymbolID":0,"AltMode":0,"Base":0,"Clamped":-1,"Extruded":0,"Snippet":"","PopupInfo":"\u003chtml xmlns:fo=\"http://www.w3.org/1999/XSL/Format\" xmlns:msxsl=\"urn:schemas-microsoft-com:xslt\"\u003e\n\u003chead\u003e\n\u003cMETA http-equiv=\"Content-Type\" content=\"text/html\"\u003e\n\u003cmeta http-equiv=\"content-type\" content=\"text/html; charset=UTF-8\"\u003e\n\u003c/head\u003e\n\u003cbody style=\"margin:0px 0px 0px 0px;overflow:auto;background:#FFFFFF;\"\u003e\n\u003ctable style=\"font-family:Arial,Verdana,Times;font-size:12px;text-align:left;width:100%;border-collapse:collapse;padding:3px 3px 3px 3px\"\u003e\n\u003ctr style=\"text-align:center;font-weight:bold;background:#9CBCE2\"\u003e\n\u003ctd\u003e18102566,9293\u003c/td\u003e\n\u003c/tr\u003e\n\u003ctr\u003e\n\u003ctd\u003e\n\u003ctable style=\"font-family:Arial,Verdana,Times;font-size:12px;text-align:left;width:100%;border-spacing:0px; padding:3px 3px 3px 3px\"\u003e\n\u003ctr\u003e\n\u003ctd\u003eFID\u003c/td\u003e\n\u003ctd\u003e0\u003c/td\u003e\n\u003c/tr\u003e\n\u003ctr bgcolor=\"#D4E4F3\"\u003e\n\u003ctd\u003eShape_Leng\u003c/td\u003e\n\u003ctd\u003e18102566,9293\u003c/td\u003e\n\u003c/tr\u003e\n\u003c/table\u003e\n\u003c/td\u003e\n\u003c/tr\u003e\n\u003c/table\u003e\n\u003c/body\u003e\u003cscript type=\"text/javascript\"\u003e\n\t\t\t\tfunction changeImage(attElement, nameElement) {\n\t\t\t\tdocument.getElementById('imageAttachment').src = attElement;\n\t\t\t\tdocument.getElementById('imageName').innerHTML = nameElement;}\n\t\t\t\u003c/script\u003e\u003c/html\u003e\n","FID_active_grids":121,"GridID":"O45","Shape_Length":3.6132155781096965e-05,"Shape_Area":8.1595759249414402e-11}},{"type":"Feature","id":19101,"geometry":{"type":"Polygon","coordinates":[[[114.68497017200002,-7.1750676509999494],[114.68496988100003,-7.1750315429999318],[114.68496084300011,-7.1750316159999556],[114.6849611340001,-7.1750677239999732],[114.68497017200002,-7.1750676509999494]]]},"properties":{"OBJECTID":19101,"FID_mangrove_utm":19045,"OBJECTID_1":19045,"Name":"18102566,9293","FolderPath":"JATIM/JATIM","SymbolID":0,"AltMode":0,"Base":0,"Clamped":-1,"Extruded":0,"Snippet":"","PopupInfo":"\u003chtml xmlns:fo=\"http://www.w3.org/1999/XSL/Format\" xmlns:msxsl=\"urn:schemas-microsoft-com:xslt\"\u003e\n\u003chead\u003e\n\u003cMETA http-equiv=\"Content-Type\" content=\"text/html\"\u003e\n\u003cmeta http-equiv=\"content-type\" content=\"text/html; charset=UTF-8\"\u003e\n\u003c/head\u003e\n\u003cbody style=\"margin:0px 0px 0px 0px;overflow:auto;background:#FFFFFF;\"\u003e\n\u003ctable style=\"font-family:Arial,Verdana,Times;font-size:12px;text-align:left;width:100%;border-collapse:collapse;padding:3px 3px 3px 3px\"\u003e\n\u003ctr style=\"text-align:center;font-weight:bold;background:#9CBCE2\"\u003e\n\u003ctd\u003e18102566,9293\u003c/td\u003e\n\u003c/tr\u003e\n\u003ctr\u003e\n\u003ctd\u003e\n\u003ctable style=\"font-family:Arial,Verdana,Times;font-size:12px;text-align:left;width:100%;border-spacing:0px; padding:3px 3px 3px 3px\"\u003e\n\u003ctr\u003e\n\u003ctd\u003eFID\u003c/td\u003e\n\u003ctd\u003e0\u003c/td\u003e\n\u003c/tr\u003e\n\u003ctr bgcolor=\"#D4E4F3\"\u003e\n\u003ctd\u003eShape_Leng\u003c/td\u003e\n\u003ctd\u003e18102566,9293\u003c/td\u003e\n\u003c/tr\u003e\n\u003c/table\u003e\n\u003c/td\u003e\n\u003c/tr\u003e\n\u003c/table\u003e\n\u003c/body\u003e\u003cscript type=\"text/javascript\"\u003e\n\t\t\t\tfunction changeImage(attElement, nameElement) {\n\t\t\t\tdocument.getElementById('imageAttachment').src = attElement;\n\t\t\t\tdocument.getElementById('imageName').innerHTML = nameElement;}\n\t\t\t\u003c/script\u003e\u003c/html\u003e\n","FID_active_grids":121,"GridID":"O45","Shape_Length":9.0294934656507165e-05,"Shape_Area":3.263653441486903e-10}},{"type":"Feature","id":19109,"geometry":{"type":"Polygon","coordinates":[[[114.68206660300007,-7.1748111119999294],[114.68206653000004,-7.1748020849999534],[114.68205749200001,-7.1748021579999772],[114.68205756400005,-7.1748111849999532],[114.68206660300007,-7.1748111119999294]]]},"properties":{"OBJECTID":19109,"FID_mangrove_utm":19053,"OBJECTID_1":19053,"Name":"18102566,9293","FolderPath":"JATIM/JATIM","SymbolID":0,"AltMode":0,"Base":0,"Clamped":-1,"Extruded":0,"Snippet":"","PopupInfo":"\u003chtml xmlns:fo=\"http://www.w3.org/1999/XSL/Format\" xmlns:msxsl=\"urn:schemas-microsoft-com:xslt\"\u003e\n\u003chead\u003e\n\u003cMETA http-equiv=\"Content-Type\" content=\"text/html\"\u003e\n\u003cmeta http-equiv=\"content-type\" content=\"text/html; charset=UTF-8\"\u003e\n\u003c/head\u003e\n\u003cbody style=\"margin:0px 0px 0px 0px;overflow:auto;background:#FFFFFF;\"\u003e\n\u003ctable style=\"font-family:Arial,Verdana,Times;font-size:12px;text-align:left;width:100%;border-collapse:collapse;padding:3px 3px 3px 3px\"\u003e\n\u003ctr style=\"text-align:center;font-weight:bold;background:#9CBCE2\"\u003e\n\u003ctd\u003e18102566,9293\u003c/td\u003e\n\u003c/tr\u003e\n\u003ctr\u003e\n\u003ctd\u003e\n\u003ctable style=\"font-family:Arial,Verdana,Times;font-size:12px;text-align:left;width:100%;border-spacing:0px; padding:3px 3px 3px 3px\"\u003e\n\u003ctr\u003e\n\u003ctd\u003eFID\u003c/td\u003e\n\u003ctd\u003e0\u003c/td\u003e\n\u003c/tr\u003e\n\u003ctr bgcolor=\"#D4E4F3\"\u003e\n\u003ctd\u003eShape_Leng\u003c/td\u003e\n\u003ctd\u003e18102566,9293\u003c/td\u003e\n\u003c/tr\u003e\n\u003c/table\u003e\n\u003c/td\u003e\n\u003c/tr\u003e\n\u003c/table\u003e\n\u003c/body\u003e\u003cscript type=\"text/javascript\"\u003e\n\t\t\t\tfunction changeImage(attElement, nameElement) {\n\t\t\t\tdocument.getElementById('imageAttachment').src = attElement;\n\t\t\t\tdocument.getElementById('imageName').innerHTML = nameElement;}\n\t\t\t\u003c/script\u003e\u003c/html\u003e\n","FID_active_grids":121,"GridID":"O45","Shape_Length":3.6132171881116367e-05,"Shape_Area":8.1595832011066002e-11}},{"type":"Feature","id":19115,"geometry":{"type":"Polygon","coordinates":[[[114.68559040100001,-7.1746383679999326],[114.6855903280001,-7.1746293409999566],[114.68558129000007,-7.1746294139999804],[114.68558136200011,-7.1746384409999564],[114.68559040100001,-7.1746383679999326]]]},"properties":{"OBJECTID":19115,"FID_mangrove_utm":19059,"OBJECTID_1":19059,"Name":"18102566,9293","FolderPath":"JATIM/JATIM","SymbolID":0,"AltMode":0,"Base":0,"Clamped":-1,"Extruded":0,"Snippet":"","PopupInfo":"\u003chtml xmlns:fo=\"http://www.w3.org/1999/XSL/Format\" xmlns:msxsl=\"urn:schemas-microsoft-com:xslt\"\u003e\n\u003chead\u003e\n\u003cMETA http-equiv=\"Content-Type\" content=\"text/html\"\u003e\n\u003cmeta http-equiv=\"content-type\" content=\"text/html; charset=UTF-8\"\u003e\n\u003c/head\u003e\n\u003cbody style=\"margin:0px 0px 0px 0px;overflow:auto;background:#FFFFFF;\"\u003e\n\u003ctable style=\"font-family:Arial,Verdana,Times;font-size:12px;text-align:left;width:100%;border-collapse:collapse;padding:3px 3px 3px 3px\"\u003e\n\u003ctr style=\"text-align:center;font-weight:bold;background:#9CBCE2\"\u003e\n\u003ctd\u003e18102566,9293\u003c/td\u003e\n\u003c/tr\u003e\n\u003ctr\u003e\n\u003ctd\u003e\n\u003ctable style=\"font-family:Arial,Verdana,Times;font-size:12px;text-align:left;width:100%;border-spacing:0px; padding:3px 3px 3px 3px\"\u003e\n\u003ctr\u003e\n\u003ctd\u003eFID\u003c/td\u003e\n\u003ctd\u003e0\u003c/td\u003e\n\u003c/tr\u003e\n\u003ctr bgcolor=\"#D4E4F3\"\u003e\n\u003ctd\u003eShape_Leng\u003c/td\u003e\n\u003ctd\u003e18102566,9293\u003c/td\u003e\n\u003c/tr\u003e\n\u003c/table\u003e\n\u003c/td\u003e\n\u003c/tr\u003e\n\u003c/table\u003e\n\u003c/body\u003e\u003cscript type=\"text/javascript\"\u003e\n\t\t\t\tfunction changeImage(attElement, nameElement) {\n\t\t\t\tdocument.getElementById('imageAttachment').src = attElement;\n\t\t\t\tdocument.getElementById('imageName').innerHTML = nameElement;}\n\t\t\t\u003c/script\u003e\u003c/html\u003e\n","FID_active_grids":121,"GridID":"O45","Shape_Length":3.6132171766513901e-05,"Shape_Area":8.1595831493790881e-11}},{"type":"Feature","id":19135,"geometry":{"type":"Polygon","coordinates":[[[114.67465132900008,-7.1744011359999718],[114.67464229100005,-7.1744012089999387],[114.67464243600011,-7.1744192629999475],[114.67465147400003,-7.1744191909999699],[114.67465132900008,-7.1744011359999718]]]},"properties":{"OBJECTID":19135,"FID_mangrove_utm":19079,"OBJECTID_1":19079,"Name":"18102566,9293","FolderPath":"JATIM/JATIM","SymbolID":0,"AltMode":0,"Base":0,"Clamped":-1,"Extruded":0,"Snippet":"","PopupInfo":"\u003chtml xmlns:fo=\"http://www.w3.org/1999/XSL/Format\" xmlns:msxsl=\"urn:schemas-microsoft-com:xslt\"\u003e\n\u003chead\u003e\n\u003cMETA http-equiv=\"Content-Type\" content=\"text/html\"\u003e\n\u003cmeta http-equiv=\"content-type\" content=\"text/html; charset=UTF-8\"\u003e\n\u003c/head\u003e\n\u003cbody style=\"margin:0px 0px 0px 0px;overflow:auto;background:#FFFFFF;\"\u003e\n\u003ctable style=\"font-family:Arial,Verdana,Times;font-size:12px;text-align:left;width:100%;border-collapse:collapse;padding:3px 3px 3px 3px\"\u003e\n\u003ctr style=\"text-align:center;font-weight:bold;background:#9CBCE2\"\u003e\n\u003ctd\u003e18102566,9293\u003c/td\u003e\n\u003c/tr\u003e\n\u003ctr\u003e\n\u003ctd\u003e\n\u003ctable style=\"font-family:Arial,Verdana,Times;font-size:12px;text-align:left;width:100%;border-spacing:0px; padding:3px 3px 3px 3px\"\u003e\n\u003ctr\u003e\n\u003ctd\u003eFID\u003c/td\u003e\n\u003ctd\u003e0\u003c/td\u003e\n\u003c/tr\u003e\n\u003ctr bgcolor=\"#D4E4F3\"\u003e\n\u003ctd\u003eShape_Leng\u003c/td\u003e\n\u003ctd\u003e18102566,9293\u003c/td\u003e\n\u003c/tr\u003e\n\u003c/table\u003e\n\u003c/td\u003e\n\u003c/tr\u003e\n\u003c/table\u003e\n\u003c/body\u003e\u003cscript type=\"text/javascript\"\u003e\n\t\t\t\tfunction changeImage(attElement, nameElement) {\n\t\t\t\tdocument.getElementById('imageAttachment').src = attElement;\n\t\t\t\tdocument.getElementById('imageName').innerHTML = nameElement;}\n\t\t\t\u003c/script\u003e\u003c/html\u003e\n","FID_active_grids":121,"GridID":"O45","Shape_Length":5.4186746054549552e-05,"Shape_Area":1.6318708304569052e-10}},{"type":"Feature","id":20314,"geometry":{"type":"Polygon","coordinates":[[[114.68101016100002,-7.1603301379999493],[114.68092881900009,-7.1603307899999322],[114.68092889100001,-7.160339816999965],[114.68091985300009,-7.1603398889999426],[114.68091999800004,-7.1603579429999513],[114.68091096000001,-7.1603580159999751],[114.68091103200004,-7.1603670429999511],[114.68090199400001,-7.1603671149999286],[114.68090206700003,-7.1603761419999614],[114.68091110500006,-7.160376069999927],[114.68091119600001,-7.1603874419999443],[114.68091854900001,-7.1603940659999807],[114.68092028800004,-7.1603940519999583],[114.68092030100001,-7.1603956439999479],[114.68092848300012,-7.1604030139999395],[114.6809293980001,-7.1604030069999567],[114.68092940500003,-7.1604038449999621],[114.68098808600007,-7.1604567029999657],[114.68099310000002,-7.160456662999934],[114.68099313700009,-7.1604612519999478],[114.68099802000006,-7.1604656509999813],[114.68100221100008,-7.160465616999943],[114.6810022410001,-7.160469452999962],[114.68100795400005,-7.1604745989999401],[114.68101132100003,-7.1604745719999414],[114.6810113460001,-7.1604776539999762],[114.68101788800004,-7.1604835469999557],[114.68102043200008,-7.1604835269999398],[114.68102045000001,-7.1604858549999335],[114.68102782200003,-7.1604924949999713],[114.68103858000006,-7.1604924089999713],[114.68103865300009,-7.1605014359999473],[114.68108384300001,-7.160501073999967],[114.68108391600003,-7.160510100999943],[114.68112006800004,-7.1605098119999298],[114.68112014100006,-7.1605188389999626],[114.68113821700001,-7.1605186939999612],[114.68113829000004,-7.1605277209999372],[114.68117444200004,-7.1605274319999808],[114.68117436900002,-7.1605184039999585],[114.68119244600007,-7.1605182599999466],[114.68119215600007,-7.1604821509999397],[114.6812011940001,-7.1604820789999621],[114.68120112100007,-7.1604730519999293],[114.68119208300004,-7.1604731239999637],[114.68119201100001,-7.1604640969999309],[114.68115585800001,-7.1604643869999336],[114.68115578600009,-7.1604553589999682],[114.68114674800006,-7.1604554319999352],[114.68114660300012,-7.1604373779999264],[114.68113756500009,-7.1604374499999608],[114.68113742000003,-7.160419395999952],[114.68112838200011,-7.1604194679999296],[114.68112823700005,-7.1604014139999776],[114.68111919900002,-7.1604014859999552],[114.68111912600011,-7.1603924589999792],[114.68110105000005,-7.1603926039999806],[114.68110097700003,-7.1603835769999478],[114.68109193900011,-7.1603836489999253],[114.68109186700008,-7.1603746219999493],[114.68106475200011,-7.1603748389999282],[114.68106468000008,-7.1603658119999523],[114.68105564200005,-7.1603658849999761],[114.6810554970001,-7.1603478299999779],[114.68102838300001,-7.1603480479999462],[114.6810283100001,-7.1603390199999808],[114.68101023400004,-7.1603391649999253],[114.68101016100002,-7.1603301379999493]]]},"properties":{"OBJECTID":20314,"FID_mangrove_utm":20256,"OBJECTID_1":20256,"Name":"18102566,9293","FolderPath":"JATIM/JATIM","SymbolID":0,"AltMode":0,"Base":0,"Clamped":-1,"Extruded":0,"Snippet":"","PopupInfo":"\u003chtml xmlns:fo=\"http://www.w3.org/1999/XSL/Format\" xmlns:msxsl=\"urn:schemas-microsoft-com:xslt\"\u003e\n\u003chead\u003e\n\u003cMETA http-equiv=\"Content-Type\" content=\"text/html\"\u003e\n\u003cmeta http-equiv=\"content-type\" content=\"text/html; charset=UTF-8\"\u003e\n\u003c/head\u003e\n\u003cbody style=\"margin:0px 0px 0px 0px;overflow:auto;background:#FFFFFF;\"\u003e\n\u003ctable style=\"font-family:Arial,Verdana,Times;font-size:12px;text-align:left;width:100%;border-collapse:collapse;padding:3px 3px 3px 3px\"\u003e\n\u003ctr style=\"text-align:center;font-weight:bold;background:#9CBCE2\"\u003e\n\u003ctd\u003e18102566,9293\u003c/td\u003e\n\u003c/tr\u003e\n\u003ctr\u003e\n\u003ctd\u003e\n\u003ctable style=\"font-family:Arial,Verdana,Times;font-size:12px;text-align:left;width:100%;border-spacing:0px; padding:3px 3px 3px 3px\"\u003e\n\u003ctr\u003e\n\u003ctd\u003eFID\u003c/td\u003e\n\u003ctd\u003e0\u003c/td\u003e\n\u003c/tr\u003e\n\u003ctr bgcolor=\"#D4E4F3\"\u003e\n\u003ctd\u003eShape_Leng\u003c/td\u003e\n\u003ctd\u003e18102566,9293\u003c/td\u003e\n\u003c/tr\u003e\n\u003c/table\u003e\n\u003c/td\u003e\n\u003c/tr\u003e\n\u003c/table\u003e\n\u003c/body\u003e\u003cscript type=\"text/javascript\"\u003e\n\t\t\t\tfunction changeImage(attElement, nameElement) {\n\t\t\t\tdocument.getElementById('imageAttachment').src = attElement;\n\t\t\t\tdocument.getElementById('imageName').innerHTML = nameElement;}\n\t\t\t\u003c/script\u003e\u003c/html\u003e\n","FID_active_grids":121,"GridID":"O45","Shape_Length":0.00093888540889621494,"Shape_Area":3.0225863086425142e-08}}]}