{"type":"FeatureCollection","features":[{"type":"Feature","id":39893,"geometry":{"type":"Polygon","coordinates":[[[113.26688132700008,-6.890863344999957],[113.26688128400008,-6.8908543069999268],[113.26686319500004,-6.8908543919999374],[113.26686323800004,-6.890863430999957],[113.26688132700008,-6.890863344999957]]]},"properties":{"OBJECTID":39893,"FID_mangrove_utm":39714,"OBJECTID_1":39714,"Name":"18102566,9293","FolderPath":"JATIM/JATIM","SymbolID":0,"AltMode":0,"Base":0,"Clamped":-1,"Extruded":0,"Snippet":"","PopupInfo":"\u003chtml xmlns:fo=\"http://www.w3.org/1999/XSL/Format\" xmlns:msxsl=\"urn:schemas-microsoft-com:xslt\"\u003e\n\u003chead\u003e\n\u003cMETA http-equiv=\"Content-Type\" content=\"text/html\"\u003e\n\u003cmeta http-equiv=\"content-type\" content=\"text/html; charset=UTF-8\"\u003e\n\u003c/head\u003e\n\u003cbody style=\"margin:0px 0px 0px 0px;overflow:auto;background:#FFFFFF;\"\u003e\n\u003ctable style=\"font-family:Arial,Verdana,Times;font-size:12px;text-align:left;width:100%;border-collapse:collapse;padding:3px 3px 3px 3px\"\u003e\n\u003ctr style=\"text-align:center;font-weight:bold;background:#9CBCE2\"\u003e\n\u003ctd\u003e18102566,9293\u003c/td\u003e\n\u003c/tr\u003e\n\u003ctr\u003e\n\u003ctd\u003e\n\u003ctable style=\"font-family:Arial,Verdana,Times;font-size:12px;text-align:left;width:100%;border-spacing:0px; padding:3px 3px 3px 3px\"\u003e\n\u003ctr\u003e\n\u003ctd\u003eFID\u003c/td\u003e\n\u003ctd\u003e0\u003c/td\u003e\n\u003c/tr\u003e\n\u003ctr bgcolor=\"#D4E4F3\"\u003e\n\u003ctd\u003eShape_Leng\u003c/td\u003e\n\u003ctd\u003e18102566,9293\u003c/td\u003e\n\u003c/tr\u003e\n\u003c/table\u003e\n\u003c/td\u003e\n\u003c/tr\u003e\n\u003c/table\u003e\n\u003c/body\u003e\u003cscript type=\"text/javascript\"\u003e\n\t\t\t\tfunction changeImage(attElement, nameElement) {\n\t\t\t\tdocument.getElementById('imageAttachment').src = attElement;\n\t\t\t\tdocument.getElementById('imageName').innerHTML = nameElement;}\n\t\t\t\u003c/script\u003e\u003c/html\u003e\n","FID_active_grids":249,"GridID":"H14","Shape_Length":5.4255608829407931e-05,"Shape_Area":1.6350110378026427e-10}},{"type":"Feature","id":39900,"geometry":{"type":"Polygon","coordinates":[[[113.26716145100011,-6.8908077809999781],[113.26712527300003,-6.8908079529999782],[113.26712531600003,-6.8908169919999409],[113.26711627100008,-6.8908170349999409],[113.26711635700008,-6.8908351129999801],[113.26712540200003,-6.8908350699999801],[113.26712548800003,-6.890853146999973],[113.26711644300008,-6.890853189999973],[113.26711652900008,-6.8908712679999553],[113.26714366300007,-6.8908711389999553],[113.26714353400007,-6.8908440229999428],[113.26713448900011,-6.8908440659999428],[113.26713444600011,-6.8908350269999801],[113.26716158000011,-6.8908348979999801],[113.26716153700011,-6.8908258589999605],[113.26717058100007,-6.8908258159999605],[113.26717053800007,-6.8908167769999409],[113.26716149400011,-6.8908168199999409],[113.26716145100011,-6.8908077809999781]]]},"properties":{"OBJECTID":39900,"FID_mangrove_utm":39721,"OBJECTID_1":39721,"Name":"18102566,9293","FolderPath":"JATIM/JATIM","SymbolID":0,"AltMode":0,"Base":0,"Clamped":-1,"Extruded":0,"Snippet":"","PopupInfo":"\u003chtml xmlns:fo=\"http://www.w3.org/1999/XSL/Format\" xmlns:msxsl=\"urn:schemas-microsoft-com:xslt\"\u003e\n\u003chead\u003e\n\u003cMETA http-equiv=\"Content-Type\" content=\"text/html\"\u003e\n\u003cmeta http-equiv=\"content-type\" content=\"text/html; charset=UTF-8\"\u003e\n\u003c/head\u003e\n\u003cbody style=\"margin:0px 0px 0px 0px;overflow:auto;background:#FFFFFF;\"\u003e\n\u003ctable style=\"font-family:Arial,Verdana,Times;font-size:12px;text-align:left;width:100%;border-collapse:collapse;padding:3px 3px 3px 3px\"\u003e\n\u003ctr style=\"text-align:center;font-weight:bold;background:#9CBCE2\"\u003e\n\u003ctd\u003e18102566,9293\u003c/td\u003e\n\u003c/tr\u003e\n\u003ctr\u003e\n\u003ctd\u003e\n\u003ctable style=\"font-family:Arial,Verdana,Times;font-size:12px;text-align:left;width:100%;border-spacing:0px; padding:3px 3px 3px 3px\"\u003e\n\u003ctr\u003e\n\u003ctd\u003eFID\u003c/td\u003e\n\u003ctd\u003e0\u003c/td\u003e\n\u003c/tr\u003e\n\u003ctr bgcolor=\"#D4E4F3\"\u003e\n\u003ctd\u003eShape_Leng\u003c/td\u003e\n\u003ctd\u003e18102566,9293\u003c/td\u003e\n\u003c/tr\u003e\n\u003c/table\u003e\n\u003c/td\u003e\n\u003c/tr\u003e\n\u003c/table\u003e\n\u003c/body\u003e\u003cscript type=\"text/javascript\"\u003e\n\t\t\t\tfunction changeImage(attElement, nameElement) {\n\t\t\t\tdocument.getElementById('imageAttachment').src = attElement;\n\t\t\t\tdocument.getElementById('imageName').innerHTML = nameElement;}\n\t\t\t\u003c/script\u003e\u003c/html\u003e\n","FID_active_grids":249,"GridID":"H14","Shape_Length":0.00027126106712851408,"Shape_Area":1.9621128726488384e-09}},{"type":"Feature","id":39904,"geometry":{"type":"Polygon","coordinates":[[[113.2662750400001,-6.8908029489999763],[113.2662749970001,-6.8907939099999567],[113.26626595300002,-6.8907939529999567],[113.26626599600002,-6.8908029919999763],[113.2662750400001,-6.8908029489999763]]]},"properties":{"OBJECTID":39904,"FID_mangrove_utm":39725,"OBJECTID_1":39725,"Name":"18102566,9293","FolderPath":"JATIM/JATIM","SymbolID":0,"AltMode":0,"Base":0,"Clamped":-1,"Extruded":0,"Snippet":"","PopupInfo":"\u003chtml xmlns:fo=\"http://www.w3.org/1999/XSL/Format\" xmlns:msxsl=\"urn:schemas-microsoft-com:xslt\"\u003e\n\u003chead\u003e\n\u003cMETA http-equiv=\"Content-Type\" content=\"text/html\"\u003e\n\u003cmeta http-equiv=\"content-type\" content=\"text/html; charset=UTF-8\"\u003e\n\u003c/head\u003e\n\u003cbody style=\"margin:0px 0px 0px 0px;overflow:auto;background:#FFFFFF;\"\u003e\n\u003ctable style=\"font-family:Arial,Verdana,Times;font-size:12px;text-align:left;width:100%;border-collapse:collapse;padding:3px 3px 3px 3px\"\u003e\n\u003ctr style=\"text-align:center;font-weight:bold;background:#9CBCE2\"\u003e\n\u003ctd\u003e18102566,9293\u003c/td\u003e\n\u003c/tr\u003e\n\u003ctr\u003e\n\u003ctd\u003e\n\u003ctable style=\"font-family:Arial,Verdana,Times;font-size:12px;text-align:left;width:100%;border-spacing:0px; padding:3px 3px 3px 3px\"\u003e\n\u003ctr\u003e\n\u003ctd\u003eFID\u003c/td\u003e\n\u003ctd\u003e0\u003c/td\u003e\n\u003c/tr\u003e\n\u003ctr bgcolor=\"#D4E4F3\"\u003e\n\u003ctd\u003eShape_Leng\u003c/td\u003e\n\u003ctd\u003e18102566,9293\u003c/td\u003e\n\u003c/tr\u003e\n\u003c/table\u003e\n\u003c/td\u003e\n\u003c/tr\u003e\n\u003c/table\u003e\n\u003c/body\u003e\u003cscript type=\"text/javascript\"\u003e\n\t\t\t\tfunction changeImage(attElement, nameElement) {\n\t\t\t\tdocument.getElementById('imageAttachment').src = attElement;\n\t\t\t\tdocument.getElementById('imageName').innerHTML = nameElement;}\n\t\t\t\u003c/script\u003e\u003c/html\u003e\n","FID_active_grids":249,"GridID":"H14","Shape_Length":3.6166409200602648e-05,"Shape_Area":8.1750565903796367e-11}},{"type":"Feature","id":39908,"geometry":{"type":"Polygon","coordinates":[[[113.26624786400009,-6.8907940389999567],[113.26624782100009,-6.8907849999999371],[113.2662749540001,-6.8907848709999371],[113.2662748680001,-6.8907667939999442],[113.26626582400002,-6.8907668369999442],[113.26626586700002,-6.8907758749999743],[113.26623873300002,-6.8907760039999744],[113.26623881900002,-6.8907940819999567],[113.26624786400009,-6.8907940389999567]]]},"properties":{"OBJECTID":39908,"FID_mangrove_utm":39729,"OBJECTID_1":39729,"Name":"18102566,9293","FolderPath":"JATIM/JATIM","SymbolID":0,"AltMode":0,"Base":0,"Clamped":-1,"Extruded":0,"Snippet":"","PopupInfo":"\u003chtml xmlns:fo=\"http://www.w3.org/1999/XSL/Format\" xmlns:msxsl=\"urn:schemas-microsoft-com:xslt\"\u003e\n\u003chead\u003e\n\u003cMETA http-equiv=\"Content-Type\" content=\"text/html\"\u003e\n\u003cmeta http-equiv=\"content-type\" content=\"text/html; charset=UTF-8\"\u003e\n\u003c/head\u003e\n\u003cbody style=\"margin:0px 0px 0px 0px;overflow:auto;background:#FFFFFF;\"\u003e\n\u003ctable style=\"font-family:Arial,Verdana,Times;font-size:12px;text-align:left;width:100%;border-collapse:collapse;padding:3px 3px 3px 3px\"\u003e\n\u003ctr style=\"text-align:center;font-weight:bold;background:#9CBCE2\"\u003e\n\u003ctd\u003e18102566,9293\u003c/td\u003e\n\u003c/tr\u003e\n\u003ctr\u003e\n\u003ctd\u003e\n\u003ctable style=\"font-family:Arial,Verdana,Times;font-size:12px;text-align:left;width:100%;border-spacing:0px; padding:3px 3px 3px 3px\"\u003e\n\u003ctr\u003e\n\u003ctd\u003eFID\u003c/td\u003e\n\u003ctd\u003e0\u003c/td\u003e\n\u003c/tr\u003e\n\u003ctr bgcolor=\"#D4E4F3\"\u003e\n\u003ctd\u003eShape_Leng\u003c/td\u003e\n\u003ctd\u003e18102566,9293\u003c/td\u003e\n\u003c/tr\u003e\n\u003c/table\u003e\n\u003c/td\u003e\n\u003c/tr\u003e\n\u003c/table\u003e\n\u003c/body\u003e\u003cscript type=\"text/javascript\"\u003e\n\t\t\t\tfunction changeImage(attElement, nameElement) {\n\t\t\t\tdocument.getElementById('imageAttachment').src = attElement;\n\t\t\t\tdocument.getElementById('imageName').innerHTML = nameElement;}\n\t\t\t\u003c/script\u003e\u003c/html\u003e\n","FID_active_grids":249,"GridID":"H14","Shape_Length":0.00012658943159422087,"Shape_Area":4.9052144263236414e-10}},{"type":"Feature","id":39909,"geometry":{"type":"Polygon","coordinates":[[[113.26630200200009,-6.8907666649999442],[113.26629295800001,-6.8907667079999442],[113.26629312900002,-6.8908028629999762],[113.26630217400009,-6.8908028199999762],[113.26630221700009,-6.890811858999939],[113.26631126100006,-6.890811815999939],[113.26631117600004,-6.8907937389999461],[113.26632022000001,-6.8907936959999461],[113.26632017700001,-6.8907846569999265],[113.26631113300004,-6.8907846999999265],[113.26631109000004,-6.8907756609999637],[113.26630204500009,-6.8907757039999638],[113.26630200200009,-6.8907666649999442]]]},"properties":{"OBJECTID":39909,"FID_mangrove_utm":39730,"OBJECTID_1":39730,"Name":"18102566,9293","FolderPath":"JATIM/JATIM","SymbolID":0,"AltMode":0,"Base":0,"Clamped":-1,"Extruded":0,"Snippet":"","PopupInfo":"\u003chtml xmlns:fo=\"http://www.w3.org/1999/XSL/Format\" xmlns:msxsl=\"urn:schemas-microsoft-com:xslt\"\u003e\n\u003chead\u003e\n\u003cMETA http-equiv=\"Content-Type\" content=\"text/html\"\u003e\n\u003cmeta http-equiv=\"content-type\" content=\"text/html; charset=UTF-8\"\u003e\n\u003c/head\u003e\n\u003cbody style=\"margin:0px 0px 0px 0px;overflow:auto;background:#FFFFFF;\"\u003e\n\u003ctable style=\"font-family:Arial,Verdana,Times;font-size:12px;text-align:left;width:100%;border-collapse:collapse;padding:3px 3px 3px 3px\"\u003e\n\u003ctr style=\"text-align:center;font-weight:bold;background:#9CBCE2\"\u003e\n\u003ctd\u003e18102566,9293\u003c/td\u003e\n\u003c/tr\u003e\n\u003ctr\u003e\n\u003ctd\u003e\n\u003ctable style=\"font-family:Arial,Verdana,Times;font-size:12px;text-align:left;width:100%;border-spacing:0px; padding:3px 3px 3px 3px\"\u003e\n\u003ctr\u003e\n\u003ctd\u003eFID\u003c/td\u003e\n\u003ctd\u003e0\u003c/td\u003e\n\u003c/tr\u003e\n\u003ctr bgcolor=\"#D4E4F3\"\u003e\n\u003ctd\u003eShape_Leng\u003c/td\u003e\n\u003ctd\u003e18102566,9293\u003c/td\u003e\n\u003c/tr\u003e\n\u003c/table\u003e\n\u003c/td\u003e\n\u003c/tr\u003e\n\u003c/table\u003e\n\u003c/body\u003e\u003cscript type=\"text/javascript\"\u003e\n\t\t\t\tfunction changeImage(attElement, nameElement) {\n\t\t\t\tdocument.getElementById('imageAttachment').src = attElement;\n\t\t\t\tdocument.getElementById('imageName').innerHTML = nameElement;}\n\t\t\t\u003c/script\u003e\u003c/html\u003e\n","FID_active_grids":249,"GridID":"H14","Shape_Length":0.00014465562663876927,"Shape_Area":7.3578206317091436e-10}},{"type":"Feature","id":39924,"geometry":{"type":"Polygon","coordinates":[[[113.26604832500004,-6.8906774779999296],[113.26604828200004,-6.8906684389999668],[113.26603923700009,-6.8906684819999668],[113.26603928000009,-6.8906775209999296],[113.26604832500004,-6.8906774779999296]]]},"properties":{"OBJECTID":39924,"FID_mangrove_utm":39745,"OBJECTID_1":39745,"Name":"18102566,9293","FolderPath":"JATIM/JATIM","SymbolID":0,"AltMode":0,"Base":0,"Clamped":-1,"Extruded":0,"Snippet":"","PopupInfo":"\u003chtml xmlns:fo=\"http://www.w3.org/1999/XSL/Format\" xmlns:msxsl=\"urn:schemas-microsoft-com:xslt\"\u003e\n\u003chead\u003e\n\u003cMETA http-equiv=\"Content-Type\" content=\"text/html\"\u003e\n\u003cmeta http-equiv=\"content-type\" content=\"text/html; charset=UTF-8\"\u003e\n\u003c/head\u003e\n\u003cbody style=\"margin:0px 0px 0px 0px;overflow:auto;background:#FFFFFF;\"\u003e\n\u003ctable style=\"font-family:Arial,Verdana,Times;font-size:12px;text-align:left;width:100%;border-collapse:collapse;padding:3px 3px 3px 3px\"\u003e\n\u003ctr style=\"text-align:center;font-weight:bold;background:#9CBCE2\"\u003e\n\u003ctd\u003e18102566,9293\u003c/td\u003e\n\u003c/tr\u003e\n\u003ctr\u003e\n\u003ctd\u003e\n\u003ctable style=\"font-family:Arial,Verdana,Times;font-size:12px;text-align:left;width:100%;border-spacing:0px; padding:3px 3px 3px 3px\"\u003e\n\u003ctr\u003e\n\u003ctd\u003eFID\u003c/td\u003e\n\u003ctd\u003e0\u003c/td\u003e\n\u003c/tr\u003e\n\u003ctr bgcolor=\"#D4E4F3\"\u003e\n\u003ctd\u003eShape_Leng\u003c/td\u003e\n\u003ctd\u003e18102566,9293\u003c/td\u003e\n\u003c/tr\u003e\n\u003c/table\u003e\n\u003c/td\u003e\n\u003c/tr\u003e\n\u003c/table\u003e\n\u003c/body\u003e\u003cscript type=\"text/javascript\"\u003e\n\t\t\t\tfunction changeImage(attElement, nameElement) {\n\t\t\t\tdocument.getElementById('imageAttachment').src = attElement;\n\t\t\t\tdocument.getElementById('imageName').innerHTML = nameElement;}\n\t\t\t\u003c/script\u003e\u003c/html\u003e\n","FID_active_grids":249,"GridID":"H14","Shape_Length":3.6168408815792725e-05,"Shape_Area":8.1759603266460848e-11}},{"type":"Feature","id":39927,"geometry":{"type":"Polygon","coordinates":[[[113.26605728300001,-6.8906593569999472],[113.26605719800011,-6.8906412789999649],[113.26604815300004,-6.8906413219999649],[113.26604823900004,-6.8906593999999473],[113.26605728300001,-6.8906593569999472]]]},"properties":{"OBJECTID":39927,"FID_mangrove_utm":39748,"OBJECTID_1":39748,"Name":"18102566,9293","FolderPath":"JATIM/JATIM","SymbolID":0,"AltMode":0,"Base":0,"Clamped":-1,"Extruded":0,"Snippet":"","PopupInfo":"\u003chtml xmlns:fo=\"http://www.w3.org/1999/XSL/Format\" xmlns:msxsl=\"urn:schemas-microsoft-com:xslt\"\u003e\n\u003chead\u003e\n\u003cMETA http-equiv=\"Content-Type\" content=\"text/html\"\u003e\n\u003cmeta http-equiv=\"content-type\" content=\"text/html; charset=UTF-8\"\u003e\n\u003c/head\u003e\n\u003cbody style=\"margin:0px 0px 0px 0px;overflow:auto;background:#FFFFFF;\"\u003e\n\u003ctable style=\"font-family:Arial,Verdana,Times;font-size:12px;text-align:left;width:100%;border-collapse:collapse;padding:3px 3px 3px 3px\"\u003e\n\u003ctr style=\"text-align:center;font-weight:bold;background:#9CBCE2\"\u003e\n\u003ctd\u003e18102566,9293\u003c/td\u003e\n\u003c/tr\u003e\n\u003ctr\u003e\n\u003ctd\u003e\n\u003ctable style=\"font-family:Arial,Verdana,Times;font-size:12px;text-align:left;width:100%;border-spacing:0px; padding:3px 3px 3px 3px\"\u003e\n\u003ctr\u003e\n\u003ctd\u003eFID\u003c/td\u003e\n\u003ctd\u003e0\u003c/td\u003e\n\u003c/tr\u003e\n\u003ctr bgcolor=\"#D4E4F3\"\u003e\n\u003ctd\u003eShape_Leng\u003c/td\u003e\n\u003ctd\u003e18102566,9293\u003c/td\u003e\n\u003c/tr\u003e\n\u003c/table\u003e\n\u003c/td\u003e\n\u003c/tr\u003e\n\u003c/table\u003e\n\u003c/body\u003e\u003cscript type=\"text/javascript\"\u003e\n\t\t\t\tfunction changeImage(attElement, nameElement) {\n\t\t\t\tdocument.getElementById('imageAttachment').src = attElement;\n\t\t\t\tdocument.getElementById('imageName').innerHTML = nameElement;}\n\t\t\t\u003c/script\u003e\u003c/html\u003e\n","FID_active_grids":249,"GridID":"H14","Shape_Length":5.4245608817453977e-05,"Shape_Area":1.6351014766806875e-10}},{"type":"Feature","id":39928,"geometry":{"type":"Polygon","coordinates":[[[113.26656373600008,-6.8906479149999313],[113.26656369300008,-6.8906388759999686],[113.26654560400004,-6.8906389619999686],[113.26654564700004,-6.8906480009999314],[113.26656373600008,-6.8906479149999313]]]},"properties":{"OBJECTID":39928,"FID_mangrove_utm":39749,"OBJECTID_1":39749,"Name":"18102566,9293","FolderPath":"JATIM/JATIM","SymbolID":0,"AltMode":0,"Base":0,"Clamped":-1,"Extruded":0,"Snippet":"","PopupInfo":"\u003chtml xmlns:fo=\"http://www.w3.org/1999/XSL/Format\" xmlns:msxsl=\"urn:schemas-microsoft-com:xslt\"\u003e\n\u003chead\u003e\n\u003cMETA http-equiv=\"Content-Type\" content=\"text/html\"\u003e\n\u003cmeta http-equiv=\"content-type\" content=\"text/html; charset=UTF-8\"\u003e\n\u003c/head\u003e\n\u003cbody style=\"margin:0px 0px 0px 0px;overflow:auto;background:#FFFFFF;\"\u003e\n\u003ctable style=\"font-family:Arial,Verdana,Times;font-size:12px;text-align:left;width:100%;border-collapse:collapse;padding:3px 3px 3px 3px\"\u003e\n\u003ctr style=\"text-align:center;font-weight:bold;background:#9CBCE2\"\u003e\n\u003ctd\u003e18102566,9293\u003c/td\u003e\n\u003c/tr\u003e\n\u003ctr\u003e\n\u003ctd\u003e\n\u003ctable style=\"font-family:Arial,Verdana,Times;font-size:12px;text-align:left;width:100%;border-spacing:0px; padding:3px 3px 3px 3px\"\u003e\n\u003ctr\u003e\n\u003ctd\u003eFID\u003c/td\u003e\n\u003ctd\u003e0\u003c/td\u003e\n\u003c/tr\u003e\n\u003ctr bgcolor=\"#D4E4F3\"\u003e\n\u003ctd\u003eShape_Leng\u003c/td\u003e\n\u003ctd\u003e18102566,9293\u003c/td\u003e\n\u003c/tr\u003e\n\u003c/table\u003e\n\u003c/td\u003e\n\u003c/tr\u003e\n\u003c/table\u003e\n\u003c/body\u003e\u003cscript type=\"text/javascript\"\u003e\n\t\t\t\tfunction changeImage(attElement, nameElement) {\n\t\t\t\tdocument.getElementById('imageAttachment').src = attElement;\n\t\t\t\tdocument.getElementById('imageName').innerHTML = nameElement;}\n\t\t\t\u003c/script\u003e\u003c/html\u003e\n","FID_active_grids":249,"GridID":"H14","Shape_Length":5.4256613420357685e-05,"Shape_Area":1.6351016865616534e-10}},{"type":"Feature","id":39937,"geometry":{"type":"Polygon","coordinates":[[[113.26606611300008,-6.8906141199999524],[113.26605706900011,-6.8906141629999524],[113.26605711200011,-6.8906232009999258],[113.26606615600008,-6.890623158999972],[113.26606611300008,-6.8906141199999524]]]},"properties":{"OBJECTID":39937,"FID_mangrove_utm":39758,"OBJECTID_1":39758,"Name":"18102566,9293","FolderPath":"JATIM/JATIM","SymbolID":0,"AltMode":0,"Base":0,"Clamped":-1,"Extruded":0,"Snippet":"","PopupInfo":"\u003chtml xmlns:fo=\"http://www.w3.org/1999/XSL/Format\" xmlns:msxsl=\"urn:schemas-microsoft-com:xslt\"\u003e\n\u003chead\u003e\n\u003cMETA http-equiv=\"Content-Type\" content=\"text/html\"\u003e\n\u003cmeta http-equiv=\"content-type\" content=\"text/html; charset=UTF-8\"\u003e\n\u003c/head\u003e\n\u003cbody style=\"margin:0px 0px 0px 0px;overflow:auto;background:#FFFFFF;\"\u003e\n\u003ctable style=\"font-family:Arial,Verdana,Times;font-size:12px;text-align:left;width:100%;border-collapse:collapse;padding:3px 3px 3px 3px\"\u003e\n\u003ctr style=\"text-align:center;font-weight:bold;background:#9CBCE2\"\u003e\n\u003ctd\u003e18102566,9293\u003c/td\u003e\n\u003c/tr\u003e\n\u003ctr\u003e\n\u003ctd\u003e\n\u003ctable style=\"font-family:Arial,Verdana,Times;font-size:12px;text-align:left;width:100%;border-spacing:0px; padding:3px 3px 3px 3px\"\u003e\n\u003ctr\u003e\n\u003ctd\u003eFID\u003c/td\u003e\n\u003ctd\u003e0\u003c/td\u003e\n\u003c/tr\u003e\n\u003ctr bgcolor=\"#D4E4F3\"\u003e\n\u003ctd\u003eShape_Leng\u003c/td\u003e\n\u003ctd\u003e18102566,9293\u003c/td\u003e\n\u003c/tr\u003e\n\u003c/table\u003e\n\u003c/td\u003e\n\u003c/tr\u003e\n\u003c/table\u003e\n\u003c/body\u003e\u003cscript type=\"text/javascript\"\u003e\n\t\t\t\tfunction changeImage(attElement, nameElement) {\n\t\t\t\tdocument.getElementById('imageAttachment').src = attElement;\n\t\t\t\tdocument.getElementById('imageName').innerHTML = nameElement;}\n\t\t\t\u003c/script\u003e\u003c/html\u003e\n","FID_active_grids":249,"GridID":"H14","Shape_Length":3.6165404238869304e-05,"Shape_Area":8.1746021165978933e-11}},{"type":"Feature","id":39943,"geometry":{"type":"Polygon","coordinates":[[[113.26606611300008,-6.8906141199999524],[113.26607515800004,-6.8906140769999524],[113.26607511500004,-6.8906050379999328],[113.26606607000008,-6.8906050809999329],[113.26606611300008,-6.8906141199999524]]]},"properties":{"OBJECTID":39943,"FID_mangrove_utm":39764,"OBJECTID_1":39764,"Name":"18102566,9293","FolderPath":"JATIM/JATIM","SymbolID":0,"AltMode":0,"Base":0,"Clamped":-1,"Extruded":0,"Snippet":"","PopupInfo":"\u003chtml xmlns:fo=\"http://www.w3.org/1999/XSL/Format\" xmlns:msxsl=\"urn:schemas-microsoft-com:xslt\"\u003e\n\u003chead\u003e\n\u003cMETA http-equiv=\"Content-Type\" content=\"text/html\"\u003e\n\u003cmeta http-equiv=\"content-type\" content=\"text/html; charset=UTF-8\"\u003e\n\u003c/head\u003e\n\u003cbody style=\"margin:0px 0px 0px 0px;overflow:auto;background:#FFFFFF;\"\u003e\n\u003ctable style=\"font-family:Arial,Verdana,Times;font-size:12px;text-align:left;width:100%;border-collapse:collapse;padding:3px 3px 3px 3px\"\u003e\n\u003ctr style=\"text-align:center;font-weight:bold;background:#9CBCE2\"\u003e\n\u003ctd\u003e18102566,9293\u003c/td\u003e\n\u003c/tr\u003e\n\u003ctr\u003e\n\u003ctd\u003e\n\u003ctable style=\"font-family:Arial,Verdana,Times;font-size:12px;text-align:left;width:100%;border-spacing:0px; padding:3px 3px 3px 3px\"\u003e\n\u003ctr\u003e\n\u003ctd\u003eFID\u003c/td\u003e\n\u003ctd\u003e0\u003c/td\u003e\n\u003c/tr\u003e\n\u003ctr bgcolor=\"#D4E4F3\"\u003e\n\u003ctd\u003eShape_Leng\u003c/td\u003e\n\u003ctd\u003e18102566,9293\u003c/td\u003e\n\u003c/tr\u003e\n\u003c/table\u003e\n\u003c/td\u003e\n\u003c/tr\u003e\n\u003c/table\u003e\n\u003c/body\u003e\u003cscript type=\"text/javascript\"\u003e\n\t\t\t\tfunction changeImage(attElement, nameElement) {\n\t\t\t\tdocument.getElementById('imageAttachment').src = attElement;\n\t\t\t\tdocument.getElementById('imageName').innerHTML = nameElement;}\n\t\t\t\u003c/script\u003e\u003c/html\u003e\n","FID_active_grids":249,"GridID":"H14","Shape_Length":3.6168408929478275e-05,"Shape_Area":8.1759603780609576e-11}},{"type":"Feature","id":39949,"geometry":{"type":"Polygon","coordinates":[[[113.26614734300006,-6.8905775779999772],[113.26614730000006,-6.8905685389999576],[113.26612921100002,-6.8905686249999576],[113.26612925400002,-6.8905776639999772],[113.26614734300006,-6.8905775779999772]]]},"properties":{"OBJECTID":39949,"FID_mangrove_utm":39770,"OBJECTID_1":39770,"Name":"18102566,9293","FolderPath":"JATIM/JATIM","SymbolID":0,"AltMode":0,"Base":0,"Clamped":-1,"Extruded":0,"Snippet":"","PopupInfo":"\u003chtml xmlns:fo=\"http://www.w3.org/1999/XSL/Format\" xmlns:msxsl=\"urn:schemas-microsoft-com:xslt\"\u003e\n\u003chead\u003e\n\u003cMETA http-equiv=\"Content-Type\" content=\"text/html\"\u003e\n\u003cmeta http-equiv=\"content-type\" content=\"text/html; charset=UTF-8\"\u003e\n\u003c/head\u003e\n\u003cbody style=\"margin:0px 0px 0px 0px;overflow:auto;background:#FFFFFF;\"\u003e\n\u003ctable style=\"font-family:Arial,Verdana,Times;font-size:12px;text-align:left;width:100%;border-collapse:collapse;padding:3px 3px 3px 3px\"\u003e\n\u003ctr style=\"text-align:center;font-weight:bold;background:#9CBCE2\"\u003e\n\u003ctd\u003e18102566,9293\u003c/td\u003e\n\u003c/tr\u003e\n\u003ctr\u003e\n\u003ctd\u003e\n\u003ctable style=\"font-family:Arial,Verdana,Times;font-size:12px;text-align:left;width:100%;border-spacing:0px; padding:3px 3px 3px 3px\"\u003e\n\u003ctr\u003e\n\u003ctd\u003eFID\u003c/td\u003e\n\u003ctd\u003e0\u003c/td\u003e\n\u003c/tr\u003e\n\u003ctr bgcolor=\"#D4E4F3\"\u003e\n\u003ctd\u003eShape_Leng\u003c/td\u003e\n\u003ctd\u003e18102566,9293\u003c/td\u003e\n\u003c/tr\u003e\n\u003c/table\u003e\n\u003c/td\u003e\n\u003c/tr\u003e\n\u003c/table\u003e\n\u003c/body\u003e\u003cscript type=\"text/javascript\"\u003e\n\t\t\t\tfunction changeImage(attElement, nameElement) {\n\t\t\t\tdocument.getElementById('imageAttachment').src = attElement;\n\t\t\t\tdocument.getElementById('imageName').innerHTML = nameElement;}\n\t\t\t\u003c/script\u003e\u003c/html\u003e\n","FID_active_grids":249,"GridID":"H14","Shape_Length":5.4256613534043235e-05,"Shape_Area":1.6351016968440596e-10}},{"type":"Feature","id":39954,"geometry":{"type":"Polygon","coordinates":[[[113.26759434400003,-6.8905435929999612],[113.26757625500011,-6.8905436789999612],[113.26757634100011,-6.8905617559999541],[113.26756729600004,-6.8905617989999541],[113.26756746800004,-6.8905979549999756],[113.26757651300011,-6.8905979119999756],[113.26757655600011,-6.8906069509999384],[113.26758560000007,-6.8906069079999384],[113.26758568600007,-6.8906249859999775],[113.26759473100003,-6.8906249429999775],[113.26759477400003,-6.8906339819999403],[113.26762190700003,-6.8906338529999402],[113.26762186400003,-6.8906248139999775],[113.26763333000008,-6.8906247589999339],[113.26763656000003,-6.8905795489999377],[113.2676306940001,-6.8905795769999258],[113.2676306510001,-6.8905705379999631],[113.26763720500003,-6.8905705069999499],[113.26763785100002,-6.8905614639999726],[113.2676306080001,-6.8905614989999435],[113.2676305650001,-6.8905524599999808],[113.26759438700003,-6.8905526319999808],[113.26759434400003,-6.8905435929999612]]]},"properties":{"OBJECTID":39954,"FID_mangrove_utm":39775,"OBJECTID_1":39775,"Name":"18102566,9293","FolderPath":"JATIM/JATIM","SymbolID":0,"AltMode":0,"Base":0,"Clamped":-1,"Extruded":0,"Snippet":"","PopupInfo":"\u003chtml xmlns:fo=\"http://www.w3.org/1999/XSL/Format\" xmlns:msxsl=\"urn:schemas-microsoft-com:xslt\"\u003e\n\u003chead\u003e\n\u003cMETA http-equiv=\"Content-Type\" content=\"text/html\"\u003e\n\u003cmeta http-equiv=\"content-type\" content=\"text/html; charset=UTF-8\"\u003e\n\u003c/head\u003e\n\u003cbody style=\"margin:0px 0px 0px 0px;overflow:auto;background:#FFFFFF;\"\u003e\n\u003ctable style=\"font-family:Arial,Verdana,Times;font-size:12px;text-align:left;width:100%;border-collapse:collapse;padding:3px 3px 3px 3px\"\u003e\n\u003ctr style=\"text-align:center;font-weight:bold;background:#9CBCE2\"\u003e\n\u003ctd\u003e18102566,9293\u003c/td\u003e\n\u003c/tr\u003e\n\u003ctr\u003e\n\u003ctd\u003e\n\u003ctable style=\"font-family:Arial,Verdana,Times;font-size:12px;text-align:left;width:100%;border-spacing:0px; padding:3px 3px 3px 3px\"\u003e\n\u003ctr\u003e\n\u003ctd\u003eFID\u003c/td\u003e\n\u003ctd\u003e0\u003c/td\u003e\n\u003c/tr\u003e\n\u003ctr bgcolor=\"#D4E4F3\"\u003e\n\u003ctd\u003eShape_Leng\u003c/td\u003e\n\u003ctd\u003e18102566,9293\u003c/td\u003e\n\u003c/tr\u003e\n\u003c/table\u003e\n\u003c/td\u003e\n\u003c/tr\u003e\n\u003c/table\u003e\n\u003c/body\u003e\u003cscript type=\"text/javascript\"\u003e\n\t\t\t\tfunction changeImage(attElement, nameElement) {\n\t\t\t\tdocument.getElementById('imageAttachment').src = attElement;\n\t\t\t\tdocument.getElementById('imageName').innerHTML = nameElement;}\n\t\t\t\u003c/script\u003e\u003c/html\u003e\n","FID_active_grids":249,"GridID":"H14","Shape_Length":0.00032964739746786919,"Shape_Area":4.7461191825514992e-09}},{"type":"Feature","id":39961,"geometry":{"type":"Polygon","coordinates":[[[113.26656373600008,-6.8906479149999313],[113.26656377900008,-6.8906569539999509],[113.26655473500011,-6.8906569969999509],[113.26655477800011,-6.8906660349999811],[113.26654573300004,-6.8906660779999811],[113.26654577600004,-6.8906751169999438],[113.26653673100009,-6.8906751599999438],[113.26653677400009,-6.8906841989999634],[113.26650964100008,-6.8906843279999634],[113.26650959800008,-6.8906752889999439],[113.26650055300001,-6.8906753319999439],[113.26650042400001,-6.890648214999942],[113.26652755800001,-6.8906480859999419],[113.26652725700001,-6.8905848139999648],[113.26651821300004,-6.8905848569999648],[113.26651817000004,-6.8905758179999452],[113.26650912500008,-6.8905758609999452],[113.26650899700007,-6.8905487449999328],[113.26649090700005,-6.8905488299999433],[113.26649086400005,-6.8905397909999806],[113.26647277500001,-6.8905398769999806],[113.26647273200001,-6.890530837999961],[113.26646368800004,-6.890530880999961],[113.26646364500004,-6.8905218419999414],[113.26644555600001,-6.8905219279999415],[113.26644551300001,-6.8905128889999787],[113.26639124500002,-6.8905131469999787],[113.26639128800002,-6.8905221859999415],[113.2663731990001,-6.8905222719999415],[113.2663732420001,-6.8905313109999611],[113.26635515300006,-6.8905313959999717],[113.26635523900006,-6.890549473999954],[113.26634619400011,-6.890549516999954],[113.2663460230001,-6.8905133619999788],[113.26635506700006,-6.8905133189999788],[113.26635485200006,-6.8904681239999377],[113.26633676300003,-6.8904682099999377],[113.26633672000003,-6.890459170999975],[113.26630054200007,-6.890459342999975],[113.26630058500007,-6.8904683819999377],[113.26627345100007,-6.8904685099999483],[113.26627353700007,-6.8904865879999306],[113.26626449300011,-6.8904866309999306],[113.26626453600011,-6.8904956699999502],[113.26624644600008,-6.8904957559999502],[113.26624657500008,-6.8905228729999521],[113.26623753100012,-6.8905229149999627],[113.26623744500012,-6.8905048379999698],[113.26621935600008,-6.8905049229999804],[113.26621944200008,-6.8905230009999627],[113.26622848600005,-6.8905229579999627],[113.26622852900005,-6.8905319969999255],[113.26623757400012,-6.8905319539999255],[113.26623761700012,-6.890540992999945],[113.26624666100008,-6.890540949999945],[113.26624670400008,-6.8905499889999646],[113.26625574900004,-6.8905499459999646],[113.26625579200004,-6.8905589849999274],[113.26624674700008,-6.8905590279999274],[113.26624679000008,-6.890568066999947],[113.26623774500001,-6.890568109999947],[113.26623783100001,-6.8905861879999293],[113.26621069800001,-6.8905863159999399],[113.26621065500001,-6.8905772769999771],[113.26618352100002,-6.8905774059999771],[113.26618356400002,-6.8905864449999399],[113.26617451900006,-6.8905864879999399],[113.26617473400006,-6.8906316819999347],[113.2661928230001,-6.890631596999981],[113.2661926510001,-6.8905954409999595],[113.26621074100001,-6.8905953549999595],[113.26621078300002,-6.890604393999979],[113.26621982800009,-6.890604350999979],[113.26621987100009,-6.8906133899999418],[113.26621082600002,-6.8906134329999418],[113.26621086900002,-6.8906224719999614],[113.26621991400009,-6.8906224289999614],[113.26621995700009,-6.8906314679999809],[113.26622900100006,-6.8906314249999809],[113.26622895800006,-6.8906223859999614],[113.266265137,-6.8906222139999613],[113.26626518,-6.8906312529999809],[113.26627422400009,-6.8906312099999809],[113.26627443900009,-6.8906764049999651],[113.26629252800001,-6.8906763189999651],[113.26629257100001,-6.8906853579999279],[113.26630161600008,-6.8906853149999279],[113.26630165900008,-6.8906943539999475],[113.26632879200008,-6.8906942249999474],[113.26632874900008,-6.8906851859999279],[113.26633779400004,-6.8906851429999278],[113.26633783700004,-6.8906941819999474],[113.26635592600007,-6.8906940959999474],[113.26635588300007,-6.8906850569999278],[113.26636492800003,-6.8906850149999741],[113.26636497100003,-6.8906940529999474],[113.26639210400003,-6.8906939249999368],[113.26639219000003,-6.8907120019999297],[113.26637410100011,-6.8907120879999297],[113.26637414400011,-6.8907211269999493],[113.26636509900004,-6.8907211699999493],[113.26636514200004,-6.8907302089999689],[113.26635609800007,-6.8907302519999689],[113.26635618400007,-6.8907483299999512],[113.26637427300011,-6.8907482439999512],[113.26637423000011,-6.8907392049999316],[113.26638327400008,-6.8907391619999316],[113.26638323100008,-6.8907301229999689],[113.2664013210001,-6.8907300369999689],[113.2664011920001,-6.8907029209999564],[113.26641928100003,-6.8907028349999564],[113.26641941000003,-6.8907299509999689],[113.26642845400011,-6.8907299079999689],[113.26642849700011,-6.8907389469999316],[113.26639231900003,-6.8907391189999316],[113.26639249100003,-6.8907752749999531],[113.26636535700004,-6.8907754029999637],[113.26636531400004,-6.8907663639999441],[113.26634722500012,-6.8907664499999441],[113.26634718200012,-6.8907574109999814],[113.26632909300008,-6.8907574969999814],[113.26632913600008,-6.8907665359999442],[113.26633818000005,-6.8907664929999441],[113.26633830900005,-6.8907936099999461],[113.26634735400012,-6.8907935669999461],[113.26634739700012,-6.8908026059999656],[113.26635644100008,-6.8908025629999656],[113.26635657000008,-6.8908296799999675],[113.26636561500004,-6.8908296369999675],[113.26636570100004,-6.8908477139999604],[113.26637474500001,-6.8908476709999604],[113.26637478800001,-6.89085670999998],[113.26638383300008,-6.89085666699998],[113.26638387600008,-6.8908657059999427],[113.26642005400004,-6.8908655349999322],[113.26642001100004,-6.8908564959999694],[113.26643810000007,-6.8908564099999694],[113.26643797100007,-6.8908292929999675],[113.26644701600003,-6.8908292499999675],[113.26644688700003,-6.890802133999955],[113.2664559320001,-6.890802090999955],[113.2664558030001,-6.8907749739999531],[113.26643771400006,-6.8907750599999531],[113.26643767100006,-6.8907660209999335],[113.26641958200003,-6.8907661069999335],[113.26641953900003,-6.8907570679999708],[113.26641049400007,-6.8907571109999708],[113.26641045100007,-6.8907480719999512],[113.26643758500006,-6.8907479429999512],[113.26643749900006,-6.8907298659999583],[113.26644654300003,-6.8907298229999583],[113.26644658600003,-6.8907388619999779],[113.2664556310001,-6.8907388189999779],[113.2664557600001,-6.8907659349999335],[113.26646480400007,-6.8907658919999335],[113.26646484700007,-6.8907749309999531],[113.26648293700009,-6.8907748449999531],[113.2664829790001,-6.8907838839999727],[113.26650106900001,-6.8907837979999726],[113.26650102600001,-6.8907747599999425],[113.26651007000009,-6.8907747169999425],[113.26651002700009,-6.8907656779999797],[113.26652811600002,-6.8907655919999797],[113.26652807300002,-6.8907565529999601],[113.26653711800009,-6.8907565099999601],[113.26653703200009,-6.8907384319999778],[113.26654607700004,-6.8907383889999778],[113.26654603400004,-6.8907293509999477],[113.26657316700005,-6.8907292219999476],[113.26657312500004,-6.8907201829999281],[113.26658216900012,-6.8907201399999281],[113.26658212600012,-6.8907111009999653],[113.26659117100007,-6.8907110579999653],[113.26659112800007,-6.8907020189999457],[113.26660017200004,-6.8907019759999457],[113.26660012900004,-6.8906929369999261],[113.26661821800008,-6.8906928519999724],[113.26661813300007,-6.8906747739999332],[113.26662717700003,-6.8906747309999332],[113.26662704800003,-6.8906476139999313],[113.2666360930001,-6.8906475709999313],[113.2666360500001,-6.8906385319999686],[113.26664509400007,-6.890638489999958],[113.26664492300006,-6.8906023339999365],[113.26662683400002,-6.8906024199999365],[113.26662679100002,-6.8905933809999738],[113.26659061200007,-6.8905935529999738],[113.26659074100007,-6.8906206689999294],[113.26658169700011,-6.8906207119999294],[113.26658174000011,-6.890629750999949],[113.26657269500004,-6.890629793999949],[113.26657278100004,-6.8906478719999313],[113.26656373600008,-6.8906479149999313]],[[113.26633775100004,-6.8906761039999651],[113.26632870600008,-6.8906761469999651],[113.26632866300008,-6.8906671079999455],[113.26633770800004,-6.8906670649999455],[113.26633775100004,-6.8906761039999651]],[[113.2664280680001,-6.890648558999942],[113.2664281110001,-6.8906575969999722],[113.26641002200006,-6.8906576829999722],[113.26640997900006,-6.8906486439999526],[113.2664280680001,-6.890648558999942]],[[113.26635536800006,-6.8905765909999559],[113.26634632300011,-6.8905766339999559],[113.26634628000011,-6.8905675949999363],[113.26635532500006,-6.8905675519999363],[113.26635536800006,-6.8905765909999559]],[[113.26643728400006,-6.8906846709999741],[113.26644632900002,-6.8906846279999741],[113.26644637200002,-6.8906936669999368],[113.26643732700006,-6.8906937099999368],[113.26643728400006,-6.8906846709999741]],[[113.26646450400006,-6.8907026199999564],[113.26647354800002,-6.8907025769999564],[113.26647363400002,-6.8907206549999387],[113.26646459000006,-6.8907206979999387],[113.26646450400006,-6.8907026199999564]]]},"properties":{"OBJECTID":39961,"FID_mangrove_utm":39782,"OBJECTID_1":39782,"Name":"18102566,9293","FolderPath":"JATIM/JATIM","SymbolID":0,"AltMode":0,"Base":0,"Clamped":-1,"Extruded":0,"Snippet":"","PopupInfo":"\u003chtml xmlns:fo=\"http://www.w3.org/1999/XSL/Format\" xmlns:msxsl=\"urn:schemas-microsoft-com:xslt\"\u003e\n\u003chead\u003e\n\u003cMETA http-equiv=\"Content-Type\" content=\"text/html\"\u003e\n\u003cmeta http-equiv=\"content-type\" content=\"text/html; charset=UTF-8\"\u003e\n\u003c/head\u003e\n\u003cbody style=\"margin:0px 0px 0px 0px;overflow:auto;background:#FFFFFF;\"\u003e\n\u003ctable style=\"font-family:Arial,Verdana,Times;font-size:12px;text-align:left;width:100%;border-collapse:collapse;padding:3px 3px 3px 3px\"\u003e\n\u003ctr style=\"text-align:center;font-weight:bold;background:#9CBCE2\"\u003e\n\u003ctd\u003e18102566,9293\u003c/td\u003e\n\u003c/tr\u003e\n\u003ctr\u003e\n\u003ctd\u003e\n\u003ctable style=\"font-family:Arial,Verdana,Times;font-size:12px;text-align:left;width:100%;border-spacing:0px; padding:3px 3px 3px 3px\"\u003e\n\u003ctr\u003e\n\u003ctd\u003eFID\u003c/td\u003e\n\u003ctd\u003e0\u003c/td\u003e\n\u003c/tr\u003e\n\u003ctr bgcolor=\"#D4E4F3\"\u003e\n\u003ctd\u003eShape_Leng\u003c/td\u003e\n\u003ctd\u003e18102566,9293\u003c/td\u003e\n\u003c/tr\u003e\n\u003c/table\u003e\n\u003c/td\u003e\n\u003c/tr\u003e\n\u003c/table\u003e\n\u003c/body\u003e\u003cscript type=\"text/javascript\"\u003e\n\t\t\t\tfunction changeImage(attElement, nameElement) {\n\t\t\t\tdocument.getElementById('imageAttachment').src = attElement;\n\t\t\t\tdocument.getElementById('imageName').innerHTML = nameElement;}\n\t\t\t\u003c/script\u003e\u003c/html\u003e\n","FID_active_grids":249,"GridID":"H14","Shape_Length":0.0031646386870369872,"Shape_Area":7.8075710835668806e-08}},{"type":"Feature","id":39982,"geometry":{"type":"Polygon","coordinates":[[[113.26607511500004,-6.8906050379999328],[113.26608415900012,-6.8906049949999328],[113.2660840310001,-6.8905778779999309],[113.26609307500007,-6.8905778349999309],[113.26609294600007,-6.8905507189999753],[113.26614721400006,-6.8905504609999753],[113.26614712800006,-6.8905323829999361],[113.2661380830001,-6.8905324259999361],[113.2661380400001,-6.8905233869999734],[113.26611995100006,-6.8905234729999734],[113.26611982200006,-6.8904963569999609],[113.26613791200009,-6.8904962709999609],[113.26613795500009,-6.8905053099999805],[113.26614699900006,-6.8905052669999804],[113.26614691300006,-6.8904871889999413],[113.26613786900009,-6.8904872319999413],[113.26613778300009,-6.890469153999959],[113.26611969400005,-6.890469239999959],[113.26611965100005,-6.8904602009999394],[113.2661106060001,-6.8904602439999394],[113.2661105630001,-6.8904512049999767],[113.26610151900002,-6.8904512479999767],[113.26610156200002,-6.8904602869999394],[113.2660834720001,-6.8904603729999394],[113.26608338700009,-6.8904422949999571],[113.26609243100006,-6.8904422519999571],[113.26609238800006,-6.8904332129999375],[113.2661104770001,-6.8904331269999375],[113.2661105200001,-6.8904421659999571],[113.26611956500005,-6.8904421229999571],[113.26611935000005,-6.8903969289999623],[113.26612839500001,-6.8903968859999623],[113.26612835200001,-6.8903878469999427],[113.26616453000008,-6.8903876749999426],[113.26616440100008,-6.8903605589999302],[113.26618249000001,-6.8903604729999302],[113.26618223300011,-6.8903062399999726],[113.26616414400007,-6.8903063249999263],[113.26616405800007,-6.8902882479999334],[113.26615501300012,-6.8902882909999335],[113.26615505600012,-6.890297329999953],[113.26613696700008,-6.8902974149999636],[113.26613701000008,-6.8903064539999264],[113.26611892100004,-6.8903065399999264],[113.26611913500005,-6.890351733999978],[113.26611009100009,-6.890351776999978],[113.26611017700009,-6.8903698549999604],[113.26610113200002,-6.8903698979999604],[113.26610134700002,-6.8904150929999446],[113.26608325800009,-6.8904151779999552],[113.26608330100009,-6.8904242169999748],[113.26607425600002,-6.8904242599999748],[113.26607434200002,-6.8904423379999571],[113.26606529700007,-6.8904423809999571],[113.26606534000007,-6.8904514199999767],[113.2660562960001,-6.8904514629999767],[113.2660563820001,-6.8904695399999696],[113.26606542600007,-6.8904694969999696],[113.26606551200007,-6.8904875749999519],[113.2660564680001,-6.8904876179999519],[113.26605672500011,-6.8905418509999663],[113.26606577000007,-6.8905418089999557],[113.26606581300007,-6.890550846999929],[113.26605676800011,-6.890550889999929],[113.26605685400011,-6.8905689679999682],[113.26606589900007,-6.8905689249999682],[113.26606594200007,-6.8905779639999309],[113.26607498600004,-6.8905779209999309],[113.26607511500004,-6.8906050379999328]]]},"properties":{"OBJECTID":39982,"FID_mangrove_utm":39803,"OBJECTID_1":39803,"Name":"18102566,9293","FolderPath":"JATIM/JATIM","SymbolID":0,"AltMode":0,"Base":0,"Clamped":-1,"Extruded":0,"Snippet":"","PopupInfo":"\u003chtml xmlns:fo=\"http://www.w3.org/1999/XSL/Format\" xmlns:msxsl=\"urn:schemas-microsoft-com:xslt\"\u003e\n\u003chead\u003e\n\u003cMETA http-equiv=\"Content-Type\" content=\"text/html\"\u003e\n\u003cmeta http-equiv=\"content-type\" content=\"text/html; charset=UTF-8\"\u003e\n\u003c/head\u003e\n\u003cbody style=\"margin:0px 0px 0px 0px;overflow:auto;background:#FFFFFF;\"\u003e\n\u003ctable style=\"font-family:Arial,Verdana,Times;font-size:12px;text-align:left;width:100%;border-collapse:collapse;padding:3px 3px 3px 3px\"\u003e\n\u003ctr style=\"text-align:center;font-weight:bold;background:#9CBCE2\"\u003e\n\u003ctd\u003e18102566,9293\u003c/td\u003e\n\u003c/tr\u003e\n\u003ctr\u003e\n\u003ctd\u003e\n\u003ctable style=\"font-family:Arial,Verdana,Times;font-size:12px;text-align:left;width:100%;border-spacing:0px; padding:3px 3px 3px 3px\"\u003e\n\u003ctr\u003e\n\u003ctd\u003eFID\u003c/td\u003e\n\u003ctd\u003e0\u003c/td\u003e\n\u003c/tr\u003e\n\u003ctr bgcolor=\"#D4E4F3\"\u003e\n\u003ctd\u003eShape_Leng\u003c/td\u003e\n\u003ctd\u003e18102566,9293\u003c/td\u003e\n\u003c/tr\u003e\n\u003c/table\u003e\n\u003c/td\u003e\n\u003c/tr\u003e\n\u003c/table\u003e\n\u003c/body\u003e\u003cscript type=\"text/javascript\"\u003e\n\t\t\t\tfunction changeImage(attElement, nameElement) {\n\t\t\t\tdocument.getElementById('imageAttachment').src = attElement;\n\t\t\t\tdocument.getElementById('imageName').innerHTML = nameElement;}\n\t\t\t\u003c/script\u003e\u003c/html\u003e\n","FID_active_grids":249,"GridID":"H14","Shape_Length":0.0011572840455087822,"Shape_Area":1.5451600989576545e-08}},{"type":"Feature","id":39989,"geometry":{"type":"Polygon","coordinates":[[[113.26445450600011,-6.8902692379999735],[113.26445442000011,-6.8902511609999806],[113.26444537500004,-6.8902512039999806],[113.26444546100004,-6.8902692809999735],[113.26445450600011,-6.8902692379999735]]]},"properties":{"OBJECTID":39989,"FID_mangrove_utm":39810,"OBJECTID_1":39810,"Name":"18102566,9293","FolderPath":"JATIM/JATIM","SymbolID":0,"AltMode":0,"Base":0,"Clamped":-1,"Extruded":0,"Snippet":"","PopupInfo":"\u003chtml xmlns:fo=\"http://www.w3.org/1999/XSL/Format\" xmlns:msxsl=\"urn:schemas-microsoft-com:xslt\"\u003e\n\u003chead\u003e\n\u003cMETA http-equiv=\"Content-Type\" content=\"text/html\"\u003e\n\u003cmeta http-equiv=\"content-type\" content=\"text/html; charset=UTF-8\"\u003e\n\u003c/head\u003e\n\u003cbody style=\"margin:0px 0px 0px 0px;overflow:auto;background:#FFFFFF;\"\u003e\n\u003ctable style=\"font-family:Arial,Verdana,Times;font-size:12px;text-align:left;width:100%;border-collapse:collapse;padding:3px 3px 3px 3px\"\u003e\n\u003ctr style=\"text-align:center;font-weight:bold;background:#9CBCE2\"\u003e\n\u003ctd\u003e18102566,9293\u003c/td\u003e\n\u003c/tr\u003e\n\u003ctr\u003e\n\u003ctd\u003e\n\u003ctable style=\"font-family:Arial,Verdana,Times;font-size:12px;text-align:left;width:100%;border-spacing:0px; padding:3px 3px 3px 3px\"\u003e\n\u003ctr\u003e\n\u003ctd\u003eFID\u003c/td\u003e\n\u003ctd\u003e0\u003c/td\u003e\n\u003c/tr\u003e\n\u003ctr bgcolor=\"#D4E4F3\"\u003e\n\u003ctd\u003eShape_Leng\u003c/td\u003e\n\u003ctd\u003e18102566,9293\u003c/td\u003e\n\u003c/tr\u003e\n\u003c/table\u003e\n\u003c/td\u003e\n\u003c/tr\u003e\n\u003c/table\u003e\n\u003c/body\u003e\u003cscript type=\"text/javascript\"\u003e\n\t\t\t\tfunction changeImage(attElement, nameElement) {\n\t\t\t\tdocument.getElementById('imageAttachment').src = attElement;\n\t\t\t\tdocument.getElementById('imageName').innerHTML = nameElement;}\n\t\t\t\u003c/script\u003e\u003c/html\u003e\n","FID_active_grids":249,"GridID":"H14","Shape_Length":5.4244613682982311e-05,"Shape_Area":1.6351016419788575e-10}},{"type":"Feature","id":39990,"geometry":{"type":"Polygon","coordinates":[[[113.26451764600006,-6.8902327829999308],[113.26451760300006,-6.8902237439999681],[113.2645085580001,-6.8902237869999681],[113.2645086010001,-6.8902328259999308],[113.26451764600006,-6.8902327829999308]]]},"properties":{"OBJECTID":39990,"FID_mangrove_utm":39811,"OBJECTID_1":39811,"Name":"18102566,9293","FolderPath":"JATIM/JATIM","SymbolID":0,"AltMode":0,"Base":0,"Clamped":-1,"Extruded":0,"Snippet":"","PopupInfo":"\u003chtml xmlns:fo=\"http://www.w3.org/1999/XSL/Format\" xmlns:msxsl=\"urn:schemas-microsoft-com:xslt\"\u003e\n\u003chead\u003e\n\u003cMETA http-equiv=\"Content-Type\" content=\"text/html\"\u003e\n\u003cmeta http-equiv=\"content-type\" content=\"text/html; charset=UTF-8\"\u003e\n\u003c/head\u003e\n\u003cbody style=\"margin:0px 0px 0px 0px;overflow:auto;background:#FFFFFF;\"\u003e\n\u003ctable style=\"font-family:Arial,Verdana,Times;font-size:12px;text-align:left;width:100%;border-collapse:collapse;padding:3px 3px 3px 3px\"\u003e\n\u003ctr style=\"text-align:center;font-weight:bold;background:#9CBCE2\"\u003e\n\u003ctd\u003e18102566,9293\u003c/td\u003e\n\u003c/tr\u003e\n\u003ctr\u003e\n\u003ctd\u003e\n\u003ctable style=\"font-family:Arial,Verdana,Times;font-size:12px;text-align:left;width:100%;border-spacing:0px; padding:3px 3px 3px 3px\"\u003e\n\u003ctr\u003e\n\u003ctd\u003eFID\u003c/td\u003e\n\u003ctd\u003e0\u003c/td\u003e\n\u003c/tr\u003e\n\u003ctr bgcolor=\"#D4E4F3\"\u003e\n\u003ctd\u003eShape_Leng\u003c/td\u003e\n\u003ctd\u003e18102566,9293\u003c/td\u003e\n\u003c/tr\u003e\n\u003c/table\u003e\n\u003c/td\u003e\n\u003c/tr\u003e\n\u003c/table\u003e\n\u003c/body\u003e\u003cscript type=\"text/javascript\"\u003e\n\t\t\t\tfunction changeImage(attElement, nameElement) {\n\t\t\t\tdocument.getElementById('imageAttachment').src = attElement;\n\t\t\t\tdocument.getElementById('imageName').innerHTML = nameElement;}\n\t\t\t\u003c/script\u003e\u003c/html\u003e\n","FID_active_grids":249,"GridID":"H14","Shape_Length":3.6168408815792725e-05,"Shape_Area":8.1759603266460848e-11}},{"type":"Feature","id":39996,"geometry":{"type":"Polygon","coordinates":[[[113.26186729000005,-6.8901832989999434],[113.261867284,-6.8901820669999552],[113.2618708980001,-6.8901820499999644],[113.26187631900007,-6.8901801729999761],[113.26187624300007,-6.8901639459999728],[113.261867198,-6.8901639889999728],[113.261867241,-6.8901730279999356],[113.26185819600005,-6.8901730709999356],[113.26185826000005,-6.8901864239999782],[113.26186729000005,-6.8901832989999434]]]},"properties":{"OBJECTID":39996,"FID_mangrove_utm":39817,"OBJECTID_1":39817,"Name":"18102566,9293","FolderPath":"JATIM/JATIM","SymbolID":0,"AltMode":0,"Base":0,"Clamped":-1,"Extruded":0,"Snippet":"","PopupInfo":"\u003chtml xmlns:fo=\"http://www.w3.org/1999/XSL/Format\" xmlns:msxsl=\"urn:schemas-microsoft-com:xslt\"\u003e\n\u003chead\u003e\n\u003cMETA http-equiv=\"Content-Type\" content=\"text/html\"\u003e\n\u003cmeta http-equiv=\"content-type\" content=\"text/html; charset=UTF-8\"\u003e\n\u003c/head\u003e\n\u003cbody style=\"margin:0px 0px 0px 0px;overflow:auto;background:#FFFFFF;\"\u003e\n\u003ctable style=\"font-family:Arial,Verdana,Times;font-size:12px;text-align:left;width:100%;border-collapse:collapse;padding:3px 3px 3px 3px\"\u003e\n\u003ctr style=\"text-align:center;font-weight:bold;background:#9CBCE2\"\u003e\n\u003ctd\u003e18102566,9293\u003c/td\u003e\n\u003c/tr\u003e\n\u003ctr\u003e\n\u003ctd\u003e\n\u003ctable style=\"font-family:Arial,Verdana,Times;font-size:12px;text-align:left;width:100%;border-spacing:0px; padding:3px 3px 3px 3px\"\u003e\n\u003ctr\u003e\n\u003ctd\u003eFID\u003c/td\u003e\n\u003ctd\u003e0\u003c/td\u003e\n\u003c/tr\u003e\n\u003ctr bgcolor=\"#D4E4F3\"\u003e\n\u003ctd\u003eShape_Leng\u003c/td\u003e\n\u003ctd\u003e18102566,9293\u003c/td\u003e\n\u003c/tr\u003e\n\u003c/table\u003e\n\u003c/td\u003e\n\u003c/tr\u003e\n\u003c/table\u003e\n\u003c/body\u003e\u003cscript type=\"text/javascript\"\u003e\n\t\t\t\tfunction changeImage(attElement, nameElement) {\n\t\t\t\tdocument.getElementById('imageAttachment').src = attElement;\n\t\t\t\tdocument.getElementById('imageName').innerHTML = nameElement;}\n\t\t\t\u003c/script\u003e\u003c/html\u003e\n","FID_active_grids":249,"GridID":"H14","Shape_Length":7.6847893570033659e-05,"Shape_Area":2.6532252694258879e-10}},{"type":"Feature","id":39997,"geometry":{"type":"Polygon","coordinates":[[[113.26844264100009,-6.8901418449999596],[113.26844259800009,-6.89013280599994],[113.26843355400001,-6.8901328489999401],[113.26843359700001,-6.8901418879999596],[113.26844264100009,-6.8901418449999596]]]},"properties":{"OBJECTID":39997,"FID_mangrove_utm":39818,"OBJECTID_1":39818,"Name":"18102566,9293","FolderPath":"JATIM/JATIM","SymbolID":0,"AltMode":0,"Base":0,"Clamped":-1,"Extruded":0,"Snippet":"","PopupInfo":"\u003chtml xmlns:fo=\"http://www.w3.org/1999/XSL/Format\" xmlns:msxsl=\"urn:schemas-microsoft-com:xslt\"\u003e\n\u003chead\u003e\n\u003cMETA http-equiv=\"Content-Type\" content=\"text/html\"\u003e\n\u003cmeta http-equiv=\"content-type\" content=\"text/html; charset=UTF-8\"\u003e\n\u003c/head\u003e\n\u003cbody style=\"margin:0px 0px 0px 0px;overflow:auto;background:#FFFFFF;\"\u003e\n\u003ctable style=\"font-family:Arial,Verdana,Times;font-size:12px;text-align:left;width:100%;border-collapse:collapse;padding:3px 3px 3px 3px\"\u003e\n\u003ctr style=\"text-align:center;font-weight:bold;background:#9CBCE2\"\u003e\n\u003ctd\u003e18102566,9293\u003c/td\u003e\n\u003c/tr\u003e\n\u003ctr\u003e\n\u003ctd\u003e\n\u003ctable style=\"font-family:Arial,Verdana,Times;font-size:12px;text-align:left;width:100%;border-spacing:0px; padding:3px 3px 3px 3px\"\u003e\n\u003ctr\u003e\n\u003ctd\u003eFID\u003c/td\u003e\n\u003ctd\u003e0\u003c/td\u003e\n\u003c/tr\u003e\n\u003ctr bgcolor=\"#D4E4F3\"\u003e\n\u003ctd\u003eShape_Leng\u003c/td\u003e\n\u003ctd\u003e18102566,9293\u003c/td\u003e\n\u003c/tr\u003e\n\u003c/table\u003e\n\u003c/td\u003e\n\u003c/tr\u003e\n\u003c/table\u003e\n\u003c/body\u003e\u003cscript type=\"text/javascript\"\u003e\n\t\t\t\tfunction changeImage(attElement, nameElement) {\n\t\t\t\tdocument.getElementById('imageAttachment').src = attElement;\n\t\t\t\tdocument.getElementById('imageName').innerHTML = nameElement;}\n\t\t\t\u003c/script\u003e\u003c/html\u003e\n","FID_active_grids":249,"GridID":"H14","Shape_Length":3.6166409200602648e-05,"Shape_Area":8.1750565903796367e-11}},{"type":"Feature","id":39999,"geometry":{"type":"Polygon","coordinates":[[[113.26238269700002,-6.8901525089999609],[113.26237365200006,-6.8901525519999609],[113.26237366700002,-6.8901557759999719],[113.2623827110001,-6.8901554999999348],[113.26238269700002,-6.8901525089999609]]]},"properties":{"OBJECTID":39999,"FID_mangrove_utm":39820,"OBJECTID_1":39820,"Name":"18102566,9293","FolderPath":"JATIM/JATIM","SymbolID":0,"AltMode":0,"Base":0,"Clamped":-1,"Extruded":0,"Snippet":"","PopupInfo":"\u003chtml xmlns:fo=\"http://www.w3.org/1999/XSL/Format\" xmlns:msxsl=\"urn:schemas-microsoft-com:xslt\"\u003e\n\u003chead\u003e\n\u003cMETA http-equiv=\"Content-Type\" content=\"text/html\"\u003e\n\u003cmeta http-equiv=\"content-type\" content=\"text/html; charset=UTF-8\"\u003e\n\u003c/head\u003e\n\u003cbody style=\"margin:0px 0px 0px 0px;overflow:auto;background:#FFFFFF;\"\u003e\n\u003ctable style=\"font-family:Arial,Verdana,Times;font-size:12px;text-align:left;width:100%;border-collapse:collapse;padding:3px 3px 3px 3px\"\u003e\n\u003ctr style=\"text-align:center;font-weight:bold;background:#9CBCE2\"\u003e\n\u003ctd\u003e18102566,9293\u003c/td\u003e\n\u003c/tr\u003e\n\u003ctr\u003e\n\u003ctd\u003e\n\u003ctable style=\"font-family:Arial,Verdana,Times;font-size:12px;text-align:left;width:100%;border-spacing:0px; padding:3px 3px 3px 3px\"\u003e\n\u003ctr\u003e\n\u003ctd\u003eFID\u003c/td\u003e\n\u003ctd\u003e0\u003c/td\u003e\n\u003c/tr\u003e\n\u003ctr bgcolor=\"#D4E4F3\"\u003e\n\u003ctd\u003eShape_Leng\u003c/td\u003e\n\u003ctd\u003e18102566,9293\u003c/td\u003e\n\u003c/tr\u003e\n\u003c/table\u003e\n\u003c/td\u003e\n\u003c/tr\u003e\n\u003c/table\u003e\n\u003c/body\u003e\u003cscript type=\"text/javascript\"\u003e\n\t\t\t\tfunction changeImage(attElement, nameElement) {\n\t\t\t\tdocument.getElementById('imageAttachment').src = attElement;\n\t\t\t\tdocument.getElementById('imageName').innerHTML = nameElement;}\n\t\t\t\u003c/script\u003e\u003c/html\u003e\n","FID_active_grids":249,"GridID":"H14","Shape_Length":2.4308380323178802e-05,"Shape_Area":2.8108096491371372e-11}},{"type":"Feature","id":40001,"geometry":{"type":"Polygon","coordinates":[[[113.2619485140001,-6.8901455259999693],[113.26194855600011,-6.8901545649999321],[113.26195127400001,-6.8901545519999559],[113.26196663600001,-6.890152369999953],[113.26196660300002,-6.8901454399999693],[113.2619485140001,-6.8901455259999693]]]},"properties":{"OBJECTID":40001,"FID_mangrove_utm":39822,"OBJECTID_1":39822,"Name":"18102566,9293","FolderPath":"JATIM/JATIM","SymbolID":0,"AltMode":0,"Base":0,"Clamped":-1,"Extruded":0,"Snippet":"","PopupInfo":"\u003chtml xmlns:fo=\"http://www.w3.org/1999/XSL/Format\" xmlns:msxsl=\"urn:schemas-microsoft-com:xslt\"\u003e\n\u003chead\u003e\n\u003cMETA http-equiv=\"Content-Type\" content=\"text/html\"\u003e\n\u003cmeta http-equiv=\"content-type\" content=\"text/html; charset=UTF-8\"\u003e\n\u003c/head\u003e\n\u003cbody style=\"margin:0px 0px 0px 0px;overflow:auto;background:#FFFFFF;\"\u003e\n\u003ctable style=\"font-family:Arial,Verdana,Times;font-size:12px;text-align:left;width:100%;border-collapse:collapse;padding:3px 3px 3px 3px\"\u003e\n\u003ctr style=\"text-align:center;font-weight:bold;background:#9CBCE2\"\u003e\n\u003ctd\u003e18102566,9293\u003c/td\u003e\n\u003c/tr\u003e\n\u003ctr\u003e\n\u003ctd\u003e\n\u003ctable style=\"font-family:Arial,Verdana,Times;font-size:12px;text-align:left;width:100%;border-spacing:0px; padding:3px 3px 3px 3px\"\u003e\n\u003ctr\u003e\n\u003ctd\u003eFID\u003c/td\u003e\n\u003ctd\u003e0\u003c/td\u003e\n\u003c/tr\u003e\n\u003ctr bgcolor=\"#D4E4F3\"\u003e\n\u003ctd\u003eShape_Leng\u003c/td\u003e\n\u003ctd\u003e18102566,9293\u003c/td\u003e\n\u003c/tr\u003e\n\u003c/table\u003e\n\u003c/td\u003e\n\u003c/tr\u003e\n\u003c/table\u003e\n\u003c/body\u003e\u003cscript type=\"text/javascript\"\u003e\n\t\t\t\tfunction changeImage(attElement, nameElement) {\n\t\t\t\tdocument.getElementById('imageAttachment').src = attElement;\n\t\t\t\tdocument.getElementById('imageName').innerHTML = nameElement;}\n\t\t\t\u003c/script\u003e\u003c/html\u003e\n","FID_active_grids":249,"GridID":"H14","Shape_Length":5.2292601954674115e-05,"Shape_Area":1.4730394290951746e-10}},{"type":"Feature","id":40003,"geometry":{"type":"Polygon","coordinates":[[[113.2619485140001,-6.8901455259999693],[113.2619484710001,-6.8901364869999497],[113.26195751500006,-6.8901364439999497],[113.26195747200006,-6.8901274049999301],[113.26193938300003,-6.8901274909999302],[113.26193942600003,-6.8901365299999497],[113.2619213370001,-6.8901366149999603],[113.2619214230001,-6.8901546929999427],[113.26193951200003,-6.8901546079999321],[113.26193946900003,-6.8901455689999693],[113.2619485140001,-6.8901455259999693]]]},"properties":{"OBJECTID":40003,"FID_mangrove_utm":39824,"OBJECTID_1":39824,"Name":"18102566,9293","FolderPath":"JATIM/JATIM","SymbolID":0,"AltMode":0,"Base":0,"Clamped":-1,"Extruded":0,"Snippet":"","PopupInfo":"\u003chtml xmlns:fo=\"http://www.w3.org/1999/XSL/Format\" xmlns:msxsl=\"urn:schemas-microsoft-com:xslt\"\u003e\n\u003chead\u003e\n\u003cMETA http-equiv=\"Content-Type\" content=\"text/html\"\u003e\n\u003cmeta http-equiv=\"content-type\" content=\"text/html; charset=UTF-8\"\u003e\n\u003c/head\u003e\n\u003cbody style=\"margin:0px 0px 0px 0px;overflow:auto;background:#FFFFFF;\"\u003e\n\u003ctable style=\"font-family:Arial,Verdana,Times;font-size:12px;text-align:left;width:100%;border-collapse:collapse;padding:3px 3px 3px 3px\"\u003e\n\u003ctr style=\"text-align:center;font-weight:bold;background:#9CBCE2\"\u003e\n\u003ctd\u003e18102566,9293\u003c/td\u003e\n\u003c/tr\u003e\n\u003ctr\u003e\n\u003ctd\u003e\n\u003ctable style=\"font-family:Arial,Verdana,Times;font-size:12px;text-align:left;width:100%;border-spacing:0px; padding:3px 3px 3px 3px\"\u003e\n\u003ctr\u003e\n\u003ctd\u003eFID\u003c/td\u003e\n\u003ctd\u003e0\u003c/td\u003e\n\u003c/tr\u003e\n\u003ctr bgcolor=\"#D4E4F3\"\u003e\n\u003ctd\u003eShape_Leng\u003c/td\u003e\n\u003ctd\u003e18102566,9293\u003c/td\u003e\n\u003c/tr\u003e\n\u003c/table\u003e\n\u003c/td\u003e\n\u003c/tr\u003e\n\u003c/table\u003e\n\u003c/body\u003e\u003cscript type=\"text/javascript\"\u003e\n\t\t\t\tfunction changeImage(attElement, nameElement) {\n\t\t\t\tdocument.getElementById('imageAttachment').src = attElement;\n\t\t\t\tdocument.getElementById('imageName').innerHTML = nameElement;}\n\t\t\t\u003c/script\u003e\u003c/html\u003e\n","FID_active_grids":249,"GridID":"H14","Shape_Length":0.00012659142187001294,"Shape_Area":5.7229004627987577e-10}},{"type":"Feature","id":40005,"geometry":{"type":"Polygon","coordinates":[[[113.26238269700002,-6.8901525089999609],[113.26240078600006,-6.8901524229999609],[113.26240074300006,-6.8901433839999413],[113.26241883200009,-6.8901432979999413],[113.26241878900009,-6.890134259999968],[113.26242783400005,-6.890134216999968],[113.26242774800005,-6.8901161389999288],[113.26241870300009,-6.8901161819999288],[113.26241874600009,-6.8901252209999484],[113.26240065700006,-6.890125305999959],[113.26240070000006,-6.8901343449999786],[113.2623916550001,-6.8901343879999786],[113.2623916980001,-6.8901434269999413],[113.26238265400002,-6.8901434699999413],[113.26238269700002,-6.8901525089999609]]]},"properties":{"OBJECTID":40005,"FID_mangrove_utm":39826,"OBJECTID_1":39826,"Name":"18102566,9293","FolderPath":"JATIM/JATIM","SymbolID":0,"AltMode":0,"Base":0,"Clamped":-1,"Extruded":0,"Snippet":"","PopupInfo":"\u003chtml xmlns:fo=\"http://www.w3.org/1999/XSL/Format\" xmlns:msxsl=\"urn:schemas-microsoft-com:xslt\"\u003e\n\u003chead\u003e\n\u003cMETA http-equiv=\"Content-Type\" content=\"text/html\"\u003e\n\u003cmeta http-equiv=\"content-type\" content=\"text/html; charset=UTF-8\"\u003e\n\u003c/head\u003e\n\u003cbody style=\"margin:0px 0px 0px 0px;overflow:auto;background:#FFFFFF;\"\u003e\n\u003ctable style=\"font-family:Arial,Verdana,Times;font-size:12px;text-align:left;width:100%;border-collapse:collapse;padding:3px 3px 3px 3px\"\u003e\n\u003ctr style=\"text-align:center;font-weight:bold;background:#9CBCE2\"\u003e\n\u003ctd\u003e18102566,9293\u003c/td\u003e\n\u003c/tr\u003e\n\u003ctr\u003e\n\u003ctd\u003e\n\u003ctable style=\"font-family:Arial,Verdana,Times;font-size:12px;text-align:left;width:100%;border-spacing:0px; padding:3px 3px 3px 3px\"\u003e\n\u003ctr\u003e\n\u003ctd\u003eFID\u003c/td\u003e\n\u003ctd\u003e0\u003c/td\u003e\n\u003c/tr\u003e\n\u003ctr bgcolor=\"#D4E4F3\"\u003e\n\u003ctd\u003eShape_Leng\u003c/td\u003e\n\u003ctd\u003e18102566,9293\u003c/td\u003e\n\u003c/tr\u003e\n\u003c/table\u003e\n\u003c/td\u003e\n\u003c/tr\u003e\n\u003c/table\u003e\n\u003c/body\u003e\u003cscript type=\"text/javascript\"\u003e\n\t\t\t\tfunction changeImage(attElement, nameElement) {\n\t\t\t\tdocument.getElementById('imageAttachment').src = attElement;\n\t\t\t\tdocument.getElementById('imageName').innerHTML = nameElement;}\n\t\t\t\u003c/script\u003e\u003c/html\u003e\n","FID_active_grids":249,"GridID":"H14","Shape_Length":0.00016275883577528095,"Shape_Area":7.358002314462986e-10}},{"type":"Feature","id":40006,"geometry":{"type":"Polygon","coordinates":[[[113.26247301400008,-6.8901249639999378],[113.26247297100008,-6.8901159249999751],[113.26243679300001,-6.8901160959999288],[113.26243683500002,-6.8901251349999484],[113.26247301400008,-6.8901249639999378]]]},"properties":{"OBJECTID":40006,"FID_mangrove_utm":39827,"OBJECTID_1":39827,"Name":"18102566,9293","FolderPath":"JATIM/JATIM","SymbolID":0,"AltMode":0,"Base":0,"Clamped":-1,"Extruded":0,"Snippet":"","PopupInfo":"\u003chtml xmlns:fo=\"http://www.w3.org/1999/XSL/Format\" xmlns:msxsl=\"urn:schemas-microsoft-com:xslt\"\u003e\n\u003chead\u003e\n\u003cMETA http-equiv=\"Content-Type\" content=\"text/html\"\u003e\n\u003cmeta http-equiv=\"content-type\" content=\"text/html; charset=UTF-8\"\u003e\n\u003c/head\u003e\n\u003cbody style=\"margin:0px 0px 0px 0px;overflow:auto;background:#FFFFFF;\"\u003e\n\u003ctable style=\"font-family:Arial,Verdana,Times;font-size:12px;text-align:left;width:100%;border-collapse:collapse;padding:3px 3px 3px 3px\"\u003e\n\u003ctr style=\"text-align:center;font-weight:bold;background:#9CBCE2\"\u003e\n\u003ctd\u003e18102566,9293\u003c/td\u003e\n\u003c/tr\u003e\n\u003ctr\u003e\n\u003ctd\u003e\n\u003ctable style=\"font-family:Arial,Verdana,Times;font-size:12px;text-align:left;width:100%;border-spacing:0px; padding:3px 3px 3px 3px\"\u003e\n\u003ctr\u003e\n\u003ctd\u003eFID\u003c/td\u003e\n\u003ctd\u003e0\u003c/td\u003e\n\u003c/tr\u003e\n\u003ctr bgcolor=\"#D4E4F3\"\u003e\n\u003ctd\u003eShape_Leng\u003c/td\u003e\n\u003ctd\u003e18102566,9293\u003c/td\u003e\n\u003c/tr\u003e\n\u003c/table\u003e\n\u003c/td\u003e\n\u003c/tr\u003e\n\u003c/table\u003e\n\u003c/body\u003e\u003cscript type=\"text/javascript\"\u003e\n\t\t\t\tfunction changeImage(attElement, nameElement) {\n\t\t\t\tdocument.getElementById('imageAttachment').src = attElement;\n\t\t\t\tdocument.getElementById('imageName').innerHTML = nameElement;}\n\t\t\t\u003c/script\u003e\u003c/html\u003e\n","FID_active_grids":249,"GridID":"H14","Shape_Length":9.0436008210753366e-05,"Shape_Area":3.2702472929291707e-10}},{"type":"Feature","id":40008,"geometry":{"type":"Polygon","coordinates":[[[113.26195747200006,-6.8901274049999301],[113.26196651700002,-6.8901273619999301],[113.26196647400002,-6.8901183239999568],[113.26197551900009,-6.8901182809999568],[113.26197556200009,-6.8901273199999764],[113.26198460600006,-6.8901272769999764],[113.26198464900006,-6.8901363159999391],[113.2619756040001,-6.8901363579999497],[113.26197567400004,-6.8901510869999356],[113.26199375200008,-6.8901485189999789],[113.26199365100001,-6.8901272339999764],[113.26200269500009,-6.8901271909999764],[113.26200279000011,-6.8901472359999616],[113.26204798400011,-6.8901408179999635],[113.26204796100001,-6.8901360159999285],[113.26205700600008,-6.8901359729999285],[113.26205696300008,-6.8901269339999658],[113.26202982900008,-6.8901270629999658],[113.26202974300008,-6.8901089849999266],[113.26195738700005,-6.8901093269999478],[113.26195747200006,-6.8901274049999301]]]},"properties":{"OBJECTID":40008,"FID_mangrove_utm":39829,"OBJECTID_1":39829,"Name":"18102566,9293","FolderPath":"JATIM/JATIM","SymbolID":0,"AltMode":0,"Base":0,"Clamped":-1,"Extruded":0,"Snippet":"","PopupInfo":"\u003chtml xmlns:fo=\"http://www.w3.org/1999/XSL/Format\" xmlns:msxsl=\"urn:schemas-microsoft-com:xslt\"\u003e\n\u003chead\u003e\n\u003cMETA http-equiv=\"Content-Type\" content=\"text/html\"\u003e\n\u003cmeta http-equiv=\"content-type\" content=\"text/html; charset=UTF-8\"\u003e\n\u003c/head\u003e\n\u003cbody style=\"margin:0px 0px 0px 0px;overflow:auto;background:#FFFFFF;\"\u003e\n\u003ctable style=\"font-family:Arial,Verdana,Times;font-size:12px;text-align:left;width:100%;border-collapse:collapse;padding:3px 3px 3px 3px\"\u003e\n\u003ctr style=\"text-align:center;font-weight:bold;background:#9CBCE2\"\u003e\n\u003ctd\u003e18102566,9293\u003c/td\u003e\n\u003c/tr\u003e\n\u003ctr\u003e\n\u003ctd\u003e\n\u003ctable style=\"font-family:Arial,Verdana,Times;font-size:12px;text-align:left;width:100%;border-spacing:0px; padding:3px 3px 3px 3px\"\u003e\n\u003ctr\u003e\n\u003ctd\u003eFID\u003c/td\u003e\n\u003ctd\u003e0\u003c/td\u003e\n\u003c/tr\u003e\n\u003ctr bgcolor=\"#D4E4F3\"\u003e\n\u003ctd\u003eShape_Leng\u003c/td\u003e\n\u003ctd\u003e18102566,9293\u003c/td\u003e\n\u003c/tr\u003e\n\u003c/table\u003e\n\u003c/td\u003e\n\u003c/tr\u003e\n\u003c/table\u003e\n\u003c/body\u003e\u003cscript type=\"text/javascript\"\u003e\n\t\t\t\tfunction changeImage(attElement, nameElement) {\n\t\t\t\tdocument.getElementById('imageAttachment').src = attElement;\n\t\t\t\tdocument.getElementById('imageName').innerHTML = nameElement;}\n\t\t\t\u003c/script\u003e\u003c/html\u003e\n","FID_active_grids":249,"GridID":"H14","Shape_Length":0.00035084014135523551,"Shape_Area":2.4000661864731436e-09}},{"type":"Feature","id":40009,"geometry":{"type":"Polygon","coordinates":[[[113.25997653500008,-6.8901006259999349],[113.25996749100011,-6.8901006679999455],[113.25996753400011,-6.8901097069999651],[113.25997657800008,-6.8901096649999545],[113.25997653500008,-6.8901006259999349]]]},"properties":{"OBJECTID":40009,"FID_mangrove_utm":39830,"OBJECTID_1":39830,"Name":"18102566,9293","FolderPath":"JATIM/JATIM","SymbolID":0,"AltMode":0,"Base":0,"Clamped":-1,"Extruded":0,"Snippet":"","PopupInfo":"\u003chtml xmlns:fo=\"http://www.w3.org/1999/XSL/Format\" xmlns:msxsl=\"urn:schemas-microsoft-com:xslt\"\u003e\n\u003chead\u003e\n\u003cMETA http-equiv=\"Content-Type\" content=\"text/html\"\u003e\n\u003cmeta http-equiv=\"content-type\" content=\"text/html; charset=UTF-8\"\u003e\n\u003c/head\u003e\n\u003cbody style=\"margin:0px 0px 0px 0px;overflow:auto;background:#FFFFFF;\"\u003e\n\u003ctable style=\"font-family:Arial,Verdana,Times;font-size:12px;text-align:left;width:100%;border-collapse:collapse;padding:3px 3px 3px 3px\"\u003e\n\u003ctr style=\"text-align:center;font-weight:bold;background:#9CBCE2\"\u003e\n\u003ctd\u003e18102566,9293\u003c/td\u003e\n\u003c/tr\u003e\n\u003ctr\u003e\n\u003ctd\u003e\n\u003ctable style=\"font-family:Arial,Verdana,Times;font-size:12px;text-align:left;width:100%;border-spacing:0px; padding:3px 3px 3px 3px\"\u003e\n\u003ctr\u003e\n\u003ctd\u003eFID\u003c/td\u003e\n\u003ctd\u003e0\u003c/td\u003e\n\u003c/tr\u003e\n\u003ctr bgcolor=\"#D4E4F3\"\u003e\n\u003ctd\u003eShape_Leng\u003c/td\u003e\n\u003ctd\u003e18102566,9293\u003c/td\u003e\n\u003c/tr\u003e\n\u003c/table\u003e\n\u003c/td\u003e\n\u003c/tr\u003e\n\u003c/table\u003e\n\u003c/body\u003e\u003cscript type=\"text/javascript\"\u003e\n\t\t\t\tfunction changeImage(attElement, nameElement) {\n\t\t\t\tdocument.getElementById('imageAttachment').src = attElement;\n\t\t\t\tdocument.getElementById('imageName').innerHTML = nameElement;}\n\t\t\t\u003c/script\u003e\u003c/html\u003e\n","FID_active_grids":249,"GridID":"H14","Shape_Length":3.6166399574937278e-05,"Shape_Area":8.1750521876635776e-11}},{"type":"Feature","id":40013,"geometry":{"type":"Polygon","coordinates":[[[113.26002171500011,-6.8900913729999615],[113.2600216300001,-6.8900732949999792],[113.25997640700007,-6.890073508999933],[113.25997649200008,-6.8900915869999722],[113.26002171500011,-6.8900913729999615]]]},"properties":{"OBJECTID":40013,"FID_mangrove_utm":39834,"OBJECTID_1":39834,"Name":"18102566,9293","FolderPath":"JATIM/JATIM","SymbolID":0,"AltMode":0,"Base":0,"Clamped":-1,"Extruded":0,"Snippet":"","PopupInfo":"\u003chtml xmlns:fo=\"http://www.w3.org/1999/XSL/Format\" xmlns:msxsl=\"urn:schemas-microsoft-com:xslt\"\u003e\n\u003chead\u003e\n\u003cMETA http-equiv=\"Content-Type\" content=\"text/html\"\u003e\n\u003cmeta http-equiv=\"content-type\" content=\"text/html; charset=UTF-8\"\u003e\n\u003c/head\u003e\n\u003cbody style=\"margin:0px 0px 0px 0px;overflow:auto;background:#FFFFFF;\"\u003e\n\u003ctable style=\"font-family:Arial,Verdana,Times;font-size:12px;text-align:left;width:100%;border-collapse:collapse;padding:3px 3px 3px 3px\"\u003e\n\u003ctr style=\"text-align:center;font-weight:bold;background:#9CBCE2\"\u003e\n\u003ctd\u003e18102566,9293\u003c/td\u003e\n\u003c/tr\u003e\n\u003ctr\u003e\n\u003ctd\u003e\n\u003ctable style=\"font-family:Arial,Verdana,Times;font-size:12px;text-align:left;width:100%;border-spacing:0px; padding:3px 3px 3px 3px\"\u003e\n\u003ctr\u003e\n\u003ctd\u003eFID\u003c/td\u003e\n\u003ctd\u003e0\u003c/td\u003e\n\u003c/tr\u003e\n\u003ctr bgcolor=\"#D4E4F3\"\u003e\n\u003ctd\u003eShape_Leng\u003c/td\u003e\n\u003ctd\u003e18102566,9293\u003c/td\u003e\n\u003c/tr\u003e\n\u003c/table\u003e\n\u003c/td\u003e\n\u003c/tr\u003e\n\u003c/table\u003e\n\u003c/body\u003e\u003cscript type=\"text/javascript\"\u003e\n\t\t\t\tfunction changeImage(attElement, nameElement) {\n\t\t\t\tdocument.getElementById('imageAttachment').src = attElement;\n\t\t\t\tdocument.getElementById('imageName').innerHTML = nameElement;}\n\t\t\t\u003c/script\u003e\u003c/html\u003e\n","FID_active_grids":249,"GridID":"H14","Shape_Length":0.00012660341239949379,"Shape_Area":8.1755958501427407e-10}},{"type":"Feature","id":40023,"geometry":{"type":"Polygon","coordinates":[[[113.2600215440001,-6.8900552169999401],[113.2600215010001,-6.8900461779999773],[113.26001245700002,-6.8900462209999773],[113.26001250000002,-6.8900552599999401],[113.2600215440001,-6.8900552169999401]]]},"properties":{"OBJECTID":40023,"FID_mangrove_utm":39844,"OBJECTID_1":39844,"Name":"18102566,9293","FolderPath":"JATIM/JATIM","SymbolID":0,"AltMode":0,"Base":0,"Clamped":-1,"Extruded":0,"Snippet":"","PopupInfo":"\u003chtml xmlns:fo=\"http://www.w3.org/1999/XSL/Format\" xmlns:msxsl=\"urn:schemas-microsoft-com:xslt\"\u003e\n\u003chead\u003e\n\u003cMETA http-equiv=\"Content-Type\" content=\"text/html\"\u003e\n\u003cmeta http-equiv=\"content-type\" content=\"text/html; charset=UTF-8\"\u003e\n\u003c/head\u003e\n\u003cbody style=\"margin:0px 0px 0px 0px;overflow:auto;background:#FFFFFF;\"\u003e\n\u003ctable style=\"font-family:Arial,Verdana,Times;font-size:12px;text-align:left;width:100%;border-collapse:collapse;padding:3px 3px 3px 3px\"\u003e\n\u003ctr style=\"text-align:center;font-weight:bold;background:#9CBCE2\"\u003e\n\u003ctd\u003e18102566,9293\u003c/td\u003e\n\u003c/tr\u003e\n\u003ctr\u003e\n\u003ctd\u003e\n\u003ctable style=\"font-family:Arial,Verdana,Times;font-size:12px;text-align:left;width:100%;border-spacing:0px; padding:3px 3px 3px 3px\"\u003e\n\u003ctr\u003e\n\u003ctd\u003eFID\u003c/td\u003e\n\u003ctd\u003e0\u003c/td\u003e\n\u003c/tr\u003e\n\u003ctr bgcolor=\"#D4E4F3\"\u003e\n\u003ctd\u003eShape_Leng\u003c/td\u003e\n\u003ctd\u003e18102566,9293\u003c/td\u003e\n\u003c/tr\u003e\n\u003c/table\u003e\n\u003c/td\u003e\n\u003c/tr\u003e\n\u003c/table\u003e\n\u003c/body\u003e\u003cscript type=\"text/javascript\"\u003e\n\t\t\t\tfunction changeImage(attElement, nameElement) {\n\t\t\t\tdocument.getElementById('imageAttachment').src = attElement;\n\t\t\t\tdocument.getElementById('imageName').innerHTML = nameElement;}\n\t\t\t\u003c/script\u003e\u003c/html\u003e\n","FID_active_grids":249,"GridID":"H14","Shape_Length":3.6166409086917098e-05,"Shape_Area":8.1750565389704482e-11}}]}