{"type":"FeatureCollection","features":[{"type":"Feature","id":37917,"geometry":{"type":"Polygon","coordinates":[[[115.33558970100012,-6.9257673479999653],[115.33558961800009,-6.9257583279999722],[115.33558059200004,-6.9257584099999576],[115.33558050900001,-6.9257493899999645],[115.33557148300008,-6.9257494729999394],[115.33557140000005,-6.9257404529999462],[115.33556237400001,-6.9257405349999317],[115.33556220900005,-6.9257224949999454],[115.33555318300012,-6.9257225779999771],[115.33555310000008,-6.9257135579999272],[115.33554407400004,-6.9257136399999695],[115.33554399200011,-6.9257046199999763],[115.33552593900004,-6.9257047849999367],[115.33552527900008,-6.925632625999981],[115.33551625300004,-6.9256327079999664],[115.33551575700005,-6.9255785889999402],[115.33550673100001,-6.9255786709999256],[115.33550656600005,-6.9255606309999393],[115.33549754000001,-6.9255607139999711],[115.33549737500005,-6.925542673999928],[115.33548834800001,-6.9255427559999703],[115.33548826600008,-6.9255337359999771],[115.33547924000004,-6.925533818999952],[115.33547899200005,-6.9255067589999726],[115.33546996600001,-6.9255068409999581],[115.33546988300009,-6.9254978209999649],[115.33546085700004,-6.9254979039999398],[115.33546077500012,-6.9254888839999467],[115.33545174800008,-6.9254889659999321],[115.33545166600004,-6.925479945999939],[115.3354155610001,-6.9254802759999734],[115.33541547800007,-6.9254712559999803],[115.33539742500011,-6.9254714209999406],[115.33539734300007,-6.9254624009999475],[115.33538831700002,-6.9254624839999792],[115.33538823400011,-6.9254534639999292],[115.33537920800006,-6.9254535459999715],[115.33537912500003,-6.9254445259999784],[115.3353700990001,-6.9254446089999533],[115.33537001700006,-6.9254355889999601],[115.3353519640001,-6.9254357539999774],[115.33535188100007,-6.9254267339999274],[115.33534285500002,-6.9254268159999697],[115.33534269000006,-6.9254087759999265],[115.33531561100006,-6.9254090239999755],[115.33531552900001,-6.9254000039999255],[115.33528845000001,-6.9254002509999282],[115.33528836700009,-6.925391230999935],[115.33527934100005,-6.9253913139999668],[115.33527925900012,-6.9253822939999736],[115.33527023200008,-6.9253823759999591],[115.33527015000004,-6.925373355999966],[115.33526112400011,-6.9253734389999408],[115.33526104100008,-6.9253644189999477],[115.33525201500004,-6.9253645009999332],[115.33525176700005,-6.9253374409999537],[115.33524274100012,-6.9253375239999286],[115.33524249300001,-6.9253104639999492],[115.33523346700008,-6.9253105469999809],[115.33523338500004,-6.925301526999931],[115.335224358,-6.9253016089999733],[115.33522419300004,-6.9252835689999301],[115.33521516700011,-6.9252836519999619],[115.33521500200004,-6.9252656119999756],[115.33520597600011,-6.9252656939999611],[115.33520581100004,-6.9252476539999748],[115.33519678400012,-6.9252477369999497],[115.33519653700012,-6.9252206769999702],[115.33518751100007,-6.9252207589999557],[115.33518742800004,-6.9252117389999626],[115.33517840200011,-6.9252118219999375],[115.33517831900008,-6.9252028019999443],[115.33516929300004,-6.9252028839999298],[115.33516921100011,-6.9251938639999366],[115.33516018400007,-6.9251939469999684],[115.33516001900011,-6.9251759069999252],[115.33515099300007,-6.9251759889999676],[115.33515091000004,-6.9251669689999744],[115.33514188400011,-6.9251670519999493],[115.33514180200007,-6.9251580319999562],[115.33513277500003,-6.9251581139999416],[115.33513269300011,-6.9251490939999485],[115.33512366700006,-6.9251491769999802],[115.33512358400003,-6.9251401569999302],[115.3351145580001,-6.9251402389999726],[115.33511447500007,-6.9251312199999688],[115.33510544900003,-6.9251313019999543],[115.3351053670001,-6.9251222819999612],[115.33509634000006,-6.9251223639999466],[115.33509625800002,-6.9251133449999429],[115.33506015300009,-6.9251136739999311],[115.33506007000005,-6.9251046539999379],[115.33504201800008,-6.9251048189999551],[115.33504193500005,-6.925095798999962],[115.33503290900001,-6.9250958819999369],[115.33503282600009,-6.9250868619999437],[115.33501477400011,-6.9250870269999609],[115.33501469100008,-6.9250780069999678],[115.33498761200008,-6.9250782539999705],[115.33498753000003,-6.9250692339999773],[115.33497850400011,-6.9250693169999522],[115.33497842100007,-6.9250602969999591],[115.33496939500003,-6.9250603789999445],[115.33496931200011,-6.9250513589999514],[115.33496028600007,-6.9250514419999263],[115.33496020300004,-6.9250424219999331],[115.33494215100006,-6.9250425869999503],[115.33494206800003,-6.9250335669999572],[115.3349330420001,-6.9250336489999427],[115.33493296000006,-6.9250246289999495],[115.33490588100005,-6.9250248759999522],[115.33490579800002,-6.9250158559999591],[115.33487871900002,-6.9250161039999512],[115.33487863700009,-6.925007083999958],[115.33486961100004,-6.9250071659999435],[115.33486952800001,-6.9249981459999503],[115.33485147600004,-6.9249983109999675],[115.33485139300001,-6.9249892909999744],[115.33482431400012,-6.9249895389999665],[115.33482423200007,-6.9249805189999734],[115.33480617900011,-6.9249806839999337],[115.33480601400004,-6.9249626439999474],[115.33479698800011,-6.9249627259999329],[115.33479682300003,-6.9249446859999466],[115.33477877000007,-6.9249448509999638],[115.33477868800003,-6.9249358309999707],[115.33476063500007,-6.924935995999931],[115.33476055300002,-6.9249269759999379],[115.3347515260001,-6.9249270579999802],[115.33475136100003,-6.9249090189999265],[115.33472428300001,-6.9249092659999292],[115.3347242000001,-6.924900245999936],[115.33470614800001,-6.9249004109999532],[115.33470606500009,-6.9248913909999601],[115.33468801300012,-6.9248915559999773],[115.33468793000009,-6.9248825359999273],[115.33467890400004,-6.9248826179999696],[115.33467882100001,-6.9248735979999765],[115.33466076900004,-6.9248737629999368],[115.33466068600001,-6.9248647429999437],[115.33458847600002,-6.9248654029999557],[115.3345883930001,-6.9248563829999625],[115.33453423600008,-6.9248568769999679],[115.33453415300005,-6.9248478569999747],[115.33447096900011,-6.924848433999955],[115.33447088700007,-6.9248394139999618],[115.33444380800006,-6.9248396619999539],[115.33444372500003,-6.9248306419999608],[115.3344346990001,-6.9248307239999463],[115.33443461700006,-6.9248217039999531],[115.33442559000002,-6.924821786999928],[115.33442550800009,-6.9248127669999349],[115.33440745500002,-6.9248129319999521],[115.33440737300009,-6.9248039119999589],[115.33439834700005,-6.9248039939999444],[115.33439818200009,-6.9247859539999581],[115.33438915500005,-6.924786036999933],[115.33438899000009,-6.9247679969999467],[115.33437996400005,-6.9247680789999322],[115.33437988200001,-6.924759058999939],[115.33437085500009,-6.9247591419999708],[115.33437077300005,-6.9247501219999776],[115.33436174600001,-6.9247502039999631],[115.33436166400008,-6.92474118399997],[115.33435263800004,-6.9247412669999449],[115.33435255500001,-6.9247322469999517],[115.33434352900008,-6.9247323289999372],[115.33434344600005,-6.924723308999944],[115.33433442,-6.9247233919999758],[115.33433425500004,-6.9247053519999326],[115.33432522900011,-6.924705433999975],[115.33432514600008,-6.924696413999925],[115.33431612000004,-6.9246964969999567],[115.33431595500008,-6.9246784569999704],[115.33430692900004,-6.9246785389999559],[115.33430659900012,-6.9246424589999265],[115.33429757300007,-6.9246425419999582],[115.33429732500008,-6.9246154819999788],[115.33428829900004,-6.9246155639999643],[115.33428805100004,-6.924588503999928],[115.33427902500011,-6.9245885869999597],[115.33427894300007,-6.9245795669999666],[115.33426991600004,-6.924579648999952],[115.33426983400011,-6.9245706289999589],[115.33425178100003,-6.9245707939999761],[115.33425169900011,-6.9245617739999261],[115.33423364600003,-6.9245619389999433],[115.3342335640001,-6.9245529189999502],[115.33422453800006,-6.9245530019999251],[115.33422445500003,-6.9245439819999319],[115.3342154290001,-6.9245440639999742],[115.33421534600006,-6.9245350439999811],[115.33420632000002,-6.9245351259999666],[115.33420623800009,-6.9245261069999628],[115.33419721100006,-6.9245261889999483],[115.33419696400006,-6.9244991289999689],[115.33418793800001,-6.9244992109999544],[115.33418769000002,-6.9244721519999644],[115.33417866400009,-6.9244722339999498],[115.33417833400006,-6.9244361539999773],[115.3341873600001,-6.9244360719999349],[115.33418670000003,-6.924363911999933],[115.33419572700006,-6.9243638299999475],[115.33419547900007,-6.9243367699999681],[115.33420450500012,-6.9243366869999363],[115.33420425800011,-6.9243096279999463],[115.33421328400004,-6.9243095449999714],[115.33421295400001,-6.924273464999942],[115.33422198100004,-6.9242733829999565],[115.33422181600008,-6.9242553429999703],[115.33423986800005,-6.924255177999953],[115.33423953800002,-6.9242190979999805],[115.33424856500005,-6.9242190159999382],[115.33424848200002,-6.924209995999945],[115.33425750800006,-6.9242099139999596],[115.33425726100006,-6.9241828539999801],[115.3342662870001,-6.9241827709999484],[115.33426612200003,-6.9241647309999621],[115.33427514900006,-6.9241646489999766],[115.33427432400003,-6.9240744489999315],[115.3342652980001,-6.9240745319999633],[115.33426505000011,-6.924047471999927],[115.33425602400007,-6.9240475539999693],[115.33425594100004,-6.9240385339999762],[115.33424691500011,-6.924038616999951],[115.33424683300007,-6.9240295969999579],[115.3342287800001,-6.9240297619999751],[115.33422869800006,-6.9240207419999251],[115.33421967100003,-6.9240208239999674],[115.3342195890001,-6.9240118039999743],[115.33421056300006,-6.9240118869999492],[115.33421048000002,-6.924002866999956],[115.33420145400009,-6.9240029489999415],[115.33420137100006,-6.9239939289999484],[115.33419234500002,-6.9239940119999801],[115.33419218000006,-6.923975971999937],[115.33418315400002,-6.9239760539999793],[115.3341830710001,-6.9239670339999293],[115.33417404500005,-6.923967116999961],[115.33417396300001,-6.9239580969999679],[115.33416493600009,-6.9239581789999534],[115.33416485400005,-6.9239491589999602],[115.33415582800001,-6.9239492419999351],[115.33415574500009,-6.923940221999942],[115.33414671900005,-6.9239403039999274],[115.33414663600001,-6.9239312839999343],[115.33413761000008,-6.9239313659999766],[115.33413752800004,-6.9239223459999266],[115.33412850100001,-6.9239224289999584],[115.33412808900005,-6.9238773289999358],[115.33411906300012,-6.9238774119999675],[115.33411881500001,-6.9238503519999313],[115.33410978900008,-6.9238504339999736],[115.33410945900005,-6.9238143539999442],[115.33410043300012,-6.9238144369999759],[115.33410010300008,-6.9237783569999465],[115.33409107700004,-6.923778438999932],[115.33409099400001,-6.9237694189999388],[115.33408196800008,-6.9237695019999705],[115.33408172100008,-6.9237424419999343],[115.33407269400004,-6.9237425239999766],[115.33407261200011,-6.9237335039999266],[115.33408163800004,-6.9237334219999411],[115.33408139100004,-6.9237063619999617],[115.33409041700008,-6.9237062799999762],[115.33409008700005,-6.9236701999999468],[115.33410814000001,-6.9236700349999296],[115.33410789200002,-6.9236429749999502],[115.33411691900005,-6.9236428929999647],[115.33411683600002,-6.9236338729999716],[115.33412586200006,-6.9236337899999398],[115.3341256970001,-6.9236157499999536],[115.33413472400002,-6.9236156679999681],[115.33413455900006,-6.923597627999925],[115.33414358500011,-6.9235975459999395],[115.33414350300006,-6.9235885259999463],[115.33416155500004,-6.9235883609999291],[115.33416147300011,-6.923579340999936],[115.33430589300008,-6.9235780219999583],[115.33430597500001,-6.9235870419999515],[115.33433305400001,-6.9235867949999488],[115.33433313700004,-6.9235958149999419],[115.33442339900012,-6.923594990999959],[115.33442331700007,-6.9235859709999659],[115.33444136900005,-6.9235858059999487],[115.33444128700012,-6.9235767859999555],[115.33445031300005,-6.9235767039999701],[115.33445023100001,-6.9235676839999769],[115.33445925700005,-6.9235676009999452],[115.33445909200009,-6.9235495609999589],[115.33446811800002,-6.9235494789999734],[115.33446762300002,-6.9234953589999577],[115.33445859700009,-6.9234954419999326],[115.33445851500005,-6.9234864219999395],[115.33444948800002,-6.9234865039999249],[115.33444940600009,-6.9234774839999318],[115.33444038000005,-6.9234775669999635],[115.33444021500009,-6.9234595269999772],[115.33443118800005,-6.9234596089999627],[115.33443110600001,-6.9234505889999696],[115.33442208000008,-6.9234506719999445],[115.33442199700005,-6.9234416519999513],[115.33441297100001,-6.9234417339999368],[115.33441255900004,-6.9233966339999711],[115.33442158500009,-6.9233965519999288],[115.33442142000001,-6.9233785119999425],[115.33443044600006,-6.923378429999957],[115.33443036400001,-6.9233694099999639],[115.33443939000006,-6.9233693269999321],[115.3344392250001,-6.9233512869999458],[115.33444825100003,-6.9233512049999604],[115.33444808600007,-6.9233331649999741],[115.3344571130001,-6.9233330829999318],[115.33445703000007,-6.9233240629999386],[115.33446605600011,-6.9233239799999637],[115.33446589100004,-6.9233059399999775],[115.33448394400011,-6.9233057759999497],[115.33448369700011,-6.9232787159999702],[115.33449272300004,-6.9232786329999385],[115.33449264000001,-6.9232696129999454],[115.33450166700004,-6.9232695309999599],[115.33450158400001,-6.9232605109999668],[115.33451061000005,-6.9232604289999813],[115.33451052800001,-6.9232514089999313],[115.33451955400005,-6.9232513259999564],[115.33451947200001,-6.9232423059999633],[115.33452849800005,-6.9232422239999778],[115.33452841500002,-6.9232332039999278],[115.33453744200006,-6.9232331209999529],[115.33453727700009,-6.9232150819999561],[115.33454630300002,-6.9232149989999812],[115.3345462210001,-6.9232059789999312],[115.33455524700003,-6.9232058969999457],[115.33455425700004,-6.9230976569999712],[115.33454523100011,-6.923097739999946],[115.33454490100007,-6.9230616599999735],[115.33453587500003,-6.9230617419999589],[115.33453571000007,-6.9230437029999621],[115.33452668400002,-6.9230437849999475],[115.33452651900006,-6.9230257449999613],[115.33451749200003,-6.9230258269999467],[115.33451732700007,-6.9230077879999499],[115.33450830100003,-6.9230078699999353],[115.33450813600007,-6.9229898299999491],[115.33449911000002,-6.9229899119999345],[115.3344987800001,-6.9229538329999514],[115.33448975400006,-6.9229539149999368],[115.33448967100003,-6.9229448949999437],[115.3344806450001,-6.9229449779999754],[115.33448056300006,-6.9229359579999254],[115.33447153600002,-6.9229360399999678],[115.33447137200005,-6.9229179999999815],[115.33445331900009,-6.9229181649999418],[115.33445323700005,-6.9229091449999487],[115.33444421000002,-6.9229092269999342],[115.33444412800009,-6.922900206999941],[115.33442607500001,-6.9229003719999582],[115.33442599300008,-6.9228913519999651],[115.33441696700004,-6.92289143499994],[115.33441688400001,-6.9228824149999468],[115.33440785800008,-6.9228824969999323],[115.33440777500005,-6.9228734769999392],[115.33439874900012,-6.9228735599999709],[115.33439866700007,-6.9228645399999778],[115.33438964000004,-6.9228646219999632],[115.33438955800011,-6.9228556019999701],[115.33438053200007,-6.9228556839999555],[115.33438028400008,-6.9228286249999655],[115.33437125800003,-6.922828706999951],[115.3343711760001,-6.9228196869999579],[115.33436214900007,-6.9228197689999433],[115.33436198400011,-6.9228017299999465],[115.33435295800007,-6.9228018119999319],[115.33435279300011,-6.9227837719999457],[115.33434376700006,-6.9227838539999311],[115.33434368500002,-6.9227748349999274],[115.3343346580001,-6.9227749169999697],[115.33433457600006,-6.9227658969999766],[115.3343165230001,-6.9227660619999369],[115.33431644100006,-6.9227570419999438],[115.33430741500001,-6.9227571239999293],[115.33430725000005,-6.922739083999943],[115.33429822400001,-6.9227391669999747],[115.33429814100009,-6.9227301469999247],[115.33428911500005,-6.922730228999967],[115.33428903200002,-6.9227212089999739],[115.33428000600009,-6.9227212919999488],[115.33427992400004,-6.9227122719999556],[115.33427089700001,-6.9227123539999411],[115.33427073200005,-6.9226943139999548],[115.33426170600001,-6.9226943969999297],[115.33426162400008,-6.9226853769999366],[115.33424357100012,-6.9226855409999644],[115.33424348900007,-6.9226765209999712],[115.33421641000007,-6.9226767689999633],[115.33421632800002,-6.9226677489999702],[115.33417119600006,-6.9226681609999332],[115.33417111400001,-6.9226591409999401],[115.33415306100005,-6.9226593059999573],[115.33415297900001,-6.9226502859999641],[115.33413492700004,-6.9226504499999351],[115.334134844,-6.9226414299999419],[115.33412581800008,-6.9226415129999737],[115.33412573500004,-6.9226324929999805],[115.33410768300007,-6.9226326579999409],[115.33410760000004,-6.9226236379999477],[115.33408954800007,-6.9226238029999649],[115.33408946500003,-6.9226147829999718],[115.33407141300006,-6.9226149469999427],[115.33407133000003,-6.9226059269999496],[115.3340623040001,-6.9226060099999813],[115.33406222200006,-6.9225969899999313],[115.33394488100009,-6.9225980609999738],[115.33394479800006,-6.9225890409999806],[115.33390869300001,-6.9225893709999582],[115.33390861100008,-6.922580350999965],[115.33379126900002,-6.9225814219999506],[115.33379118700009,-6.9225724019999575],[115.33373702900008,-6.9225728959999628],[115.33373694700003,-6.9225638759999697],[115.3337008420001,-6.9225642059999473],[115.33370076000006,-6.9225551859999541],[115.33359244500002,-6.9225561739999648],[115.3335923620001,-6.9225471549999611],[115.33352917800005,-6.9225477309999519],[115.33352909600001,-6.9225387109999588],[115.33350201700011,-6.9225389579999614],[115.33350193500007,-6.9225299379999683],[115.33349290800004,-6.9225300209999432],[115.33349282600011,-6.92252100099995],[115.33348380000007,-6.9225210829999355],[115.33348363500011,-6.9225030429999492],[115.33346558200003,-6.9225032079999664],[115.3334655000001,-6.9224941879999733],[115.33345647400006,-6.9224942709999482],[115.33345639100003,-6.922485250999955],[115.33343833900005,-6.922485414999926],[115.33343825600002,-6.9224763949999328],[115.33342923000009,-6.9224764779999646],[115.33342914800005,-6.9224674579999714],[115.33341109500009,-6.9224676229999318],[115.33341101300005,-6.9224586029999386],[115.33333880300006,-6.9224592619999612],[115.33333872000003,-6.9224502419999681],[115.33332066800006,-6.922450405999939],[115.3333207500001,-6.9224594259999321],[115.33327561900001,-6.922459837999952],[115.33327553600009,-6.9224508179999589],[115.33318527400002,-6.9224516419999418],[115.3331851910001,-6.9224426219999486],[115.33315783800003,-6.9224428719999764],[115.33316153500004,-6.9224480939999467],[115.33353537000005,-6.9226174449999576],[115.33384041900001,-6.9227812109999718],[115.33404735800002,-6.9229596159999574],[115.33417546400005,-6.9231568699999571],[115.33420485400006,-6.9233398619999775],[115.33389668100006,-6.9239140229999521],[115.33383763800009,-6.9240380119999259],[115.33386267200001,-6.9242580699999507],[115.33398415000011,-6.9245752999999581],[115.33460764600011,-6.9249615369999447],[115.33494051200012,-6.9251228679999599],[115.33515983700011,-6.9252892719999295],[115.33545700400009,-6.925658025999951],[115.33550143000002,-6.925768153999968],[115.33558970100012,-6.9257673479999653]]]},"properties":{"OBJECTID":37917,"FID_mangrove_utm":37750,"OBJECTID_1":37750,"Name":"18102566,9293","FolderPath":"JATIM/JATIM","SymbolID":0,"AltMode":0,"Base":0,"Clamped":-1,"Extruded":0,"Snippet":"","PopupInfo":"\u003chtml xmlns:fo=\"http://www.w3.org/1999/XSL/Format\" xmlns:msxsl=\"urn:schemas-microsoft-com:xslt\"\u003e\n\u003chead\u003e\n\u003cMETA http-equiv=\"Content-Type\" content=\"text/html\"\u003e\n\u003cmeta http-equiv=\"content-type\" content=\"text/html; charset=UTF-8\"\u003e\n\u003c/head\u003e\n\u003cbody style=\"margin:0px 0px 0px 0px;overflow:auto;background:#FFFFFF;\"\u003e\n\u003ctable style=\"font-family:Arial,Verdana,Times;font-size:12px;text-align:left;width:100%;border-collapse:collapse;padding:3px 3px 3px 3px\"\u003e\n\u003ctr style=\"text-align:center;font-weight:bold;background:#9CBCE2\"\u003e\n\u003ctd\u003e18102566,9293\u003c/td\u003e\n\u003c/tr\u003e\n\u003ctr\u003e\n\u003ctd\u003e\n\u003ctable style=\"font-family:Arial,Verdana,Times;font-size:12px;text-align:left;width:100%;border-spacing:0px; padding:3px 3px 3px 3px\"\u003e\n\u003ctr\u003e\n\u003ctd\u003eFID\u003c/td\u003e\n\u003ctd\u003e0\u003c/td\u003e\n\u003c/tr\u003e\n\u003ctr bgcolor=\"#D4E4F3\"\u003e\n\u003ctd\u003eShape_Leng\u003c/td\u003e\n\u003ctd\u003e18102566,9293\u003c/td\u003e\n\u003c/tr\u003e\n\u003c/table\u003e\n\u003c/td\u003e\n\u003c/tr\u003e\n\u003c/table\u003e\n\u003c/body\u003e\u003cscript type=\"text/javascript\"\u003e\n\t\t\t\tfunction changeImage(attElement, nameElement) {\n\t\t\t\tdocument.getElementById('imageAttachment').src = attElement;\n\t\t\t\tdocument.getElementById('imageName').innerHTML = nameElement;}\n\t\t\t\u003c/script\u003e\u003c/html\u003e\n","FID_active_grids":232,"GridID":"I50","Shape_Length":0.011949999894400497,"Shape_Area":8.4238357787251308e-07}},{"type":"Feature","id":37953,"geometry":{"type":"Polygon","coordinates":[[[115.33448200200007,-6.9221060399999601],[115.33448192000003,-6.922097019999967],[115.33449094600007,-6.9220969369999352],[115.33449086400003,-6.9220879169999421],[115.33446378500003,-6.9220881649999342],[115.33446386800006,-6.9220971839999379],[115.3344728940001,-6.9220971019999524],[115.33447297600003,-6.9221061219999456],[115.33448200200007,-6.9221060399999601]]]},"properties":{"OBJECTID":37953,"FID_mangrove_utm":37786,"OBJECTID_1":37786,"Name":"18102566,9293","FolderPath":"JATIM/JATIM","SymbolID":0,"AltMode":0,"Base":0,"Clamped":-1,"Extruded":0,"Snippet":"","PopupInfo":"\u003chtml xmlns:fo=\"http://www.w3.org/1999/XSL/Format\" xmlns:msxsl=\"urn:schemas-microsoft-com:xslt\"\u003e\n\u003chead\u003e\n\u003cMETA http-equiv=\"Content-Type\" content=\"text/html\"\u003e\n\u003cmeta http-equiv=\"content-type\" content=\"text/html; charset=UTF-8\"\u003e\n\u003c/head\u003e\n\u003cbody style=\"margin:0px 0px 0px 0px;overflow:auto;background:#FFFFFF;\"\u003e\n\u003ctable style=\"font-family:Arial,Verdana,Times;font-size:12px;text-align:left;width:100%;border-collapse:collapse;padding:3px 3px 3px 3px\"\u003e\n\u003ctr style=\"text-align:center;font-weight:bold;background:#9CBCE2\"\u003e\n\u003ctd\u003e18102566,9293\u003c/td\u003e\n\u003c/tr\u003e\n\u003ctr\u003e\n\u003ctd\u003e\n\u003ctable style=\"font-family:Arial,Verdana,Times;font-size:12px;text-align:left;width:100%;border-spacing:0px; padding:3px 3px 3px 3px\"\u003e\n\u003ctr\u003e\n\u003ctd\u003eFID\u003c/td\u003e\n\u003ctd\u003e0\u003c/td\u003e\n\u003c/tr\u003e\n\u003ctr bgcolor=\"#D4E4F3\"\u003e\n\u003ctd\u003eShape_Leng\u003c/td\u003e\n\u003ctd\u003e18102566,9293\u003c/td\u003e\n\u003c/tr\u003e\n\u003c/table\u003e\n\u003c/td\u003e\n\u003c/tr\u003e\n\u003c/table\u003e\n\u003c/body\u003e\u003cscript type=\"text/javascript\"\u003e\n\t\t\t\tfunction changeImage(attElement, nameElement) {\n\t\t\t\tdocument.getElementById('imageAttachment').src = attElement;\n\t\t\t\tdocument.getElementById('imageName').innerHTML = nameElement;}\n\t\t\t\u003c/script\u003e\u003c/html\u003e\n","FID_active_grids":232,"GridID":"I50","Shape_Length":9.0239762357783104e-05,"Shape_Area":3.2568521979894392e-10}},{"type":"Feature","id":38008,"geometry":{"type":"Polygon","coordinates":[[[115.33331308400011,-6.9216205699999591],[115.33332211000004,-6.9216204869999274],[115.33332178000001,-6.9215844069999548],[115.33333983300008,-6.921584242999927],[115.33333966800001,-6.9215662029999407],[115.33334869400005,-6.9215661199999658],[115.33334861200001,-6.9215570999999727],[115.33335763800005,-6.9215570179999304],[115.33335755600001,-6.9215479979999373],[115.33336658200005,-6.9215479159999518],[115.33336649900002,-6.9215388959999586],[115.3333845520001,-6.9215387309999414],[115.33338446900007,-6.9215297109999483],[115.33340252200003,-6.9215295459999311],[115.33340235700007,-6.9215115059999448],[115.33342943600007,-6.9215112589999421],[115.33342935300004,-6.921502238999949],[115.33343838000008,-6.9215021569999635],[115.33343829700004,-6.9214931369999704],[115.33347440200009,-6.921492806999936],[115.33347432000005,-6.9214837869999428],[115.33350139800007,-6.9214835399999401],[115.33350131600002,-6.921474519999947],[115.33351936800011,-6.9214743559999761],[115.33351928600007,-6.9214653359999261],[115.33355539100012,-6.9214650059999485],[115.33355522600004,-6.9214469659999622],[115.33359133100009,-6.9214466369999741],[115.33359124800006,-6.9214376169999809],[115.33360930100002,-6.9214374519999637],[115.33360921800011,-6.9214284319999706],[115.33362727100007,-6.9214282669999534],[115.33362718800004,-6.9214192469999603],[115.33366329300009,-6.9214189179999721],[115.33366321100004,-6.921409897999979],[115.33368126300002,-6.9214097329999618],[115.33368118400006,-6.921401011999933],[115.3335547050001,-6.9214135089999331],[115.33335770800011,-6.921465345999934],[115.33320432000005,-6.9215832169999771],[115.33305789400004,-6.9222129659999609],[115.33305287100006,-6.9222453739999423],[115.33307506300002,-6.9222451709999291],[115.33307498000011,-6.9222361509999359],[115.33311108500004,-6.9222358219999478],[115.33311100300011,-6.9222268019999547],[115.33312905500009,-6.9222266369999375],[115.33312897300004,-6.9222176169999443],[115.33313799900009,-6.9222175349999588],[115.33313775200008,-6.9221904749999794],[115.33314677800001,-6.9221903929999371],[115.33314669600009,-6.922181372999944],[115.33315572200001,-6.9221812899999691],[115.33315564000009,-6.9221722699999759],[115.33317369200006,-6.9221721059999481],[115.33317344500006,-6.9221450459999687],[115.3331824710001,-6.922144962999937],[115.33318238900006,-6.9221359429999438],[115.3331914150001,-6.9221358609999584],[115.33319133200007,-6.9221268409999652],[115.3332003590001,-6.9221267589999798],[115.33320027600007,-6.9221177389999298],[115.3332093030001,-6.9221176559999549],[115.33320922000007,-6.9221086359999617],[115.33321824600011,-6.9221085539999763],[115.33321816400007,-6.9220995339999263],[115.33322719000012,-6.9220994519999408],[115.33322512900008,-6.9218739519999417],[115.33323415600012,-6.9218738699999562],[115.33323366100001,-6.9218197499999405],[115.33324268700005,-6.9218196679999551],[115.33324260500001,-6.9218106479999619],[115.3332606570001,-6.9218104829999447],[115.33326032800005,-6.9217744029999722],[115.33326935400009,-6.9217743209999298],[115.33326918900002,-6.9217562809999436],[115.33327821500006,-6.9217561989999581],[115.33327796800006,-6.9217291389999787],[115.3332869940001,-6.9217290559999469],[115.3332867470001,-6.9217019959999675],[115.33329577300003,-6.9217019139999252],[115.33329560800007,-6.9216838739999389],[115.3333046350001,-6.9216837919999534],[115.33330430500007,-6.9216477119999809],[115.33331333100011,-6.9216476299999385],[115.33331308400011,-6.9216205699999591]]]},"properties":{"OBJECTID":38008,"FID_mangrove_utm":37840,"OBJECTID_1":37840,"Name":"18102566,9293","FolderPath":"JATIM/JATIM","SymbolID":0,"AltMode":0,"Base":0,"Clamped":-1,"Extruded":0,"Snippet":"","PopupInfo":"\u003chtml xmlns:fo=\"http://www.w3.org/1999/XSL/Format\" xmlns:msxsl=\"urn:schemas-microsoft-com:xslt\"\u003e\n\u003chead\u003e\n\u003cMETA http-equiv=\"Content-Type\" content=\"text/html\"\u003e\n\u003cmeta http-equiv=\"content-type\" content=\"text/html; charset=UTF-8\"\u003e\n\u003c/head\u003e\n\u003cbody style=\"margin:0px 0px 0px 0px;overflow:auto;background:#FFFFFF;\"\u003e\n\u003ctable style=\"font-family:Arial,Verdana,Times;font-size:12px;text-align:left;width:100%;border-collapse:collapse;padding:3px 3px 3px 3px\"\u003e\n\u003ctr style=\"text-align:center;font-weight:bold;background:#9CBCE2\"\u003e\n\u003ctd\u003e18102566,9293\u003c/td\u003e\n\u003c/tr\u003e\n\u003ctr\u003e\n\u003ctd\u003e\n\u003ctable style=\"font-family:Arial,Verdana,Times;font-size:12px;text-align:left;width:100%;border-spacing:0px; padding:3px 3px 3px 3px\"\u003e\n\u003ctr\u003e\n\u003ctd\u003eFID\u003c/td\u003e\n\u003ctd\u003e0\u003c/td\u003e\n\u003c/tr\u003e\n\u003ctr bgcolor=\"#D4E4F3\"\u003e\n\u003ctd\u003eShape_Leng\u003c/td\u003e\n\u003ctd\u003e18102566,9293\u003c/td\u003e\n\u003c/tr\u003e\n\u003c/table\u003e\n\u003c/td\u003e\n\u003c/tr\u003e\n\u003c/table\u003e\n\u003c/body\u003e\u003cscript type=\"text/javascript\"\u003e\n\t\t\t\tfunction changeImage(attElement, nameElement) {\n\t\t\t\tdocument.getElementById('imageAttachment').src = attElement;\n\t\t\t\tdocument.getElementById('imageName').innerHTML = nameElement;}\n\t\t\t\u003c/script\u003e\u003c/html\u003e\n","FID_active_grids":232,"GridID":"I50","Shape_Length":0.0026781855662699272,"Shape_Area":9.4377656180852251e-08}},{"type":"Feature","id":38009,"geometry":{"type":"Polygon","coordinates":[[[115.33369020700002,-6.9214006309999263],[115.33369020300006,-6.9214001209999765],[115.33368451900003,-6.9214006829999448],[115.33369020700002,-6.9214006309999263]]]},"properties":{"OBJECTID":38009,"FID_mangrove_utm":37841,"OBJECTID_1":37841,"Name":"18102566,9293","FolderPath":"JATIM/JATIM","SymbolID":0,"AltMode":0,"Base":0,"Clamped":-1,"Extruded":0,"Snippet":"","PopupInfo":"\u003chtml xmlns:fo=\"http://www.w3.org/1999/XSL/Format\" xmlns:msxsl=\"urn:schemas-microsoft-com:xslt\"\u003e\n\u003chead\u003e\n\u003cMETA http-equiv=\"Content-Type\" content=\"text/html\"\u003e\n\u003cmeta http-equiv=\"content-type\" content=\"text/html; charset=UTF-8\"\u003e\n\u003c/head\u003e\n\u003cbody style=\"margin:0px 0px 0px 0px;overflow:auto;background:#FFFFFF;\"\u003e\n\u003ctable style=\"font-family:Arial,Verdana,Times;font-size:12px;text-align:left;width:100%;border-collapse:collapse;padding:3px 3px 3px 3px\"\u003e\n\u003ctr style=\"text-align:center;font-weight:bold;background:#9CBCE2\"\u003e\n\u003ctd\u003e18102566,9293\u003c/td\u003e\n\u003c/tr\u003e\n\u003ctr\u003e\n\u003ctd\u003e\n\u003ctable style=\"font-family:Arial,Verdana,Times;font-size:12px;text-align:left;width:100%;border-spacing:0px; padding:3px 3px 3px 3px\"\u003e\n\u003ctr\u003e\n\u003ctd\u003eFID\u003c/td\u003e\n\u003ctd\u003e0\u003c/td\u003e\n\u003c/tr\u003e\n\u003ctr bgcolor=\"#D4E4F3\"\u003e\n\u003ctd\u003eShape_Leng\u003c/td\u003e\n\u003ctd\u003e18102566,9293\u003c/td\u003e\n\u003c/tr\u003e\n\u003c/table\u003e\n\u003c/td\u003e\n\u003c/tr\u003e\n\u003c/table\u003e\n\u003c/body\u003e\u003cscript type=\"text/javascript\"\u003e\n\t\t\t\tfunction changeImage(attElement, nameElement) {\n\t\t\t\tdocument.getElementById('imageAttachment').src = attElement;\n\t\t\t\tdocument.getElementById('imageName').innerHTML = nameElement;}\n\t\t\t\u003c/script\u003e\u003c/html\u003e\n","FID_active_grids":232,"GridID":"I50","Shape_Length":1.1909969367437437e-05,"Shape_Area":1.4505438530471017e-12}},{"type":"Feature","id":38051,"geometry":{"type":"Polygon","coordinates":[[[115.33535449100009,-6.9207764479999696],[115.33535469800006,-6.9207990919999816],[115.3353637240001,-6.9207990099999392],[115.33536380600003,-6.9208080299999324],[115.33537283300006,-6.9208079469999575],[115.33537299700004,-6.9208259869999438],[115.33538202400007,-6.9208259049999583],[115.33538210600011,-6.9208349249999515],[115.33539113200004,-6.9208348419999766],[115.33539121500007,-6.9208438619999697],[115.33540024100012,-6.9208437799999274],[115.33540040600008,-6.9208618199999705],[115.33540943200001,-6.9208617369999388],[115.33540951500004,-6.9208707569999319],[115.33542756700001,-6.9208705919999716],[115.33542773200008,-6.9208886319999579],[115.33544578400006,-6.9208884679999301],[115.33544586700009,-6.9208974869999338],[115.33545489300002,-6.9208974049999483],[115.33545497500006,-6.9209064249999415],[115.33546400200009,-6.920906342999956],[115.33546408400002,-6.9209153629999491],[115.33547311000007,-6.9209152799999742],[115.3354731930001,-6.9209242999999674],[115.33548221900003,-6.9209242179999251],[115.33548230100007,-6.9209332379999751],[115.33550035400003,-6.9209330729999579],[115.33550043600007,-6.920942092999951],[115.33550946200012,-6.9209420099999761],[115.33550954500004,-6.9209510299999693],[115.33551857100008,-6.9209509479999269],[115.33551865400011,-6.9209599679999769],[115.33553670600008,-6.9209598029999597],[115.33553678800001,-6.9209688229999529],[115.33554581500005,-6.9209687409999674],[115.33554589700009,-6.9209777599999711],[115.33556394900006,-6.9209775959999433],[115.33556403200009,-6.9209866159999365],[115.33558208400007,-6.9209864509999761],[115.3355821670001,-6.9209954709999693],[115.33559119300003,-6.9209953879999375],[115.33559127500007,-6.9210044079999307],[115.33560932800003,-6.9210042429999703],[115.33560941000007,-6.9210132629999634],[115.33562746300004,-6.9210130989999357],[115.33562754500008,-6.9210221189999288],[115.33565462400009,-6.9210218709999367],[115.33565487100009,-6.921048930999973],[115.33567292400005,-6.9210487659999558],[115.33567308900001,-6.9210668059999421],[115.3356911410001,-6.9210666409999249],[115.33569130600006,-6.921084680999968],[115.3357003320001,-6.9210845989999257],[115.33570049700006,-6.9211026389999688],[115.33570952300011,-6.9211025559999371],[115.33570960600002,-6.9211115759999302],[115.33571863200007,-6.9211114939999447],[115.33571871400011,-6.9211205139999379],[115.33572774100003,-6.921120430999963],[115.33572790500011,-6.9211384709999493],[115.33573693200003,-6.9211383889999638],[115.33573701400007,-6.921147408999957],[115.33574604000012,-6.9211473259999252],[115.33574612300004,-6.9211563459999752],[115.33575514900008,-6.9211562639999329],[115.33575539600008,-6.9211833239999692],[115.33576442300011,-6.9211832409999374],[115.33576450500004,-6.9211922609999306],[115.33578255700002,-6.9211920959999702],[115.33578264000005,-6.9212011159999633],[115.33580069200002,-6.9212009509999461],[115.33580077500005,-6.9212099709999393],[115.3358098010001,-6.9212098889999538],[115.33580996600006,-6.9212279289999401],[115.33590022800001,-6.9212271049999572],[115.33590017300003,-6.9212210979999327],[115.33535449100009,-6.9207764479999696]]]},"properties":{"OBJECTID":38051,"FID_mangrove_utm":37883,"OBJECTID_1":37883,"Name":"18102566,9293","FolderPath":"JATIM/JATIM","SymbolID":0,"AltMode":0,"Base":0,"Clamped":-1,"Extruded":0,"Snippet":"","PopupInfo":"\u003chtml xmlns:fo=\"http://www.w3.org/1999/XSL/Format\" xmlns:msxsl=\"urn:schemas-microsoft-com:xslt\"\u003e\n\u003chead\u003e\n\u003cMETA http-equiv=\"Content-Type\" content=\"text/html\"\u003e\n\u003cmeta http-equiv=\"content-type\" content=\"text/html; charset=UTF-8\"\u003e\n\u003c/head\u003e\n\u003cbody style=\"margin:0px 0px 0px 0px;overflow:auto;background:#FFFFFF;\"\u003e\n\u003ctable style=\"font-family:Arial,Verdana,Times;font-size:12px;text-align:left;width:100%;border-collapse:collapse;padding:3px 3px 3px 3px\"\u003e\n\u003ctr style=\"text-align:center;font-weight:bold;background:#9CBCE2\"\u003e\n\u003ctd\u003e18102566,9293\u003c/td\u003e\n\u003c/tr\u003e\n\u003ctr\u003e\n\u003ctd\u003e\n\u003ctable style=\"font-family:Arial,Verdana,Times;font-size:12px;text-align:left;width:100%;border-spacing:0px; padding:3px 3px 3px 3px\"\u003e\n\u003ctr\u003e\n\u003ctd\u003eFID\u003c/td\u003e\n\u003ctd\u003e0\u003c/td\u003e\n\u003c/tr\u003e\n\u003ctr bgcolor=\"#D4E4F3\"\u003e\n\u003ctd\u003eShape_Leng\u003c/td\u003e\n\u003ctd\u003e18102566,9293\u003c/td\u003e\n\u003c/tr\u003e\n\u003c/table\u003e\n\u003c/td\u003e\n\u003c/tr\u003e\n\u003c/table\u003e\n\u003c/body\u003e\u003cscript type=\"text/javascript\"\u003e\n\t\t\t\tfunction changeImage(attElement, nameElement) {\n\t\t\t\tdocument.getElementById('imageAttachment').src = attElement;\n\t\t\t\tdocument.getElementById('imageName').innerHTML = nameElement;}\n\t\t\t\u003c/script\u003e\u003c/html\u003e\n","FID_active_grids":232,"GridID":"I50","Shape_Length":0.0017071300022444189,"Shape_Area":2.1926560804821464e-08}},{"type":"Feature","id":38052,"geometry":{"type":"Polygon","coordinates":[[[115.33534913100004,-6.9207720809999387],[115.3353363010001,-6.9207616269999335],[115.33533639800009,-6.9207721969999625],[115.33534913100004,-6.9207720809999387]]]},"properties":{"OBJECTID":38052,"FID_mangrove_utm":37884,"OBJECTID_1":37884,"Name":"18102566,9293","FolderPath":"JATIM/JATIM","SymbolID":0,"AltMode":0,"Base":0,"Clamped":-1,"Extruded":0,"Snippet":"","PopupInfo":"\u003chtml xmlns:fo=\"http://www.w3.org/1999/XSL/Format\" xmlns:msxsl=\"urn:schemas-microsoft-com:xslt\"\u003e\n\u003chead\u003e\n\u003cMETA http-equiv=\"Content-Type\" content=\"text/html\"\u003e\n\u003cmeta http-equiv=\"content-type\" content=\"text/html; charset=UTF-8\"\u003e\n\u003c/head\u003e\n\u003cbody style=\"margin:0px 0px 0px 0px;overflow:auto;background:#FFFFFF;\"\u003e\n\u003ctable style=\"font-family:Arial,Verdana,Times;font-size:12px;text-align:left;width:100%;border-collapse:collapse;padding:3px 3px 3px 3px\"\u003e\n\u003ctr style=\"text-align:center;font-weight:bold;background:#9CBCE2\"\u003e\n\u003ctd\u003e18102566,9293\u003c/td\u003e\n\u003c/tr\u003e\n\u003ctr\u003e\n\u003ctd\u003e\n\u003ctable style=\"font-family:Arial,Verdana,Times;font-size:12px;text-align:left;width:100%;border-spacing:0px; padding:3px 3px 3px 3px\"\u003e\n\u003ctr\u003e\n\u003ctd\u003eFID\u003c/td\u003e\n\u003ctd\u003e0\u003c/td\u003e\n\u003c/tr\u003e\n\u003ctr bgcolor=\"#D4E4F3\"\u003e\n\u003ctd\u003eShape_Leng\u003c/td\u003e\n\u003ctd\u003e18102566,9293\u003c/td\u003e\n\u003c/tr\u003e\n\u003c/table\u003e\n\u003c/td\u003e\n\u003c/tr\u003e\n\u003c/table\u003e\n\u003c/body\u003e\u003cscript type=\"text/javascript\"\u003e\n\t\t\t\tfunction changeImage(attElement, nameElement) {\n\t\t\t\tdocument.getElementById('imageAttachment').src = attElement;\n\t\t\t\tdocument.getElementById('imageName').innerHTML = nameElement;}\n\t\t\t\u003c/script\u003e\u003c/html\u003e\n","FID_active_grids":232,"GridID":"I50","Shape_Length":3.9853747285901873e-05,"Shape_Area":6.7299530914315136e-11}},{"type":"Feature","id":38054,"geometry":{"type":"Polygon","coordinates":[[[115.3353053400001,-6.9207363979999741],[115.33529992300009,-6.9207319829999392],[115.33529996300001,-6.9207364469999675],[115.3353053400001,-6.9207363979999741]]]},"properties":{"OBJECTID":38054,"FID_mangrove_utm":37886,"OBJECTID_1":37886,"Name":"18102566,9293","FolderPath":"JATIM/JATIM","SymbolID":0,"AltMode":0,"Base":0,"Clamped":-1,"Extruded":0,"Snippet":"","PopupInfo":"\u003chtml xmlns:fo=\"http://www.w3.org/1999/XSL/Format\" xmlns:msxsl=\"urn:schemas-microsoft-com:xslt\"\u003e\n\u003chead\u003e\n\u003cMETA http-equiv=\"Content-Type\" content=\"text/html\"\u003e\n\u003cmeta http-equiv=\"content-type\" content=\"text/html; charset=UTF-8\"\u003e\n\u003c/head\u003e\n\u003cbody style=\"margin:0px 0px 0px 0px;overflow:auto;background:#FFFFFF;\"\u003e\n\u003ctable style=\"font-family:Arial,Verdana,Times;font-size:12px;text-align:left;width:100%;border-collapse:collapse;padding:3px 3px 3px 3px\"\u003e\n\u003ctr style=\"text-align:center;font-weight:bold;background:#9CBCE2\"\u003e\n\u003ctd\u003e18102566,9293\u003c/td\u003e\n\u003c/tr\u003e\n\u003ctr\u003e\n\u003ctd\u003e\n\u003ctable style=\"font-family:Arial,Verdana,Times;font-size:12px;text-align:left;width:100%;border-spacing:0px; padding:3px 3px 3px 3px\"\u003e\n\u003ctr\u003e\n\u003ctd\u003eFID\u003c/td\u003e\n\u003ctd\u003e0\u003c/td\u003e\n\u003c/tr\u003e\n\u003ctr bgcolor=\"#D4E4F3\"\u003e\n\u003ctd\u003eShape_Leng\u003c/td\u003e\n\u003ctd\u003e18102566,9293\u003c/td\u003e\n\u003c/tr\u003e\n\u003c/table\u003e\n\u003c/td\u003e\n\u003c/tr\u003e\n\u003c/table\u003e\n\u003c/body\u003e\u003cscript type=\"text/javascript\"\u003e\n\t\t\t\tfunction changeImage(attElement, nameElement) {\n\t\t\t\tdocument.getElementById('imageAttachment').src = attElement;\n\t\t\t\tdocument.getElementById('imageName').innerHTML = nameElement;}\n\t\t\t\u003c/script\u003e\u003c/html\u003e\n","FID_active_grids":232,"GridID":"I50","Shape_Length":1.6829686673025208e-05,"Shape_Area":1.2002444281893956e-11}},{"type":"Feature","id":38059,"geometry":{"type":"Polygon","coordinates":[[[115.33519995600011,-6.9206587009999794],[115.33520009800009,-6.9206742139999733],[115.33520912400002,-6.9206741309999416],[115.33520920700005,-6.9206831509999347],[115.33521823300009,-6.9206830689999492],[115.33521831500002,-6.9206920889999424],[115.33522734100006,-6.9206920059999675],[115.3352274240001,-6.9207010259999606],[115.33524547600007,-6.9207008619999328],[115.3352455590001,-6.920709881999926],[115.33526361100007,-6.9207097169999656],[115.3352636940001,-6.9207187369999588],[115.33527272000003,-6.920718653999927],[115.33527280200008,-6.920727673999977],[115.33529439200004,-6.9207274769999572],[115.33527035600002,-6.9207078909999495],[115.33519995600011,-6.9206587009999794]]]},"properties":{"OBJECTID":38059,"FID_mangrove_utm":37891,"OBJECTID_1":37891,"Name":"18102566,9293","FolderPath":"JATIM/JATIM","SymbolID":0,"AltMode":0,"Base":0,"Clamped":-1,"Extruded":0,"Snippet":"","PopupInfo":"\u003chtml xmlns:fo=\"http://www.w3.org/1999/XSL/Format\" xmlns:msxsl=\"urn:schemas-microsoft-com:xslt\"\u003e\n\u003chead\u003e\n\u003cMETA http-equiv=\"Content-Type\" content=\"text/html\"\u003e\n\u003cmeta http-equiv=\"content-type\" content=\"text/html; charset=UTF-8\"\u003e\n\u003c/head\u003e\n\u003cbody style=\"margin:0px 0px 0px 0px;overflow:auto;background:#FFFFFF;\"\u003e\n\u003ctable style=\"font-family:Arial,Verdana,Times;font-size:12px;text-align:left;width:100%;border-collapse:collapse;padding:3px 3px 3px 3px\"\u003e\n\u003ctr style=\"text-align:center;font-weight:bold;background:#9CBCE2\"\u003e\n\u003ctd\u003e18102566,9293\u003c/td\u003e\n\u003c/tr\u003e\n\u003ctr\u003e\n\u003ctd\u003e\n\u003ctable style=\"font-family:Arial,Verdana,Times;font-size:12px;text-align:left;width:100%;border-spacing:0px; padding:3px 3px 3px 3px\"\u003e\n\u003ctr\u003e\n\u003ctd\u003eFID\u003c/td\u003e\n\u003ctd\u003e0\u003c/td\u003e\n\u003c/tr\u003e\n\u003ctr bgcolor=\"#D4E4F3\"\u003e\n\u003ctd\u003eShape_Leng\u003c/td\u003e\n\u003ctd\u003e18102566,9293\u003c/td\u003e\n\u003c/tr\u003e\n\u003c/table\u003e\n\u003c/td\u003e\n\u003c/tr\u003e\n\u003c/table\u003e\n\u003c/body\u003e\u003cscript type=\"text/javascript\"\u003e\n\t\t\t\tfunction changeImage(attElement, nameElement) {\n\t\t\t\tdocument.getElementById('imageAttachment').src = attElement;\n\t\t\t\tdocument.getElementById('imageName').innerHTML = nameElement;}\n\t\t\t\u003c/script\u003e\u003c/html\u003e\n","FID_active_grids":232,"GridID":"I50","Shape_Length":0.00028032590376294089,"Shape_Area":1.2472864829628809e-09}},{"type":"Feature","id":38061,"geometry":{"type":"Polygon","coordinates":[[[115.33517270100003,-6.9206396579999705],[115.33517277200008,-6.9206474009999397],[115.33518179800001,-6.9206473189999542],[115.33518188100004,-6.9206563389999474],[115.33519638500002,-6.9206562059999328],[115.33517270100003,-6.9206396579999705]]]},"properties":{"OBJECTID":38061,"FID_mangrove_utm":37893,"OBJECTID_1":37893,"Name":"18102566,9293","FolderPath":"JATIM/JATIM","SymbolID":0,"AltMode":0,"Base":0,"Clamped":-1,"Extruded":0,"Snippet":"","PopupInfo":"\u003chtml xmlns:fo=\"http://www.w3.org/1999/XSL/Format\" xmlns:msxsl=\"urn:schemas-microsoft-com:xslt\"\u003e\n\u003chead\u003e\n\u003cMETA http-equiv=\"Content-Type\" content=\"text/html\"\u003e\n\u003cmeta http-equiv=\"content-type\" content=\"text/html; charset=UTF-8\"\u003e\n\u003c/head\u003e\n\u003cbody style=\"margin:0px 0px 0px 0px;overflow:auto;background:#FFFFFF;\"\u003e\n\u003ctable style=\"font-family:Arial,Verdana,Times;font-size:12px;text-align:left;width:100%;border-collapse:collapse;padding:3px 3px 3px 3px\"\u003e\n\u003ctr style=\"text-align:center;font-weight:bold;background:#9CBCE2\"\u003e\n\u003ctd\u003e18102566,9293\u003c/td\u003e\n\u003c/tr\u003e\n\u003ctr\u003e\n\u003ctd\u003e\n\u003ctable style=\"font-family:Arial,Verdana,Times;font-size:12px;text-align:left;width:100%;border-spacing:0px; padding:3px 3px 3px 3px\"\u003e\n\u003ctr\u003e\n\u003ctd\u003eFID\u003c/td\u003e\n\u003ctd\u003e0\u003c/td\u003e\n\u003c/tr\u003e\n\u003ctr bgcolor=\"#D4E4F3\"\u003e\n\u003ctd\u003eShape_Leng\u003c/td\u003e\n\u003ctd\u003e18102566,9293\u003c/td\u003e\n\u003c/tr\u003e\n\u003c/table\u003e\n\u003c/td\u003e\n\u003c/tr\u003e\n\u003c/table\u003e\n\u003c/body\u003e\u003cscript type=\"text/javascript\"\u003e\n\t\t\t\tfunction changeImage(attElement, nameElement) {\n\t\t\t\tdocument.getElementById('imageAttachment').src = attElement;\n\t\t\t\tdocument.getElementById('imageName').innerHTML = nameElement;}\n\t\t\t\u003c/script\u003e\u003c/html\u003e\n","FID_active_grids":232,"GridID":"I50","Shape_Length":6.9187044169125836e-05,"Shape_Area":1.158186130719906e-10}},{"type":"Feature","id":38066,"geometry":{"type":"Polygon","coordinates":[[[115.33514544600007,-6.9206206139999722],[115.3351455290001,-6.9206296079999561],[115.33515455500003,-6.9206295259999706],[115.33515463700007,-6.9206385459999638],[115.33517089700001,-6.9206383979999373],[115.33514544600007,-6.9206206139999722]]]},"properties":{"OBJECTID":38066,"FID_mangrove_utm":37898,"OBJECTID_1":37898,"Name":"18102566,9293","FolderPath":"JATIM/JATIM","SymbolID":0,"AltMode":0,"Base":0,"Clamped":-1,"Extruded":0,"Snippet":"","PopupInfo":"\u003chtml xmlns:fo=\"http://www.w3.org/1999/XSL/Format\" xmlns:msxsl=\"urn:schemas-microsoft-com:xslt\"\u003e\n\u003chead\u003e\n\u003cMETA http-equiv=\"Content-Type\" content=\"text/html\"\u003e\n\u003cmeta http-equiv=\"content-type\" content=\"text/html; charset=UTF-8\"\u003e\n\u003c/head\u003e\n\u003cbody style=\"margin:0px 0px 0px 0px;overflow:auto;background:#FFFFFF;\"\u003e\n\u003ctable style=\"font-family:Arial,Verdana,Times;font-size:12px;text-align:left;width:100%;border-collapse:collapse;padding:3px 3px 3px 3px\"\u003e\n\u003ctr style=\"text-align:center;font-weight:bold;background:#9CBCE2\"\u003e\n\u003ctd\u003e18102566,9293\u003c/td\u003e\n\u003c/tr\u003e\n\u003ctr\u003e\n\u003ctd\u003e\n\u003ctable style=\"font-family:Arial,Verdana,Times;font-size:12px;text-align:left;width:100%;border-spacing:0px; padding:3px 3px 3px 3px\"\u003e\n\u003ctr\u003e\n\u003ctd\u003eFID\u003c/td\u003e\n\u003ctd\u003e0\u003c/td\u003e\n\u003c/tr\u003e\n\u003ctr bgcolor=\"#D4E4F3\"\u003e\n\u003ctd\u003eShape_Leng\u003c/td\u003e\n\u003ctd\u003e18102566,9293\u003c/td\u003e\n\u003c/tr\u003e\n\u003c/table\u003e\n\u003c/td\u003e\n\u003c/tr\u003e\n\u003c/table\u003e\n\u003c/body\u003e\u003cscript type=\"text/javascript\"\u003e\n\t\t\t\tfunction changeImage(attElement, nameElement) {\n\t\t\t\tdocument.getElementById('imageAttachment').src = attElement;\n\t\t\t\tdocument.getElementById('imageName').innerHTML = nameElement;}\n\t\t\t\u003c/script\u003e\u003c/html\u003e\n","FID_active_grids":232,"GridID":"I50","Shape_Length":7.4350538282212658e-05,"Shape_Area":1.4634442050715736e-10}},{"type":"Feature","id":38070,"geometry":{"type":"Polygon","coordinates":[[[115.33513266600005,-6.9206116839999368],[115.33512727600009,-6.9206079189999627],[115.33512731100006,-6.9206117329999302],[115.33513266600005,-6.9206116839999368]]]},"properties":{"OBJECTID":38070,"FID_mangrove_utm":37902,"OBJECTID_1":37902,"Name":"18102566,9293","FolderPath":"JATIM/JATIM","SymbolID":0,"AltMode":0,"Base":0,"Clamped":-1,"Extruded":0,"Snippet":"","PopupInfo":"\u003chtml xmlns:fo=\"http://www.w3.org/1999/XSL/Format\" xmlns:msxsl=\"urn:schemas-microsoft-com:xslt\"\u003e\n\u003chead\u003e\n\u003cMETA http-equiv=\"Content-Type\" content=\"text/html\"\u003e\n\u003cmeta http-equiv=\"content-type\" content=\"text/html; charset=UTF-8\"\u003e\n\u003c/head\u003e\n\u003cbody style=\"margin:0px 0px 0px 0px;overflow:auto;background:#FFFFFF;\"\u003e\n\u003ctable style=\"font-family:Arial,Verdana,Times;font-size:12px;text-align:left;width:100%;border-collapse:collapse;padding:3px 3px 3px 3px\"\u003e\n\u003ctr style=\"text-align:center;font-weight:bold;background:#9CBCE2\"\u003e\n\u003ctd\u003e18102566,9293\u003c/td\u003e\n\u003c/tr\u003e\n\u003ctr\u003e\n\u003ctd\u003e\n\u003ctable style=\"font-family:Arial,Verdana,Times;font-size:12px;text-align:left;width:100%;border-spacing:0px; padding:3px 3px 3px 3px\"\u003e\n\u003ctr\u003e\n\u003ctd\u003eFID\u003c/td\u003e\n\u003ctd\u003e0\u003c/td\u003e\n\u003c/tr\u003e\n\u003ctr bgcolor=\"#D4E4F3\"\u003e\n\u003ctd\u003eShape_Leng\u003c/td\u003e\n\u003ctd\u003e18102566,9293\u003c/td\u003e\n\u003c/tr\u003e\n\u003c/table\u003e\n\u003c/td\u003e\n\u003c/tr\u003e\n\u003c/table\u003e\n\u003c/body\u003e\u003cscript type=\"text/javascript\"\u003e\n\t\t\t\tfunction changeImage(attElement, nameElement) {\n\t\t\t\tdocument.getElementById('imageAttachment').src = attElement;\n\t\t\t\tdocument.getElementById('imageName').innerHTML = nameElement;}\n\t\t\t\u003c/script\u003e\u003c/html\u003e\n","FID_active_grids":232,"GridID":"I50","Shape_Length":1.5744133712778961e-05,"Shape_Area":1.0212842382866335e-11}},{"type":"Feature","id":38074,"geometry":{"type":"Polygon","coordinates":[[[115.33761804200003,-6.920534866999958],[115.33759999000006,-6.9205350309999289],[115.33759990800002,-6.9205260119999252],[115.33759573100008,-6.9205260499999781],[115.3377134430001,-6.9207881849999353],[115.33782834600004,-6.9211359179999477],[115.33785180700011,-6.9213616049999587],[115.33779385000003,-6.9215867899999353],[115.33763660600005,-6.9218060679999667],[115.33749940600001,-6.92189807099993],[115.33752218600011,-6.9218978629999697],[115.33752210400007,-6.9218888429999765],[115.3376755490001,-6.9218874409999671],[115.33767546700005,-6.9218784219999634],[115.33769351900003,-6.9218782569999462],[115.33769343600011,-6.921869236999953],[115.33771148900007,-6.9218690719999358],[115.33771140600004,-6.9218600519999427],[115.33772043300007,-6.9218599689999678],[115.33772035000004,-6.9218509499999641],[115.33773840200001,-6.9218507849999469],[115.33773832000008,-6.9218417649999537],[115.33775637200006,-6.9218415999999365],[115.33775629000002,-6.9218325799999434],[115.33776531600006,-6.9218324969999685],[115.33776523300003,-6.9218234769999754],[115.33779231200003,-6.9218232299999727],[115.33779222900012,-6.9218142099999795],[115.33780125600003,-6.9218141279999372],[115.33780109100007,-6.9217960879999509],[115.33783719500002,-6.9217957579999734],[115.33783711300009,-6.9217867379999802],[115.33784613900002,-6.9217866559999379],[115.33784605700009,-6.9217776359999448],[115.33785508300002,-6.9217775529999699],[115.3378550000001,-6.9217685329999767],[115.33786402600003,-6.9217684509999344],[115.33786394400011,-6.9217594309999413],[115.33787297000003,-6.9217593489999558],[115.33787288800011,-6.9217503289999627],[115.33788191400004,-6.9217502459999309],[115.33788183100012,-6.9217412259999378],[115.33789085700005,-6.9217411439999523],[115.33789069200009,-6.921723103999966],[115.33789971900001,-6.9217230219999806],[115.33789963600009,-6.9217140019999306],[115.33790866200002,-6.9217139189999557],[115.33790858000009,-6.9217048989999626],[115.33792663200006,-6.9217047339999453],[115.3379264670001,-6.9216866949999485],[115.33793549300003,-6.9216866119999736],[115.33793532800007,-6.9216685719999305],[115.33794435400011,-6.921668489999945],[115.33794427200007,-6.9216594699999519],[115.33795329800012,-6.921659386999977],[115.33795321500008,-6.9216503679999732],[115.33796224200012,-6.9216502849999415],[115.33796215900009,-6.9216412649999484],[115.33798021200005,-6.9216410999999312],[115.33797996400006,-6.9216140409999412],[115.3379889900001,-6.9216139579999663],[115.33798890800006,-6.9216049379999731],[115.3379979340001,-6.9216048559999308],[115.33799776900003,-6.9215868159999445],[115.33801582100011,-6.9215866509999273],[115.33801483100001,-6.9214784119999422],[115.33800580500008,-6.9214784939999277],[115.33800572200005,-6.9214694749999808],[115.33801474800009,-6.921469391999949],[115.33801400600009,-6.9213882129999433],[115.33802303200002,-6.9213881299999684],[115.33802212400008,-6.9212889109999765],[115.33803115000001,-6.9212888289999341],[115.33803057300008,-6.9212256899999716],[115.33802154700004,-6.921225771999957],[115.33802080400005,-6.9211445929999513],[115.33801177800001,-6.9211446749999368],[115.33801161300005,-6.9211266359999399],[115.33800258700001,-6.9211267179999254],[115.33800242200005,-6.9211086779999391],[115.33799339600012,-6.9211087609999709],[115.33799331300008,-6.9210997409999777],[115.33798428700004,-6.9210998229999632],[115.33798403900005,-6.9210727629999269],[115.337975013,-6.9210728459999586],[115.33797484800004,-6.9210548059999724],[115.33796582200011,-6.9210548889999473],[115.33796565700004,-6.921036848999961],[115.33795663100011,-6.9210369309999464],[115.33795646600004,-6.9210188909999601],[115.33794744000011,-6.921018973999935],[115.33794727500003,-6.9210009339999488],[115.33793824800011,-6.9210010159999342],[115.33793808300004,-6.9209829769999374],[115.33792905700011,-6.9209830589999797],[115.33792897500007,-6.9209740389999297],[115.33791994900002,-6.9209741219999614],[115.33791986600011,-6.9209651019999683],[115.33791084000006,-6.9209651839999538],[115.33791075700003,-6.9209561639999606],[115.3379017310001,-6.9209562469999355],[115.33790164900006,-6.9209472269999424],[115.33789262200003,-6.9209473089999278],[115.33789245700007,-6.9209292689999415],[115.33788343100002,-6.9209293519999733],[115.33788334900009,-6.9209203319999801],[115.33787432300005,-6.9209204139999656],[115.33787424000002,-6.9209113939999725],[115.33786521400009,-6.9209114769999474],[115.33786513100006,-6.9209024569999542],[115.33785610500001,-6.9209025389999397],[115.33785602300009,-6.920893519999936],[115.33784699700004,-6.9208936019999783],[115.33784683200008,-6.9208755619999351],[115.33783780500005,-6.9208756449999669],[115.33783747500001,-6.9208395649999375],[115.33784650200005,-6.920839482999952],[115.33784575900006,-6.9207583029999569],[115.33783673300002,-6.9207583859999318],[115.33783632000006,-6.920713285999966],[115.33782729400002,-6.9207133689999409],[115.33782721200009,-6.9207043489999478],[115.33780915900002,-6.920704513999965],[115.33780907700009,-6.9206954939999719],[115.33780005100004,-6.9206955759999573],[115.33779996800001,-6.9206865559999642],[115.33779094200008,-6.9206866389999391],[115.33779085900005,-6.9206776189999459],[115.33778183300001,-6.9206777009999314],[115.33778175100008,-6.9206686809999383],[115.33776369800012,-6.9206688459999555],[115.33776361600007,-6.9206598259999623],[115.33775459000003,-6.9206599089999372],[115.33775450700011,-6.9206508889999441],[115.33774548100007,-6.9206509709999295],[115.33774539900003,-6.9206419509999364],[115.33773637200011,-6.9206420339999681],[115.33773620700003,-6.920623993999925],[115.33771815500006,-6.9206241589999422],[115.33771807300002,-6.9206151389999491],[115.3377090460001,-6.9206152209999345],[115.33770896400006,-6.9206062019999308],[115.33769993800001,-6.9206062839999731],[115.3376998550001,-6.92059726399998],[115.33768180300001,-6.9205974289999403],[115.33768172000009,-6.9205884089999472],[115.33767269400005,-6.9205884909999327],[115.33767261200001,-6.920579471999929],[115.33766358600008,-6.9205795539999713],[115.33766350300004,-6.9205705339999781],[115.33765447700011,-6.920570616999953],[115.33765439400008,-6.9205615969999599],[115.33763634200011,-6.9205617609999308],[115.33763626000007,-6.9205527419999271],[115.33762723300003,-6.9205528239999694],[115.33762715100011,-6.9205438039999763],[115.33761812500006,-6.9205438869999512],[115.33761804200003,-6.920534866999958]]]},"properties":{"OBJECTID":38074,"FID_mangrove_utm":37906,"OBJECTID_1":37906,"Name":"18102566,9293","FolderPath":"JATIM/JATIM","SymbolID":0,"AltMode":0,"Base":0,"Clamped":-1,"Extruded":0,"Snippet":"","PopupInfo":"\u003chtml xmlns:fo=\"http://www.w3.org/1999/XSL/Format\" xmlns:msxsl=\"urn:schemas-microsoft-com:xslt\"\u003e\n\u003chead\u003e\n\u003cMETA http-equiv=\"Content-Type\" content=\"text/html\"\u003e\n\u003cmeta http-equiv=\"content-type\" content=\"text/html; charset=UTF-8\"\u003e\n\u003c/head\u003e\n\u003cbody style=\"margin:0px 0px 0px 0px;overflow:auto;background:#FFFFFF;\"\u003e\n\u003ctable style=\"font-family:Arial,Verdana,Times;font-size:12px;text-align:left;width:100%;border-collapse:collapse;padding:3px 3px 3px 3px\"\u003e\n\u003ctr style=\"text-align:center;font-weight:bold;background:#9CBCE2\"\u003e\n\u003ctd\u003e18102566,9293\u003c/td\u003e\n\u003c/tr\u003e\n\u003ctr\u003e\n\u003ctd\u003e\n\u003ctable style=\"font-family:Arial,Verdana,Times;font-size:12px;text-align:left;width:100%;border-spacing:0px; padding:3px 3px 3px 3px\"\u003e\n\u003ctr\u003e\n\u003ctd\u003eFID\u003c/td\u003e\n\u003ctd\u003e0\u003c/td\u003e\n\u003c/tr\u003e\n\u003ctr bgcolor=\"#D4E4F3\"\u003e\n\u003ctd\u003eShape_Leng\u003c/td\u003e\n\u003ctd\u003e18102566,9293\u003c/td\u003e\n\u003c/tr\u003e\n\u003c/table\u003e\n\u003c/td\u003e\n\u003c/tr\u003e\n\u003c/table\u003e\n\u003c/body\u003e\u003cscript type=\"text/javascript\"\u003e\n\t\t\t\tfunction changeImage(attElement, nameElement) {\n\t\t\t\tdocument.getElementById('imageAttachment').src = attElement;\n\t\t\t\tdocument.getElementById('imageName').innerHTML = nameElement;}\n\t\t\t\u003c/script\u003e\u003c/html\u003e\n","FID_active_grids":232,"GridID":"I50","Shape_Length":0.0039209313180792573,"Shape_Area":2.175596007022787e-07}},{"type":"Feature","id":38077,"geometry":{"type":"Polygon","coordinates":[[[115.33503071500002,-6.9205404489999296],[115.33500008700003,-6.9205190489999495],[115.33500028500009,-6.9205407269999455],[115.33503071500002,-6.9205404489999296]]]},"properties":{"OBJECTID":38077,"FID_mangrove_utm":37909,"OBJECTID_1":37909,"Name":"18102566,9293","FolderPath":"JATIM/JATIM","SymbolID":0,"AltMode":0,"Base":0,"Clamped":-1,"Extruded":0,"Snippet":"","PopupInfo":"\u003chtml xmlns:fo=\"http://www.w3.org/1999/XSL/Format\" xmlns:msxsl=\"urn:schemas-microsoft-com:xslt\"\u003e\n\u003chead\u003e\n\u003cMETA http-equiv=\"Content-Type\" content=\"text/html\"\u003e\n\u003cmeta http-equiv=\"content-type\" content=\"text/html; charset=UTF-8\"\u003e\n\u003c/head\u003e\n\u003cbody style=\"margin:0px 0px 0px 0px;overflow:auto;background:#FFFFFF;\"\u003e\n\u003ctable style=\"font-family:Arial,Verdana,Times;font-size:12px;text-align:left;width:100%;border-collapse:collapse;padding:3px 3px 3px 3px\"\u003e\n\u003ctr style=\"text-align:center;font-weight:bold;background:#9CBCE2\"\u003e\n\u003ctd\u003e18102566,9293\u003c/td\u003e\n\u003c/tr\u003e\n\u003ctr\u003e\n\u003ctd\u003e\n\u003ctable style=\"font-family:Arial,Verdana,Times;font-size:12px;text-align:left;width:100%;border-spacing:0px; padding:3px 3px 3px 3px\"\u003e\n\u003ctr\u003e\n\u003ctd\u003eFID\u003c/td\u003e\n\u003ctd\u003e0\u003c/td\u003e\n\u003c/tr\u003e\n\u003ctr bgcolor=\"#D4E4F3\"\u003e\n\u003ctd\u003eShape_Leng\u003c/td\u003e\n\u003ctd\u003e18102566,9293\u003c/td\u003e\n\u003c/tr\u003e\n\u003c/table\u003e\n\u003c/td\u003e\n\u003c/tr\u003e\n\u003c/table\u003e\n\u003c/body\u003e\u003cscript type=\"text/javascript\"\u003e\n\t\t\t\tfunction changeImage(attElement, nameElement) {\n\t\t\t\tdocument.getElementById('imageAttachment').src = attElement;\n\t\t\t\tdocument.getElementById('imageName').innerHTML = nameElement;}\n\t\t\t\u003c/script\u003e\u003c/html\u003e\n","FID_active_grids":232,"GridID":"I50","Shape_Length":8.9473717471432325e-05,"Shape_Area":3.2985829112906811e-10}},{"type":"Feature","id":38078,"geometry":{"type":"Polygon","coordinates":[[[115.33499248300006,-6.9205137359999753],[115.33499100200004,-6.9205127009999501],[115.33499101100006,-6.920513749999941],[115.33499248300006,-6.9205137359999753]]]},"properties":{"OBJECTID":38078,"FID_mangrove_utm":37910,"OBJECTID_1":37910,"Name":"18102566,9293","FolderPath":"JATIM/JATIM","SymbolID":0,"AltMode":0,"Base":0,"Clamped":-1,"Extruded":0,"Snippet":"","PopupInfo":"\u003chtml xmlns:fo=\"http://www.w3.org/1999/XSL/Format\" xmlns:msxsl=\"urn:schemas-microsoft-com:xslt\"\u003e\n\u003chead\u003e\n\u003cMETA http-equiv=\"Content-Type\" content=\"text/html\"\u003e\n\u003cmeta http-equiv=\"content-type\" content=\"text/html; charset=UTF-8\"\u003e\n\u003c/head\u003e\n\u003cbody style=\"margin:0px 0px 0px 0px;overflow:auto;background:#FFFFFF;\"\u003e\n\u003ctable style=\"font-family:Arial,Verdana,Times;font-size:12px;text-align:left;width:100%;border-collapse:collapse;padding:3px 3px 3px 3px\"\u003e\n\u003ctr style=\"text-align:center;font-weight:bold;background:#9CBCE2\"\u003e\n\u003ctd\u003e18102566,9293\u003c/td\u003e\n\u003c/tr\u003e\n\u003ctr\u003e\n\u003ctd\u003e\n\u003ctable style=\"font-family:Arial,Verdana,Times;font-size:12px;text-align:left;width:100%;border-spacing:0px; padding:3px 3px 3px 3px\"\u003e\n\u003ctr\u003e\n\u003ctd\u003eFID\u003c/td\u003e\n\u003ctd\u003e0\u003c/td\u003e\n\u003c/tr\u003e\n\u003ctr bgcolor=\"#D4E4F3\"\u003e\n\u003ctd\u003eShape_Leng\u003c/td\u003e\n\u003ctd\u003e18102566,9293\u003c/td\u003e\n\u003c/tr\u003e\n\u003c/table\u003e\n\u003c/td\u003e\n\u003c/tr\u003e\n\u003c/table\u003e\n\u003c/body\u003e\u003cscript type=\"text/javascript\"\u003e\n\t\t\t\tfunction changeImage(attElement, nameElement) {\n\t\t\t\tdocument.getElementById('imageAttachment').src = attElement;\n\t\t\t\tdocument.getElementById('imageName').innerHTML = nameElement;}\n\t\t\t\u003c/script\u003e\u003c/html\u003e\n","FID_active_grids":232,"GridID":"I50","Shape_Length":4.3279217546029066e-06,"Shape_Area":7.7212699750834877e-13}},{"type":"Feature","id":38125,"geometry":{"type":"Polygon","coordinates":[[[115.33359734900012,-6.9201295569999388],[115.33359595200011,-6.9201295699999719],[115.33357224700001,-6.9201583069999515],[115.33357421300002,-6.9202529139999456],[115.3343690480001,-6.9209022459999687],[115.33455469800003,-6.9211030189999292],[115.33460700700005,-6.9212090599999669],[115.33459951600003,-6.9212299589999589],[115.33462745000008,-6.9212297039999271],[115.33462736800004,-6.921220683999934],[115.33463639400009,-6.9212206009999591],[115.33463631200004,-6.9212115809999659],[115.33464533800009,-6.9212114989999804],[115.33464525500005,-6.9212024789999305],[115.33467233400006,-6.9212022319999278],[115.33467225200002,-6.9211932119999346],[115.33468127800006,-6.9211931299999492],[115.33468119500003,-6.921184109999956],[115.33469924800011,-6.9211839449999388],[115.33469908300003,-6.9211659049999525],[115.33470810900008,-6.9211658229999671],[115.33470802700003,-6.9211568029999739],[115.33472607900001,-6.9211566379999567],[115.33472591400005,-6.9211385979999704],[115.33473494000009,-6.9211385149999387],[115.334734776,-6.9211204759999418],[115.33474380200005,-6.921120392999967],[115.33474355400006,-6.9210933329999307],[115.33473452800001,-6.9210934159999624],[115.33473436300005,-6.9210753759999761],[115.33472533700001,-6.9210754579999616],[115.33472517200005,-6.9210574179999753],[115.33471614600001,-6.9210575009999502],[115.33471606300009,-6.9210484809999571],[115.33470703700004,-6.9210485629999425],[115.33470695500012,-6.9210395429999494],[115.33469792900007,-6.9210396259999811],[115.33469784600004,-6.9210306059999311],[115.33468882000011,-6.9210306879999735],[115.33468873800007,-6.9210216679999803],[115.33467971100004,-6.9210217499999658],[115.33467954600007,-6.9210037109999689],[115.33467052000003,-6.9210037929999544],[115.33467027300003,-6.920976732999975],[115.3346612470001,-6.9209768159999498],[115.33466116400007,-6.9209677959999567],[115.33465213800002,-6.9209678779999422],[115.3346520560001,-6.920958857999949],[115.33464302900006,-6.9209589399999345],[115.3346428640001,-6.9209409009999376],[115.33463383800006,-6.92094098299998],[115.33463375600002,-6.92093196299993],[115.33462473000009,-6.9209320449999723],[115.33462464700006,-6.9209230249999791],[115.33461562100001,-6.920923107999954],[115.33461545600005,-6.9209050679999677],[115.33460643000001,-6.9209051499999532],[115.33460634700009,-6.9208961299999601],[115.33459732100005,-6.920896212999935],[115.33459723900012,-6.9208871929999418],[115.33458821300007,-6.9208872749999273],[115.33458813000004,-6.9208782549999341],[115.33457910400011,-6.9208783379999659],[115.33457902100008,-6.9208693179999727],[115.33456999500004,-6.9208693999999582],[115.33456991300011,-6.9208603799999651],[115.3345428340001,-6.9208606269999677],[115.33454275200006,-6.9208516069999746],[115.33453372600002,-6.9208516899999495],[115.33453356100006,-6.9208336499999632],[115.33452453400002,-6.9208337319999487],[115.3345244520001,-6.9208247119999555],[115.33451542600005,-6.9208247949999304],[115.33451534300002,-6.9208157749999373],[115.33450631700009,-6.9208158569999796],[115.33450623500005,-6.9208068369999296],[115.33449720800002,-6.9208069189999719],[115.33449712600009,-6.9207978989999788],[115.33448810000004,-6.9207979819999537],[115.33448801700001,-6.9207889619999605],[115.33447899100008,-6.920789043999946],[115.33447890900004,-6.9207800239999528],[115.33446988300011,-6.9207801069999277],[115.33446980000008,-6.9207710869999346],[115.33446077400004,-6.9207711689999769],[115.33446069100012,-6.9207621489999269],[115.33445166500007,-6.9207622319999587],[115.33445158300003,-6.9207532119999655],[115.3344425570001,-6.920753293999951],[115.33444247400007,-6.9207442739999578],[115.33443344800003,-6.9207443559999433],[115.33443336500011,-6.9207353359999502],[115.33442433900007,-6.9207354189999251],[115.33442425700002,-6.9207263989999319],[115.33441523100009,-6.9207264809999742],[115.33441514800006,-6.9207174609999811],[115.33440612200002,-6.920717543999956],[115.33440595700006,-6.9206995039999697],[115.33438790500009,-6.9206996689999301],[115.33438782200005,-6.9206906489999369],[115.33437879600001,-6.9206907309999792],[115.33437871400008,-6.9206817109999292],[115.33436066100001,-6.9206818759999464],[115.33436057900008,-6.9206728559999533],[115.33435155300003,-6.9206729379999388],[115.33435147000012,-6.9206639179999456],[115.33434244400007,-6.9206640009999774],[115.33434236100004,-6.9206549809999274],[115.33432430900007,-6.9206551449999552],[115.33432422700002,-6.9206461259999514],[115.33430617400006,-6.9206462899999792],[115.33430609200002,-6.9206372699999292],[115.33428803900006,-6.9206374349999464],[115.33428795700002,-6.9206284149999533],[115.33427893100009,-6.9206284979999282],[115.33427876600001,-6.9206104579999419],[115.33426974000008,-6.9206105399999274],[115.33426965700005,-6.9206015199999342],[115.33424257900003,-6.9206017669999369],[115.33424249600012,-6.9205927469999438],[115.33423347000007,-6.9205928299999755],[115.33423338800003,-6.9205838099999255],[115.33422436100011,-6.9205838919999678],[115.33422427900007,-6.9205748719999747],[115.33421525300002,-6.9205749539999601],[115.33421517000011,-6.920565933999967],[115.33419711800002,-6.9205660989999274],[115.3341970350001,-6.9205570789999342],[115.33418800900006,-6.920557161999966],[115.33418792700002,-6.9205481419999728],[115.33416987400005,-6.9205483059999438],[115.33416979200001,-6.9205392859999506],[115.33416076600008,-6.9205393689999255],[115.33416060100001,-6.9205213289999392],[115.33413352200012,-6.9205215759999419],[115.33413344000007,-6.9205125559999487],[115.33410636100007,-6.9205128029999514],[115.33410627900003,-6.9205037829999583],[115.33408822600006,-6.9205039479999755],[115.33408814400002,-6.9204949279999255],[115.33407009100006,-6.9204950929999427],[115.33406992700009,-6.9204770529999564],[115.33404284800008,-6.9204772999999591],[115.33404276600004,-6.9204682799999659],[115.33402471300008,-6.9204684449999263],[115.33402463100003,-6.9204594249999332],[115.3340156050001,-6.9204595069999755],[115.33401552200007,-6.9204504869999255],[115.33400649600003,-6.9204505699999572],[115.33400633100007,-6.9204325299999709],[115.33399730500003,-6.9204326119999564],[115.33399714000006,-6.9204145719999701],[115.33397006100006,-6.9204148189999728],[115.33396997900002,-6.9204057989999797],[115.33396095300009,-6.9204058819999545],[115.33396087000006,-6.9203968619999614],[115.33395184400001,-6.9203969439999469],[115.33395167900005,-6.9203789039999606],[115.33393362700008,-6.9203790689999778],[115.33393354400005,-6.9203700489999278],[115.33390646600003,-6.9203702959999305],[115.33390638300011,-6.9203612759999373],[115.33389735700007,-6.9203613579999796],[115.33389727500003,-6.9203523379999297],[115.3338882490001,-6.9203524209999614],[115.33388816600007,-6.9203434009999683],[115.33387914000002,-6.9203434829999537],[115.3338790570001,-6.9203344629999606],[115.33386100500002,-6.9203346279999778],[115.33386092300009,-6.9203256079999278],[115.33382481800004,-6.9203259379999622],[115.33382473500001,-6.9203169179999691],[115.33380668300003,-6.92031708199994],[115.33380660100011,-6.9203080619999469],[115.33378854800003,-6.9203082269999641],[115.3337884660001,-6.9202992069999709],[115.33377943900007,-6.9202992889999564],[115.33377935700003,-6.9202902699999527],[115.33375227800002,-6.9202905169999553],[115.33375219600009,-6.9202814969999622],[115.33373414400012,-6.9202816609999331],[115.33373406100009,-6.92027264099994],[115.33371600900011,-6.9202728059999572],[115.33371592600008,-6.9202637859999641],[115.33370690000004,-6.9202638689999389],[115.33370681800011,-6.9202548489999458],[115.33369779200007,-6.9202549309999313],[115.33369770900003,-6.9202459109999381],[115.3336886830001,-6.9202459929999804],[115.33368860000007,-6.9202369729999305],[115.33367957400003,-6.9202370559999622],[115.3336794920001,-6.9202280359999691],[115.33366143900002,-6.9202282009999294],[115.3336613570001,-6.9202191809999363],[115.33365233100005,-6.9202192629999786],[115.33365224800002,-6.9202102429999286],[115.33364322200009,-6.9202103249999709],[115.33364314000005,-6.9202013049999778],[115.33363411400001,-6.9202013879999527],[115.33363394900005,-6.9201833479999664],[115.33362492300012,-6.9201834299999518],[115.33362484000008,-6.9201744099999587],[115.33361581400004,-6.9201744929999336],[115.33361564900008,-6.9201564529999473],[115.33360662300004,-6.9201565349999328],[115.33360654000001,-6.9201475149999396],[115.33359751400008,-6.9201475969999251],[115.33359734900012,-6.9201295569999388]]]},"properties":{"OBJECTID":38125,"FID_mangrove_utm":37957,"OBJECTID_1":37957,"Name":"18102566,9293","FolderPath":"JATIM/JATIM","SymbolID":0,"AltMode":0,"Base":0,"Clamped":-1,"Extruded":0,"Snippet":"","PopupInfo":"\u003chtml xmlns:fo=\"http://www.w3.org/1999/XSL/Format\" xmlns:msxsl=\"urn:schemas-microsoft-com:xslt\"\u003e\n\u003chead\u003e\n\u003cMETA http-equiv=\"Content-Type\" content=\"text/html\"\u003e\n\u003cmeta http-equiv=\"content-type\" content=\"text/html; charset=UTF-8\"\u003e\n\u003c/head\u003e\n\u003cbody style=\"margin:0px 0px 0px 0px;overflow:auto;background:#FFFFFF;\"\u003e\n\u003ctable style=\"font-family:Arial,Verdana,Times;font-size:12px;text-align:left;width:100%;border-collapse:collapse;padding:3px 3px 3px 3px\"\u003e\n\u003ctr style=\"text-align:center;font-weight:bold;background:#9CBCE2\"\u003e\n\u003ctd\u003e18102566,9293\u003c/td\u003e\n\u003c/tr\u003e\n\u003ctr\u003e\n\u003ctd\u003e\n\u003ctable style=\"font-family:Arial,Verdana,Times;font-size:12px;text-align:left;width:100%;border-spacing:0px; padding:3px 3px 3px 3px\"\u003e\n\u003ctr\u003e\n\u003ctd\u003eFID\u003c/td\u003e\n\u003ctd\u003e0\u003c/td\u003e\n\u003c/tr\u003e\n\u003ctr bgcolor=\"#D4E4F3\"\u003e\n\u003ctd\u003eShape_Leng\u003c/td\u003e\n\u003ctd\u003e18102566,9293\u003c/td\u003e\n\u003c/tr\u003e\n\u003c/table\u003e\n\u003c/td\u003e\n\u003c/tr\u003e\n\u003c/table\u003e\n\u003c/body\u003e\u003cscript type=\"text/javascript\"\u003e\n\t\t\t\tfunction changeImage(attElement, nameElement) {\n\t\t\t\tdocument.getElementById('imageAttachment').src = attElement;\n\t\t\t\tdocument.getElementById('imageName').innerHTML = nameElement;}\n\t\t\t\u003c/script\u003e\u003c/html\u003e\n","FID_active_grids":232,"GridID":"I50","Shape_Length":0.0039656473207139121,"Shape_Area":2.1282823380167132e-07}},{"type":"Feature","id":38131,"geometry":{"type":"Polygon","coordinates":[[[115.33485487600001,-6.9204338059999486],[115.33483682400004,-6.9204339709999658],[115.33483674200011,-6.9204249509999727],[115.33482771500007,-6.9204250329999581],[115.33482763300003,-6.920416012999965],[115.33485230100007,-6.920415787999957],[115.33481599300001,-6.9203904189999434],[115.33443284400005,-6.9201809519999529],[115.33410035100007,-6.9200662709999392],[115.33376630200007,-6.9200419619999707],[115.33364685200002,-6.9200678649999645],[115.33362594200003,-6.9200932139999622],[115.33364215100005,-6.9200930659999358],[115.33364223300009,-6.9201020859999289],[115.33366028600005,-6.9201019209999686],[115.3336603680001,-6.9201109409999617],[115.33367842000007,-6.9201107759999445],[115.33367858500003,-6.9201288159999308],[115.33368761100007,-6.9201287339999453],[115.3336876940001,-6.9201377539999385],[115.33369672000003,-6.9201376709999636],[115.33369680300007,-6.9201466909999567],[115.33372388100008,-6.920146443999954],[115.33372396400011,-6.9201554639999472],[115.33376909500009,-6.9201550519999273],[115.33376901200006,-6.9201460329999804],[115.3337780380001,-6.9201459499999487],[115.33377795600006,-6.9201369299999556],[115.33381406100011,-6.9201366009999674],[115.33381397800008,-6.9201275809999743],[115.33383203100004,-6.9201274159999571],[115.33383194800001,-6.9201183959999639],[115.33385902700002,-6.9201181489999612],[115.33385910900006,-6.9201271689999544],[115.33386813600009,-6.9201270869999689],[115.33386821800002,-6.9201361069999621],[115.33387724400006,-6.9201360239999303],[115.3338773270001,-6.9201450439999803],[115.33390440500011,-6.9201447969999776],[115.33390473500003,-6.9201808769999502],[115.33391376100008,-6.9201807949999647],[115.33391409100011,-6.9202168739999479],[115.33392311700004,-6.9202167919999624],[115.33392336400004,-6.9202438519999419],[115.33393239000009,-6.9202437699999564],[115.33393280300004,-6.9202888689999327],[115.33394182900008,-6.9202887869999472],[115.33394191100001,-6.9202978069999403],[115.33395093700005,-6.9202977249999549],[115.33395110200001,-6.9203157639999517],[115.33396012800006,-6.9203156819999663],[115.33396021100009,-6.9203247019999594],[115.33396923700002,-6.9203246199999739],[115.33396932000005,-6.9203336399999671],[115.33401445100003,-6.9203332279999472],[115.33401461500011,-6.9203512679999335],[115.33402364200003,-6.9203511849999586],[115.33402372400008,-6.9203602049999517],[115.33404177600005,-6.9203600409999808],[115.33404185900008,-6.920369060999974],[115.33405088500001,-6.9203689779999422],[115.33405096700005,-6.9203779979999354],[115.33406902000002,-6.920377832999975],[115.33406910200006,-6.9203868529999681],[115.33408715500002,-6.9203866889999404],[115.33408723700006,-6.9203957089999335],[115.33410529000002,-6.9203955439999731],[115.33410537200007,-6.9204045639999663],[115.33412342400004,-6.9204043989999491],[115.33412350700007,-6.9204134189999422],[115.33413253300012,-6.9204133369999568],[115.33413261500004,-6.9204223569999499],[115.33414164200008,-6.920422273999975],[115.33414172400001,-6.9204312939999681],[115.33419588100003,-6.9204307999999628],[115.33419596400006,-6.9204398199999559],[115.33421401600003,-6.9204396549999387],[115.33421409900006,-6.9204486749999319],[115.33422312500011,-6.9204485929999464],[115.33422320700004,-6.9204576129999396],[115.33425028600004,-6.9204573649999475],[115.33425036800008,-6.9204663849999406],[115.33426842100005,-6.9204662209999697],[115.33426850300009,-6.9204752409999628],[115.33430460800002,-6.9204749109999284],[115.33430469000007,-6.9204839309999784],[115.3343137170001,-6.9204838489999361],[115.33431379900003,-6.9204928689999292],[115.33432282500007,-6.9204927859999543],[115.3343229080001,-6.9205018059999475],[115.33434096000008,-6.9205016419999765],[115.33434104300011,-6.9205106609999802],[115.33436812100001,-6.9205104139999776],[115.33436820400004,-6.9205194339999707],[115.3344043080001,-6.9205191049999257],[115.33440447300006,-6.9205371449999689],[115.33441349900011,-6.9205370619999371],[115.33441358200002,-6.9205460819999303],[115.33442260800007,-6.9205459999999448],[115.3344226910001,-6.9205550199999379],[115.33443171700003,-6.920554936999963],[115.33443179900007,-6.9205639569999562],[115.33444985200003,-6.9205637929999284],[115.33444993400008,-6.9205728129999784],[115.33445896000001,-6.9205727299999467],[115.33445912500008,-6.9205907699999329],[115.33448620400009,-6.9205905229999303],[115.33448628600001,-6.9205995429999803],[115.33449531200006,-6.9205994609999379],[115.33449539500009,-6.9206084799999417],[115.33452247300011,-6.920608232999939],[115.33452255600002,-6.9206172529999321],[115.33457671300005,-6.9206167589999268],[115.33457679600008,-6.9206257789999768],[115.33458582200001,-6.9206256969999345],[115.33458598700008,-6.9206437359999313],[115.33459501300001,-6.9206436539999459],[115.33459509500005,-6.920652673999939],[115.33461314800002,-6.9206525089999786],[115.33461323000006,-6.9206615289999718],[115.33463128200003,-6.9206613639999546],[115.33463136500006,-6.9206703839999477],[115.33464039100011,-6.9206703019999622],[115.33464047400003,-6.9206793219999554],[115.33465852600011,-6.9206791569999382],[115.33465869100007,-6.9206971969999813],[115.33467674300005,-6.9206970319999641],[115.33467682600008,-6.9207060519999573],[115.3347309830001,-6.9207055579999519],[115.33473106500003,-6.920714577999945],[115.33475814400003,-6.9207143309999424],[115.33475822600008,-6.9207233509999355],[115.33477627900004,-6.9207231859999752],[115.33477636100008,-6.9207322059999683],[115.33483954500002,-6.9207316289999312],[115.33483962700006,-6.9207406489999812],[115.33491183700005,-6.9207399899999587],[115.33491175400002,-6.9207309699999655],[115.33495688500011,-6.9207305579999456],[115.33495680300007,-6.9207215379999525],[115.33496582900011,-6.920721455999967],[115.33496574700007,-6.9207124359999739],[115.33497477300011,-6.9207123529999421],[115.33497469000008,-6.920703332999949],[115.33499274300004,-6.9207031689999781],[115.33499266000001,-6.9206941489999281],[115.33500168700004,-6.9206940659999532],[115.33500135700001,-6.92065798699997],[115.33501038300005,-6.9206579039999383],[115.33501021800009,-6.920639863999952],[115.33500119200005,-6.9206399469999269],[115.33500078000009,-6.9205948469999612],[115.33499175300005,-6.9205949289999467],[115.33499167100001,-6.9205859089999535],[115.33498264500008,-6.9205859919999284],[115.33498248000001,-6.9205679519999421],[115.33497345400008,-6.9205680339999276],[115.33497337100005,-6.9205590139999345],[115.33496434500012,-6.9205590969999662],[115.33496409800011,-6.9205320369999299],[115.33498215000009,-6.9205318719999696],[115.33498206800004,-6.9205228519999764],[115.33495498900004,-6.9205230989999791],[115.33495490700011,-6.9205140789999291],[115.33494588000008,-6.9205141619999608],[115.33494579800004,-6.9205051419999677],[115.33493677200011,-6.9205052239999532],[115.33493668900007,-6.92049620399996],[115.33490961100006,-6.9204964509999627],[115.33490952800003,-6.9204874309999695],[115.3349005020001,-6.9204875139999444],[115.33490042000005,-6.9204784939999513],[115.33488236700009,-6.9204786589999685],[115.33488228500005,-6.9204696389999754],[115.33485520600004,-6.920469885999978],[115.33485512400011,-6.920460865999928],[115.33484609800007,-6.9204609479999704],[115.33484601500004,-6.9204519279999772],[115.33490017200006,-6.9204514339999719],[115.33490025500009,-6.920460453999965],[115.33490928100002,-6.9204603719999795],[115.33490936300007,-6.9204693919999727],[115.3349183900001,-6.9204693089999409],[115.33491855400007,-6.9204873489999272],[115.33494563300007,-6.9204871019999814],[115.33494571500012,-6.9204961219999745],[115.33495474200004,-6.9204960389999428],[115.33495482400008,-6.920505058999936],[115.33497974000011,-6.9205048319999491],[115.33485472700011,-6.9204174829999374],[115.33485487600001,-6.9204338059999486],[115.33486390300004,-6.9204337239999631],[115.33486398500008,-6.9204427439999563],[115.33485495900004,-6.9204428259999418],[115.33485487600001,-6.9204338059999486]],[[115.33481868900003,-6.920425115999933],[115.3348096630001,-6.9204251979999754],[115.33480958100006,-6.9204161779999254],[115.3348186070001,-6.9204160959999399],[115.33481868900003,-6.920425115999933]]]},"properties":{"OBJECTID":38131,"FID_mangrove_utm":37963,"OBJECTID_1":37963,"Name":"18102566,9293","FolderPath":"JATIM/JATIM","SymbolID":0,"AltMode":0,"Base":0,"Clamped":-1,"Extruded":0,"Snippet":"","PopupInfo":"\u003chtml xmlns:fo=\"http://www.w3.org/1999/XSL/Format\" xmlns:msxsl=\"urn:schemas-microsoft-com:xslt\"\u003e\n\u003chead\u003e\n\u003cMETA http-equiv=\"Content-Type\" content=\"text/html\"\u003e\n\u003cmeta http-equiv=\"content-type\" content=\"text/html; charset=UTF-8\"\u003e\n\u003c/head\u003e\n\u003cbody style=\"margin:0px 0px 0px 0px;overflow:auto;background:#FFFFFF;\"\u003e\n\u003ctable style=\"font-family:Arial,Verdana,Times;font-size:12px;text-align:left;width:100%;border-collapse:collapse;padding:3px 3px 3px 3px\"\u003e\n\u003ctr style=\"text-align:center;font-weight:bold;background:#9CBCE2\"\u003e\n\u003ctd\u003e18102566,9293\u003c/td\u003e\n\u003c/tr\u003e\n\u003ctr\u003e\n\u003ctd\u003e\n\u003ctable style=\"font-family:Arial,Verdana,Times;font-size:12px;text-align:left;width:100%;border-spacing:0px; padding:3px 3px 3px 3px\"\u003e\n\u003ctr\u003e\n\u003ctd\u003eFID\u003c/td\u003e\n\u003ctd\u003e0\u003c/td\u003e\n\u003c/tr\u003e\n\u003ctr bgcolor=\"#D4E4F3\"\u003e\n\u003ctd\u003eShape_Leng\u003c/td\u003e\n\u003ctd\u003e18102566,9293\u003c/td\u003e\n\u003c/tr\u003e\n\u003c/table\u003e\n\u003c/td\u003e\n\u003c/tr\u003e\n\u003c/table\u003e\n\u003c/body\u003e\u003cscript type=\"text/javascript\"\u003e\n\t\t\t\tfunction changeImage(attElement, nameElement) {\n\t\t\t\tdocument.getElementById('imageAttachment').src = attElement;\n\t\t\t\tdocument.getElementById('imageName').innerHTML = nameElement;}\n\t\t\t\u003c/script\u003e\u003c/html\u003e\n","FID_active_grids":232,"GridID":"I50","Shape_Length":0.0044179660814469583,"Shape_Area":3.7970683974310362e-07}},{"type":"Feature","id":38224,"geometry":{"type":"Polygon","coordinates":[[[115.33701285500001,-6.9185184709999703],[115.33698935900009,-6.9185446719999391],[115.33693185700008,-6.9186427969999613],[115.33699372700005,-6.9189512999999465],[115.33710080800006,-6.9194085899999322],[115.3374064620001,-6.9201016869999421],[115.33740598600002,-6.9200496869999597],[115.33741501200006,-6.9200496049999742],[115.33741493000002,-6.9200405849999811],[115.33740590400009,-6.9200406669999666],[115.3374054090001,-6.9199865479999403],[115.33739638200007,-6.9199866299999258],[115.33739621700011,-6.9199685899999395],[115.33738719100006,-6.9199686729999712],[115.33738686100003,-6.9199325929999418],[115.3373778350001,-6.9199326759999735],[115.33737767000002,-6.9199146359999304],[115.33736864400009,-6.9199147179999727],[115.33736831400006,-6.9198786379999433],[115.33735928800002,-6.919878720999975],[115.33735887600005,-6.9198336209999525],[115.33734984900002,-6.9198337039999274],[115.3373495190001,-6.9197976239999548],[115.33734049300006,-6.9197977059999403],[115.3373403280001,-6.9197796669999434],[115.33733130200005,-6.9197797489999289],[115.33733113700009,-6.9197617089999426],[115.33732211100005,-6.9197617919999743],[115.33732202900001,-6.9197527719999812],[115.33731300200009,-6.9197528539999666],[115.33731267300004,-6.9197167739999372],[115.33730364600001,-6.919716856999969],[115.33730265700001,-6.919608617999927],[115.33729363000009,-6.9196086999999693],[115.33729330100005,-6.9195726209999293],[115.33728427400001,-6.9195727029999716],[115.33728410900005,-6.9195546629999285],[115.33727508300001,-6.9195547459999602],[115.33727491800005,-6.9195367059999739],[115.337265892,-6.9195367879999594],[115.33726564500012,-6.91950972799998],[115.33725661900007,-6.9195098109999549],[115.33725637100008,-6.9194827509999755],[115.33724734500004,-6.9194828339999503],[115.33724718000008,-6.9194647939999641],[115.33723815400003,-6.9194648759999495],[115.33723807100012,-6.9194558559999564],[115.33722904500007,-6.9194559389999313],[115.33722896300003,-6.9194469189999381],[115.3372199370001,-6.9194470009999804],[115.33721977200003,-6.9194289609999373],[115.3372107460001,-6.9194290439999691],[115.33721041600006,-6.9193929639999396],[115.33720138900003,-6.9193930459999251],[115.33720097700007,-6.9193479469999488],[115.33719195100002,-6.9193480289999343],[115.33719170400002,-6.9193209699999443],[115.3371826770001,-6.9193210519999298],[115.3371824300001,-6.9192939919999503],[115.33719145600003,-6.9192939099999649],[115.3371913740001,-6.9192848899999717],[115.33720040000003,-6.91928480699994],[115.33719784300001,-6.9190051899999503],[115.33718881700008,-6.9190052719999358],[115.33718873500004,-6.9189962519999426],[115.33717970800001,-6.9189963349999744],[115.33717962600008,-6.9189873149999812],[115.33717060000004,-6.9189873969999667],[115.33717051700012,-6.9189783769999735],[115.33716149100007,-6.9189784599999484],[115.33716140900003,-6.9189694399999553],[115.3371523830001,-6.9189695219999408],[115.33715230000007,-6.9189605019999476],[115.33714327400003,-6.9189605849999793],[115.33714319100011,-6.9189515649999294],[115.33713416500007,-6.9189516469999717],[115.33713408300002,-6.9189426269999785],[115.33712505700009,-6.9189427099999534],[115.33712497400006,-6.9189336899999603],[115.33711594800002,-6.9189337719999457],[115.33711586600009,-6.9189247519999526],[115.33709781300001,-6.9189249169999698],[115.33709773100009,-6.9189158969999767],[115.33708870500004,-6.9189159799999516],[115.33708854000008,-6.9188979399999653],[115.33707951400004,-6.9188980219999507],[115.33707943100001,-6.9188890019999576],[115.33707040500008,-6.9188890849999325],[115.33706966300008,-6.9188079049999374],[115.33706063700004,-6.9188079879999691],[115.33706005900001,-6.9187448479999603],[115.33705103300008,-6.9187449309999351],[115.33704987900001,-6.9186186519999637],[115.33704085300008,-6.9186187339999492],[115.33704044000001,-6.9185736349999729],[115.33703141400008,-6.9185737169999584],[115.33703116700008,-6.9185466569999789],[115.33704019300001,-6.9185465749999366],[115.33704011100008,-6.9185375549999435],[115.33703108400005,-6.918537636999929],[115.33703100200012,-6.9185286169999358],[115.33702197600007,-6.9185286999999676],[115.33702189300004,-6.9185196799999744],[115.33701286700011,-6.9185197619999599],[115.33701285500001,-6.9185184709999703]]]},"properties":{"OBJECTID":38224,"FID_mangrove_utm":38056,"OBJECTID_1":38056,"Name":"18102566,9293","FolderPath":"JATIM/JATIM","SymbolID":0,"AltMode":0,"Base":0,"Clamped":-1,"Extruded":0,"Snippet":"","PopupInfo":"\u003chtml xmlns:fo=\"http://www.w3.org/1999/XSL/Format\" xmlns:msxsl=\"urn:schemas-microsoft-com:xslt\"\u003e\n\u003chead\u003e\n\u003cMETA http-equiv=\"Content-Type\" content=\"text/html\"\u003e\n\u003cmeta http-equiv=\"content-type\" content=\"text/html; charset=UTF-8\"\u003e\n\u003c/head\u003e\n\u003cbody style=\"margin:0px 0px 0px 0px;overflow:auto;background:#FFFFFF;\"\u003e\n\u003ctable style=\"font-family:Arial,Verdana,Times;font-size:12px;text-align:left;width:100%;border-collapse:collapse;padding:3px 3px 3px 3px\"\u003e\n\u003ctr style=\"text-align:center;font-weight:bold;background:#9CBCE2\"\u003e\n\u003ctd\u003e18102566,9293\u003c/td\u003e\n\u003c/tr\u003e\n\u003ctr\u003e\n\u003ctd\u003e\n\u003ctable style=\"font-family:Arial,Verdana,Times;font-size:12px;text-align:left;width:100%;border-spacing:0px; padding:3px 3px 3px 3px\"\u003e\n\u003ctr\u003e\n\u003ctd\u003eFID\u003c/td\u003e\n\u003ctd\u003e0\u003c/td\u003e\n\u003c/tr\u003e\n\u003ctr bgcolor=\"#D4E4F3\"\u003e\n\u003ctd\u003eShape_Leng\u003c/td\u003e\n\u003ctd\u003e18102566,9293\u003c/td\u003e\n\u003c/tr\u003e\n\u003c/table\u003e\n\u003c/td\u003e\n\u003c/tr\u003e\n\u003c/table\u003e\n\u003c/body\u003e\u003cscript type=\"text/javascript\"\u003e\n\t\t\t\tfunction changeImage(attElement, nameElement) {\n\t\t\t\tdocument.getElementById('imageAttachment').src = attElement;\n\t\t\t\tdocument.getElementById('imageName').innerHTML = nameElement;}\n\t\t\t\u003c/script\u003e\u003c/html\u003e\n","FID_active_grids":232,"GridID":"I50","Shape_Length":0.0037288081704054737,"Shape_Area":1.5977858753392076e-07}},{"type":"Feature","id":38233,"geometry":{"type":"Polygon","coordinates":[[[115.338085492,-6.918347596999979],[115.33810354400009,-6.9183474319999618],[115.33810346200005,-6.9183384119999687],[115.33812151400002,-6.9183382469999515],[115.3381214310001,-6.9183292269999583],[115.33813045700003,-6.9183291449999729],[115.33813037500011,-6.9183201249999797],[115.33814842700008,-6.9183199599999625],[115.33814834500004,-6.9183109399999694],[115.33816639700001,-6.9183107749999522],[115.33816631400009,-6.918301754999959],[115.33817534100001,-6.9183016729999736],[115.33817525800009,-6.9182926529999804],[115.33818428400002,-6.9182925699999487],[115.33818420200009,-6.918283550999945],[115.33819322800002,-6.9182834679999701],[115.3381931450001,-6.9182744479999769],[115.33821119800007,-6.9182742829999597],[115.33821112700002,-6.9182665259999681],[115.33782643300003,-6.9183386659999542],[115.33752748200004,-6.9183740709999597],[115.33726978200002,-6.9183323089999362],[115.33720944700008,-6.9183117439999364],[115.33719003900001,-6.9183287109999583],[115.33719165800005,-6.9183286959999464],[115.33719174100008,-6.9183377159999395],[115.33720076700001,-6.9183376329999646],[115.33720084900006,-6.9183466529999578],[115.3372098750001,-6.9183465709999723],[115.33720995800002,-6.9183555909999654],[115.3372280100001,-6.9183554259999482],[115.33722817500006,-6.9183734659999345],[115.33723720100011,-6.9183733829999596],[115.33723736600007,-6.9183914229999459],[115.33725541800004,-6.9183912579999287],[115.33725550100007,-6.9184002779999787],[115.33726452700012,-6.9184001959999364],[115.33726460900004,-6.9184092159999295],[115.33728266200001,-6.9184090509999692],[115.33728282700008,-6.9184270909999555],[115.33729185300001,-6.91842700899997],[115.33729193500005,-6.9184360279999737],[115.33730998700003,-6.9184358639999459],[115.33731007000006,-6.9184448839999391],[115.33732812200003,-6.9184447189999787],[115.33732820500006,-6.9184537389999718],[115.3373823610001,-6.9184532439999771],[115.33738244400001,-6.9184622639999702],[115.33743660100004,-6.9184617699999649],[115.33743668300008,-6.918470789999958],[115.33744570900001,-6.9184707069999263],[115.33744579200004,-6.9184797269999763],[115.33745481800008,-6.918479644999934],[115.33745490000001,-6.9184886649999271],[115.33747295300009,-6.9184884999999667],[115.33747303500002,-6.9184975199999599],[115.3374910870001,-6.9184973549999427],[115.33749117000002,-6.9185063749999358],[115.33750019600006,-6.9185062919999609],[115.33750027800011,-6.9185153119999541],[115.33751833100007,-6.9185151469999369],[115.33751841300011,-6.91852416699993],[115.33755451800005,-6.9185238379999419],[115.33755443500002,-6.9185148179999487],[115.33759054000006,-6.9185144879999712],[115.33759045700003,-6.918505467999978],[115.33759948300008,-6.9185053859999357],[115.33759940100003,-6.9184963659999426],[115.33767161000003,-6.9184957069999768],[115.3376717750001,-6.9185137459999737],[115.33769885300001,-6.918513498999971],[115.33769877100008,-6.9185044789999779],[115.33770779700001,-6.9185043969999356],[115.33770771400009,-6.9184953769999424],[115.33774381900002,-6.9184950469999649],[115.33774373600011,-6.9184860269999717],[115.33776178900007,-6.9184858619999545],[115.33776170600004,-6.9184768429999508],[115.33781586300006,-6.918476347999956],[115.33781578000003,-6.9184673279999629],[115.33784285900003,-6.9184670809999602],[115.33784277600012,-6.9184580609999671],[115.33785180200005,-6.9184579779999353],[115.33785172000012,-6.9184489589999316],[115.33787879800002,-6.9184487109999395],[115.33787871600009,-6.9184396909999464],[115.33789676800006,-6.9184395269999754],[115.33789668600002,-6.9184305069999255],[115.33792376400004,-6.9184302589999334],[115.33792368100001,-6.9184212389999402],[115.33794173400008,-6.9184210749999693],[115.33794165100005,-6.9184120549999761],[115.33798678200003,-6.9184116429999563],[115.33798669900011,-6.9184026229999631],[115.33799572500004,-6.9184025399999314],[115.33799564300011,-6.9183935199999382],[115.33801369500009,-6.9183933559999673],[115.33801361300004,-6.9183843359999742],[115.33804069100006,-6.9183840879999252],[115.3380405260001,-6.9183660489999284],[115.33807663100004,-6.9183657189999508],[115.33807654800012,-6.9183566989999576],[115.33808557400005,-6.9183566169999722],[115.338085492,-6.918347596999979]]]},"properties":{"OBJECTID":38233,"FID_mangrove_utm":38065,"OBJECTID_1":38065,"Name":"18102566,9293","FolderPath":"JATIM/JATIM","SymbolID":0,"AltMode":0,"Base":0,"Clamped":-1,"Extruded":0,"Snippet":"","PopupInfo":"\u003chtml xmlns:fo=\"http://www.w3.org/1999/XSL/Format\" xmlns:msxsl=\"urn:schemas-microsoft-com:xslt\"\u003e\n\u003chead\u003e\n\u003cMETA http-equiv=\"Content-Type\" content=\"text/html\"\u003e\n\u003cmeta http-equiv=\"content-type\" content=\"text/html; charset=UTF-8\"\u003e\n\u003c/head\u003e\n\u003cbody style=\"margin:0px 0px 0px 0px;overflow:auto;background:#FFFFFF;\"\u003e\n\u003ctable style=\"font-family:Arial,Verdana,Times;font-size:12px;text-align:left;width:100%;border-collapse:collapse;padding:3px 3px 3px 3px\"\u003e\n\u003ctr style=\"text-align:center;font-weight:bold;background:#9CBCE2\"\u003e\n\u003ctd\u003e18102566,9293\u003c/td\u003e\n\u003c/tr\u003e\n\u003ctr\u003e\n\u003ctd\u003e\n\u003ctable style=\"font-family:Arial,Verdana,Times;font-size:12px;text-align:left;width:100%;border-spacing:0px; padding:3px 3px 3px 3px\"\u003e\n\u003ctr\u003e\n\u003ctd\u003eFID\u003c/td\u003e\n\u003ctd\u003e0\u003c/td\u003e\n\u003c/tr\u003e\n\u003ctr bgcolor=\"#D4E4F3\"\u003e\n\u003ctd\u003eShape_Leng\u003c/td\u003e\n\u003ctd\u003e18102566,9293\u003c/td\u003e\n\u003c/tr\u003e\n\u003c/table\u003e\n\u003c/td\u003e\n\u003c/tr\u003e\n\u003c/table\u003e\n\u003c/body\u003e\u003cscript type=\"text/javascript\"\u003e\n\t\t\t\tfunction changeImage(attElement, nameElement) {\n\t\t\t\tdocument.getElementById('imageAttachment').src = attElement;\n\t\t\t\tdocument.getElementById('imageName').innerHTML = nameElement;}\n\t\t\t\u003c/script\u003e\u003c/html\u003e\n","FID_active_grids":232,"GridID":"I50","Shape_Length":0.0025504710830031381,"Shape_Area":1.0511797280900102e-07}},{"type":"Feature","id":38235,"geometry":{"type":"Polygon","coordinates":[[[115.33822014100008,-6.9182651809999811],[115.33822013800011,-6.9182648359999348],[115.33821820300011,-6.9182651989999613],[115.33822014100008,-6.9182651809999811]]]},"properties":{"OBJECTID":38235,"FID_mangrove_utm":38067,"OBJECTID_1":38067,"Name":"18102566,9293","FolderPath":"JATIM/JATIM","SymbolID":0,"AltMode":0,"Base":0,"Clamped":-1,"Extruded":0,"Snippet":"","PopupInfo":"\u003chtml xmlns:fo=\"http://www.w3.org/1999/XSL/Format\" xmlns:msxsl=\"urn:schemas-microsoft-com:xslt\"\u003e\n\u003chead\u003e\n\u003cMETA http-equiv=\"Content-Type\" content=\"text/html\"\u003e\n\u003cmeta http-equiv=\"content-type\" content=\"text/html; charset=UTF-8\"\u003e\n\u003c/head\u003e\n\u003cbody style=\"margin:0px 0px 0px 0px;overflow:auto;background:#FFFFFF;\"\u003e\n\u003ctable style=\"font-family:Arial,Verdana,Times;font-size:12px;text-align:left;width:100%;border-collapse:collapse;padding:3px 3px 3px 3px\"\u003e\n\u003ctr style=\"text-align:center;font-weight:bold;background:#9CBCE2\"\u003e\n\u003ctd\u003e18102566,9293\u003c/td\u003e\n\u003c/tr\u003e\n\u003ctr\u003e\n\u003ctd\u003e\n\u003ctable style=\"font-family:Arial,Verdana,Times;font-size:12px;text-align:left;width:100%;border-spacing:0px; padding:3px 3px 3px 3px\"\u003e\n\u003ctr\u003e\n\u003ctd\u003eFID\u003c/td\u003e\n\u003ctd\u003e0\u003c/td\u003e\n\u003c/tr\u003e\n\u003ctr bgcolor=\"#D4E4F3\"\u003e\n\u003ctd\u003eShape_Leng\u003c/td\u003e\n\u003ctd\u003e18102566,9293\u003c/td\u003e\n\u003c/tr\u003e\n\u003c/table\u003e\n\u003c/td\u003e\n\u003c/tr\u003e\n\u003c/table\u003e\n\u003c/body\u003e\u003cscript type=\"text/javascript\"\u003e\n\t\t\t\tfunction changeImage(attElement, nameElement) {\n\t\t\t\tdocument.getElementById('imageAttachment').src = attElement;\n\t\t\t\tdocument.getElementById('imageName').innerHTML = nameElement;}\n\t\t\t\u003c/script\u003e\u003c/html\u003e\n","FID_active_grids":232,"GridID":"I50","Shape_Length":4.2518510807889505e-06,"Shape_Area":3.3433203912513264e-13}}]}