{"type":"FeatureCollection","features":[{"type":"Feature","id":2740,"geometry":{"type":"Polygon","coordinates":[[[113.04207456400002,-8.3005755599999702],[113.04207451800005,-8.3005665209999506],[113.0420563670001,-8.3005666139999335],[113.04205641300007,-8.300575652999953],[113.04207456400002,-8.3005755599999702]]]},"properties":{"OBJECTID":2740,"FID_mangrove_utm":2724,"OBJECTID_1":2724,"Name":"18102566,9293","FolderPath":"JATIM/JATIM","SymbolID":0,"AltMode":0,"Base":0,"Clamped":-1,"Extruded":0,"Snippet":"","PopupInfo":"\u003chtml xmlns:fo=\"http://www.w3.org/1999/XSL/Format\" xmlns:msxsl=\"urn:schemas-microsoft-com:xslt\"\u003e\n\u003chead\u003e\n\u003cMETA http-equiv=\"Content-Type\" content=\"text/html\"\u003e\n\u003cmeta http-equiv=\"content-type\" content=\"text/html; charset=UTF-8\"\u003e\n\u003c/head\u003e\n\u003cbody style=\"margin:0px 0px 0px 0px;overflow:auto;background:#FFFFFF;\"\u003e\n\u003ctable style=\"font-family:Arial,Verdana,Times;font-size:12px;text-align:left;width:100%;border-collapse:collapse;padding:3px 3px 3px 3px\"\u003e\n\u003ctr style=\"text-align:center;font-weight:bold;background:#9CBCE2\"\u003e\n\u003ctd\u003e18102566,9293\u003c/td\u003e\n\u003c/tr\u003e\n\u003ctr\u003e\n\u003ctd\u003e\n\u003ctable style=\"font-family:Arial,Verdana,Times;font-size:12px;text-align:left;width:100%;border-spacing:0px; padding:3px 3px 3px 3px\"\u003e\n\u003ctr\u003e\n\u003ctd\u003eFID\u003c/td\u003e\n\u003ctd\u003e0\u003c/td\u003e\n\u003c/tr\u003e\n\u003ctr bgcolor=\"#D4E4F3\"\u003e\n\u003ctd\u003eShape_Leng\u003c/td\u003e\n\u003ctd\u003e18102566,9293\u003c/td\u003e\n\u003c/tr\u003e\n\u003c/table\u003e\n\u003c/td\u003e\n\u003c/tr\u003e\n\u003c/table\u003e\n\u003c/body\u003e\u003cscript type=\"text/javascript\"\u003e\n\t\t\t\tfunction changeImage(attElement, nameElement) {\n\t\t\t\tdocument.getElementById('imageAttachment').src = attElement;\n\t\t\t\tdocument.getElementById('imageName').innerHTML = nameElement;}\n\t\t\t\u003c/script\u003e\u003c/html\u003e\n","FID_active_grids":18,"GridID":"AE09","Shape_Length":5.4380710531960204e-05,"Shape_Area":1.6407116689331093e-10}},{"type":"Feature","id":2741,"geometry":{"type":"Polygon","coordinates":[[[113.04226426100001,-8.3004028299999391],[113.04226421400006,-8.30039378999993],[113.04225513900008,-8.3003938369999446],[113.04225518600003,-8.3004028769999536],[113.04226426100001,-8.3004028299999391]]]},"properties":{"OBJECTID":2741,"FID_mangrove_utm":2725,"OBJECTID_1":2725,"Name":"18102566,9293","FolderPath":"JATIM/JATIM","SymbolID":0,"AltMode":0,"Base":0,"Clamped":-1,"Extruded":0,"Snippet":"","PopupInfo":"\u003chtml xmlns:fo=\"http://www.w3.org/1999/XSL/Format\" xmlns:msxsl=\"urn:schemas-microsoft-com:xslt\"\u003e\n\u003chead\u003e\n\u003cMETA http-equiv=\"Content-Type\" content=\"text/html\"\u003e\n\u003cmeta http-equiv=\"content-type\" content=\"text/html; charset=UTF-8\"\u003e\n\u003c/head\u003e\n\u003cbody style=\"margin:0px 0px 0px 0px;overflow:auto;background:#FFFFFF;\"\u003e\n\u003ctable style=\"font-family:Arial,Verdana,Times;font-size:12px;text-align:left;width:100%;border-collapse:collapse;padding:3px 3px 3px 3px\"\u003e\n\u003ctr style=\"text-align:center;font-weight:bold;background:#9CBCE2\"\u003e\n\u003ctd\u003e18102566,9293\u003c/td\u003e\n\u003c/tr\u003e\n\u003ctr\u003e\n\u003ctd\u003e\n\u003ctable style=\"font-family:Arial,Verdana,Times;font-size:12px;text-align:left;width:100%;border-spacing:0px; padding:3px 3px 3px 3px\"\u003e\n\u003ctr\u003e\n\u003ctd\u003eFID\u003c/td\u003e\n\u003ctd\u003e0\u003c/td\u003e\n\u003c/tr\u003e\n\u003ctr bgcolor=\"#D4E4F3\"\u003e\n\u003ctd\u003eShape_Leng\u003c/td\u003e\n\u003ctd\u003e18102566,9293\u003c/td\u003e\n\u003c/tr\u003e\n\u003c/table\u003e\n\u003c/td\u003e\n\u003c/tr\u003e\n\u003c/table\u003e\n\u003c/body\u003e\u003cscript type=\"text/javascript\"\u003e\n\t\t\t\tfunction changeImage(attElement, nameElement) {\n\t\t\t\tdocument.getElementById('imageAttachment').src = attElement;\n\t\t\t\tdocument.getElementById('imageName').innerHTML = nameElement;}\n\t\t\t\u003c/script\u003e\u003c/html\u003e\n","FID_active_grids":18,"GridID":"AE09","Shape_Length":3.6230487748689701e-05,"Shape_Area":8.2040208899015173e-11}},{"type":"Feature","id":2742,"geometry":{"type":"Polygon","coordinates":[[[113.04225490500005,-8.3003486389999352],[113.04222767900001,-8.3003487779999432],[113.04222772600008,-8.3003578179999522],[113.04224587600004,-8.3003577249999694],[113.04224601700002,-8.3003848439999501],[113.042255092,-8.3003847969999356],[113.04225504500005,-8.3003757579999728],[113.04226412100002,-8.3003757109999583],[113.04226407400006,-8.3003666709999493],[113.04225499900008,-8.3003667179999638],[113.04225490500005,-8.3003486389999352]]]},"properties":{"OBJECTID":2742,"FID_mangrove_utm":2726,"OBJECTID_1":2726,"Name":"18102566,9293","FolderPath":"JATIM/JATIM","SymbolID":0,"AltMode":0,"Base":0,"Clamped":-1,"Extruded":0,"Snippet":"","PopupInfo":"\u003chtml xmlns:fo=\"http://www.w3.org/1999/XSL/Format\" xmlns:msxsl=\"urn:schemas-microsoft-com:xslt\"\u003e\n\u003chead\u003e\n\u003cMETA http-equiv=\"Content-Type\" content=\"text/html\"\u003e\n\u003cmeta http-equiv=\"content-type\" content=\"text/html; charset=UTF-8\"\u003e\n\u003c/head\u003e\n\u003cbody style=\"margin:0px 0px 0px 0px;overflow:auto;background:#FFFFFF;\"\u003e\n\u003ctable style=\"font-family:Arial,Verdana,Times;font-size:12px;text-align:left;width:100%;border-collapse:collapse;padding:3px 3px 3px 3px\"\u003e\n\u003ctr style=\"text-align:center;font-weight:bold;background:#9CBCE2\"\u003e\n\u003ctd\u003e18102566,9293\u003c/td\u003e\n\u003c/tr\u003e\n\u003ctr\u003e\n\u003ctd\u003e\n\u003ctable style=\"font-family:Arial,Verdana,Times;font-size:12px;text-align:left;width:100%;border-spacing:0px; padding:3px 3px 3px 3px\"\u003e\n\u003ctr\u003e\n\u003ctd\u003eFID\u003c/td\u003e\n\u003ctd\u003e0\u003c/td\u003e\n\u003c/tr\u003e\n\u003ctr bgcolor=\"#D4E4F3\"\u003e\n\u003ctd\u003eShape_Leng\u003c/td\u003e\n\u003ctd\u003e18102566,9293\u003c/td\u003e\n\u003c/tr\u003e\n\u003c/table\u003e\n\u003c/td\u003e\n\u003c/tr\u003e\n\u003c/table\u003e\n\u003c/body\u003e\u003cscript type=\"text/javascript\"\u003e\n\t\t\t\tfunction changeImage(attElement, nameElement) {\n\t\t\t\tdocument.getElementById('imageAttachment').src = attElement;\n\t\t\t\tdocument.getElementById('imageName').innerHTML = nameElement;}\n\t\t\t\u003c/script\u003e\u003c/html\u003e\n","FID_active_grids":18,"GridID":"AE09","Shape_Length":0.00014492093558481314,"Shape_Area":5.7429019900624201e-10}},{"type":"Feature","id":2743,"geometry":{"type":"Polygon","coordinates":[[[113.04231787300012,-8.3002398369999355],[113.0423269480001,-8.3002397909999672],[113.04232690100002,-8.3002307509999582],[113.04230875000007,-8.300230843999941],[113.0423088440001,-8.3002489229999696],[113.04231791900008,-8.3002488769999445],[113.04231787300012,-8.3002398369999355]]]},"properties":{"OBJECTID":2743,"FID_mangrove_utm":2727,"OBJECTID_1":2727,"Name":"18102566,9293","FolderPath":"JATIM/JATIM","SymbolID":0,"AltMode":0,"Base":0,"Clamped":-1,"Extruded":0,"Snippet":"","PopupInfo":"\u003chtml xmlns:fo=\"http://www.w3.org/1999/XSL/Format\" xmlns:msxsl=\"urn:schemas-microsoft-com:xslt\"\u003e\n\u003chead\u003e\n\u003cMETA http-equiv=\"Content-Type\" content=\"text/html\"\u003e\n\u003cmeta http-equiv=\"content-type\" content=\"text/html; charset=UTF-8\"\u003e\n\u003c/head\u003e\n\u003cbody style=\"margin:0px 0px 0px 0px;overflow:auto;background:#FFFFFF;\"\u003e\n\u003ctable style=\"font-family:Arial,Verdana,Times;font-size:12px;text-align:left;width:100%;border-collapse:collapse;padding:3px 3px 3px 3px\"\u003e\n\u003ctr style=\"text-align:center;font-weight:bold;background:#9CBCE2\"\u003e\n\u003ctd\u003e18102566,9293\u003c/td\u003e\n\u003c/tr\u003e\n\u003ctr\u003e\n\u003ctd\u003e\n\u003ctable style=\"font-family:Arial,Verdana,Times;font-size:12px;text-align:left;width:100%;border-spacing:0px; padding:3px 3px 3px 3px\"\u003e\n\u003ctr\u003e\n\u003ctd\u003eFID\u003c/td\u003e\n\u003ctd\u003e0\u003c/td\u003e\n\u003c/tr\u003e\n\u003ctr bgcolor=\"#D4E4F3\"\u003e\n\u003ctd\u003eShape_Leng\u003c/td\u003e\n\u003ctd\u003e18102566,9293\u003c/td\u003e\n\u003c/tr\u003e\n\u003c/table\u003e\n\u003c/td\u003e\n\u003c/tr\u003e\n\u003c/table\u003e\n\u003c/body\u003e\u003cscript type=\"text/javascript\"\u003e\n\t\t\t\tfunction changeImage(attElement, nameElement) {\n\t\t\t\tdocument.getElementById('imageAttachment').src = attElement;\n\t\t\t\tdocument.getElementById('imageName').innerHTML = nameElement;}\n\t\t\t\u003c/script\u003e\u003c/html\u003e\n","FID_active_grids":18,"GridID":"AE09","Shape_Length":7.2460954955603141e-05,"Shape_Area":2.4612501741449118e-10}},{"type":"Feature","id":2744,"geometry":{"type":"Polygon","coordinates":[[[113.0422721220001,-8.3001677529999256],[113.04227207500003,-8.3001587129999734],[113.04226300000005,-8.3001587599999311],[113.04226304600002,-8.3001677989999507],[113.0422721220001,-8.3001677529999256]]]},"properties":{"OBJECTID":2744,"FID_mangrove_utm":2728,"OBJECTID_1":2728,"Name":"18102566,9293","FolderPath":"JATIM/JATIM","SymbolID":0,"AltMode":0,"Base":0,"Clamped":-1,"Extruded":0,"Snippet":"","PopupInfo":"\u003chtml xmlns:fo=\"http://www.w3.org/1999/XSL/Format\" xmlns:msxsl=\"urn:schemas-microsoft-com:xslt\"\u003e\n\u003chead\u003e\n\u003cMETA http-equiv=\"Content-Type\" content=\"text/html\"\u003e\n\u003cmeta http-equiv=\"content-type\" content=\"text/html; charset=UTF-8\"\u003e\n\u003c/head\u003e\n\u003cbody style=\"margin:0px 0px 0px 0px;overflow:auto;background:#FFFFFF;\"\u003e\n\u003ctable style=\"font-family:Arial,Verdana,Times;font-size:12px;text-align:left;width:100%;border-collapse:collapse;padding:3px 3px 3px 3px\"\u003e\n\u003ctr style=\"text-align:center;font-weight:bold;background:#9CBCE2\"\u003e\n\u003ctd\u003e18102566,9293\u003c/td\u003e\n\u003c/tr\u003e\n\u003ctr\u003e\n\u003ctd\u003e\n\u003ctable style=\"font-family:Arial,Verdana,Times;font-size:12px;text-align:left;width:100%;border-spacing:0px; padding:3px 3px 3px 3px\"\u003e\n\u003ctr\u003e\n\u003ctd\u003eFID\u003c/td\u003e\n\u003ctd\u003e0\u003c/td\u003e\n\u003c/tr\u003e\n\u003ctr bgcolor=\"#D4E4F3\"\u003e\n\u003ctd\u003eShape_Leng\u003c/td\u003e\n\u003ctd\u003e18102566,9293\u003c/td\u003e\n\u003c/tr\u003e\n\u003c/table\u003e\n\u003c/td\u003e\n\u003c/tr\u003e\n\u003c/table\u003e\n\u003c/body\u003e\u003cscript type=\"text/javascript\"\u003e\n\t\t\t\tfunction changeImage(attElement, nameElement) {\n\t\t\t\tdocument.getElementById('imageAttachment').src = attElement;\n\t\t\t\tdocument.getElementById('imageName').innerHTML = nameElement;}\n\t\t\t\u003c/script\u003e\u003c/html\u003e\n","FID_active_grids":18,"GridID":"AE09","Shape_Length":3.6230477538405138e-05,"Shape_Area":8.2040144656942165e-11}},{"type":"Feature","id":2745,"geometry":{"type":"Polygon","coordinates":[[[113.04217210500008,-8.3001321059999782],[113.04217205800001,-8.3001230669999586],[113.04216298300003,-8.3001231129999269],[113.0421630300001,-8.3001321529999359],[113.04217210500008,-8.3001321059999782]]]},"properties":{"OBJECTID":2745,"FID_mangrove_utm":2729,"OBJECTID_1":2729,"Name":"18102566,9293","FolderPath":"JATIM/JATIM","SymbolID":0,"AltMode":0,"Base":0,"Clamped":-1,"Extruded":0,"Snippet":"","PopupInfo":"\u003chtml xmlns:fo=\"http://www.w3.org/1999/XSL/Format\" xmlns:msxsl=\"urn:schemas-microsoft-com:xslt\"\u003e\n\u003chead\u003e\n\u003cMETA http-equiv=\"Content-Type\" content=\"text/html\"\u003e\n\u003cmeta http-equiv=\"content-type\" content=\"text/html; charset=UTF-8\"\u003e\n\u003c/head\u003e\n\u003cbody style=\"margin:0px 0px 0px 0px;overflow:auto;background:#FFFFFF;\"\u003e\n\u003ctable style=\"font-family:Arial,Verdana,Times;font-size:12px;text-align:left;width:100%;border-collapse:collapse;padding:3px 3px 3px 3px\"\u003e\n\u003ctr style=\"text-align:center;font-weight:bold;background:#9CBCE2\"\u003e\n\u003ctd\u003e18102566,9293\u003c/td\u003e\n\u003c/tr\u003e\n\u003ctr\u003e\n\u003ctd\u003e\n\u003ctable style=\"font-family:Arial,Verdana,Times;font-size:12px;text-align:left;width:100%;border-spacing:0px; padding:3px 3px 3px 3px\"\u003e\n\u003ctr\u003e\n\u003ctd\u003eFID\u003c/td\u003e\n\u003ctd\u003e0\u003c/td\u003e\n\u003c/tr\u003e\n\u003ctr bgcolor=\"#D4E4F3\"\u003e\n\u003ctd\u003eShape_Leng\u003c/td\u003e\n\u003ctd\u003e18102566,9293\u003c/td\u003e\n\u003c/tr\u003e\n\u003c/table\u003e\n\u003c/td\u003e\n\u003c/tr\u003e\n\u003c/table\u003e\n\u003c/body\u003e\u003cscript type=\"text/javascript\"\u003e\n\t\t\t\tfunction changeImage(attElement, nameElement) {\n\t\t\t\tdocument.getElementById('imageAttachment').src = attElement;\n\t\t\t\tdocument.getElementById('imageName').innerHTML = nameElement;}\n\t\t\t\u003c/script\u003e\u003c/html\u003e\n","FID_active_grids":18,"GridID":"AE09","Shape_Length":3.6229482649533548e-05,"Shape_Area":8.2035647949895554e-11}},{"type":"Feature","id":2746,"geometry":{"type":"Polygon","coordinates":[[[113.04227221500003,-8.3001858319999542],[113.04227216800007,-8.3001767929999346],[113.04225401800011,-8.3001768859999743],[113.04225383100004,-8.3001407269999277],[113.04224475500007,-8.3001407739999422],[113.0422447090001,-8.3001317339999332],[113.04223563300002,-8.3001317799999583],[113.04223558600006,-8.3001227409999387],[113.04222651100008,-8.3001227869999639],[113.04222669800004,-8.3001589459999536],[113.04221762200007,-8.3001589919999788],[113.0422177160001,-8.3001770719999399],[113.04220864000001,-8.300177117999965],[113.04220854700009,-8.3001590389999365],[113.04221762200007,-8.3001589919999788],[113.0422175760001,-8.3001499529999592],[113.04220850000002,-8.3001499989999274],[113.04220845300006,-8.3001409599999647],[113.04218122700001,-8.3001410989999727],[113.04218132100004,-8.3001591789999338],[113.04219947100012,-8.300159085999951],[113.0421996120001,-8.3001862039999423],[113.04218146100004,-8.3001862969999252],[113.04218155400008,-8.3002043769999432],[113.0421724790001,-8.3002044229999683],[113.0421727590001,-8.3002586609999298],[113.04218183400008,-8.3002586149999615],[113.04218188100003,-8.3002676539999811],[113.04220910800007,-8.3002675149999732],[113.04220906100011,-8.3002584749999642],[113.04222721200006,-8.3002583819999813],[113.04222711800003,-8.3002403029999527],[113.04221804300005,-8.3002403489999779],[113.04221794900002,-8.3002222699999493],[113.04223610000008,-8.3002221769999665],[113.04223605400011,-8.3002131369999574],[113.04224512900009,-8.3002130909999323],[113.04224517600005,-8.3002221299999519],[113.04223610000008,-8.3002221769999665],[113.04223614700004,-8.3002312159999292],[113.0422542980001,-8.3002311229999464],[113.04225434500006,-8.3002401629999554],[113.04226342000004,-8.3002401169999303],[113.04226337300008,-8.3002310769999781],[113.04228152400003,-8.3002309839999384],[113.0422815710001,-8.300240022999958],[113.04227249500002,-8.3002400699999725],[113.04227258900005,-8.3002581489999443],[113.04226351300008,-8.3002581959999588],[113.04226356000004,-8.3002672349999784],[113.04225448500006,-8.3002672819999361],[113.04225453100003,-8.3002763219999451],[113.04224545600005,-8.3002763679999703],[113.04224540900009,-8.3002673289999507],[113.04225448500006,-8.3002672819999361],[113.0422544380001,-8.3002582419999271],[113.04224536300001,-8.3002582889999417],[113.04224526900009,-8.3002402099999699],[113.04223619400011,-8.3002402559999382],[113.04223628700004,-8.3002583349999668],[113.04222721200006,-8.3002583819999813],[113.0422273050001,-8.3002764609999531],[113.04220915400003,-8.3002765539999359],[113.04220943500002,-8.3003307919999543],[113.04221851000011,-8.3003307459999291],[113.04221855700007,-8.3003397849999487],[113.04223670800002,-8.3003396919999659],[113.04223666100006,-8.3003306529999463],[113.04227296300007,-8.3003304659999344],[113.04227291600012,-8.3003214269999717],[113.0422819910001,-8.3003213799999571],[113.04228194500001,-8.3003123409999375],[113.04227286900004,-8.3003123869999627],[113.04227282200009,-8.3003033469999536],[113.04228189800006,-8.3003033009999285],[113.0422818510001,-8.3002942609999764],[113.04230907800002,-8.3002941219999684],[113.0423089840001,-8.3002760419999504],[113.04229990900001,-8.3002760889999649],[113.04229995500009,-8.3002851289999739],[113.04229088000011,-8.3002851749999422],[113.04229078600008,-8.3002670959999705],[113.04229986200005,-8.3002670489999559],[113.04229962800002,-8.3002218509999466],[113.04231777900009,-8.3002217579999638],[113.04231773200001,-8.3002127179999547],[113.0423268080001,-8.3002126719999296],[113.0423266680001,-8.3001855529999489],[113.04234481900005,-8.300185459999966],[113.04234486500002,-8.3001944999999751],[113.04233579000004,-8.3001945459999433],[113.04233583700011,-8.3002035859999523],[113.04234491200009,-8.3002035389999378],[113.04234500600001,-8.3002216179999664],[113.04237223200005,-8.3002214789999584],[113.04237209200005,-8.3001943599999777],[113.04239024300011,-8.300194266999938],[113.04239028900008,-8.3002033059999576],[113.04241751600011,-8.3002031669999496],[113.04241742200009,-8.3001850879999779],[113.04242649800005,-8.3001850409999633],[113.04242640400003,-8.3001669619999348],[113.04240825300008,-8.3001670549999744],[113.04240820500002,-8.300157712999976],[113.04235914600008,-8.3001453159999414],[113.04234820000011,-8.3001402429999303],[113.04234458500002,-8.3001402619999567],[113.04234463200009,-8.3001493009999763],[113.04232648100003,-8.3001493939999591],[113.0423265280001,-8.3001584339999681],[113.04231745200002,-8.3001584809999258],[113.04231759200002,-8.300185598999974],[113.04230851700004,-8.3001856459999317],[113.04230861000008,-8.3002037249999603],[113.04229045900001,-8.3002038179999431],[113.04229036600009,-8.3001857389999714],[113.04227221500003,-8.3001858319999542],[113.0422722620001,-8.3001948719999632],[113.04226318600001,-8.3001949179999315],[113.04226314000005,-8.3001858789999687],[113.04227221500003,-8.3001858319999542]],[[113.04223586700004,-8.3001769789999571],[113.04224494200002,-8.3001769319999426],[113.04224503600005,-8.3001950109999711],[113.04223596000008,-8.3001950579999288],[113.04223600700004,-8.3002040979999379],[113.04222693100007,-8.300204143999963],[113.04222683800003,-8.3001860649999344],[113.04223591300001,-8.3001860179999767],[113.04223586700004,-8.3001769789999571]],[[113.04224559600004,-8.300303486999951],[113.04224550300012,-8.3002854079999793],[113.0422545780001,-8.3002853609999647],[113.04225467200001,-8.3003034409999259],[113.04224559600004,-8.300303486999951]],[[113.0423539410001,-8.3001944529999605],[113.04236301600008,-8.300194405999946],[113.04236311000011,-8.300212485999964],[113.04235403400003,-8.3002125319999323],[113.0423539410001,-8.3001944529999605]]]},"properties":{"OBJECTID":2746,"FID_mangrove_utm":2730,"OBJECTID_1":2730,"Name":"18102566,9293","FolderPath":"JATIM/JATIM","SymbolID":0,"AltMode":0,"Base":0,"Clamped":-1,"Extruded":0,"Snippet":"","PopupInfo":"\u003chtml xmlns:fo=\"http://www.w3.org/1999/XSL/Format\" xmlns:msxsl=\"urn:schemas-microsoft-com:xslt\"\u003e\n\u003chead\u003e\n\u003cMETA http-equiv=\"Content-Type\" content=\"text/html\"\u003e\n\u003cmeta http-equiv=\"content-type\" content=\"text/html; charset=UTF-8\"\u003e\n\u003c/head\u003e\n\u003cbody style=\"margin:0px 0px 0px 0px;overflow:auto;background:#FFFFFF;\"\u003e\n\u003ctable style=\"font-family:Arial,Verdana,Times;font-size:12px;text-align:left;width:100%;border-collapse:collapse;padding:3px 3px 3px 3px\"\u003e\n\u003ctr style=\"text-align:center;font-weight:bold;background:#9CBCE2\"\u003e\n\u003ctd\u003e18102566,9293\u003c/td\u003e\n\u003c/tr\u003e\n\u003ctr\u003e\n\u003ctd\u003e\n\u003ctable style=\"font-family:Arial,Verdana,Times;font-size:12px;text-align:left;width:100%;border-spacing:0px; padding:3px 3px 3px 3px\"\u003e\n\u003ctr\u003e\n\u003ctd\u003eFID\u003c/td\u003e\n\u003ctd\u003e0\u003c/td\u003e\n\u003c/tr\u003e\n\u003ctr bgcolor=\"#D4E4F3\"\u003e\n\u003ctd\u003eShape_Leng\u003c/td\u003e\n\u003ctd\u003e18102566,9293\u003c/td\u003e\n\u003c/tr\u003e\n\u003c/table\u003e\n\u003c/td\u003e\n\u003c/tr\u003e\n\u003c/table\u003e\n\u003c/body\u003e\u003cscript type=\"text/javascript\"\u003e\n\t\t\t\tfunction changeImage(attElement, nameElement) {\n\t\t\t\tdocument.getElementById('imageAttachment').src = attElement;\n\t\t\t\tdocument.getElementById('imageName').innerHTML = nameElement;}\n\t\t\t\u003c/script\u003e\u003c/html\u003e\n","FID_active_grids":18,"GridID":"AE09","Shape_Length":0.001995448153086137,"Shape_Area":2.1151700676871728e-08}},{"type":"Feature","id":2747,"geometry":{"type":"Polygon","coordinates":[[[113.04216284300003,-8.3000959939999461],[113.04216279600007,-8.3000869549999265],[113.04215372100009,-8.3000870009999517],[113.04215376700006,-8.3000960409999607],[113.04216284300003,-8.3000959939999461]]]},"properties":{"OBJECTID":2747,"FID_mangrove_utm":2731,"OBJECTID_1":2731,"Name":"18102566,9293","FolderPath":"JATIM/JATIM","SymbolID":0,"AltMode":0,"Base":0,"Clamped":-1,"Extruded":0,"Snippet":"","PopupInfo":"\u003chtml xmlns:fo=\"http://www.w3.org/1999/XSL/Format\" xmlns:msxsl=\"urn:schemas-microsoft-com:xslt\"\u003e\n\u003chead\u003e\n\u003cMETA http-equiv=\"Content-Type\" content=\"text/html\"\u003e\n\u003cmeta http-equiv=\"content-type\" content=\"text/html; charset=UTF-8\"\u003e\n\u003c/head\u003e\n\u003cbody style=\"margin:0px 0px 0px 0px;overflow:auto;background:#FFFFFF;\"\u003e\n\u003ctable style=\"font-family:Arial,Verdana,Times;font-size:12px;text-align:left;width:100%;border-collapse:collapse;padding:3px 3px 3px 3px\"\u003e\n\u003ctr style=\"text-align:center;font-weight:bold;background:#9CBCE2\"\u003e\n\u003ctd\u003e18102566,9293\u003c/td\u003e\n\u003c/tr\u003e\n\u003ctr\u003e\n\u003ctd\u003e\n\u003ctable style=\"font-family:Arial,Verdana,Times;font-size:12px;text-align:left;width:100%;border-spacing:0px; padding:3px 3px 3px 3px\"\u003e\n\u003ctr\u003e\n\u003ctd\u003eFID\u003c/td\u003e\n\u003ctd\u003e0\u003c/td\u003e\n\u003c/tr\u003e\n\u003ctr bgcolor=\"#D4E4F3\"\u003e\n\u003ctd\u003eShape_Leng\u003c/td\u003e\n\u003ctd\u003e18102566,9293\u003c/td\u003e\n\u003c/tr\u003e\n\u003c/table\u003e\n\u003c/td\u003e\n\u003c/tr\u003e\n\u003c/table\u003e\n\u003c/body\u003e\u003cscript type=\"text/javascript\"\u003e\n\t\t\t\tfunction changeImage(attElement, nameElement) {\n\t\t\t\tdocument.getElementById('imageAttachment').src = attElement;\n\t\t\t\tdocument.getElementById('imageName').innerHTML = nameElement;}\n\t\t\t\u003c/script\u003e\u003c/html\u003e\n","FID_active_grids":18,"GridID":"AE09","Shape_Length":3.6230477481270245e-05,"Shape_Area":8.20401443997257e-11}},{"type":"Feature","id":2748,"geometry":{"type":"Polygon","coordinates":[[[113.04228101000001,-8.3001315479999676],[113.04228110400004,-8.3001496269999393],[113.04229017900002,-8.300149580999971],[113.04229022600009,-8.3001586199999338],[113.04228115000001,-8.3001586669999483],[113.04228119700008,-8.3001677059999679],[113.04229027300005,-8.3001676599999428],[113.04229031900002,-8.3001766989999624],[113.0422993950001,-8.3001766529999372],[113.04229934800003,-8.3001676129999282],[113.04230842300001,-8.3001675669999599],[113.04230819000009,-8.3001223689999506],[113.04230961600001,-8.3001223609999784],[113.04228319000003,-8.3001101139999491],[113.04226036300008,-8.3000954939999474],[113.04225359700001,-8.3000955289999752],[113.04225357400003,-8.3000911469999323],[113.04224636000004,-8.3000865259999728],[113.04224447500007,-8.3000865359999807],[113.04224446900002,-8.300085314999933],[113.04223536300003,-8.3000794829999336],[113.04223544600006,-8.300095621999958],[113.04224452200003,-8.3000955749999434],[113.04224456800011,-8.3001046149999524],[113.04225364400008,-8.3001045679999379],[113.04225373700001,-8.3001226479999559],[113.04226281300009,-8.3001226009999414],[113.04226285900006,-8.3001316409999504],[113.04228101000001,-8.3001315479999676],[113.04228096400004,-8.3001225079999585],[113.04229911400012,-8.3001224149999757],[113.04229916100007,-8.3001314549999279],[113.04228101000001,-8.3001315479999676]]]},"properties":{"OBJECTID":2748,"FID_mangrove_utm":2732,"OBJECTID_1":2732,"Name":"18102566,9293","FolderPath":"JATIM/JATIM","SymbolID":0,"AltMode":0,"Base":0,"Clamped":-1,"Extruded":0,"Snippet":"","PopupInfo":"\u003chtml xmlns:fo=\"http://www.w3.org/1999/XSL/Format\" xmlns:msxsl=\"urn:schemas-microsoft-com:xslt\"\u003e\n\u003chead\u003e\n\u003cMETA http-equiv=\"Content-Type\" content=\"text/html\"\u003e\n\u003cmeta http-equiv=\"content-type\" content=\"text/html; charset=UTF-8\"\u003e\n\u003c/head\u003e\n\u003cbody style=\"margin:0px 0px 0px 0px;overflow:auto;background:#FFFFFF;\"\u003e\n\u003ctable style=\"font-family:Arial,Verdana,Times;font-size:12px;text-align:left;width:100%;border-collapse:collapse;padding:3px 3px 3px 3px\"\u003e\n\u003ctr style=\"text-align:center;font-weight:bold;background:#9CBCE2\"\u003e\n\u003ctd\u003e18102566,9293\u003c/td\u003e\n\u003c/tr\u003e\n\u003ctr\u003e\n\u003ctd\u003e\n\u003ctable style=\"font-family:Arial,Verdana,Times;font-size:12px;text-align:left;width:100%;border-spacing:0px; padding:3px 3px 3px 3px\"\u003e\n\u003ctr\u003e\n\u003ctd\u003eFID\u003c/td\u003e\n\u003ctd\u003e0\u003c/td\u003e\n\u003c/tr\u003e\n\u003ctr bgcolor=\"#D4E4F3\"\u003e\n\u003ctd\u003eShape_Leng\u003c/td\u003e\n\u003ctd\u003e18102566,9293\u003c/td\u003e\n\u003c/tr\u003e\n\u003c/table\u003e\n\u003c/td\u003e\n\u003c/tr\u003e\n\u003c/table\u003e\n\u003c/body\u003e\u003cscript type=\"text/javascript\"\u003e\n\t\t\t\tfunction changeImage(attElement, nameElement) {\n\t\t\t\tdocument.getElementById('imageAttachment').src = attElement;\n\t\t\t\tdocument.getElementById('imageName').innerHTML = nameElement;}\n\t\t\t\u003c/script\u003e\u003c/html\u003e\n","FID_active_grids":18,"GridID":"AE09","Shape_Length":0.00038816920777836705,"Shape_Area":2.2938027988668777e-09}},{"type":"Feature","id":2749,"geometry":{"type":"Polygon","coordinates":[[[113.04220812600011,-8.3000776819999373],[113.04221720200007,-8.3000776359999691],[113.04221715500012,-8.3000685959999601],[113.04221835400006,-8.3000685899999667],[113.04218072800006,-8.3000444919999268],[113.04218076000006,-8.300050702999954],[113.04217168500008,-8.3000507489999791],[113.04217177800001,-8.3000688289999403],[113.04216270300003,-8.3000688749999654],[113.04216274900011,-8.3000779149999744],[113.04217182500008,-8.3000778679999598],[113.04217187100005,-8.3000869079999688],[113.04218094700002,-8.3000868609999543],[113.04218099400009,-8.3000959009999633],[113.04219006900007,-8.3000958549999382],[113.04219002200011,-8.3000868149999292],[113.04220817300006,-8.3000867219999463],[113.04220812600011,-8.3000776819999373]]]},"properties":{"OBJECTID":2749,"FID_mangrove_utm":2733,"OBJECTID_1":2733,"Name":"18102566,9293","FolderPath":"JATIM/JATIM","SymbolID":0,"AltMode":0,"Base":0,"Clamped":-1,"Extruded":0,"Snippet":"","PopupInfo":"\u003chtml xmlns:fo=\"http://www.w3.org/1999/XSL/Format\" xmlns:msxsl=\"urn:schemas-microsoft-com:xslt\"\u003e\n\u003chead\u003e\n\u003cMETA http-equiv=\"Content-Type\" content=\"text/html\"\u003e\n\u003cmeta http-equiv=\"content-type\" content=\"text/html; charset=UTF-8\"\u003e\n\u003c/head\u003e\n\u003cbody style=\"margin:0px 0px 0px 0px;overflow:auto;background:#FFFFFF;\"\u003e\n\u003ctable style=\"font-family:Arial,Verdana,Times;font-size:12px;text-align:left;width:100%;border-collapse:collapse;padding:3px 3px 3px 3px\"\u003e\n\u003ctr style=\"text-align:center;font-weight:bold;background:#9CBCE2\"\u003e\n\u003ctd\u003e18102566,9293\u003c/td\u003e\n\u003c/tr\u003e\n\u003ctr\u003e\n\u003ctd\u003e\n\u003ctable style=\"font-family:Arial,Verdana,Times;font-size:12px;text-align:left;width:100%;border-spacing:0px; padding:3px 3px 3px 3px\"\u003e\n\u003ctr\u003e\n\u003ctd\u003eFID\u003c/td\u003e\n\u003ctd\u003e0\u003c/td\u003e\n\u003c/tr\u003e\n\u003ctr bgcolor=\"#D4E4F3\"\u003e\n\u003ctd\u003eShape_Leng\u003c/td\u003e\n\u003ctd\u003e18102566,9293\u003c/td\u003e\n\u003c/tr\u003e\n\u003c/table\u003e\n\u003c/td\u003e\n\u003c/tr\u003e\n\u003c/table\u003e\n\u003c/body\u003e\u003cscript type=\"text/javascript\"\u003e\n\t\t\t\tfunction changeImage(attElement, nameElement) {\n\t\t\t\tdocument.getElementById('imageAttachment').src = attElement;\n\t\t\t\tdocument.getElementById('imageName').innerHTML = nameElement;}\n\t\t\t\u003c/script\u003e\u003c/html\u003e\n","FID_active_grids":18,"GridID":"AE09","Shape_Length":0.00019701742925724394,"Shape_Area":1.5219806764292266e-09}}]}