{"type":"FeatureCollection","features":[{"type":"Feature","id":34796,"geometry":{"type":"Polygon","coordinates":[[[114.43573751600002,-6.970421637999948],[114.43574655300006,-6.9704215719999638],[114.43574648700007,-6.9704125419999627],[114.43575552400011,-6.9704124759999786],[114.43575545800002,-6.9704034469999669],[114.43578256800004,-6.9704032489999577],[114.43578250200005,-6.970394219999946],[114.43580961300006,-6.9703940219999367],[114.43580954700008,-6.9703849929999251],[114.43580051000004,-6.9703850589999661],[114.43580037800007,-6.9703669989999639],[114.43579134200002,-6.9703670649999481],[114.43579127600003,-6.9703580359999364],[114.43580031300007,-6.9703579699999523],[114.43579985200006,-6.9702947629999699],[114.4358088890001,-6.9702946969999289],[114.43580882300012,-6.9702856669999278],[114.43581786000004,-6.9702856009999437],[114.43581772800007,-6.9702675419999309],[114.43582676500012,-6.9702674759999468],[114.43582663300003,-6.9702494169999341],[114.43581759600011,-6.970249482999975],[114.43581746500001,-6.9702314239999623],[114.43582650100007,-6.9702313579999782],[114.43582637000009,-6.9702132989999654],[114.43581733300005,-6.9702133639999602],[114.43581720100008,-6.9701953049999474],[114.43582623800012,-6.9701952389999633],[114.43582604000005,-6.9701681509999389],[114.43583507700009,-6.9701680849999548],[114.43583501100011,-6.9701590549999537],[114.43585308500008,-6.9701589239999748],[114.43585301900009,-6.9701498939999738],[114.4358801300001,-6.9701496969999539],[114.43588019600008,-6.9701587259999656],[114.436006711,-6.9701578049999284],[114.4360067770001,-6.9701668349999295],[114.43601581400003,-6.9701667689999454],[114.43601588000001,-6.9701757989999464],[114.43606106400011,-6.9701754699999583],[114.43606099800002,-6.9701664399999572],[114.43607003500006,-6.9701663739999731],[114.43606996900007,-6.9701573449999614],[114.43607900600011,-6.9701572789999773],[114.43607880800005,-6.9701301899999635],[114.43609688200002,-6.9701300579999383],[114.43609681600003,-6.9701210289999267],[114.4360877790001,-6.9701210949999677],[114.43608758200003,-6.9700940059999539],[114.43609661900007,-6.9700939399999697],[114.4360964870001,-6.970075880999957],[114.43608745000006,-6.9700759469999412],[114.43608738400007,-6.9700669169999401],[114.43607834700003,-6.9700669829999811],[114.43607828200004,-6.97005795299998],[114.43606924500011,-6.9700580189999641],[114.43606911300003,-6.9700399599999514],[114.43605103900006,-6.9700400909999303],[114.43605097400007,-6.9700310619999755],[114.43604193700003,-6.9700311279999596],[114.43604187100004,-6.9700220979999585],[114.43605994500001,-6.9700219659999334],[114.43606001000001,-6.9700309959999345],[114.43606904700005,-6.9700309299999503],[114.43606885000008,-6.9700038409999365],[114.43605981300004,-6.9700039069999775],[114.43605968100007,-6.9699858479999648],[114.43606871800012,-6.9699857819999806],[114.43606865200002,-6.969976752999969],[114.43607768900006,-6.969976686999928],[114.43607762300007,-6.9699676569999269],[114.43610473400008,-6.9699674599999639],[114.43610460200011,-6.9699494009999512],[114.43613171200002,-6.9699492029999419],[114.43613177800012,-6.969958232999943],[114.43614081500004,-6.9699581669999588],[114.43614094700001,-6.9699762259999716],[114.4361590200001,-6.9699760949999359],[114.43615895500011,-6.9699670649999348],[114.43617702800009,-6.9699669329999665],[114.4361769620001,-6.9699579039999549],[114.43618599900003,-6.9699578379999707],[114.43618606500002,-6.9699668679999718],[114.4362041390001,-6.9699667359999466],[114.43620407300011,-6.9699577059999456],[114.43622214600009,-6.9699575749999667],[114.4362220810001,-6.9699485449999656],[114.43623111700003,-6.9699484789999815],[114.43623105200004,-6.9699394499999698],[114.43624008800009,-6.9699393839999289],[114.4362400230001,-6.9699303539999278],[114.43625809600007,-6.9699302229999489],[114.43625803000009,-6.9699211929999478],[114.43627610400006,-6.969921061999969],[114.43627597200009,-6.9699030019999668],[114.43628500900002,-6.9699029369999721],[114.43628494300003,-6.969893906999971],[114.43629398000007,-6.96989384099993],[114.43629391400009,-6.9698848119999752],[114.43630295100002,-6.9698847459999342],[114.43630288500003,-6.9698757159999332],[114.43631192200007,-6.969875649999949],[114.4363117900001,-6.9698575909999363],[114.43632082700003,-6.9698575249999521],[114.43632030000003,-6.9697852889999581],[114.4363112640001,-6.9697853539999528],[114.43631113200001,-6.9697672949999401],[114.43630209500009,-6.9697673609999811],[114.4363020290001,-6.96975833099998],[114.43628395600001,-6.9697584629999483],[114.4362840870001,-6.969776521999961],[114.43627505000006,-6.9697765879999451],[114.43627511600005,-6.9697856179999462],[114.43626608000011,-6.9697856829999409],[114.43626594800003,-6.9697676239999282],[114.43624787400006,-6.9697677559999534],[114.43624774200009,-6.9697496959999512],[114.43625677900002,-6.9697496309999565],[114.43625664800004,-6.9697315709999543],[114.43628375800006,-6.9697313739999345],[114.43628369200007,-6.9697223439999334],[114.43629272900012,-6.9697222789999387],[114.43629259700003,-6.9697042189999365],[114.4362835610001,-6.9697042849999775],[114.43628329700005,-6.9696681669999521],[114.43627633000006,-6.9696682179999812],[114.43611900000008,-6.9698489999999538],[114.43573536800011,-6.9701270369999406],[114.43573751600002,-6.970421637999948]],[[114.4360421340001,-6.9700582159999271],[114.43602406100001,-6.9700583479999523],[114.43602399500003,-6.9700493179999512],[114.43604206800001,-6.9700491869999723],[114.4360421340001,-6.9700582159999271]]]},"properties":{"OBJECTID":34796,"FID_mangrove_utm":34657,"OBJECTID_1":34657,"Name":"18102566,9293","FolderPath":"JATIM/JATIM","SymbolID":0,"AltMode":0,"Base":0,"Clamped":-1,"Extruded":0,"Snippet":"","PopupInfo":"\u003chtml xmlns:fo=\"http://www.w3.org/1999/XSL/Format\" xmlns:msxsl=\"urn:schemas-microsoft-com:xslt\"\u003e\n\u003chead\u003e\n\u003cMETA http-equiv=\"Content-Type\" content=\"text/html\"\u003e\n\u003cmeta http-equiv=\"content-type\" content=\"text/html; charset=UTF-8\"\u003e\n\u003c/head\u003e\n\u003cbody style=\"margin:0px 0px 0px 0px;overflow:auto;background:#FFFFFF;\"\u003e\n\u003ctable style=\"font-family:Arial,Verdana,Times;font-size:12px;text-align:left;width:100%;border-collapse:collapse;padding:3px 3px 3px 3px\"\u003e\n\u003ctr style=\"text-align:center;font-weight:bold;background:#9CBCE2\"\u003e\n\u003ctd\u003e18102566,9293\u003c/td\u003e\n\u003c/tr\u003e\n\u003ctr\u003e\n\u003ctd\u003e\n\u003ctable style=\"font-family:Arial,Verdana,Times;font-size:12px;text-align:left;width:100%;border-spacing:0px; padding:3px 3px 3px 3px\"\u003e\n\u003ctr\u003e\n\u003ctd\u003eFID\u003c/td\u003e\n\u003ctd\u003e0\u003c/td\u003e\n\u003c/tr\u003e\n\u003ctr bgcolor=\"#D4E4F3\"\u003e\n\u003ctd\u003eShape_Leng\u003c/td\u003e\n\u003ctd\u003e18102566,9293\u003c/td\u003e\n\u003c/tr\u003e\n\u003c/table\u003e\n\u003c/td\u003e\n\u003c/tr\u003e\n\u003c/table\u003e\n\u003c/body\u003e\u003cscript type=\"text/javascript\"\u003e\n\t\t\t\tfunction changeImage(attElement, nameElement) {\n\t\t\t\tdocument.getElementById('imageAttachment').src = attElement;\n\t\t\t\tdocument.getElementById('imageName').innerHTML = nameElement;}\n\t\t\t\u003c/script\u003e\u003c/html\u003e\n","FID_active_grids":209,"GridID":"J40","Shape_Length":0.0029481812549148026,"Shape_Area":1.1123276217176051e-07}},{"type":"Feature","id":34843,"geometry":{"type":"Polygon","coordinates":[[[114.43616200500003,-6.9691460849999771],[114.43611900000008,-6.96922799999993],[114.43610879800008,-6.9692854539999303],[114.43610896400003,-6.9693082329999356],[114.43610474800005,-6.9693082629999594],[114.43608100000006,-6.9694419999999582],[114.43613500000004,-6.9695079999999621],[114.43623400000001,-6.9695689999999786],[114.43625152200002,-6.9696051879999459],[114.43629187300007,-6.9696048939999287],[114.43629180700009,-6.9695958639999276],[114.43630084400002,-6.9695957979999434],[114.43630077800003,-6.9695867689999318],[114.43630981500007,-6.9695867029999476],[114.43630974900009,-6.9695776729999466],[114.43631878600002,-6.9695776079999519],[114.43631865400005,-6.9695595479999497],[114.43632769100009,-6.969559482999955],[114.43632749400001,-6.9695323939999412],[114.43633653000006,-6.969532327999957],[114.43633639900008,-6.9695142689999443],[114.43634543500002,-6.9695142029999602],[114.43634537000003,-6.9695051729999591],[114.43635440600008,-6.9695051079999644],[114.43635434100008,-6.9694960779999633],[114.43637241400006,-6.9694959459999382],[114.43637234800008,-6.9694869169999265],[114.43639042200004,-6.9694867849999582],[114.43639029000008,-6.9694687259999455],[114.43639932700012,-6.9694686599999613],[114.43639926100002,-6.9694596309999497],[114.43640829800006,-6.9694595649999656],[114.43640770600007,-6.969378297999981],[114.43639866900003,-6.9693783639999651],[114.43639860300004,-6.9693693349999535],[114.43638956600012,-6.9693693999999482],[114.43638943400003,-6.9693513409999355],[114.4363803980001,-6.9693514069999765],[114.43638033200011,-6.9693423769999754],[114.4363532210001,-6.9693425749999278],[114.43635315500001,-6.9693335449999267],[114.43633508200003,-6.9693336769999519],[114.43633501600004,-6.9693246469999508],[114.43631694200008,-6.9693247789999759],[114.43631687600009,-6.9693157489999749],[114.43625361900001,-6.9693162099999313],[114.43625355300003,-6.9693071799999302],[114.43623547900006,-6.9693073119999553],[114.43623541300008,-6.9692982819999543],[114.43622637700003,-6.9692983479999384],[114.43622631100004,-6.9692893179999373],[114.43621727400011,-6.9692893839999783],[114.43621720800002,-6.9692803539999773],[114.43620817100009,-6.9692804199999614],[114.43620810600009,-6.9692713909999497],[114.43619906900005,-6.9692714559999445],[114.4361988710001,-6.9692443669999307],[114.43618983400006,-6.9692444329999717],[114.43618970300008,-6.9692263739999589],[114.43618066600004,-6.9692264399999431],[114.43618060000006,-6.969217409999942],[114.43617156300002,-6.9692174759999261],[114.43617149700003,-6.9692084459999251],[114.43618053400007,-6.9692083809999303],[114.43618046800009,-6.9691993509999293],[114.43617143200004,-6.9691994169999703],[114.43617130000007,-6.9691813579999575],[114.43616226300003,-6.9691814229999522],[114.43616200500003,-6.9691460849999771]]]},"properties":{"OBJECTID":34843,"FID_mangrove_utm":34703,"OBJECTID_1":34703,"Name":"18102566,9293","FolderPath":"JATIM/JATIM","SymbolID":0,"AltMode":0,"Base":0,"Clamped":-1,"Extruded":0,"Snippet":"","PopupInfo":"\u003chtml xmlns:fo=\"http://www.w3.org/1999/XSL/Format\" xmlns:msxsl=\"urn:schemas-microsoft-com:xslt\"\u003e\n\u003chead\u003e\n\u003cMETA http-equiv=\"Content-Type\" content=\"text/html\"\u003e\n\u003cmeta http-equiv=\"content-type\" content=\"text/html; charset=UTF-8\"\u003e\n\u003c/head\u003e\n\u003cbody style=\"margin:0px 0px 0px 0px;overflow:auto;background:#FFFFFF;\"\u003e\n\u003ctable style=\"font-family:Arial,Verdana,Times;font-size:12px;text-align:left;width:100%;border-collapse:collapse;padding:3px 3px 3px 3px\"\u003e\n\u003ctr style=\"text-align:center;font-weight:bold;background:#9CBCE2\"\u003e\n\u003ctd\u003e18102566,9293\u003c/td\u003e\n\u003c/tr\u003e\n\u003ctr\u003e\n\u003ctd\u003e\n\u003ctable style=\"font-family:Arial,Verdana,Times;font-size:12px;text-align:left;width:100%;border-spacing:0px; padding:3px 3px 3px 3px\"\u003e\n\u003ctr\u003e\n\u003ctd\u003eFID\u003c/td\u003e\n\u003ctd\u003e0\u003c/td\u003e\n\u003c/tr\u003e\n\u003ctr bgcolor=\"#D4E4F3\"\u003e\n\u003ctd\u003eShape_Leng\u003c/td\u003e\n\u003ctd\u003e18102566,9293\u003c/td\u003e\n\u003c/tr\u003e\n\u003c/table\u003e\n\u003c/td\u003e\n\u003c/tr\u003e\n\u003c/table\u003e\n\u003c/body\u003e\u003cscript type=\"text/javascript\"\u003e\n\t\t\t\tfunction changeImage(attElement, nameElement) {\n\t\t\t\tdocument.getElementById('imageAttachment').src = attElement;\n\t\t\t\tdocument.getElementById('imageName').innerHTML = nameElement;}\n\t\t\t\u003c/script\u003e\u003c/html\u003e\n","FID_active_grids":209,"GridID":"J40","Shape_Length":0.0014351135145424603,"Shape_Area":7.7991436253873622e-08}},{"type":"Feature","id":34846,"geometry":{"type":"Polygon","coordinates":[[[114.43617097100002,-6.969136209999931],[114.43617091900001,-6.9691291069999579],[114.43616717500004,-6.9691362369999297],[114.43617097100002,-6.969136209999931]]]},"properties":{"OBJECTID":34846,"FID_mangrove_utm":34706,"OBJECTID_1":34706,"Name":"18102566,9293","FolderPath":"JATIM/JATIM","SymbolID":0,"AltMode":0,"Base":0,"Clamped":-1,"Extruded":0,"Snippet":"","PopupInfo":"\u003chtml xmlns:fo=\"http://www.w3.org/1999/XSL/Format\" xmlns:msxsl=\"urn:schemas-microsoft-com:xslt\"\u003e\n\u003chead\u003e\n\u003cMETA http-equiv=\"Content-Type\" content=\"text/html\"\u003e\n\u003cmeta http-equiv=\"content-type\" content=\"text/html; charset=UTF-8\"\u003e\n\u003c/head\u003e\n\u003cbody style=\"margin:0px 0px 0px 0px;overflow:auto;background:#FFFFFF;\"\u003e\n\u003ctable style=\"font-family:Arial,Verdana,Times;font-size:12px;text-align:left;width:100%;border-collapse:collapse;padding:3px 3px 3px 3px\"\u003e\n\u003ctr style=\"text-align:center;font-weight:bold;background:#9CBCE2\"\u003e\n\u003ctd\u003e18102566,9293\u003c/td\u003e\n\u003c/tr\u003e\n\u003ctr\u003e\n\u003ctd\u003e\n\u003ctable style=\"font-family:Arial,Verdana,Times;font-size:12px;text-align:left;width:100%;border-spacing:0px; padding:3px 3px 3px 3px\"\u003e\n\u003ctr\u003e\n\u003ctd\u003eFID\u003c/td\u003e\n\u003ctd\u003e0\u003c/td\u003e\n\u003c/tr\u003e\n\u003ctr bgcolor=\"#D4E4F3\"\u003e\n\u003ctd\u003eShape_Leng\u003c/td\u003e\n\u003ctd\u003e18102566,9293\u003c/td\u003e\n\u003c/tr\u003e\n\u003c/table\u003e\n\u003c/td\u003e\n\u003c/tr\u003e\n\u003c/table\u003e\n\u003c/body\u003e\u003cscript type=\"text/javascript\"\u003e\n\t\t\t\tfunction changeImage(attElement, nameElement) {\n\t\t\t\tdocument.getElementById('imageAttachment').src = attElement;\n\t\t\t\tdocument.getElementById('imageName').innerHTML = nameElement;}\n\t\t\t\u003c/script\u003e\u003c/html\u003e\n","FID_active_grids":209,"GridID":"J40","Shape_Length":1.8952511473809653e-05,"Shape_Area":1.3482195903788965e-11}},{"type":"Feature","id":34852,"geometry":{"type":"Polygon","coordinates":[[[114.4365582370001,-6.9689527889999567],[114.43649497900003,-6.9689532489999806],[114.43649530800008,-6.9689983969999503],[114.43650434500012,-6.9689983309999661],[114.4365044110001,-6.9690073609999672],[114.43651344800003,-6.9690072949999262],[114.43651357900001,-6.9690253539999389],[114.43652261600005,-6.9690252889999442],[114.43652268200003,-6.9690343179999559],[114.43656786600002,-6.9690339889999677],[114.43656780000003,-6.9690249599999561],[114.43657683700008,-6.9690248939999719],[114.43657650800003,-6.9689797459999454],[114.4365674710001,-6.9689798119999296],[114.43656733900002,-6.9689617519999274],[114.43655830200009,-6.9689618179999684],[114.4365582370001,-6.9689527889999567]]]},"properties":{"OBJECTID":34852,"FID_mangrove_utm":34712,"OBJECTID_1":34712,"Name":"18102566,9293","FolderPath":"JATIM/JATIM","SymbolID":0,"AltMode":0,"Base":0,"Clamped":-1,"Extruded":0,"Snippet":"","PopupInfo":"\u003chtml xmlns:fo=\"http://www.w3.org/1999/XSL/Format\" xmlns:msxsl=\"urn:schemas-microsoft-com:xslt\"\u003e\n\u003chead\u003e\n\u003cMETA http-equiv=\"Content-Type\" content=\"text/html\"\u003e\n\u003cmeta http-equiv=\"content-type\" content=\"text/html; charset=UTF-8\"\u003e\n\u003c/head\u003e\n\u003cbody style=\"margin:0px 0px 0px 0px;overflow:auto;background:#FFFFFF;\"\u003e\n\u003ctable style=\"font-family:Arial,Verdana,Times;font-size:12px;text-align:left;width:100%;border-collapse:collapse;padding:3px 3px 3px 3px\"\u003e\n\u003ctr style=\"text-align:center;font-weight:bold;background:#9CBCE2\"\u003e\n\u003ctd\u003e18102566,9293\u003c/td\u003e\n\u003c/tr\u003e\n\u003ctr\u003e\n\u003ctd\u003e\n\u003ctable style=\"font-family:Arial,Verdana,Times;font-size:12px;text-align:left;width:100%;border-spacing:0px; padding:3px 3px 3px 3px\"\u003e\n\u003ctr\u003e\n\u003ctd\u003eFID\u003c/td\u003e\n\u003ctd\u003e0\u003c/td\u003e\n\u003c/tr\u003e\n\u003ctr bgcolor=\"#D4E4F3\"\u003e\n\u003ctd\u003eShape_Leng\u003c/td\u003e\n\u003ctd\u003e18102566,9293\u003c/td\u003e\n\u003c/tr\u003e\n\u003c/table\u003e\n\u003c/td\u003e\n\u003c/tr\u003e\n\u003c/table\u003e\n\u003c/body\u003e\u003cscript type=\"text/javascript\"\u003e\n\t\t\t\tfunction changeImage(attElement, nameElement) {\n\t\t\t\tdocument.getElementById('imageAttachment').src = attElement;\n\t\t\t\tdocument.getElementById('imageName').innerHTML = nameElement;}\n\t\t\t\u003c/script\u003e\u003c/html\u003e\n","FID_active_grids":209,"GridID":"J40","Shape_Length":0.00032520462160486529,"Shape_Area":5.5489988676097714e-09}},{"type":"Feature","id":34856,"geometry":{"type":"Polygon","coordinates":[[[114.43648567900004,-6.9689171959999499],[114.43648561300006,-6.9689081669999382],[114.43647657600002,-6.9689082329999792],[114.43647664200012,-6.968917261999934],[114.43648567900004,-6.9689171959999499]]]},"properties":{"OBJECTID":34856,"FID_mangrove_utm":34716,"OBJECTID_1":34716,"Name":"18102566,9293","FolderPath":"JATIM/JATIM","SymbolID":0,"AltMode":0,"Base":0,"Clamped":-1,"Extruded":0,"Snippet":"","PopupInfo":"\u003chtml xmlns:fo=\"http://www.w3.org/1999/XSL/Format\" xmlns:msxsl=\"urn:schemas-microsoft-com:xslt\"\u003e\n\u003chead\u003e\n\u003cMETA http-equiv=\"Content-Type\" content=\"text/html\"\u003e\n\u003cmeta http-equiv=\"content-type\" content=\"text/html; charset=UTF-8\"\u003e\n\u003c/head\u003e\n\u003cbody style=\"margin:0px 0px 0px 0px;overflow:auto;background:#FFFFFF;\"\u003e\n\u003ctable style=\"font-family:Arial,Verdana,Times;font-size:12px;text-align:left;width:100%;border-collapse:collapse;padding:3px 3px 3px 3px\"\u003e\n\u003ctr style=\"text-align:center;font-weight:bold;background:#9CBCE2\"\u003e\n\u003ctd\u003e18102566,9293\u003c/td\u003e\n\u003c/tr\u003e\n\u003ctr\u003e\n\u003ctd\u003e\n\u003ctable style=\"font-family:Arial,Verdana,Times;font-size:12px;text-align:left;width:100%;border-spacing:0px; padding:3px 3px 3px 3px\"\u003e\n\u003ctr\u003e\n\u003ctd\u003eFID\u003c/td\u003e\n\u003ctd\u003e0\u003c/td\u003e\n\u003c/tr\u003e\n\u003ctr bgcolor=\"#D4E4F3\"\u003e\n\u003ctd\u003eShape_Leng\u003c/td\u003e\n\u003ctd\u003e18102566,9293\u003c/td\u003e\n\u003c/tr\u003e\n\u003c/table\u003e\n\u003c/td\u003e\n\u003c/tr\u003e\n\u003c/table\u003e\n\u003c/body\u003e\u003cscript type=\"text/javascript\"\u003e\n\t\t\t\tfunction changeImage(attElement, nameElement) {\n\t\t\t\tdocument.getElementById('imageAttachment').src = attElement;\n\t\t\t\tdocument.getElementById('imageName').innerHTML = nameElement;}\n\t\t\t\u003c/script\u003e\u003c/html\u003e\n","FID_active_grids":209,"GridID":"J40","Shape_Length":3.6132964385976518e-05,"Shape_Area":8.159942870653287e-11}},{"type":"Feature","id":34872,"geometry":{"type":"Polygon","coordinates":[[[114.43656614000008,-6.9687973109999461],[114.43623400000001,-6.9689869999999701],[114.43620300000009,-6.9690679999999361],[114.43617193400007,-6.9691271719999577],[114.43617994200008,-6.9691271139999458],[114.4361798760001,-6.9691180849999341],[114.43620698600012,-6.9691178869999248],[114.43620692000002,-6.96910885799997],[114.4362249940001,-6.9691087259999449],[114.43622492800012,-6.9690996959999438],[114.43623396500004,-6.9690996309999491],[114.43623389900006,-6.969090600999948],[114.43625197300003,-6.9690904689999797],[114.43625190700004,-6.9690814399999681],[114.43626094400008,-6.9690813739999271],[114.4362608780001,-6.969072343999926],[114.43627895100008,-6.9690722129999472],[114.4362788200001,-6.9690541539999344],[114.43630593000012,-6.9690539559999252],[114.4363059960001,-6.9690629859999262],[114.43634214300005,-6.9690627229999791],[114.43634220900003,-6.9690717519999339],[114.43637835600009,-6.9690714889999299],[114.4363782910001,-6.9690624599999751],[114.43639636400007,-6.96906232799995],[114.43639629800009,-6.9690532979999489],[114.43640533500002,-6.9690532329999542],[114.43640526900003,-6.9690442029999531],[114.43642334300011,-6.969044070999928],[114.43642327700002,-6.9690350419999731],[114.43643231400006,-6.9690349759999322],[114.43643211600011,-6.9690078869999752],[114.43644115300003,-6.9690078209999342],[114.43644108700005,-6.9689987919999794],[114.43645012400009,-6.9689987259999384],[114.4364500580001,-6.9689896959999373],[114.43645909500003,-6.9689896309999426],[114.43645870000012,-6.9689354529999719],[114.43646773700004,-6.9689353869999309],[114.43646753900009,-6.9689082979999739],[114.43645850200005,-6.9689083639999581],[114.4364582390001,-6.9688722459999326],[114.43650342300009,-6.9688719169999445],[114.43650355500006,-6.9688899759999572],[114.4365125920001,-6.968889909999973],[114.43651278900006,-6.96891699899993],[114.4365218260001,-6.9689169329999459],[114.43652189200009,-6.9689259629999469],[114.43656707600007,-6.9689256339999588],[114.43656694400011,-6.9689075749999461],[114.43657598100003,-6.9689075089999619],[114.43657571800009,-6.9688713909999365],[114.43658475400002,-6.9688713249999523],[114.43658455700006,-6.9688442359999385],[114.43657552000002,-6.9688443019999795],[114.43657532200007,-6.9688172129999657],[114.43656628600002,-6.9688172789999498],[114.43656614000008,-6.9687973109999461]],[[114.43648521800003,-6.9688539889999674],[114.43649425500007,-6.9688539229999265],[114.43649432000007,-6.9688629529999275],[114.43648528400001,-6.9688630189999685],[114.43648521800003,-6.9688539889999674]]]},"properties":{"OBJECTID":34872,"FID_mangrove_utm":34732,"OBJECTID_1":34732,"Name":"18102566,9293","FolderPath":"JATIM/JATIM","SymbolID":0,"AltMode":0,"Base":0,"Clamped":-1,"Extruded":0,"Snippet":"","PopupInfo":"\u003chtml xmlns:fo=\"http://www.w3.org/1999/XSL/Format\" xmlns:msxsl=\"urn:schemas-microsoft-com:xslt\"\u003e\n\u003chead\u003e\n\u003cMETA http-equiv=\"Content-Type\" content=\"text/html\"\u003e\n\u003cmeta http-equiv=\"content-type\" content=\"text/html; charset=UTF-8\"\u003e\n\u003c/head\u003e\n\u003cbody style=\"margin:0px 0px 0px 0px;overflow:auto;background:#FFFFFF;\"\u003e\n\u003ctable style=\"font-family:Arial,Verdana,Times;font-size:12px;text-align:left;width:100%;border-collapse:collapse;padding:3px 3px 3px 3px\"\u003e\n\u003ctr style=\"text-align:center;font-weight:bold;background:#9CBCE2\"\u003e\n\u003ctd\u003e18102566,9293\u003c/td\u003e\n\u003c/tr\u003e\n\u003ctr\u003e\n\u003ctd\u003e\n\u003ctable style=\"font-family:Arial,Verdana,Times;font-size:12px;text-align:left;width:100%;border-spacing:0px; padding:3px 3px 3px 3px\"\u003e\n\u003ctr\u003e\n\u003ctd\u003eFID\u003c/td\u003e\n\u003ctd\u003e0\u003c/td\u003e\n\u003c/tr\u003e\n\u003ctr bgcolor=\"#D4E4F3\"\u003e\n\u003ctd\u003eShape_Leng\u003c/td\u003e\n\u003ctd\u003e18102566,9293\u003c/td\u003e\n\u003c/tr\u003e\n\u003c/table\u003e\n\u003c/td\u003e\n\u003c/tr\u003e\n\u003c/table\u003e\n\u003c/body\u003e\u003cscript type=\"text/javascript\"\u003e\n\t\t\t\tfunction changeImage(attElement, nameElement) {\n\t\t\t\tdocument.getElementById('imageAttachment').src = attElement;\n\t\t\t\tdocument.getElementById('imageName').innerHTML = nameElement;}\n\t\t\t\u003c/script\u003e\u003c/html\u003e\n","FID_active_grids":209,"GridID":"J40","Shape_Length":0.0014944676076453845,"Shape_Area":4.215096856927939e-08}},{"type":"Feature","id":34971,"geometry":{"type":"Polygon","coordinates":[[[114.43646551600011,-6.9673912589999532],[114.43644744200003,-6.9673913909999783],[114.4364476400001,-6.9674184789999458],[114.43645667600003,-6.9674184139999511],[114.43645674200002,-6.9674274429999628],[114.43644770500009,-6.9674275089999469],[114.43644790300004,-6.9674545979999607],[114.43645694000008,-6.9674545319999766],[114.43645700600007,-6.9674635619999776],[114.43646604200001,-6.9674634959999366],[114.4364661080001,-6.9674725259999377],[114.43648418200007,-6.9674723939999694],[114.43648411600009,-6.9674633639999684],[114.43649315300001,-6.9674632989999736],[114.43649308700003,-6.9674542689999726],[114.43650212400007,-6.9674542029999316],[114.43650186000002,-6.967418084999963],[114.43649282400008,-6.9674181509999471],[114.4364927580001,-6.967409120999946],[114.43648372100006,-6.9674091869999302],[114.43648365500007,-6.9674001569999291],[114.4364655820001,-6.9674002889999542],[114.43646551600011,-6.9673912589999532]]]},"properties":{"OBJECTID":34971,"FID_mangrove_utm":34831,"OBJECTID_1":34831,"Name":"18102566,9293","FolderPath":"JATIM/JATIM","SymbolID":0,"AltMode":0,"Base":0,"Clamped":-1,"Extruded":0,"Snippet":"","PopupInfo":"\u003chtml xmlns:fo=\"http://www.w3.org/1999/XSL/Format\" xmlns:msxsl=\"urn:schemas-microsoft-com:xslt\"\u003e\n\u003chead\u003e\n\u003cMETA http-equiv=\"Content-Type\" content=\"text/html\"\u003e\n\u003cmeta http-equiv=\"content-type\" content=\"text/html; charset=UTF-8\"\u003e\n\u003c/head\u003e\n\u003cbody style=\"margin:0px 0px 0px 0px;overflow:auto;background:#FFFFFF;\"\u003e\n\u003ctable style=\"font-family:Arial,Verdana,Times;font-size:12px;text-align:left;width:100%;border-collapse:collapse;padding:3px 3px 3px 3px\"\u003e\n\u003ctr style=\"text-align:center;font-weight:bold;background:#9CBCE2\"\u003e\n\u003ctd\u003e18102566,9293\u003c/td\u003e\n\u003c/tr\u003e\n\u003ctr\u003e\n\u003ctd\u003e\n\u003ctable style=\"font-family:Arial,Verdana,Times;font-size:12px;text-align:left;width:100%;border-spacing:0px; padding:3px 3px 3px 3px\"\u003e\n\u003ctr\u003e\n\u003ctd\u003eFID\u003c/td\u003e\n\u003ctd\u003e0\u003c/td\u003e\n\u003c/tr\u003e\n\u003ctr bgcolor=\"#D4E4F3\"\u003e\n\u003ctd\u003eShape_Leng\u003c/td\u003e\n\u003ctd\u003e18102566,9293\u003c/td\u003e\n\u003c/tr\u003e\n\u003c/table\u003e\n\u003c/td\u003e\n\u003c/tr\u003e\n\u003c/table\u003e\n\u003c/body\u003e\u003cscript type=\"text/javascript\"\u003e\n\t\t\t\tfunction changeImage(attElement, nameElement) {\n\t\t\t\tdocument.getElementById('imageAttachment').src = attElement;\n\t\t\t\tdocument.getElementById('imageName').innerHTML = nameElement;}\n\t\t\t\u003c/script\u003e\u003c/html\u003e\n","FID_active_grids":209,"GridID":"J40","Shape_Length":0.00028905570111093258,"Shape_Area":3.2641298198601014e-09}},{"type":"Feature","id":34984,"geometry":{"type":"Polygon","coordinates":[[[114.43620233000001,-6.9672396629999298],[114.43621136700006,-6.9672395969999457],[114.43621130100007,-6.967230567999934],[114.43620226400003,-6.967230633999975],[114.43620233000001,-6.9672396629999298]]]},"properties":{"OBJECTID":34984,"FID_mangrove_utm":34844,"OBJECTID_1":34844,"Name":"18102566,9293","FolderPath":"JATIM/JATIM","SymbolID":0,"AltMode":0,"Base":0,"Clamped":-1,"Extruded":0,"Snippet":"","PopupInfo":"\u003chtml xmlns:fo=\"http://www.w3.org/1999/XSL/Format\" xmlns:msxsl=\"urn:schemas-microsoft-com:xslt\"\u003e\n\u003chead\u003e\n\u003cMETA http-equiv=\"Content-Type\" content=\"text/html\"\u003e\n\u003cmeta http-equiv=\"content-type\" content=\"text/html; charset=UTF-8\"\u003e\n\u003c/head\u003e\n\u003cbody style=\"margin:0px 0px 0px 0px;overflow:auto;background:#FFFFFF;\"\u003e\n\u003ctable style=\"font-family:Arial,Verdana,Times;font-size:12px;text-align:left;width:100%;border-collapse:collapse;padding:3px 3px 3px 3px\"\u003e\n\u003ctr style=\"text-align:center;font-weight:bold;background:#9CBCE2\"\u003e\n\u003ctd\u003e18102566,9293\u003c/td\u003e\n\u003c/tr\u003e\n\u003ctr\u003e\n\u003ctd\u003e\n\u003ctable style=\"font-family:Arial,Verdana,Times;font-size:12px;text-align:left;width:100%;border-spacing:0px; padding:3px 3px 3px 3px\"\u003e\n\u003ctr\u003e\n\u003ctd\u003eFID\u003c/td\u003e\n\u003ctd\u003e0\u003c/td\u003e\n\u003c/tr\u003e\n\u003ctr bgcolor=\"#D4E4F3\"\u003e\n\u003ctd\u003eShape_Leng\u003c/td\u003e\n\u003ctd\u003e18102566,9293\u003c/td\u003e\n\u003c/tr\u003e\n\u003c/table\u003e\n\u003c/td\u003e\n\u003c/tr\u003e\n\u003c/table\u003e\n\u003c/body\u003e\u003cscript type=\"text/javascript\"\u003e\n\t\t\t\tfunction changeImage(attElement, nameElement) {\n\t\t\t\tdocument.getElementById('imageAttachment').src = attElement;\n\t\t\t\tdocument.getElementById('imageName').innerHTML = nameElement;}\n\t\t\t\u003c/script\u003e\u003c/html\u003e\n","FID_active_grids":209,"GridID":"J40","Shape_Length":3.613296449882932e-05,"Shape_Area":8.1599429216020422e-11}},{"type":"Feature","id":35010,"geometry":{"type":"Polygon","coordinates":[[[114.43589290800003,-6.9669439219999276],[114.43590194500007,-6.9669438559999435],[114.43590187900008,-6.9669348269999318],[114.43589284200004,-6.9669348929999728],[114.43589290800003,-6.9669439219999276]]]},"properties":{"OBJECTID":35010,"FID_mangrove_utm":34870,"OBJECTID_1":34870,"Name":"18102566,9293","FolderPath":"JATIM/JATIM","SymbolID":0,"AltMode":0,"Base":0,"Clamped":-1,"Extruded":0,"Snippet":"","PopupInfo":"\u003chtml xmlns:fo=\"http://www.w3.org/1999/XSL/Format\" xmlns:msxsl=\"urn:schemas-microsoft-com:xslt\"\u003e\n\u003chead\u003e\n\u003cMETA http-equiv=\"Content-Type\" content=\"text/html\"\u003e\n\u003cmeta http-equiv=\"content-type\" content=\"text/html; charset=UTF-8\"\u003e\n\u003c/head\u003e\n\u003cbody style=\"margin:0px 0px 0px 0px;overflow:auto;background:#FFFFFF;\"\u003e\n\u003ctable style=\"font-family:Arial,Verdana,Times;font-size:12px;text-align:left;width:100%;border-collapse:collapse;padding:3px 3px 3px 3px\"\u003e\n\u003ctr style=\"text-align:center;font-weight:bold;background:#9CBCE2\"\u003e\n\u003ctd\u003e18102566,9293\u003c/td\u003e\n\u003c/tr\u003e\n\u003ctr\u003e\n\u003ctd\u003e\n\u003ctable style=\"font-family:Arial,Verdana,Times;font-size:12px;text-align:left;width:100%;border-spacing:0px; padding:3px 3px 3px 3px\"\u003e\n\u003ctr\u003e\n\u003ctd\u003eFID\u003c/td\u003e\n\u003ctd\u003e0\u003c/td\u003e\n\u003c/tr\u003e\n\u003ctr bgcolor=\"#D4E4F3\"\u003e\n\u003ctd\u003eShape_Leng\u003c/td\u003e\n\u003ctd\u003e18102566,9293\u003c/td\u003e\n\u003c/tr\u003e\n\u003c/table\u003e\n\u003c/td\u003e\n\u003c/tr\u003e\n\u003c/table\u003e\n\u003c/body\u003e\u003cscript type=\"text/javascript\"\u003e\n\t\t\t\tfunction changeImage(attElement, nameElement) {\n\t\t\t\tdocument.getElementById('imageAttachment').src = attElement;\n\t\t\t\tdocument.getElementById('imageName').innerHTML = nameElement;}\n\t\t\t\u003c/script\u003e\u003c/html\u003e\n","FID_active_grids":209,"GridID":"J40","Shape_Length":3.613296449882932e-05,"Shape_Area":8.1599429216020422e-11}},{"type":"Feature","id":35077,"geometry":{"type":"Polygon","coordinates":[[[114.43589290800003,-6.9669439219999276],[114.43587483400006,-6.9669440539999528],[114.43587476900007,-6.9669350239999517],[114.43586573200002,-6.9669350899999358],[114.43586566600004,-6.9669260599999348],[114.43585662900011,-6.9669261259999757],[114.4358566950001,-6.9669351559999768],[114.43584765800006,-6.9669352209999715],[114.43584759300006,-6.9669261919999599],[114.43577529800007,-6.9669267179999679],[114.43577523300007,-6.9669176879999668],[114.43574812200006,-6.9669178849999298],[114.43574805600008,-6.966908855999975],[114.4357299830001,-6.9669089869999539],[114.43572978500004,-6.9668818989999295],[114.4357207490001,-6.9668819639999811],[114.43572055100003,-6.9668548749999673],[114.43572958800007,-6.9668548099999725],[114.43572939100011,-6.9668277209999587],[114.43573842700005,-6.9668276549999746],[114.4357381640001,-6.9667915369999491],[114.43574720100003,-6.966791470999965],[114.43574706900006,-6.9667734119999523],[114.4357561060001,-6.9667733459999681],[114.43575604000011,-6.966764315999967],[114.43576507700004,-6.9667642509999723],[114.43576494500007,-6.9667461909999702],[114.43577398200011,-6.9667461259999754],[114.43577391600002,-6.9667370959999744],[114.43580102700002,-6.9667368989999545],[114.43580096100004,-6.9667278689999534],[114.43587325500005,-6.9667273429999454],[114.43587318900006,-6.9667183129999444],[114.43589126300003,-6.9667181819999655],[114.43589119700005,-6.9667091519999644],[114.43590023400009,-6.9667090869999697],[114.4359001680001,-6.9667000569999686],[114.43590920500003,-6.9666999909999276],[114.43590907300006,-6.9666819319999718],[114.4359181100001,-6.9666818659999308],[114.435918044,-6.966672836999976],[114.43592708100005,-6.966672770999935],[114.43592701500006,-6.9666637409999339],[114.4359360520001,-6.9666636749999498],[114.43593598600012,-6.9666546459999381],[114.43594502300004,-6.966654579999954],[114.43594482500009,-6.9666274909999402],[114.43595386200002,-6.966627424999956],[114.43595373000005,-6.9666093659999433],[114.43596276700009,-6.9666092999999591],[114.43596230600008,-6.9665460929999767],[114.43595327000003,-6.9665461589999609],[114.43595320400004,-6.9665371289999598],[114.43594416700012,-6.9665371949999439],[114.43594403500003,-6.9665191359999312],[114.43592596200006,-6.9665192669999669],[114.43592589600007,-6.9665102379999553],[114.43590782300009,-6.9665103689999341],[114.43590775700011,-6.9665013399999793],[114.43589872000007,-6.9665014049999741],[114.43589865400008,-6.9664923759999624],[114.43587154400007,-6.9664925729999254],[114.43587147800008,-6.9664835439999706],[114.43586244100004,-6.9664836089999653],[114.43586237600005,-6.9664745799999537],[114.43576297100003,-6.9664753029999815],[114.43576290500005,-6.9664662729999804],[114.43573579500003,-6.9664664709999329],[114.43573586100001,-6.9664754999999445],[114.43570875100011,-6.9664756969999644],[114.43571321900004,-6.9670887599999674],[114.43584900000008,-6.9670679999999265],[114.4361080000001,-6.9671369999999797],[114.43618500000002,-6.9672529999999711],[114.43627100000003,-6.9674169999999549],[114.4363790000001,-6.9676779999999781],[114.43640709100009,-6.9676987069999541],[114.43641353300006,-6.9676986599999395],[114.43641346700008,-6.9676896309999279],[114.43640443100003,-6.9676896969999689],[114.43640436500004,-6.9676806669999678],[114.43639532800012,-6.9676807329999519],[114.43639526200002,-6.9676717029999509],[114.43638622500009,-6.967671768999935],[114.4363861600001,-6.9676627389999339],[114.43637712300006,-6.9676628049999749],[114.4363769250001,-6.9676357159999611],[114.43636788900005,-6.9676357819999453],[114.4363676910001,-6.9676086929999315],[114.43635865400006,-6.9676087589999725],[114.43635858800008,-6.9675997289999714],[114.43634955200002,-6.9675997949999555],[114.43634935400007,-6.9675727059999417],[114.43634031700003,-6.9675727719999259],[114.43633979100002,-6.9675005349999424],[114.4363307540001,-6.9675006009999265],[114.43633062200001,-6.9674825419999706],[114.43633965900005,-6.9674824759999296],[114.43633946200009,-6.9674553869999727],[114.43634849800003,-6.9674553209999317],[114.43634823500008,-6.9674192029999631],[114.43635727200001,-6.9674191369999789],[114.43635700900006,-6.9673830189999535],[114.43634797200002,-6.9673830849999376],[114.43634790600004,-6.9673740549999366],[114.43632983200007,-6.9673741869999617],[114.43632970100009,-6.9673561269999595],[114.43627548000006,-6.9673565219999318],[114.43627541400008,-6.9673474919999308],[114.43624830400006,-6.96734768999994],[114.43624823800008,-6.967338659999939],[114.43623920100003,-6.9673387259999799],[114.43623913600004,-6.9673296959999789],[114.43623009900011,-6.967329761999963],[114.43622996700003,-6.9673117029999503],[114.4362209300001,-6.9673117689999344],[114.43622079900001,-6.9672937089999323],[114.43621176200008,-6.9672937749999733],[114.4362116960001,-6.9672847449999722],[114.43620265900006,-6.9672848109999563],[114.43620233000001,-6.9672396629999298],[114.43619329300009,-6.9672397289999708],[114.43619322800009,-6.9672306989999697],[114.43618419100005,-6.9672307649999539],[114.43618412500007,-6.9672217359999422],[114.43621123500009,-6.9672215379999329],[114.43621103800001,-6.967194448999976],[114.43622007500005,-6.9671943839999813],[114.43621994300008,-6.9671763239999791],[114.43622898000001,-6.9671762589999275],[114.43622871700006,-6.9671401399999695],[114.43621968000002,-6.9671402059999537],[114.43621948200007,-6.9671131169999398],[114.43621044600002,-6.9671131829999808],[114.43621038000003,-6.9671041529999798],[114.43620134300011,-6.9671042189999639],[114.43620127700001,-6.9670951899999523],[114.43619224000008,-6.967095254999947],[114.43619217500009,-6.9670862259999353],[114.43618313800005,-6.96708629099993],[114.43618294000009,-6.9670592029999625],[114.43617390400004,-6.9670592679999572],[114.43617357400001,-6.9670141199999307],[114.43616453800007,-6.9670141859999717],[114.43616447200009,-6.9670051559999706],[114.43615543500005,-6.9670052219999548],[114.43615536900006,-6.9669961929999431],[114.43614633200002,-6.9669962579999378],[114.43614626700003,-6.9669872289999262],[114.4361372300001,-6.9669872949999672],[114.43613709800002,-6.966969234999965],[114.43609191400003,-6.9669695639999532],[114.43609198000001,-6.9669785939999542],[114.43608294300009,-6.9669786599999384],[114.43608300900007,-6.96698768899995],[114.43607397300002,-6.9669877549999342],[114.43607403800002,-6.9669967849999352],[114.43601981800009,-6.9669971789999749],[114.43601975200011,-6.9669881499999633],[114.43599264200009,-6.9669883469999263],[114.4359925760001,-6.9669793169999252],[114.43598353900006,-6.9669793829999662],[114.43598347300008,-6.9669703529999651],[114.43595636300006,-6.9669705509999744],[114.43595629700008,-6.9669615209999733],[114.43592918700006,-6.9669617179999364],[114.43592912100007,-6.9669526889999815],[114.43589297400001,-6.9669529519999287],[114.43589290800003,-6.9669439219999276]]]},"properties":{"OBJECTID":35077,"FID_mangrove_utm":34936,"OBJECTID_1":34936,"Name":"18102566,9293","FolderPath":"JATIM/JATIM","SymbolID":0,"AltMode":0,"Base":0,"Clamped":-1,"Extruded":0,"Snippet":"","PopupInfo":"\u003chtml xmlns:fo=\"http://www.w3.org/1999/XSL/Format\" xmlns:msxsl=\"urn:schemas-microsoft-com:xslt\"\u003e\n\u003chead\u003e\n\u003cMETA http-equiv=\"Content-Type\" content=\"text/html\"\u003e\n\u003cmeta http-equiv=\"content-type\" content=\"text/html; charset=UTF-8\"\u003e\n\u003c/head\u003e\n\u003cbody style=\"margin:0px 0px 0px 0px;overflow:auto;background:#FFFFFF;\"\u003e\n\u003ctable style=\"font-family:Arial,Verdana,Times;font-size:12px;text-align:left;width:100%;border-collapse:collapse;padding:3px 3px 3px 3px\"\u003e\n\u003ctr style=\"text-align:center;font-weight:bold;background:#9CBCE2\"\u003e\n\u003ctd\u003e18102566,9293\u003c/td\u003e\n\u003c/tr\u003e\n\u003ctr\u003e\n\u003ctd\u003e\n\u003ctable style=\"font-family:Arial,Verdana,Times;font-size:12px;text-align:left;width:100%;border-spacing:0px; padding:3px 3px 3px 3px\"\u003e\n\u003ctr\u003e\n\u003ctd\u003eFID\u003c/td\u003e\n\u003ctd\u003e0\u003c/td\u003e\n\u003c/tr\u003e\n\u003ctr bgcolor=\"#D4E4F3\"\u003e\n\u003ctd\u003eShape_Leng\u003c/td\u003e\n\u003ctd\u003e18102566,9293\u003c/td\u003e\n\u003c/tr\u003e\n\u003c/table\u003e\n\u003c/td\u003e\n\u003c/tr\u003e\n\u003c/table\u003e\n\u003c/body\u003e\u003cscript type=\"text/javascript\"\u003e\n\t\t\t\tfunction changeImage(attElement, nameElement) {\n\t\t\t\tdocument.getElementById('imageAttachment').src = attElement;\n\t\t\t\tdocument.getElementById('imageName').innerHTML = nameElement;}\n\t\t\t\u003c/script\u003e\u003c/html\u003e\n","FID_active_grids":209,"GridID":"J40","Shape_Length":0.0043134877131707754,"Shape_Area":1.5158907557139263e-07}},{"type":"Feature","id":35081,"geometry":{"type":"Polygon","coordinates":[[[114.4360867150001,-6.9662562249999382],[114.43606864200001,-6.9662563569999634],[114.43606870700012,-6.966265385999975],[114.43605967100007,-6.9662654519999592],[114.43605960500008,-6.9662564219999581],[114.43604153100011,-6.9662565539999264],[114.4360415970001,-6.9662655839999275],[114.43603256000006,-6.966265648999979],[114.43603262600004,-6.9662746789999801],[114.4359964790001,-6.9662749419999273],[114.43599654500008,-6.9662839719999283],[114.43598750800004,-6.9662840369999799],[114.43598757400002,-6.966293066999981],[114.4359785370001,-6.9662931329999651],[114.43597860300008,-6.9663021619999768],[114.4359605300001,-6.9663022939999451],[114.43596046400012,-6.966293263999944],[114.43595142700008,-6.9662933299999281],[114.43595149300006,-6.9663023599999292],[114.43585208800005,-6.966303082999957],[114.43585215400003,-6.9663121119999687],[114.43584311800009,-6.9663121779999528],[114.43584331500006,-6.9663392669999666],[114.4358523520001,-6.9663392009999257],[114.43585261500004,-6.9663753199999405],[114.43586165200009,-6.9663752539999564],[114.43586171800007,-6.9663842839999575],[114.43587979100005,-6.9663841519999323],[114.43587992300002,-6.9664022109999451],[114.43588895900007,-6.9664021459999503],[114.43588902500005,-6.966411174999962],[114.43589806200009,-6.9664111089999778],[114.43589812800008,-6.9664201389999789],[114.43590716500012,-6.9664200729999379],[114.43590723000011,-6.966429102999939],[114.43592530400008,-6.9664289709999707],[114.43592537000006,-6.9664380009999718],[114.43593440600011,-6.9664379349999308],[114.43593453800008,-6.9664559939999435],[114.43595261200005,-6.9664558629999647],[114.43595267700005,-6.9664648919999763],[114.43596171400009,-6.9664648269999248],[114.43596178000007,-6.9664738559999364],[114.43597985300005,-6.9664737249999575],[114.43597991900003,-6.9664827539999692],[114.43599799300011,-6.9664826229999335],[114.4359980590001,-6.9664916529999346],[114.43600709500004,-6.9664915869999504],[114.43600716100002,-6.9665006159999621],[114.43605234500001,-6.9665002879999633],[114.43605241100011,-6.966509316999975],[114.43608855800005,-6.966509053999971],[114.43608862400004,-6.9665180839999721],[114.43609766000009,-6.9665180179999311],[114.43609759500009,-6.96650898799993],[114.43610663100003,-6.9665089229999353],[114.43610669700001,-6.9665179519999469],[114.43611573400005,-6.9665178859999628],[114.43611566800007,-6.9665088569999511],[114.43612470500011,-6.966508790999967],[114.43612463900001,-6.9664997619999554],[114.43613367600005,-6.9664996959999712],[114.4361334780001,-6.9664726069999574],[114.43614251500003,-6.9664725409999733],[114.43614238400005,-6.9664544819999605],[114.43616045700003,-6.9664543499999354],[114.43616039100004,-6.9664453209999806],[114.43616942800008,-6.9664452549999396],[114.43616929600012,-6.9664271959999269],[114.43618737000008,-6.9664270639999586],[114.43618723800012,-6.9664090049999459],[114.43619627500004,-6.9664089389999617],[114.43619607800008,-6.9663818509999373],[114.43620511400002,-6.9663817849999532],[114.43620504900002,-6.9663727549999521],[114.4361960120001,-6.9663728209999363],[114.43619594600011,-6.9663637909999352],[114.43620498300004,-6.9663637259999405],[114.43620485100007,-6.9663456659999383],[114.43619581400003,-6.9663457319999793],[114.43619568300005,-6.9663276729999666],[114.43618664600001,-6.9663277389999507],[114.43618658000003,-6.9663187089999496],[114.4361775430001,-6.9663187749999338],[114.43617734600002,-6.9662916859999768],[114.43614119900008,-6.9662919489999808],[114.43614113300009,-6.9662829189999798],[114.43612306000011,-6.966283050999948],[114.43612299400002,-6.966274020999947],[114.43609588400011,-6.9662742189999562],[114.43609581800001,-6.9662651889999552],[114.43608678100009,-6.9662652549999393],[114.4360867150001,-6.9662562249999382]]]},"properties":{"OBJECTID":35081,"FID_mangrove_utm":34940,"OBJECTID_1":34940,"Name":"18102566,9293","FolderPath":"JATIM/JATIM","SymbolID":0,"AltMode":0,"Base":0,"Clamped":-1,"Extruded":0,"Snippet":"","PopupInfo":"\u003chtml xmlns:fo=\"http://www.w3.org/1999/XSL/Format\" xmlns:msxsl=\"urn:schemas-microsoft-com:xslt\"\u003e\n\u003chead\u003e\n\u003cMETA http-equiv=\"Content-Type\" content=\"text/html\"\u003e\n\u003cmeta http-equiv=\"content-type\" content=\"text/html; charset=UTF-8\"\u003e\n\u003c/head\u003e\n\u003cbody style=\"margin:0px 0px 0px 0px;overflow:auto;background:#FFFFFF;\"\u003e\n\u003ctable style=\"font-family:Arial,Verdana,Times;font-size:12px;text-align:left;width:100%;border-collapse:collapse;padding:3px 3px 3px 3px\"\u003e\n\u003ctr style=\"text-align:center;font-weight:bold;background:#9CBCE2\"\u003e\n\u003ctd\u003e18102566,9293\u003c/td\u003e\n\u003c/tr\u003e\n\u003ctr\u003e\n\u003ctd\u003e\n\u003ctable style=\"font-family:Arial,Verdana,Times;font-size:12px;text-align:left;width:100%;border-spacing:0px; padding:3px 3px 3px 3px\"\u003e\n\u003ctr\u003e\n\u003ctd\u003eFID\u003c/td\u003e\n\u003ctd\u003e0\u003c/td\u003e\n\u003c/tr\u003e\n\u003ctr bgcolor=\"#D4E4F3\"\u003e\n\u003ctd\u003eShape_Leng\u003c/td\u003e\n\u003ctd\u003e18102566,9293\u003c/td\u003e\n\u003c/tr\u003e\n\u003c/table\u003e\n\u003c/td\u003e\n\u003c/tr\u003e\n\u003c/table\u003e\n\u003c/body\u003e\u003cscript type=\"text/javascript\"\u003e\n\t\t\t\tfunction changeImage(attElement, nameElement) {\n\t\t\t\tdocument.getElementById('imageAttachment').src = attElement;\n\t\t\t\tdocument.getElementById('imageName').innerHTML = nameElement;}\n\t\t\t\u003c/script\u003e\u003c/html\u003e\n","FID_active_grids":209,"GridID":"J40","Shape_Length":0.0013189429963620294,"Shape_Area":6.1120396876471909e-08}},{"type":"Feature","id":35423,"geometry":{"type":"Polygon","coordinates":[[[114.43731500700005,-6.961190442999964],[114.43730597000001,-6.9611905079999588],[114.43730610200009,-6.9612085669999715],[114.43731513800003,-6.9612085019999768],[114.43731527000011,-6.9612265609999326],[114.43734238000002,-6.9612263639999696],[114.43734244600012,-6.9612353929999813],[114.43733340900008,-6.9612354589999654],[114.43733354100004,-6.9612535179999782],[114.43736968700011,-6.9612532549999742],[114.43736955600002,-6.9612351959999614],[114.43736051900009,-6.9612352619999456],[114.43736045300011,-6.9612262319999445],[114.43736949000004,-6.9612261669999498],[114.43736942400005,-6.9612171369999487],[114.43733327700011,-6.9612173999999527],[114.43733321200011,-6.9612083699999516],[114.43732417500007,-6.9612084359999358],[114.43732410900009,-6.9611994059999347],[114.43731507300004,-6.9611994719999757],[114.43731500700005,-6.961190442999964]]]},"properties":{"OBJECTID":35423,"FID_mangrove_utm":35279,"OBJECTID_1":35279,"Name":"18102566,9293","FolderPath":"JATIM/JATIM","SymbolID":0,"AltMode":0,"Base":0,"Clamped":-1,"Extruded":0,"Snippet":"","PopupInfo":"\u003chtml xmlns:fo=\"http://www.w3.org/1999/XSL/Format\" xmlns:msxsl=\"urn:schemas-microsoft-com:xslt\"\u003e\n\u003chead\u003e\n\u003cMETA http-equiv=\"Content-Type\" content=\"text/html\"\u003e\n\u003cmeta http-equiv=\"content-type\" content=\"text/html; charset=UTF-8\"\u003e\n\u003c/head\u003e\n\u003cbody style=\"margin:0px 0px 0px 0px;overflow:auto;background:#FFFFFF;\"\u003e\n\u003ctable style=\"font-family:Arial,Verdana,Times;font-size:12px;text-align:left;width:100%;border-collapse:collapse;padding:3px 3px 3px 3px\"\u003e\n\u003ctr style=\"text-align:center;font-weight:bold;background:#9CBCE2\"\u003e\n\u003ctd\u003e18102566,9293\u003c/td\u003e\n\u003c/tr\u003e\n\u003ctr\u003e\n\u003ctd\u003e\n\u003ctable style=\"font-family:Arial,Verdana,Times;font-size:12px;text-align:left;width:100%;border-spacing:0px; padding:3px 3px 3px 3px\"\u003e\n\u003ctr\u003e\n\u003ctd\u003eFID\u003c/td\u003e\n\u003ctd\u003e0\u003c/td\u003e\n\u003c/tr\u003e\n\u003ctr bgcolor=\"#D4E4F3\"\u003e\n\u003ctd\u003eShape_Leng\u003c/td\u003e\n\u003ctd\u003e18102566,9293\u003c/td\u003e\n\u003c/tr\u003e\n\u003c/table\u003e\n\u003c/td\u003e\n\u003c/tr\u003e\n\u003c/table\u003e\n\u003c/body\u003e\u003cscript type=\"text/javascript\"\u003e\n\t\t\t\tfunction changeImage(attElement, nameElement) {\n\t\t\t\tdocument.getElementById('imageAttachment').src = attElement;\n\t\t\t\tdocument.getElementById('imageName').innerHTML = nameElement;}\n\t\t\t\u003c/script\u003e\u003c/html\u003e\n","FID_active_grids":209,"GridID":"J40","Shape_Length":0.00028908165689399645,"Shape_Area":1.7136281065525886e-09}},{"type":"Feature","id":35490,"geometry":{"type":"Polygon","coordinates":[[[114.43693746600002,-6.9602269699999511],[114.43693740100002,-6.96021793999995],[114.4369283640001,-6.9602180059999341],[114.43692843000008,-6.9602270359999352],[114.43693746600002,-6.9602269699999511]]]},"properties":{"OBJECTID":35490,"FID_mangrove_utm":35346,"OBJECTID_1":35346,"Name":"18102566,9293","FolderPath":"JATIM/JATIM","SymbolID":0,"AltMode":0,"Base":0,"Clamped":-1,"Extruded":0,"Snippet":"","PopupInfo":"\u003chtml xmlns:fo=\"http://www.w3.org/1999/XSL/Format\" xmlns:msxsl=\"urn:schemas-microsoft-com:xslt\"\u003e\n\u003chead\u003e\n\u003cMETA http-equiv=\"Content-Type\" content=\"text/html\"\u003e\n\u003cmeta http-equiv=\"content-type\" content=\"text/html; charset=UTF-8\"\u003e\n\u003c/head\u003e\n\u003cbody style=\"margin:0px 0px 0px 0px;overflow:auto;background:#FFFFFF;\"\u003e\n\u003ctable style=\"font-family:Arial,Verdana,Times;font-size:12px;text-align:left;width:100%;border-collapse:collapse;padding:3px 3px 3px 3px\"\u003e\n\u003ctr style=\"text-align:center;font-weight:bold;background:#9CBCE2\"\u003e\n\u003ctd\u003e18102566,9293\u003c/td\u003e\n\u003c/tr\u003e\n\u003ctr\u003e\n\u003ctd\u003e\n\u003ctable style=\"font-family:Arial,Verdana,Times;font-size:12px;text-align:left;width:100%;border-spacing:0px; padding:3px 3px 3px 3px\"\u003e\n\u003ctr\u003e\n\u003ctd\u003eFID\u003c/td\u003e\n\u003ctd\u003e0\u003c/td\u003e\n\u003c/tr\u003e\n\u003ctr bgcolor=\"#D4E4F3\"\u003e\n\u003ctd\u003eShape_Leng\u003c/td\u003e\n\u003ctd\u003e18102566,9293\u003c/td\u003e\n\u003c/tr\u003e\n\u003c/table\u003e\n\u003c/td\u003e\n\u003c/tr\u003e\n\u003c/table\u003e\n\u003c/body\u003e\u003cscript type=\"text/javascript\"\u003e\n\t\t\t\tfunction changeImage(attElement, nameElement) {\n\t\t\t\tdocument.getElementById('imageAttachment').src = attElement;\n\t\t\t\tdocument.getElementById('imageName').innerHTML = nameElement;}\n\t\t\t\u003c/script\u003e\u003c/html\u003e\n","FID_active_grids":209,"GridID":"J40","Shape_Length":3.6133957037229191e-05,"Shape_Area":8.1603917396974588e-11}},{"type":"Feature","id":35501,"geometry":{"type":"Polygon","coordinates":[[[114.43691015900004,-6.9602000779999571],[114.43691919600008,-6.9602000129999624],[114.43691913000009,-6.9601909829999613],[114.43693720300007,-6.9601908519999256],[114.43693694000001,-6.9601547329999676],[114.43694597700005,-6.9601546669999266],[114.43694591100007,-6.9601456379999718],[114.43695494800011,-6.9601455719999308],[114.43695475000004,-6.9601184829999738],[114.43692764100001,-6.9601186809999263],[114.43692783800009,-6.9601457689999506],[114.43691880100005,-6.9601458349999348],[114.43691886700003,-6.9601548649999359],[114.4369098300001,-6.9601549299999306],[114.43690989600009,-6.9601639599999316],[114.43690085900005,-6.9601640259999726],[114.43690118800009,-6.9602091739999423],[114.43689215200004,-6.960209238999937],[114.43689228300002,-6.9602272989999392],[114.43690132000006,-6.960227232999955],[114.43690138600005,-6.9602362619999667],[114.4369104220001,-6.960236196999972],[114.43691035600011,-6.9602271669999709],[114.43691939300004,-6.9602271009999299],[114.43691932700006,-6.9602180719999751],[114.43691029100012,-6.9602181379999593],[114.43691015900004,-6.9602000779999571]]]},"properties":{"OBJECTID":35501,"FID_mangrove_utm":35357,"OBJECTID_1":35357,"Name":"18102566,9293","FolderPath":"JATIM/JATIM","SymbolID":0,"AltMode":0,"Base":0,"Clamped":-1,"Extruded":0,"Snippet":"","PopupInfo":"\u003chtml xmlns:fo=\"http://www.w3.org/1999/XSL/Format\" xmlns:msxsl=\"urn:schemas-microsoft-com:xslt\"\u003e\n\u003chead\u003e\n\u003cMETA http-equiv=\"Content-Type\" content=\"text/html\"\u003e\n\u003cmeta http-equiv=\"content-type\" content=\"text/html; charset=UTF-8\"\u003e\n\u003c/head\u003e\n\u003cbody style=\"margin:0px 0px 0px 0px;overflow:auto;background:#FFFFFF;\"\u003e\n\u003ctable style=\"font-family:Arial,Verdana,Times;font-size:12px;text-align:left;width:100%;border-collapse:collapse;padding:3px 3px 3px 3px\"\u003e\n\u003ctr style=\"text-align:center;font-weight:bold;background:#9CBCE2\"\u003e\n\u003ctd\u003e18102566,9293\u003c/td\u003e\n\u003c/tr\u003e\n\u003ctr\u003e\n\u003ctd\u003e\n\u003ctable style=\"font-family:Arial,Verdana,Times;font-size:12px;text-align:left;width:100%;border-spacing:0px; padding:3px 3px 3px 3px\"\u003e\n\u003ctr\u003e\n\u003ctd\u003eFID\u003c/td\u003e\n\u003ctd\u003e0\u003c/td\u003e\n\u003c/tr\u003e\n\u003ctr bgcolor=\"#D4E4F3\"\u003e\n\u003ctd\u003eShape_Leng\u003c/td\u003e\n\u003ctd\u003e18102566,9293\u003c/td\u003e\n\u003c/tr\u003e\n\u003c/table\u003e\n\u003c/td\u003e\n\u003c/tr\u003e\n\u003c/table\u003e\n\u003c/body\u003e\u003cscript type=\"text/javascript\"\u003e\n\t\t\t\tfunction changeImage(attElement, nameElement) {\n\t\t\t\tdocument.getElementById('imageAttachment').src = attElement;\n\t\t\t\tdocument.getElementById('imageName').innerHTML = nameElement;}\n\t\t\t\u003c/script\u003e\u003c/html\u003e\n","FID_active_grids":209,"GridID":"J40","Shape_Length":0.00037936706206258378,"Shape_Area":2.937641720962363e-09}}]}