{"type":"FeatureCollection","features":[{"type":"Feature","id":39268,"geometry":{"type":"Polygon","coordinates":[[[112.87599802700004,-6.8979383049999683],[112.87599063100004,-6.8979383339999458],[112.87599064400001,-6.8979416649999621],[112.87599802700004,-6.8979383049999683]]]},"properties":{"OBJECTID":39268,"FID_mangrove_utm":39095,"OBJECTID_1":39095,"Name":"18102566,9293","FolderPath":"JATIM/JATIM","SymbolID":0,"AltMode":0,"Base":0,"Clamped":-1,"Extruded":0,"Snippet":"","PopupInfo":"\u003chtml xmlns:fo=\"http://www.w3.org/1999/XSL/Format\" xmlns:msxsl=\"urn:schemas-microsoft-com:xslt\"\u003e\n\u003chead\u003e\n\u003cMETA http-equiv=\"Content-Type\" content=\"text/html\"\u003e\n\u003cmeta http-equiv=\"content-type\" content=\"text/html; charset=UTF-8\"\u003e\n\u003c/head\u003e\n\u003cbody style=\"margin:0px 0px 0px 0px;overflow:auto;background:#FFFFFF;\"\u003e\n\u003ctable style=\"font-family:Arial,Verdana,Times;font-size:12px;text-align:left;width:100%;border-collapse:collapse;padding:3px 3px 3px 3px\"\u003e\n\u003ctr style=\"text-align:center;font-weight:bold;background:#9CBCE2\"\u003e\n\u003ctd\u003e18102566,9293\u003c/td\u003e\n\u003c/tr\u003e\n\u003ctr\u003e\n\u003ctd\u003e\n\u003ctable style=\"font-family:Arial,Verdana,Times;font-size:12px;text-align:left;width:100%;border-spacing:0px; padding:3px 3px 3px 3px\"\u003e\n\u003ctr\u003e\n\u003ctd\u003eFID\u003c/td\u003e\n\u003ctd\u003e0\u003c/td\u003e\n\u003c/tr\u003e\n\u003ctr bgcolor=\"#D4E4F3\"\u003e\n\u003ctd\u003eShape_Leng\u003c/td\u003e\n\u003ctd\u003e18102566,9293\u003c/td\u003e\n\u003c/tr\u003e\n\u003c/table\u003e\n\u003c/td\u003e\n\u003c/tr\u003e\n\u003c/table\u003e\n\u003c/body\u003e\u003cscript type=\"text/javascript\"\u003e\n\t\t\t\tfunction changeImage(attElement, nameElement) {\n\t\t\t\tdocument.getElementById('imageAttachment').src = attElement;\n\t\t\t\tdocument.getElementById('imageName').innerHTML = nameElement;}\n\t\t\t\u003c/script\u003e\u003c/html\u003e\n","FID_active_grids":229,"GridID":"I05","Shape_Length":1.8838696710242021e-05,"Shape_Area":1.2318226561106068e-11}},{"type":"Feature","id":39272,"geometry":{"type":"Polygon","coordinates":[[[112.87609823300011,-6.897892704999947],[112.87607187500009,-6.8978928089999272],[112.87607191100005,-6.8979018499999256],[112.87604477000002,-6.8979019559999415],[112.87604480500011,-6.8979109969999399],[112.87602671200011,-6.8979110689999743],[112.87602674700008,-6.8979201099999727],[112.87601770000003,-6.8979201449999437],[112.87601773600011,-6.8979291859999421],[112.87600868900006,-6.8979292219999593],[112.87600870500012,-6.8979334459999677],[112.87609823300011,-6.897892704999947]]]},"properties":{"OBJECTID":39272,"FID_mangrove_utm":39099,"OBJECTID_1":39099,"Name":"18102566,9293","FolderPath":"JATIM/JATIM","SymbolID":0,"AltMode":0,"Base":0,"Clamped":-1,"Extruded":0,"Snippet":"","PopupInfo":"\u003chtml xmlns:fo=\"http://www.w3.org/1999/XSL/Format\" xmlns:msxsl=\"urn:schemas-microsoft-com:xslt\"\u003e\n\u003chead\u003e\n\u003cMETA http-equiv=\"Content-Type\" content=\"text/html\"\u003e\n\u003cmeta http-equiv=\"content-type\" content=\"text/html; charset=UTF-8\"\u003e\n\u003c/head\u003e\n\u003cbody style=\"margin:0px 0px 0px 0px;overflow:auto;background:#FFFFFF;\"\u003e\n\u003ctable style=\"font-family:Arial,Verdana,Times;font-size:12px;text-align:left;width:100%;border-collapse:collapse;padding:3px 3px 3px 3px\"\u003e\n\u003ctr style=\"text-align:center;font-weight:bold;background:#9CBCE2\"\u003e\n\u003ctd\u003e18102566,9293\u003c/td\u003e\n\u003c/tr\u003e\n\u003ctr\u003e\n\u003ctd\u003e\n\u003ctable style=\"font-family:Arial,Verdana,Times;font-size:12px;text-align:left;width:100%;border-spacing:0px; padding:3px 3px 3px 3px\"\u003e\n\u003ctr\u003e\n\u003ctd\u003eFID\u003c/td\u003e\n\u003ctd\u003e0\u003c/td\u003e\n\u003c/tr\u003e\n\u003ctr bgcolor=\"#D4E4F3\"\u003e\n\u003ctd\u003eShape_Leng\u003c/td\u003e\n\u003ctd\u003e18102566,9293\u003c/td\u003e\n\u003c/tr\u003e\n\u003c/table\u003e\n\u003c/td\u003e\n\u003c/tr\u003e\n\u003c/table\u003e\n\u003c/body\u003e\u003cscript type=\"text/javascript\"\u003e\n\t\t\t\tfunction changeImage(attElement, nameElement) {\n\t\t\t\tdocument.getElementById('imageAttachment').src = attElement;\n\t\t\t\tdocument.getElementById('imageName').innerHTML = nameElement;}\n\t\t\t\u003c/script\u003e\u003c/html\u003e\n","FID_active_grids":229,"GridID":"I05","Shape_Length":0.00022843704887467911,"Shape_Area":6.6602836214868359e-10}},{"type":"Feature","id":39273,"geometry":{"type":"Polygon","coordinates":[[[112.87480533700011,-6.8979068269999289],[112.87480526600007,-6.897888744999932],[112.87479621900002,-6.8978887809999492],[112.87479629000006,-6.897906862999946],[112.87480533700011,-6.8979068269999289]]]},"properties":{"OBJECTID":39273,"FID_mangrove_utm":39100,"OBJECTID_1":39100,"Name":"18102566,9293","FolderPath":"JATIM/JATIM","SymbolID":0,"AltMode":0,"Base":0,"Clamped":-1,"Extruded":0,"Snippet":"","PopupInfo":"\u003chtml xmlns:fo=\"http://www.w3.org/1999/XSL/Format\" xmlns:msxsl=\"urn:schemas-microsoft-com:xslt\"\u003e\n\u003chead\u003e\n\u003cMETA http-equiv=\"Content-Type\" content=\"text/html\"\u003e\n\u003cmeta http-equiv=\"content-type\" content=\"text/html; charset=UTF-8\"\u003e\n\u003c/head\u003e\n\u003cbody style=\"margin:0px 0px 0px 0px;overflow:auto;background:#FFFFFF;\"\u003e\n\u003ctable style=\"font-family:Arial,Verdana,Times;font-size:12px;text-align:left;width:100%;border-collapse:collapse;padding:3px 3px 3px 3px\"\u003e\n\u003ctr style=\"text-align:center;font-weight:bold;background:#9CBCE2\"\u003e\n\u003ctd\u003e18102566,9293\u003c/td\u003e\n\u003c/tr\u003e\n\u003ctr\u003e\n\u003ctd\u003e\n\u003ctable style=\"font-family:Arial,Verdana,Times;font-size:12px;text-align:left;width:100%;border-spacing:0px; padding:3px 3px 3px 3px\"\u003e\n\u003ctr\u003e\n\u003ctd\u003eFID\u003c/td\u003e\n\u003ctd\u003e0\u003c/td\u003e\n\u003c/tr\u003e\n\u003ctr bgcolor=\"#D4E4F3\"\u003e\n\u003ctd\u003eShape_Leng\u003c/td\u003e\n\u003ctd\u003e18102566,9293\u003c/td\u003e\n\u003c/tr\u003e\n\u003c/table\u003e\n\u003c/td\u003e\n\u003c/tr\u003e\n\u003c/table\u003e\n\u003c/body\u003e\u003cscript type=\"text/javascript\"\u003e\n\t\t\t\tfunction changeImage(attElement, nameElement) {\n\t\t\t\tdocument.getElementById('imageAttachment').src = attElement;\n\t\t\t\tdocument.getElementById('imageName').innerHTML = nameElement;}\n\t\t\t\u003c/script\u003e\u003c/html\u003e\n","FID_active_grids":229,"GridID":"I05","Shape_Length":5.4258422127354279e-05,"Shape_Area":1.6359041085449395e-10}},{"type":"Feature","id":39275,"geometry":{"type":"Polygon","coordinates":[[[112.87614418500004,-6.8978757739999423],[112.8761441800001,-6.8978744419999316],[112.87611703900006,-6.8978745479999475],[112.87611707700012,-6.8978843049999341],[112.87614418500004,-6.8978757739999423]]]},"properties":{"OBJECTID":39275,"FID_mangrove_utm":39102,"OBJECTID_1":39102,"Name":"18102566,9293","FolderPath":"JATIM/JATIM","SymbolID":0,"AltMode":0,"Base":0,"Clamped":-1,"Extruded":0,"Snippet":"","PopupInfo":"\u003chtml xmlns:fo=\"http://www.w3.org/1999/XSL/Format\" xmlns:msxsl=\"urn:schemas-microsoft-com:xslt\"\u003e\n\u003chead\u003e\n\u003cMETA http-equiv=\"Content-Type\" content=\"text/html\"\u003e\n\u003cmeta http-equiv=\"content-type\" content=\"text/html; charset=UTF-8\"\u003e\n\u003c/head\u003e\n\u003cbody style=\"margin:0px 0px 0px 0px;overflow:auto;background:#FFFFFF;\"\u003e\n\u003ctable style=\"font-family:Arial,Verdana,Times;font-size:12px;text-align:left;width:100%;border-collapse:collapse;padding:3px 3px 3px 3px\"\u003e\n\u003ctr style=\"text-align:center;font-weight:bold;background:#9CBCE2\"\u003e\n\u003ctd\u003e18102566,9293\u003c/td\u003e\n\u003c/tr\u003e\n\u003ctr\u003e\n\u003ctd\u003e\n\u003ctable style=\"font-family:Arial,Verdana,Times;font-size:12px;text-align:left;width:100%;border-spacing:0px; padding:3px 3px 3px 3px\"\u003e\n\u003ctr\u003e\n\u003ctd\u003eFID\u003c/td\u003e\n\u003ctd\u003e0\u003c/td\u003e\n\u003c/tr\u003e\n\u003ctr bgcolor=\"#D4E4F3\"\u003e\n\u003ctd\u003eShape_Leng\u003c/td\u003e\n\u003ctd\u003e18102566,9293\u003c/td\u003e\n\u003c/tr\u003e\n\u003c/table\u003e\n\u003c/td\u003e\n\u003c/tr\u003e\n\u003c/table\u003e\n\u003c/body\u003e\u003cscript type=\"text/javascript\"\u003e\n\t\t\t\tfunction changeImage(attElement, nameElement) {\n\t\t\t\tdocument.getElementById('imageAttachment').src = attElement;\n\t\t\t\tdocument.getElementById('imageName').innerHTML = nameElement;}\n\t\t\t\u003c/script\u003e\u003c/html\u003e\n","FID_active_grids":229,"GridID":"I05","Shape_Length":6.6648974766474477e-05,"Shape_Area":1.5048463785020693e-10}},{"type":"Feature","id":39281,"geometry":{"type":"Polygon","coordinates":[[[112.87459711500003,-6.8978714799999352],[112.87459708000006,-6.8978624389999368],[112.87457898600007,-6.8978625099999249],[112.87457902100005,-6.8978715509999802],[112.87459711500003,-6.8978714799999352]]]},"properties":{"OBJECTID":39281,"FID_mangrove_utm":39108,"OBJECTID_1":39108,"Name":"18102566,9293","FolderPath":"JATIM/JATIM","SymbolID":0,"AltMode":0,"Base":0,"Clamped":-1,"Extruded":0,"Snippet":"","PopupInfo":"\u003chtml xmlns:fo=\"http://www.w3.org/1999/XSL/Format\" xmlns:msxsl=\"urn:schemas-microsoft-com:xslt\"\u003e\n\u003chead\u003e\n\u003cMETA http-equiv=\"Content-Type\" content=\"text/html\"\u003e\n\u003cmeta http-equiv=\"content-type\" content=\"text/html; charset=UTF-8\"\u003e\n\u003c/head\u003e\n\u003cbody style=\"margin:0px 0px 0px 0px;overflow:auto;background:#FFFFFF;\"\u003e\n\u003ctable style=\"font-family:Arial,Verdana,Times;font-size:12px;text-align:left;width:100%;border-collapse:collapse;padding:3px 3px 3px 3px\"\u003e\n\u003ctr style=\"text-align:center;font-weight:bold;background:#9CBCE2\"\u003e\n\u003ctd\u003e18102566,9293\u003c/td\u003e\n\u003c/tr\u003e\n\u003ctr\u003e\n\u003ctd\u003e\n\u003ctable style=\"font-family:Arial,Verdana,Times;font-size:12px;text-align:left;width:100%;border-spacing:0px; padding:3px 3px 3px 3px\"\u003e\n\u003ctr\u003e\n\u003ctd\u003eFID\u003c/td\u003e\n\u003ctd\u003e0\u003c/td\u003e\n\u003c/tr\u003e\n\u003ctr bgcolor=\"#D4E4F3\"\u003e\n\u003ctd\u003eShape_Leng\u003c/td\u003e\n\u003ctd\u003e18102566,9293\u003c/td\u003e\n\u003c/tr\u003e\n\u003c/table\u003e\n\u003c/td\u003e\n\u003c/tr\u003e\n\u003c/table\u003e\n\u003c/body\u003e\u003cscript type=\"text/javascript\"\u003e\n\t\t\t\tfunction changeImage(attElement, nameElement) {\n\t\t\t\tdocument.getElementById('imageAttachment').src = attElement;\n\t\t\t\tdocument.getElementById('imageName').innerHTML = nameElement;}\n\t\t\t\u003c/script\u003e\u003c/html\u003e\n","FID_active_grids":229,"GridID":"I05","Shape_Length":5.4270414113832913e-05,"Shape_Area":1.6359033933658891e-10}},{"type":"Feature","id":39290,"geometry":{"type":"Polygon","coordinates":[[[112.87559199500004,-6.8977952409999261],[112.87555580800006,-6.8977953829999592],[112.87555584300003,-6.8978044239999576],[112.87553774900005,-6.8978044949999457],[112.87553778500001,-6.8978135369999336],[112.87551969100002,-6.8978136079999786],[112.87551976200007,-6.8978316899999754],[112.87551071500002,-6.8978317249999463],[112.87551075100009,-6.8978407669999342],[112.87550170400004,-6.897840801999962],[112.87550173900001,-6.8978498429999604],[112.87549269200008,-6.8978498789999776],[112.87549265700011,-6.8978408379999792],[112.87548361000006,-6.8978408729999501],[112.87548364500003,-6.8978499139999485],[112.87546555200004,-6.897849985999926],[112.87546558700001,-6.8978590269999813],[112.87545654000007,-6.8978590619999522],[112.87545661100012,-6.8978771439999491],[112.87544756400007,-6.8978771799999663],[112.87544760000003,-6.8978862209999647],[112.87543855300009,-6.8978862569999251],[112.87543862400003,-6.8979043389999788],[112.87542957700009,-6.8979043739999497],[112.87542961300005,-6.8979134159999376],[112.87542056600012,-6.8979134509999653],[112.87542060100009,-6.8979224919999638],[112.87541155400004,-6.897922527999981],[112.87541159000011,-6.8979315689999794],[112.87539349600002,-6.8979316399999675],[112.87539353200009,-6.8979406809999659],[112.87536639100006,-6.8979407879999712],[112.8753664620001,-6.8979588699999681],[112.875348368,-6.8979589409999562],[112.87534840400008,-6.8979679819999546],[112.87533935700003,-6.8979680179999718],[112.87533939200011,-6.8979770589999703],[112.87533034500007,-6.8979770949999306],[112.87533041600011,-6.8979951769999275],[112.87533946300005,-6.8979951409999671],[112.87533957000005,-6.8980222649999519],[112.87533052300012,-6.8980222999999796],[112.87533059400005,-6.8980403819999765],[112.8753396410001,-6.8980403469999487],[112.87533967700006,-6.8980493879999472],[112.8753487240001,-6.8980493529999762],[112.87534887900006,-6.8980888099999333],[112.87545171800002,-6.8980857599999581],[112.87563904000001,-6.898066293999932],[112.87563829800001,-6.8980662969999571],[112.87563826200005,-6.8980572559999587],[112.87561112100002,-6.8980573619999745],[112.87561105000009,-6.8980392799999777],[112.87560200300004,-6.898039315999938],[112.87560196700008,-6.8980302749999396],[112.87559292000003,-6.8980303099999674],[112.8755928490001,-6.8980122279999705],[112.87558380200005,-6.8980122639999308],[112.87558376700008,-6.898003221999943],[112.87559281400002,-6.8980031869999721],[112.87559274300008,-6.8979851049999752],[112.87558369600004,-6.8979851399999461],[112.87558344700005,-6.8979218519999677],[112.87559249300011,-6.8979218169999399],[112.87559245800003,-6.8979127759999415],[112.87558341100009,-6.8979128109999692],[112.87558337500002,-6.8979037699999708],[112.87560146900012,-6.8979036989999258],[112.87560143400003,-6.8978946579999274],[112.87561048100008,-6.8978946219999671],[112.87561040900005,-6.8978765399999702],[112.8756013630001,-6.8978765759999305],[112.87560129100007,-6.8978584929999442],[112.87561033800012,-6.8978584579999733],[112.87561012500009,-6.8978042109999365],[112.87559203100011,-6.8978042819999814],[112.87559199500004,-6.8977952409999261]]]},"properties":{"OBJECTID":39290,"FID_mangrove_utm":39117,"OBJECTID_1":39117,"Name":"18102566,9293","FolderPath":"JATIM/JATIM","SymbolID":0,"AltMode":0,"Base":0,"Clamped":-1,"Extruded":0,"Snippet":"","PopupInfo":"\u003chtml xmlns:fo=\"http://www.w3.org/1999/XSL/Format\" xmlns:msxsl=\"urn:schemas-microsoft-com:xslt\"\u003e\n\u003chead\u003e\n\u003cMETA http-equiv=\"Content-Type\" content=\"text/html\"\u003e\n\u003cmeta http-equiv=\"content-type\" content=\"text/html; charset=UTF-8\"\u003e\n\u003c/head\u003e\n\u003cbody style=\"margin:0px 0px 0px 0px;overflow:auto;background:#FFFFFF;\"\u003e\n\u003ctable style=\"font-family:Arial,Verdana,Times;font-size:12px;text-align:left;width:100%;border-collapse:collapse;padding:3px 3px 3px 3px\"\u003e\n\u003ctr style=\"text-align:center;font-weight:bold;background:#9CBCE2\"\u003e\n\u003ctd\u003e18102566,9293\u003c/td\u003e\n\u003c/tr\u003e\n\u003ctr\u003e\n\u003ctd\u003e\n\u003ctable style=\"font-family:Arial,Verdana,Times;font-size:12px;text-align:left;width:100%;border-spacing:0px; padding:3px 3px 3px 3px\"\u003e\n\u003ctr\u003e\n\u003ctd\u003eFID\u003c/td\u003e\n\u003ctd\u003e0\u003c/td\u003e\n\u003c/tr\u003e\n\u003ctr bgcolor=\"#D4E4F3\"\u003e\n\u003ctd\u003eShape_Leng\u003c/td\u003e\n\u003ctd\u003e18102566,9293\u003c/td\u003e\n\u003c/tr\u003e\n\u003c/table\u003e\n\u003c/td\u003e\n\u003c/tr\u003e\n\u003c/table\u003e\n\u003c/body\u003e\u003cscript type=\"text/javascript\"\u003e\n\t\t\t\tfunction changeImage(attElement, nameElement) {\n\t\t\t\tdocument.getElementById('imageAttachment').src = attElement;\n\t\t\t\tdocument.getElementById('imageName').innerHTML = nameElement;}\n\t\t\t\u003c/script\u003e\u003c/html\u003e\n","FID_active_grids":229,"GridID":"I05","Shape_Length":0.0013262359175495563,"Shape_Area":5.5021618976911572e-08}},{"type":"Feature","id":39296,"geometry":{"type":"Polygon","coordinates":[[[112.8742346680001,-6.8977282439999499],[112.87420752700007,-6.8977283499999658],[112.87420756300003,-6.8977373909999642],[112.87423470300007,-6.8977372849999483],[112.8742346680001,-6.8977282439999499]]]},"properties":{"OBJECTID":39296,"FID_mangrove_utm":39123,"OBJECTID_1":39123,"Name":"18102566,9293","FolderPath":"JATIM/JATIM","SymbolID":0,"AltMode":0,"Base":0,"Clamped":-1,"Extruded":0,"Snippet":"","PopupInfo":"\u003chtml xmlns:fo=\"http://www.w3.org/1999/XSL/Format\" xmlns:msxsl=\"urn:schemas-microsoft-com:xslt\"\u003e\n\u003chead\u003e\n\u003cMETA http-equiv=\"Content-Type\" content=\"text/html\"\u003e\n\u003cmeta http-equiv=\"content-type\" content=\"text/html; charset=UTF-8\"\u003e\n\u003c/head\u003e\n\u003cbody style=\"margin:0px 0px 0px 0px;overflow:auto;background:#FFFFFF;\"\u003e\n\u003ctable style=\"font-family:Arial,Verdana,Times;font-size:12px;text-align:left;width:100%;border-collapse:collapse;padding:3px 3px 3px 3px\"\u003e\n\u003ctr style=\"text-align:center;font-weight:bold;background:#9CBCE2\"\u003e\n\u003ctd\u003e18102566,9293\u003c/td\u003e\n\u003c/tr\u003e\n\u003ctr\u003e\n\u003ctd\u003e\n\u003ctable style=\"font-family:Arial,Verdana,Times;font-size:12px;text-align:left;width:100%;border-spacing:0px; padding:3px 3px 3px 3px\"\u003e\n\u003ctr\u003e\n\u003ctd\u003eFID\u003c/td\u003e\n\u003ctd\u003e0\u003c/td\u003e\n\u003c/tr\u003e\n\u003ctr bgcolor=\"#D4E4F3\"\u003e\n\u003ctd\u003eShape_Leng\u003c/td\u003e\n\u003ctd\u003e18102566,9293\u003c/td\u003e\n\u003c/tr\u003e\n\u003c/table\u003e\n\u003c/td\u003e\n\u003c/tr\u003e\n\u003c/table\u003e\n\u003c/body\u003e\u003cscript type=\"text/javascript\"\u003e\n\t\t\t\tfunction changeImage(attElement, nameElement) {\n\t\t\t\tdocument.getElementById('imageAttachment').src = attElement;\n\t\t\t\tdocument.getElementById('imageName').innerHTML = nameElement;}\n\t\t\t\u003c/script\u003e\u003c/html\u003e\n","FID_active_grids":229,"GridID":"I05","Shape_Length":7.2363553484074611e-05,"Shape_Area":2.4538102379436766e-10}},{"type":"Feature","id":39307,"geometry":{"type":"Polygon","coordinates":[[[112.87647770600006,-6.8975657269999715],[112.87640533100011,-6.8975660119999702],[112.87640536600009,-6.8975750529999686],[112.87636013200006,-6.8975752309999621],[112.8763600960001,-6.8975661899999636],[112.8762967670001,-6.8975664389999451],[112.87629680300006,-6.8975754799999436],[112.87627870900008,-6.8975755509999317],[112.87627878000001,-6.8975936329999286],[112.87626973300007,-6.8975936689999457],[112.87626976900003,-6.8976027099999442],[112.8762607220001,-6.8976027459999614],[112.87626075800006,-6.8976117869999598],[112.87625171100001,-6.8976118219999307],[112.87625188900006,-6.8976570279999692],[112.87624284200001,-6.8976570639999295],[112.87624316200004,-6.8977384339999617],[112.8762341150001,-6.8977384689999326],[112.87623422200011,-6.8977655929999742],[112.87622517500006,-6.8977656279999451],[112.87622528200006,-6.8977927519999298],[112.87621623500002,-6.8977927869999576],[112.8762162700001,-6.897801827999956],[112.87620722300005,-6.8978018639999732],[112.87620725900001,-6.8978109049999716],[112.87618916500003,-6.8978109759999597],[112.87618930700012,-6.8978471409999429],[112.87618026100006,-6.8978471759999707],[112.87618029600003,-6.8978562169999691],[112.87617124900009,-6.8978562529999294],[112.87617128500005,-6.8978652939999279],[112.87616223800001,-6.8978653289999556],[112.87616225700003,-6.8978700859999549],[112.87625261500011,-6.8978416469999502],[112.87625260100003,-6.8978378499999735],[112.87626483200006,-6.8978378019999695],[112.8762706870001,-6.8978359599999521],[112.87627065900006,-6.8978287379999301],[112.8762797060001,-6.8978287029999592],[112.87627963500006,-6.8978106199999729],[112.87629772800005,-6.897810548999928],[112.87629776400001,-6.8978195899999264],[112.87631585800011,-6.8978195189999383],[112.87631582200004,-6.8978104779999398],[112.87633391600002,-6.8978104069999517],[112.87633393800002,-6.8978160529999286],[112.87643393100007,-6.8977845819999288],[112.87649178100003,-6.8977464969999573],[112.87648746500008,-6.8977465139999481],[112.87648735800008,-6.8977193909999528],[112.87649640500001,-6.8977193549999356],[112.87649637000004,-6.8977103139999372],[112.87651446400002,-6.8977102429999491],[112.87651442800006,-6.8977012019999506],[112.87652347500011,-6.8977011659999334],[112.87652343900004,-6.897692124999935],[112.87653248600009,-6.8976920899999641],[112.87653245100012,-6.8976830489999656],[112.87658673200008,-6.897682834999955],[112.87658669700011,-6.8976737939999566],[112.87660230800009,-6.8976737329999764],[112.87665757200011,-6.8976373499999681],[112.87661369500006,-6.8976375229999576],[112.87661373100002,-6.897646563999956],[112.87655040200002,-6.8976468129999375],[112.87655033100009,-6.8976287309999407],[112.87654128400004,-6.8976287659999684],[112.87654124800008,-6.89761972499997],[112.87653220200002,-6.8976197609999303],[112.8765321300001,-6.8976016789999335],[112.87651403600012,-6.8976017499999784],[112.87651400100003,-6.89759270899998],[112.8765049540001,-6.8975927439999509],[112.87650491800002,-6.8975837029999525],[112.87649587100009,-6.8975837389999697],[112.87649583600012,-6.897574696999925],[112.87647774200002,-6.8975747689999594],[112.87647770600006,-6.8975657269999715]]]},"properties":{"OBJECTID":39307,"FID_mangrove_utm":39134,"OBJECTID_1":39134,"Name":"18102566,9293","FolderPath":"JATIM/JATIM","SymbolID":0,"AltMode":0,"Base":0,"Clamped":-1,"Extruded":0,"Snippet":"","PopupInfo":"\u003chtml xmlns:fo=\"http://www.w3.org/1999/XSL/Format\" xmlns:msxsl=\"urn:schemas-microsoft-com:xslt\"\u003e\n\u003chead\u003e\n\u003cMETA http-equiv=\"Content-Type\" content=\"text/html\"\u003e\n\u003cmeta http-equiv=\"content-type\" content=\"text/html; charset=UTF-8\"\u003e\n\u003c/head\u003e\n\u003cbody style=\"margin:0px 0px 0px 0px;overflow:auto;background:#FFFFFF;\"\u003e\n\u003ctable style=\"font-family:Arial,Verdana,Times;font-size:12px;text-align:left;width:100%;border-collapse:collapse;padding:3px 3px 3px 3px\"\u003e\n\u003ctr style=\"text-align:center;font-weight:bold;background:#9CBCE2\"\u003e\n\u003ctd\u003e18102566,9293\u003c/td\u003e\n\u003c/tr\u003e\n\u003ctr\u003e\n\u003ctd\u003e\n\u003ctable style=\"font-family:Arial,Verdana,Times;font-size:12px;text-align:left;width:100%;border-spacing:0px; padding:3px 3px 3px 3px\"\u003e\n\u003ctr\u003e\n\u003ctd\u003eFID\u003c/td\u003e\n\u003ctd\u003e0\u003c/td\u003e\n\u003c/tr\u003e\n\u003ctr bgcolor=\"#D4E4F3\"\u003e\n\u003ctd\u003eShape_Leng\u003c/td\u003e\n\u003ctd\u003e18102566,9293\u003c/td\u003e\n\u003c/tr\u003e\n\u003c/table\u003e\n\u003c/td\u003e\n\u003c/tr\u003e\n\u003c/table\u003e\n\u003c/body\u003e\u003cscript type=\"text/javascript\"\u003e\n\t\t\t\tfunction changeImage(attElement, nameElement) {\n\t\t\t\tdocument.getElementById('imageAttachment').src = attElement;\n\t\t\t\tdocument.getElementById('imageName').innerHTML = nameElement;}\n\t\t\t\u003c/script\u003e\u003c/html\u003e\n","FID_active_grids":229,"GridID":"I05","Shape_Length":0.0015691219161544441,"Shape_Area":6.777532550825501e-08}},{"type":"Feature","id":39312,"geometry":{"type":"Polygon","coordinates":[[[112.87545469000008,-6.8973889239999266],[112.87535517400011,-6.8973893149999412],[112.87535528000001,-6.8974164379999365],[112.87536432700006,-6.8974164029999656],[112.87536443400006,-6.8974435259999609],[112.87537348100011,-6.8974434899999437],[112.87537351700007,-6.8974525319999316],[112.87545493900006,-6.8974522119999619],[112.87545490400009,-6.8974431699999741],[112.87546395100003,-6.8974431349999463],[112.87546391500007,-6.8974340939999479],[112.87547296200012,-6.8974340579999307],[112.87547292600004,-6.8974250169999323],[112.87548197300009,-6.8974249809999719],[112.87548190200005,-6.8974068989999751],[112.87547285500011,-6.8974069349999354],[112.87547282000003,-6.897397893999937],[112.87545472600004,-6.8973979649999251],[112.87545469000008,-6.8973889239999266]]]},"properties":{"OBJECTID":39312,"FID_mangrove_utm":39139,"OBJECTID_1":39139,"Name":"18102566,9293","FolderPath":"JATIM/JATIM","SymbolID":0,"AltMode":0,"Base":0,"Clamped":-1,"Extruded":0,"Snippet":"","PopupInfo":"\u003chtml xmlns:fo=\"http://www.w3.org/1999/XSL/Format\" xmlns:msxsl=\"urn:schemas-microsoft-com:xslt\"\u003e\n\u003chead\u003e\n\u003cMETA http-equiv=\"Content-Type\" content=\"text/html\"\u003e\n\u003cmeta http-equiv=\"content-type\" content=\"text/html; charset=UTF-8\"\u003e\n\u003c/head\u003e\n\u003cbody style=\"margin:0px 0px 0px 0px;overflow:auto;background:#FFFFFF;\"\u003e\n\u003ctable style=\"font-family:Arial,Verdana,Times;font-size:12px;text-align:left;width:100%;border-collapse:collapse;padding:3px 3px 3px 3px\"\u003e\n\u003ctr style=\"text-align:center;font-weight:bold;background:#9CBCE2\"\u003e\n\u003ctd\u003e18102566,9293\u003c/td\u003e\n\u003c/tr\u003e\n\u003ctr\u003e\n\u003ctd\u003e\n\u003ctable style=\"font-family:Arial,Verdana,Times;font-size:12px;text-align:left;width:100%;border-spacing:0px; padding:3px 3px 3px 3px\"\u003e\n\u003ctr\u003e\n\u003ctd\u003eFID\u003c/td\u003e\n\u003ctd\u003e0\u003c/td\u003e\n\u003c/tr\u003e\n\u003ctr bgcolor=\"#D4E4F3\"\u003e\n\u003ctd\u003eShape_Leng\u003c/td\u003e\n\u003ctd\u003e18102566,9293\u003c/td\u003e\n\u003c/tr\u003e\n\u003c/table\u003e\n\u003c/td\u003e\n\u003c/tr\u003e\n\u003c/table\u003e\n\u003c/body\u003e\u003cscript type=\"text/javascript\"\u003e\n\t\t\t\tfunction changeImage(attElement, nameElement) {\n\t\t\t\tdocument.getElementById('imageAttachment').src = attElement;\n\t\t\t\tdocument.getElementById('imageName').innerHTML = nameElement;}\n\t\t\t\u003c/script\u003e\u003c/html\u003e\n","FID_active_grids":229,"GridID":"I05","Shape_Length":0.00037989293787090924,"Shape_Area":6.7890642840334275e-09}},{"type":"Feature","id":39332,"geometry":{"type":"Polygon","coordinates":[[[112.87781530000007,-6.897099361999949],[112.87781483600008,-6.8970993639999278],[112.87781483700007,-6.8970995129999437],[112.87781530000007,-6.897099361999949]]]},"properties":{"OBJECTID":39332,"FID_mangrove_utm":39159,"OBJECTID_1":39159,"Name":"18102566,9293","FolderPath":"JATIM/JATIM","SymbolID":0,"AltMode":0,"Base":0,"Clamped":-1,"Extruded":0,"Snippet":"","PopupInfo":"\u003chtml xmlns:fo=\"http://www.w3.org/1999/XSL/Format\" xmlns:msxsl=\"urn:schemas-microsoft-com:xslt\"\u003e\n\u003chead\u003e\n\u003cMETA http-equiv=\"Content-Type\" content=\"text/html\"\u003e\n\u003cmeta http-equiv=\"content-type\" content=\"text/html; charset=UTF-8\"\u003e\n\u003c/head\u003e\n\u003cbody style=\"margin:0px 0px 0px 0px;overflow:auto;background:#FFFFFF;\"\u003e\n\u003ctable style=\"font-family:Arial,Verdana,Times;font-size:12px;text-align:left;width:100%;border-collapse:collapse;padding:3px 3px 3px 3px\"\u003e\n\u003ctr style=\"text-align:center;font-weight:bold;background:#9CBCE2\"\u003e\n\u003ctd\u003e18102566,9293\u003c/td\u003e\n\u003c/tr\u003e\n\u003ctr\u003e\n\u003ctd\u003e\n\u003ctable style=\"font-family:Arial,Verdana,Times;font-size:12px;text-align:left;width:100%;border-spacing:0px; padding:3px 3px 3px 3px\"\u003e\n\u003ctr\u003e\n\u003ctd\u003eFID\u003c/td\u003e\n\u003ctd\u003e0\u003c/td\u003e\n\u003c/tr\u003e\n\u003ctr bgcolor=\"#D4E4F3\"\u003e\n\u003ctd\u003eShape_Leng\u003c/td\u003e\n\u003ctd\u003e18102566,9293\u003c/td\u003e\n\u003c/tr\u003e\n\u003c/table\u003e\n\u003c/td\u003e\n\u003c/tr\u003e\n\u003c/table\u003e\n\u003c/body\u003e\u003cscript type=\"text/javascript\"\u003e\n\t\t\t\tfunction changeImage(attElement, nameElement) {\n\t\t\t\tdocument.getElementById('imageAttachment').src = attElement;\n\t\t\t\tdocument.getElementById('imageName').innerHTML = nameElement;}\n\t\t\t\u003c/script\u003e\u003c/html\u003e\n","FID_active_grids":229,"GridID":"I05","Shape_Length":1.1000086808292402e-06,"Shape_Area":3.4569002288582322e-14}},{"type":"Feature","id":39337,"geometry":{"type":"Polygon","coordinates":[[[112.87712702100009,-6.8970387809999352],[112.87709988000006,-6.8970388879999405],[112.87709991600002,-6.8970479289999389],[112.87708182200004,-6.897047999999927],[112.87708185700001,-6.8970570409999254],[112.87706376300002,-6.8970571119999704],[112.8770637990001,-6.8970661529999688],[112.87704570500011,-6.8970662249999464],[112.87704574100007,-6.8970752659999448],[112.87703669400003,-6.8970753009999726],[112.87703676500007,-6.8970933829999694],[112.87702771800002,-6.8970934189999298],[112.8770277540001,-6.8971024599999282],[112.87700966000011,-6.8971025309999732],[112.87700962400004,-6.8970934899999747],[112.8770005770001,-6.8970935259999351],[112.87700054200002,-6.8970844849999366],[112.87695530700012,-6.8970846629999301],[112.87695527100004,-6.8970756209999422],[112.8769462250001,-6.8970756569999594],[112.87694618900002,-6.897066615999961],[112.87693714200009,-6.8970666509999319],[112.87693710600001,-6.8970576099999334],[112.87692805900008,-6.8970576459999506],[112.87692802400011,-6.8970486049999522],[112.87690993000001,-6.8970486759999403],[112.87690989400005,-6.8970396349999419],[112.87688275400001,-6.8970397419999472],[112.87688278900009,-6.8970487829999456],[112.87685564800006,-6.8970488889999615],[112.87685568400002,-6.8970579309999493],[112.87681949600005,-6.8970580729999256],[112.87681953200001,-6.8970671139999808],[112.87681048500008,-6.8970671499999412],[112.87681055600001,-6.8970852319999381],[112.87679246200003,-6.8970853029999262],[112.8767924980001,-6.8970943439999814],[112.87678345100005,-6.8970943799999418],[112.87678348700001,-6.8971034209999402],[112.87673825200011,-6.8971035989999336],[112.87673828800007,-6.8971126399999321],[112.87667495900007,-6.8971128889999704],[112.87667492300011,-6.897103847999972],[112.87666587600006,-6.8971038829999429],[112.87666584100009,-6.8970948419999445],[112.87665679400004,-6.8970948779999617],[112.87665675800008,-6.8970858369999632],[112.87660247700001,-6.8970860499999276],[112.87660251200009,-6.897095090999926],[112.87659346500004,-6.8970951269999432],[112.87659350100012,-6.8971041679999416],[112.87658445400007,-6.8971042029999694],[112.87658449000003,-6.8971132449999573],[112.87657544300009,-6.8971132799999282],[112.87657547800006,-6.8971223209999266],[112.87656643100001,-6.8971223569999438],[112.87656646700009,-6.8971313979999422],[112.87655742000004,-6.8971314339999594],[112.87655749100009,-6.8971495159999563],[112.87654844400004,-6.8971495509999272],[112.87654848000011,-6.8971585919999256],[112.87653943300006,-6.8971586279999428],[112.8765399670001,-6.897294244999955],[112.87653092000005,-6.8972942799999259],[112.8765309910001,-6.8973123629999691],[112.87654003800003,-6.8973123269999519],[112.87654025200004,-6.8973665739999319],[112.87654929900009,-6.8973665379999716],[112.87654933400006,-6.89737557899997],[112.87655838100011,-6.8973755439999422],[112.87655841700007,-6.8973845849999407],[112.87657651100005,-6.8973845139999526],[112.87657654600002,-6.897393554999951],[112.87658559300007,-6.8973935189999338],[112.87658562900003,-6.8974025599999322],[112.87659467600008,-6.8974025249999613],[112.87659474700001,-6.8974206069999582],[112.87660379400006,-6.8974205719999304],[112.87660382900003,-6.8974296129999288],[112.87662192300002,-6.8974295409999513],[112.87662195900009,-6.8974385829999392],[112.87664005300007,-6.8974385109999616],[112.87664001700011,-6.8974294699999632],[112.87667620500008,-6.8974293279999301],[112.87667616900001,-6.8974202869999317],[112.87673949800001,-6.8974200379999502],[112.87673946200005,-6.8974109969999517],[112.87674850900009,-6.8974109609999346],[112.87674854500005,-6.897420001999933],[112.87676663900004,-6.8974199309999449],[112.87676671000008,-6.8974380129999417],[112.87677575700002,-6.8974379779999708],[112.8767757920001,-6.8974470189999693],[112.87678483900004,-6.8974469829999521],[112.87678487500011,-6.8974560239999505],[112.87679392200005,-6.8974559889999796],[112.87679402900005,-6.8974831119999749],[112.87677593500007,-6.897483182999963],[112.87677604200007,-6.8975103069999477],[112.87676699500003,-6.8975103419999755],[112.87676706600007,-6.8975284249999618],[112.87675801900002,-6.8975284599999327],[112.8767580550001,-6.8975375009999311],[112.87674900800005,-6.8975375369999483],[112.87674907900009,-6.8975556189999452],[112.87674003200004,-6.8975556549999624],[112.87674006800012,-6.8975646959999608],[112.87672197400002,-6.8975647669999489],[112.8767220090001,-6.8975738079999473],[112.87671296200006,-6.8975738439999645],[112.87671303400009,-6.8975919259999614],[112.87670398700004,-6.8975919609999323],[112.87670402200001,-6.897601002999977],[112.87669497500008,-6.8976010379999479],[112.87669501100004,-6.8976100789999464],[112.87667691700005,-6.8976101499999345],[112.87667695300001,-6.8976191919999792],[112.87666790600008,-6.8976192269999501],[112.87666794100005,-6.8976282679999485],[112.87665889400012,-6.8976283039999657],[112.876658926,-6.8976364589999548],[112.87675569800001,-6.897572749999938],[112.87683035800001,-6.8975188199999593],[112.87683032300004,-6.8975100929999371],[112.87683937000008,-6.8975100579999662],[112.87683933500011,-6.8975010169999678],[112.87685509000005,-6.8975009549999413],[112.87690252900006,-6.8974666879999518],[112.87690252100003,-6.8974646029999462],[112.87690543100007,-6.8974645919999489],[112.87692959300011,-6.8974471379999613],[112.87692959000003,-6.8974464139999441],[112.87693060100003,-6.8974464099999295],[112.87713836600005,-6.8972963319999394],[112.87732500300001,-6.8972349919999374],[112.87747144600007,-6.8972004179999544],[112.87747144500008,-6.8972001689999729],[112.87747251900009,-6.8972001649999584],[112.87748952300001,-6.8971961499999566],[112.87748946800002,-6.8971820149999417],[112.87750756100002,-6.8971819439999535],[112.87750752600004,-6.8971729029999551],[112.87755276000007,-6.8971727249999617],[112.8775527250001,-6.8971636839999633],[112.87761906000003,-6.8971634229999381],[112.87762509300001,-6.8971614539999564],[112.87762506500007,-6.8971543579999661],[112.87763411200001,-6.8971543229999384],[112.87763412800007,-6.8971585039999468],[112.87773119700012,-6.8971268169999576],[112.87770638000006,-6.8971269139999549],[112.8777063440001,-6.8971178729999565],[112.87766111000008,-6.8971180509999499],[112.87766107400012,-6.8971090099999515],[112.87755251100009,-6.8971094369999264],[112.87755247600001,-6.897100395999928],[112.87751628800004,-6.8971005389999505],[112.87751625200008,-6.8970914969999626],[112.87748911100005,-6.8970916039999679],[112.87748907600007,-6.8970825629999695],[112.87746193500004,-6.8970826699999748],[112.87746197100012,-6.8970917109999732],[112.87745292400007,-6.8970917469999335],[112.87745295900004,-6.897100787999932],[112.87743486500005,-6.8971008589999769],[112.87743490100002,-6.8971098999999754],[112.87742585400008,-6.8971099359999357],[112.87742589000004,-6.8971189769999341],[112.87739874900001,-6.89711908299995],[112.87739878500008,-6.8971281249999379],[112.8773806910001,-6.897128195999926],[112.87738076200003,-6.8971462779999797],[112.87737171500009,-6.89714631399994],[112.87737175100006,-6.8971553549999385],[112.87736270400001,-6.8971553899999662],[112.87736273900009,-6.8971644309999647],[112.87734464500011,-6.8971645029999422],[112.87734468100007,-6.8971735439999406],[112.87733563400002,-6.8971735789999684],[112.87733570500006,-6.8971916609999653],[112.87732665800002,-6.8971916969999256],[112.87732669400009,-6.8972007379999809],[112.87731764700004,-6.8972007739999412],[112.87731768300011,-6.8972098149999397],[112.87729054200008,-6.897209921999945],[112.87729057800004,-6.8972189629999434],[112.87728153100011,-6.8972189979999712],[112.87728156600008,-6.8972280389999696],[112.87727251900003,-6.89722807499993],[112.8772725550001,-6.8972371159999284],[112.87724541400007,-6.8972372229999337],[112.87724545000003,-6.8972462639999321],[112.87721830900011,-6.8972463709999374],[112.87721834500007,-6.8972554119999359],[112.87720025100009,-6.8972554829999808],[112.87720028600006,-6.8972645239999792],[112.87719123900001,-6.8972645599999396],[112.87719120400004,-6.8972555189999412],[112.87718215700011,-6.8972555539999689],[112.87718201400003,-6.8972193899999752],[112.87717296700009,-6.8972194249999461],[112.87717293200001,-6.8972103839999477],[112.87716388500007,-6.8972104199999649],[112.87716381400003,-6.897192337999968],[112.87715476700009,-6.8971923729999389],[112.87715451800011,-6.8971290849999605],[112.87716356400006,-6.8971290499999327],[112.87716349300001,-6.8971109679999358],[112.87715444600008,-6.8971110029999636],[112.87715437500003,-6.8970929209999667],[112.8771453280001,-6.8970929559999377],[112.87714525700005,-6.8970748739999408],[112.87713621000012,-6.897074909999958],[112.87713613900007,-6.8970568279999611],[112.87712709200002,-6.897056862999932],[112.87712702100009,-6.8970387809999352]],[[112.87681205100012,-6.8974649589999331],[112.87682109800005,-6.8974649229999727],[112.87682113400001,-6.8974739639999711],[112.87681208700008,-6.8974739999999315],[112.87681205100012,-6.8974649589999331]],[[112.87675812600003,-6.897555582999928],[112.87675809000007,-6.8975465419999296],[112.87677618400005,-6.8975464709999414],[112.87677622000001,-6.8975555119999399],[112.87675812600003,-6.897555582999928]]]},"properties":{"OBJECTID":39337,"FID_mangrove_utm":39164,"OBJECTID_1":39164,"Name":"18102566,9293","FolderPath":"JATIM/JATIM","SymbolID":0,"AltMode":0,"Base":0,"Clamped":-1,"Extruded":0,"Snippet":"","PopupInfo":"\u003chtml xmlns:fo=\"http://www.w3.org/1999/XSL/Format\" xmlns:msxsl=\"urn:schemas-microsoft-com:xslt\"\u003e\n\u003chead\u003e\n\u003cMETA http-equiv=\"Content-Type\" content=\"text/html\"\u003e\n\u003cmeta http-equiv=\"content-type\" content=\"text/html; charset=UTF-8\"\u003e\n\u003c/head\u003e\n\u003cbody style=\"margin:0px 0px 0px 0px;overflow:auto;background:#FFFFFF;\"\u003e\n\u003ctable style=\"font-family:Arial,Verdana,Times;font-size:12px;text-align:left;width:100%;border-collapse:collapse;padding:3px 3px 3px 3px\"\u003e\n\u003ctr style=\"text-align:center;font-weight:bold;background:#9CBCE2\"\u003e\n\u003ctd\u003e18102566,9293\u003c/td\u003e\n\u003c/tr\u003e\n\u003ctr\u003e\n\u003ctd\u003e\n\u003ctable style=\"font-family:Arial,Verdana,Times;font-size:12px;text-align:left;width:100%;border-spacing:0px; padding:3px 3px 3px 3px\"\u003e\n\u003ctr\u003e\n\u003ctd\u003eFID\u003c/td\u003e\n\u003ctd\u003e0\u003c/td\u003e\n\u003c/tr\u003e\n\u003ctr bgcolor=\"#D4E4F3\"\u003e\n\u003ctd\u003eShape_Leng\u003c/td\u003e\n\u003ctd\u003e18102566,9293\u003c/td\u003e\n\u003c/tr\u003e\n\u003c/table\u003e\n\u003c/td\u003e\n\u003c/tr\u003e\n\u003c/table\u003e\n\u003c/body\u003e\u003cscript type=\"text/javascript\"\u003e\n\t\t\t\tfunction changeImage(attElement, nameElement) {\n\t\t\t\tdocument.getElementById('imageAttachment').src = attElement;\n\t\t\t\tdocument.getElementById('imageName').innerHTML = nameElement;}\n\t\t\t\u003c/script\u003e\u003c/html\u003e\n","FID_active_grids":229,"GridID":"I05","Shape_Length":0.0042487752278961791,"Shape_Area":2.4095478631822281e-07}},{"type":"Feature","id":39350,"geometry":{"type":"Polygon","coordinates":[[[112.87429408600008,-6.8967334699999583],[112.87429405000012,-6.8967244289999599],[112.87427595600002,-6.896724499999948],[112.87427599200009,-6.8967335409999464],[112.87429408600008,-6.8967334699999583]]]},"properties":{"OBJECTID":39350,"FID_mangrove_utm":39177,"OBJECTID_1":39177,"Name":"18102566,9293","FolderPath":"JATIM/JATIM","SymbolID":0,"AltMode":0,"Base":0,"Clamped":-1,"Extruded":0,"Snippet":"","PopupInfo":"\u003chtml xmlns:fo=\"http://www.w3.org/1999/XSL/Format\" xmlns:msxsl=\"urn:schemas-microsoft-com:xslt\"\u003e\n\u003chead\u003e\n\u003cMETA http-equiv=\"Content-Type\" content=\"text/html\"\u003e\n\u003cmeta http-equiv=\"content-type\" content=\"text/html; charset=UTF-8\"\u003e\n\u003c/head\u003e\n\u003cbody style=\"margin:0px 0px 0px 0px;overflow:auto;background:#FFFFFF;\"\u003e\n\u003ctable style=\"font-family:Arial,Verdana,Times;font-size:12px;text-align:left;width:100%;border-collapse:collapse;padding:3px 3px 3px 3px\"\u003e\n\u003ctr style=\"text-align:center;font-weight:bold;background:#9CBCE2\"\u003e\n\u003ctd\u003e18102566,9293\u003c/td\u003e\n\u003c/tr\u003e\n\u003ctr\u003e\n\u003ctd\u003e\n\u003ctable style=\"font-family:Arial,Verdana,Times;font-size:12px;text-align:left;width:100%;border-spacing:0px; padding:3px 3px 3px 3px\"\u003e\n\u003ctr\u003e\n\u003ctd\u003eFID\u003c/td\u003e\n\u003ctd\u003e0\u003c/td\u003e\n\u003c/tr\u003e\n\u003ctr bgcolor=\"#D4E4F3\"\u003e\n\u003ctd\u003eShape_Leng\u003c/td\u003e\n\u003ctd\u003e18102566,9293\u003c/td\u003e\n\u003c/tr\u003e\n\u003c/table\u003e\n\u003c/td\u003e\n\u003c/tr\u003e\n\u003c/table\u003e\n\u003c/body\u003e\u003cscript type=\"text/javascript\"\u003e\n\t\t\t\tfunction changeImage(attElement, nameElement) {\n\t\t\t\tdocument.getElementById('imageAttachment').src = attElement;\n\t\t\t\tdocument.getElementById('imageName').innerHTML = nameElement;}\n\t\t\t\u003c/script\u003e\u003c/html\u003e\n","FID_active_grids":229,"GridID":"I05","Shape_Length":5.4270422023867913e-05,"Shape_Area":1.6359041033852624e-10}},{"type":"Feature","id":39351,"geometry":{"type":"Polygon","coordinates":[[[112.87400437000008,-6.896680359999948],[112.87398627700009,-6.8966804309999361],[112.87398631200006,-6.8966894729999808],[112.87397726500001,-6.8966895079999517],[112.87397730100008,-6.8966985489999502],[112.87396825400003,-6.8966985849999674],[112.87396828900012,-6.8967076259999658],[112.87397733600005,-6.8967075899999486],[112.8739774070001,-6.8967256729999349],[112.87401359500006,-6.8967255309999587],[112.87401356000009,-6.8967164889999708],[112.87402260700003,-6.896716453999943],[112.87402250000002,-6.8966893299999583],[112.87400440600004,-6.8966894019999359],[112.87400437000008,-6.896680359999948]]]},"properties":{"OBJECTID":39351,"FID_mangrove_utm":39178,"OBJECTID_1":39178,"Name":"18102566,9293","FolderPath":"JATIM/JATIM","SymbolID":0,"AltMode":0,"Base":0,"Clamped":-1,"Extruded":0,"Snippet":"","PopupInfo":"\u003chtml xmlns:fo=\"http://www.w3.org/1999/XSL/Format\" xmlns:msxsl=\"urn:schemas-microsoft-com:xslt\"\u003e\n\u003chead\u003e\n\u003cMETA http-equiv=\"Content-Type\" content=\"text/html\"\u003e\n\u003cmeta http-equiv=\"content-type\" content=\"text/html; charset=UTF-8\"\u003e\n\u003c/head\u003e\n\u003cbody style=\"margin:0px 0px 0px 0px;overflow:auto;background:#FFFFFF;\"\u003e\n\u003ctable style=\"font-family:Arial,Verdana,Times;font-size:12px;text-align:left;width:100%;border-collapse:collapse;padding:3px 3px 3px 3px\"\u003e\n\u003ctr style=\"text-align:center;font-weight:bold;background:#9CBCE2\"\u003e\n\u003ctd\u003e18102566,9293\u003c/td\u003e\n\u003c/tr\u003e\n\u003ctr\u003e\n\u003ctd\u003e\n\u003ctable style=\"font-family:Arial,Verdana,Times;font-size:12px;text-align:left;width:100%;border-spacing:0px; padding:3px 3px 3px 3px\"\u003e\n\u003ctr\u003e\n\u003ctd\u003eFID\u003c/td\u003e\n\u003ctd\u003e0\u003c/td\u003e\n\u003c/tr\u003e\n\u003ctr bgcolor=\"#D4E4F3\"\u003e\n\u003ctd\u003eShape_Leng\u003c/td\u003e\n\u003ctd\u003e18102566,9293\u003c/td\u003e\n\u003c/tr\u003e\n\u003c/table\u003e\n\u003c/td\u003e\n\u003c/tr\u003e\n\u003c/table\u003e\n\u003c/body\u003e\u003cscript type=\"text/javascript\"\u003e\n\t\t\t\tfunction changeImage(attElement, nameElement) {\n\t\t\t\tdocument.getElementById('imageAttachment').src = attElement;\n\t\t\t\tdocument.getElementById('imageName').innerHTML = nameElement;}\n\t\t\t\u003c/script\u003e\u003c/html\u003e\n","FID_active_grids":229,"GridID":"I05","Shape_Length":0.00019897953671080883,"Shape_Area":1.7995393883743253e-09}},{"type":"Feature","id":39354,"geometry":{"type":"Polygon","coordinates":[[[112.8742346680001,-6.8977282439999499],[112.87424371500003,-6.8977282079999327],[112.87424375000001,-6.8977372489999311],[112.87425279700005,-6.8977372139999602],[112.8742528680001,-6.8977552959999571],[112.87426191500003,-6.8977552599999399],[112.87426188000006,-6.8977462189999414],[112.87427092700011,-6.8977461839999705],[112.87427089100004,-6.8977371429999721],[112.87427993800009,-6.8977371069999549],[112.87427997400005,-6.8977461479999533],[112.8742890210001,-6.8977461129999256],[112.87428898500002,-6.8977370719999271],[112.87431612600005,-6.8977369649999787],[112.87431616200001,-6.8977460059999771],[112.87432520900006,-6.8977459709999493],[112.87432524400003,-6.8977550119999478],[112.87433429100008,-6.8977549759999306],[112.87433436200001,-6.8977730579999275],[112.87435245600011,-6.8977729869999393],[112.87435242100003,-6.8977639459999409],[112.87436146700009,-6.89776391099997],[112.87436136100007,-6.8977367869999284],[112.87435231400002,-6.8977368229999456],[112.87435227800006,-6.8977277819999472],[112.87437941900009,-6.8977276749999419],[112.87437949000002,-6.8977457569999387],[112.87443377200009,-6.8977455439999744],[112.87443380800005,-6.8977545849999728],[112.87445190100004,-6.8977545139999279],[112.87445197300008,-6.8977725959999248],[112.87447006700006,-6.8977725249999366],[112.87447013800011,-6.8977906079999798],[112.87447918500004,-6.8977905719999626],[112.87447922000001,-6.897799612999961],[112.87448826700006,-6.8977995779999333],[112.87448830300002,-6.8978086189999317],[112.87447925600009,-6.8978086539999595],[112.87447929100006,-6.8978176959999473],[112.87448833800011,-6.8978176599999301],[112.87448837400007,-6.8978267009999286],[112.87449742100011,-6.8978266659999576],[112.87449738500004,-6.8978176239999698],[112.87451547900002,-6.8978175529999248],[112.87451562100011,-6.8978537179999648],[112.8745337150001,-6.8978536469999767],[112.87453375100006,-6.8978626879999752],[112.87456993900003,-6.8978625459999421],[112.87456986800009,-6.8978444639999452],[112.87455177400011,-6.8978445349999333],[112.87455170200008,-6.897826451999947],[112.87454265600002,-6.8978264879999642],[112.87454254900001,-6.8977993649999689],[112.87457873700009,-6.8977992219999464],[112.87457877200006,-6.8978082629999449],[112.87459686600005,-6.8978081919999568],[112.87459690200001,-6.8978172339999446],[112.8746149960001,-6.8978171619999671],[112.87461503100008,-6.8978262039999549],[112.87464217200011,-6.8978260969999496],[112.87464220800007,-6.8978351379999481],[112.87465125500012,-6.8978351029999772],[112.87465129000009,-6.8978441439999756],[112.87466033700002,-6.8978441079999584],[112.8746603730001,-6.8978531489999568],[112.87469656000007,-6.8978530069999806],[112.87469663200011,-6.8978710889999775],[112.87468758500006,-6.8978711249999378],[112.8746875490001,-6.8978620839999394],[112.87467850200005,-6.8978621189999672],[112.87467853800001,-6.8978711599999656],[112.87466044400003,-6.8978712319999431],[112.87466040800007,-6.8978621899999553],[112.87463326700004,-6.8978622969999606],[112.87463330300011,-6.897871337999959],[112.87462425600006,-6.8978713739999762],[112.87462436300007,-6.8978984969999715],[112.87463341000011,-6.8978984619999437],[112.87463344500009,-6.8979075029999422],[112.87464249200002,-6.897907466999925],[112.87464250700009,-6.8979113299999426],[112.87472395200007,-6.8979166509999459],[112.87472387900004,-6.8978981059999569],[112.87473292600009,-6.8978980709999291],[112.87473289100001,-6.8978890289999413],[112.87474193700007,-6.8978889939999704],[112.8747419020001,-6.8978799529999719],[112.87478713700011,-6.8978797749999785],[112.87478706600007,-6.8978616929999248],[112.87480515900006,-6.8978616219999367],[112.87480512400009,-6.8978525809999383],[112.87482321800007,-6.8978525099999501],[112.87482325300005,-6.8978615509999486],[112.87483230000009,-6.8978615149999314],[112.87483233600005,-6.8978705559999298],[112.8748413830001,-6.8978705209999589],[112.87484141800007,-6.8978795619999573],[112.87486855900011,-6.897879454999952],[112.87486859500007,-6.8978884959999505],[112.87488668900005,-6.8978884249999624],[112.87488672400002,-6.8978974659999608],[112.87489577100007,-6.897897430999933],[112.87489580700003,-6.8979064719999315],[112.87491390100001,-6.8979064009999433],[112.8749139360001,-6.8979154419999418],[112.87492298300003,-6.8979154059999814],[112.87492301900011,-6.8979244479999693],[112.87494111300009,-6.8979243759999349],[112.87494107700002,-6.8979153349999365],[112.87495917100011,-6.8979152639999484],[112.87495913600003,-6.8979062229999499],[112.87497722900002,-6.8979061519999618],[112.87497712300001,-6.8978790289999665],[112.87495902900002,-6.8978790999999546],[112.87495895800009,-6.8978610169999683],[112.87497705200008,-6.8978609459999802],[112.87497701600012,-6.897851904999925],[112.87498606300005,-6.897851869999954],[112.87498599200001,-6.8978337869999677],[112.87499503900005,-6.89783375199994],[112.87499500300009,-6.8978247109999415],[112.87498595600005,-6.8978247459999693],[112.87498588500011,-6.8978066639999724],[112.8750039790001,-6.8978065929999275],[112.87500394400001,-6.8977975519999291],[112.87502203700001,-6.8977974809999409],[112.87502196600008,-6.8977793989999441],[112.87503101300001,-6.8977793629999269],[112.87503094200008,-6.89776128099993],[112.87503998900002,-6.8977612449999697],[112.87503995300005,-6.8977522039999712],[112.8750490000001,-6.8977521679999541],[112.87504885800001,-6.8977160039999603],[112.87505790500006,-6.8977159679999431],[112.87505776300009,-6.8976798039999494],[112.87506681000002,-6.8976797679999322],[112.87506670300002,-6.8976526449999369],[112.87507575000006,-6.8976526089999766],[112.8750757140001,-6.8976435679999781],[112.87506666700006,-6.8976436039999385],[112.87506652500008,-6.8976074389999553],[112.87507557200001,-6.8976074039999276],[112.87507546500001,-6.8975802799999428],[112.87506641800007,-6.89758031599996],[112.87506634700003,-6.8975622339999632],[112.87505730000009,-6.8975622689999341],[112.87505722900005,-6.8975441869999372],[112.87504818200011,-6.8975442229999544],[112.87504814700003,-6.8975351809999665],[112.87503910000009,-6.8975352169999269],[112.87503878000007,-6.8974538469999516],[112.87504782700012,-6.8974538109999344],[112.87504775500008,-6.8974357289999375],[112.87505680200002,-6.8974356929999772],[112.87505666000004,-6.8973995289999266],[112.87506570700009,-6.8973994929999662],[112.87506563600004,-6.8973814109999694],[112.87508373000003,-6.8973813399999813],[112.8750836590001,-6.8973632579999276],[112.87509270600003,-6.8973632219999672],[112.87509259900003,-6.8973360989999719],[112.87508355200009,-6.8973361339999428],[112.87508323200007,-6.8972547639999675],[112.87509227900011,-6.8972547289999397],[112.87509224300004,-6.8972456879999413],[112.87510129000009,-6.897245651999981],[112.87510121900004,-6.8972275699999273],[112.87511026600009,-6.8972275339999669],[112.87511030200005,-6.8972365749999653],[112.8751193490001,-6.8972365399999376],[112.87511938400007,-6.897245580999936],[112.87513747800006,-6.8972455099999479],[112.8751375490001,-6.8972635919999448],[112.87514659600004,-6.8972635569999738],[112.87514663200011,-6.8972725979999723],[112.87515567900004,-6.8972725619999551],[112.87515585600011,-6.8973177679999367],[112.87516490300004,-6.8973177319999763],[112.87516497500008,-6.8973358139999732],[112.87518306800007,-6.8973357429999282],[112.87518296200005,-6.8973086199999329],[112.8751920090001,-6.8973085839999726],[112.87519197300003,-6.8972995429999742],[112.87520102000008,-6.8972995079999464],[112.87520098400012,-6.897290466999948],[112.87521003100005,-6.8972904309999308],[112.87520999600008,-6.8972813899999323],[112.87521904300002,-6.897281353999972],[112.87521900700006,-6.8972723129999736],[112.8752280540001,-6.8972722779999458],[112.87522798300006,-6.8972541959999489],[112.87523703000011,-6.8972541599999317],[112.87523688800002,-6.8972179949999486],[112.87524593500007,-6.8972179599999777],[112.87524586300003,-6.8971998779999808],[112.87526395700002,-6.8971998069999358],[112.87526392200004,-6.897190764999948],[112.87525487500011,-6.8971908009999652],[112.87525483900004,-6.8971817599999667],[112.87526388600008,-6.8971817239999496],[112.87526377900008,-6.8971546009999543],[112.87525473300002,-6.8971546359999252],[112.87525459000005,-6.8971184719999314],[112.87524554300001,-6.8971185079999486],[112.87524550800003,-6.8971094659999608],[112.87522741400005,-6.8971095369999489],[112.87522734300001,-6.897091454999952],[112.87515496700007,-6.8970917399999507],[112.87515500300003,-6.8971007809999492],[112.87513690900005,-6.8971008519999373],[112.87513687300009,-6.8970918109999388],[112.87512782600004,-6.8970918459999666],[112.87512779100007,-6.8970828049999682],[112.87508255600005,-6.8970829829999616],[112.87508252100008,-6.8970739419999632],[112.87507347400003,-6.8970739769999341],[112.87507343800007,-6.8970649359999356],[112.87505534400009,-6.8970650069999806],[112.87505523700008,-6.8970378839999285],[112.87507333100007,-6.8970378129999403],[112.87507336700003,-6.8970468539999388],[112.87509146100001,-6.8970467829999507],[112.8750914960001,-6.8970558239999491],[112.87511863700001,-6.8970557169999438],[112.87511860200004,-6.8970466759999454],[112.87512764900009,-6.8970466409999744],[112.87512761300002,-6.8970375989999297],[112.87513666000007,-6.8970375639999588],[112.87513662400011,-6.8970285229999604],[112.87514567100004,-6.8970284869999432],[112.87514560000011,-6.8970104049999463],[112.87511845900008,-6.8970105119999516],[112.87511842400011,-6.8970014699999638],[112.87513651800009,-6.8970013989999757],[112.87513648200002,-6.8969923579999772],[112.87518171700003,-6.8969921809999732],[112.87518178800008,-6.8970102629999701],[112.87515464700004,-6.8970103689999291],[112.87515468300001,-6.8970194109999738],[112.8751908700001,-6.8970192679999514],[112.87519090600006,-6.8970283099999392],[112.87519995300011,-6.8970282739999789],[112.87519991700003,-6.8970192329999804],[112.87520896400008,-6.8970191969999632],[112.87520892900011,-6.8970101559999648],[112.87519988200006,-6.8970101919999252],[112.87519981100002,-6.8969921089999389],[112.87521790400001,-6.8969920379999508],[112.87521786900004,-6.8969829969999523],[112.87522691600009,-6.8969829619999814],[112.87522659600006,-6.8969015919999492],[112.87521754900001,-6.896901626999977],[112.87521751300005,-6.8968925859999786],[112.87518132500009,-6.8968927279999548],[112.87518129000011,-6.8968836869999564],[112.8751360550001,-6.8968838649999498],[112.87513609100006,-6.8968929059999482],[112.87509085600004,-6.8968930839999416],[112.87509067800011,-6.89684787799996],[112.87508163100006,-6.8968479129999309],[112.87508159600009,-6.8968388719999325],[112.87507254900004,-6.8968389079999497],[112.87507240700006,-6.8968027429999665],[112.87506336000001,-6.8968027789999269],[112.87506328900008,-6.89678469699993],[112.87505424200003,-6.8967847319999578],[112.87505417000011,-6.8967666499999609],[112.87504512400005,-6.8967666859999781],[112.87504508800009,-6.8967576439999334],[112.87501794700006,-6.8967577509999387],[112.87501791200009,-6.8967487099999403],[112.87499981800011,-6.8967487809999284],[112.87499985300008,-6.8967578219999268],[112.87498175900009,-6.8967578929999718],[112.87498183100001,-6.8967759749999686],[112.87497278400008,-6.896776010999929],[112.87497281900005,-6.8967850519999274],[112.87496377200011,-6.8967850879999446],[112.87496380800008,-6.896794128999943],[112.87494571400009,-6.8967941999999312],[112.87494564300005,-6.8967761179999343],[112.87491850200001,-6.8967762239999502],[112.87491853800009,-6.8967852649999486],[112.87490949100004,-6.8967853009999658],[112.87490952600001,-6.8967943419999642],[112.87487333900003,-6.8967944839999404],[112.87487326700011,-6.8967764019999436],[112.87483708000002,-6.8967765439999766],[112.87483704400006,-6.8967675029999782],[112.87480990300003,-6.8967676099999267],[112.87480986800006,-6.8967585679999388],[112.87471035100009,-6.8967589589999534],[112.87471038700005,-6.8967679999999518],[112.87469229300007,-6.8967680719999294],[112.87469232900003,-6.8967771129999278],[112.87467423500004,-6.8967771839999727],[112.87467430600009,-6.8967952659999696],[112.87466525900004,-6.89679530199993],[112.87466529500011,-6.8968043429999284],[112.87465624800006,-6.8968043779999562],[112.87465628300004,-6.8968134189999546],[112.87462009500007,-6.8968135609999308],[112.87462013100003,-6.8968226029999755],[112.87459299000011,-6.8968227089999345],[112.87459309700012,-6.8968498329999761],[112.87455690900003,-6.8968499749999523],[112.87455687400006,-6.8968409339999539],[112.87454782700001,-6.8968409689999248],[112.87454775500009,-6.896822886999928],[112.87453870900003,-6.8968229219999557],[112.87453863700011,-6.8968048399999589],[112.87452959100006,-6.896804875999976],[112.87452955500009,-6.8967958349999776],[112.87451146100011,-6.8967959059999657],[112.87451128300006,-6.8967506999999273],[112.87452033000011,-6.8967506639999669],[112.87452025900006,-6.8967325819999701],[112.87452930600011,-6.8967325469999423],[112.87452923500007,-6.896714463999956],[112.87453828200012,-6.8967144289999283],[112.87453810400007,-6.8966692229999467],[112.87437525900009,-6.8966698629999428],[112.87437529500005,-6.8966789039999412],[112.87436624800011,-6.896678938999969],[112.87436631900005,-6.8966970219999553],[112.87435727200011,-6.8966970569999262],[112.87435734300004,-6.8967151389999799],[112.87436639000009,-6.8967151039999521],[112.87436642600005,-6.8967241449999506],[112.8743754730001,-6.8967241099999796],[112.87437543700003,-6.8967150679999349],[112.87439353100001,-6.8967149969999468],[112.87439356600009,-6.8967240379999453],[112.87438452000004,-6.8967240739999625],[112.87438455500001,-6.8967331149999609],[112.87431218000006,-6.8967333989999702],[112.87431221500003,-6.8967424399999686],[112.8743031680001,-6.896742475999929],[112.87430320400006,-6.8967515169999274],[112.87426701600009,-6.8967516589999605],[112.87426698000002,-6.896742617999962],[112.87425793400007,-6.8967426539999792],[112.87425804000009,-6.8967697769999745],[112.87426708700002,-6.8967697419999467],[112.87426719400003,-6.896796864999942],[112.87423100600006,-6.8967970069999751],[112.87423104200002,-6.8968060479999735],[112.87419485400005,-6.8968061899999498],[112.87419478300001,-6.8967881079999529],[112.87418573600007,-6.8967881439999701],[112.87418570000011,-6.8967791019999254],[112.87411332500005,-6.8967793869999809],[112.87411336000002,-6.8967884279999794],[112.87410431300009,-6.8967884629999503],[112.87410434900005,-6.8967975039999487],[112.87409530200011,-6.8967975399999659],[112.87409533700009,-6.8968065809999644],[112.87407724400009,-6.8968066519999525],[112.87407720800002,-6.896797610999954],[112.87406816100008,-6.896797645999925],[112.87406812600011,-6.8967886049999265],[112.87405907900006,-6.8967886409999437],[112.8740590430001,-6.8967795999999453],[112.87403190200007,-6.8967797059999612],[112.8740318670001,-6.8967706649999627],[112.87394139700007,-6.8967710199999601],[112.87394150400007,-6.8967981439999448],[112.87393245700002,-6.8967981789999726],[112.8739324930001,-6.896807219999971],[112.87391439900011,-6.8968072909999592],[112.87391447000005,-6.8968253739999454],[112.87389637600006,-6.8968254449999336],[112.87389641100003,-6.896834485999932],[112.87388736500009,-6.8968345209999598],[112.8738874710001,-6.8968616449999445],[112.87386937700001,-6.8968617159999326],[112.87386934200003,-6.8968526749999342],[112.8738602950001,-6.8968527099999619],[112.87386025900003,-6.8968436689999635],[112.87384216500004,-6.8968437399999516],[112.87384213000007,-6.8968346989999532],[112.87383308300002,-6.8968347349999704],[112.87383297600002,-6.8968076109999288],[112.87384202300007,-6.8968075759999579],[112.87384191700005,-6.8967804519999731],[112.87383287000011,-6.8967804879999335],[112.87383283400004,-6.8967714469999351],[112.87381474000006,-6.89677151799998],[112.87381470500009,-6.8967624769999247],[112.87380565800004,-6.8967625119999525],[112.87380562200008,-6.8967534709999541],[112.87379657500003,-6.896753505999925],[112.87379654000006,-6.8967444649999265],[112.87376035200009,-6.8967446069999596],[112.87376038700006,-6.896753647999958],[112.87374229400007,-6.8967537199999356],[112.87374232900004,-6.896762760999934],[112.87371518800001,-6.8967628669999499],[112.87371522400008,-6.8967719079999483],[112.8736971300001,-6.8967719789999364],[112.87369716600006,-6.8967810209999811],[112.87367907200007,-6.8967810919999692],[112.87367910700004,-6.8967901329999677],[112.87367006000011,-6.8967901679999386],[112.87367009600007,-6.896799208999937],[112.87365200200009,-6.8967992799999251],[112.87365203700006,-6.8968083219999698],[112.87363394400006,-6.896808392999958],[112.87363397900003,-6.8968174339999564],[112.8736249320001,-6.8968174689999273],[112.87362496800006,-6.8968265099999257],[112.87361592100001,-6.8968265459999429],[112.87361613400003,-6.8968807929999798],[112.8736070870001,-6.8968808279999507],[112.87360715800003,-6.8968989099999476],[112.87359811100009,-6.8968989459999648],[112.87359814700005,-6.8969079869999632],[112.87358910000012,-6.8969080229999804],[112.87358913500009,-6.8969170639999788],[112.87358008800004,-6.8969170989999498],[112.87358015900008,-6.896935181999936],[112.87357111200004,-6.8969352169999638],[112.87357114800011,-6.8969442579999622],[112.87355305400001,-6.8969443289999504],[112.87355309000009,-6.8969533699999488],[112.8735349960001,-6.8969534409999369],[112.87353503100007,-6.8969624829999248],[112.87353197500011,-6.8969624949999684],[112.87357238900006,-6.8970881889999305],[112.87361700400004,-6.8971520279999368],[112.87361720000001,-6.8971520269999473],[112.87361720100012,-6.8971523099999672],[112.87362330500002,-6.8971610439999722],[112.87364437700001,-6.8971609609999405],[112.87364441200009,-6.8971700019999389],[112.87363536500004,-6.8971700379999561],[112.87363539800003,-6.897178346999965],[112.8736359080001,-6.8971790769999757],[112.87364444800005,-6.8971790439999268],[112.87364448300002,-6.8971880849999252],[112.87365353000007,-6.8971880489999648],[112.87365359400007,-6.8972043839999628],[112.87365481200004,-6.8972061269999472],[112.87366264800005,-6.897206095999934],[112.87366269300003,-6.8972174029999564],[112.87366741500011,-6.8972241599999506],[112.87367176600003,-6.8972241429999599],[112.87367179100011,-6.8972304209999606],[112.87368631900006,-6.8972512089999327],[112.87369901400007,-6.8972511599999393],[112.87369904900004,-6.8972602009999378],[112.87370809600009,-6.8972601649999774],[112.87370813200005,-6.8972692059999758],[112.8737171790001,-6.8972691709999481],[112.87371721400007,-6.8972782119999465],[112.87372626100012,-6.8972781759999293],[112.87372629700008,-6.897287217999974],[112.87373534400001,-6.8972871819999568],[112.87373541500006,-6.8973052639999537],[112.8737444620001,-6.8973052289999259],[112.87374453300004,-6.8973233109999796],[112.87372831500011,-6.8973233749999281],[112.87373256400008,-6.8973323989999358],[112.87373552100007,-6.8973323879999384],[112.87373554600003,-6.8973387329999696],[112.87378539200006,-6.8974446019999505],[112.8738903420001,-6.8975366959999747],[112.87399972300011,-6.8976454369999374],[112.87410124600001,-6.897728767999979],[112.87411705700003,-6.8977287059999526],[112.87411702200006,-6.8977196639999647],[112.87412606900011,-6.897719628999937],[112.87412616000006,-6.8977427929999635],[112.87413442200011,-6.8977467199999296],[112.87413522200006,-6.8977467169999613],[112.87413522400004,-6.8977471009999363],[112.87414428800002,-6.8977514089999659],[112.87414426900011,-6.8977466809999441],[112.87415331600005,-6.8977466459999732],[112.87415328100008,-6.8977376049999748],[112.87416232800001,-6.8977375689999576],[112.87416229200005,-6.8977285279999592],[112.8741713390001,-6.897728491999942],[112.87417137500006,-6.8977375339999298],[112.87418042200011,-6.8977374979999695],[112.87418045700008,-6.8977465389999679],[112.87418950400001,-6.8977465039999402],[112.87418946900004,-6.8977374619999523],[112.87419851600009,-6.8977374269999814],[112.87419840900009,-6.8977103039999292],[112.87422555000001,-6.8977101969999808],[112.87422558500009,-6.8977192379999792],[112.87423463200003,-6.8977192029999514],[112.8742346680001,-6.8977282439999499]],[[112.87433418400008,-6.8977278529999353],[112.87434323100001,-6.8977278169999749],[112.87434326700009,-6.8977368579999734],[112.87433422000004,-6.8977368939999337],[112.87433418400008,-6.8977278529999353]],[[112.87482272000011,-6.8977259339999364],[112.87481367300006,-6.8977259689999642],[112.87481360200002,-6.8977078869999673],[112.87480455500008,-6.8977079229999276],[112.87480451900001,-6.8976988809999398],[112.87479547200007,-6.897698916999957],[112.87479540100003,-6.8976808349999601],[112.87477730700004,-6.8976809059999482],[112.87477727200007,-6.8976718649999498],[112.87476822500003,-6.8976718999999775],[112.87476826000011,-6.897680940999976],[112.87475921300006,-6.8976809769999363],[112.87475917800009,-6.8976719359999379],[112.87475013100004,-6.8976719709999657],[112.87475009500008,-6.8976629299999672],[112.87472295400005,-6.8976630369999725],[112.87472284800003,-6.897635912999931],[112.87473189500008,-6.89763587799996],[112.87473185900001,-6.8976268369999616],[112.87471376500002,-6.8976269079999497],[112.87471365900001,-6.897599783999965],[112.87470461200007,-6.8975998199999253],[112.87470450500007,-6.89757269699993],[112.87471355200012,-6.8975726609999697],[112.87471351600004,-6.8975636199999713],[112.87472256300009,-6.8975635839999541],[112.87472245700008,-6.8975364609999588],[112.87473150400001,-6.8975364249999416],[112.87473146800005,-6.8975273839999431],[112.8747405150001,-6.8975273489999722],[112.87474040800009,-6.8975002249999307],[112.87474945500003,-6.8975001899999597],[112.87474934900001,-6.897473065999975],[112.87475839500007,-6.8974730309999472],[112.8747583600001,-6.8974639899999488],[112.87479454800007,-6.8974638479999726],[112.87479458300004,-6.897472888999971],[112.87481267700002,-6.8974728179999261],[112.87481260600009,-6.8974547349999398],[112.87482165300003,-6.8974546999999689],[112.87482172400007,-6.8974727819999657],[112.87483077100001,-6.897472746999938],[112.87483080700008,-6.8974817879999364],[112.87484890000007,-6.8974817169999483],[112.87484893600003,-6.8974907579999467],[112.87486703000002,-6.8974906869999586],[112.87486699400006,-6.8974816459999602],[112.87488508800004,-6.8974815739999258],[112.87488512400012,-6.8974906159999705],[112.87489417100005,-6.8974905799999533],[112.8748942420001,-6.8975086619999502],[112.87488519500005,-6.8975086979999674],[112.87488526600009,-6.8975267799999642],[112.87487621900004,-6.8975268159999814],[112.87487629000009,-6.8975448979999783],[112.87488533700002,-6.8975448619999611],[112.8748853730001,-6.8975539029999595],[112.87487632600005,-6.8975539389999767],[112.87487636100002,-6.8975629799999751],[112.87486731400008,-6.8975630159999355],[112.87486745700005,-6.8975991799999292],[112.8748765040001,-6.8975991449999583],[112.87487653900007,-6.8976081859999567],[112.874885586,-6.8976081499999395],[112.87488562200008,-6.897617190999938],[112.87489466900001,-6.8976171559999671],[112.87489474000006,-6.8976352379999639],[112.87488569300001,-6.8976352739999811],[112.87488572800009,-6.8976443149999795],[112.87487668200004,-6.8976443499999505],[112.87487682400001,-6.8976805149999336],[112.87488587100006,-6.8976804789999733],[112.87488597700008,-6.897707602999958],[112.87489502400001,-6.8977075669999408],[112.87489506000009,-6.8977166079999392],[112.87490410700002,-6.8977165729999683],[112.8749041420001,-6.8977256139999668],[112.87491318900004,-6.8977255779999496],[112.87491329600005,-6.8977527019999343],[112.87492234300009,-6.8977526659999739],[112.87492237900005,-6.8977617069999724],[112.8749314260001,-6.8977616719999446],[112.87493146100007,-6.897770712999943],[112.87494050800001,-6.8977706769999259],[112.87494054400008,-6.8977797179999811],[112.87493149700003,-6.8977797539999415],[112.87493153200001,-6.8977887949999399],[112.87494057900005,-6.897788759999969],[112.87494061500001,-6.8977978009999674],[112.87496775600005,-6.8977976939999621],[112.87496779100002,-6.8978067349999606],[112.87495874400008,-6.8978067709999777],[112.87495878000004,-6.8978158119999762],[112.87494068600006,-6.8978158829999643],[112.8749407570001,-6.8978339649999612],[112.87494980400004,-6.8978339299999334],[112.87494991100004,-6.8978610529999287],[112.87493181700006,-6.8978611239999736],[112.8749317810001,-6.8978520829999752],[112.87492273400005,-6.8978521189999356],[112.87492269900008,-6.8978430769999477],[112.87491365200003,-6.8978431129999649],[112.87491361600007,-6.8978340719999665],[112.87490456900002,-6.8978341069999374],[112.87490453400005,-6.8978250659999389],[112.87487739300002,-6.8978251729999442],[112.8748774280001,-6.8978342139999427],[112.87485933500011,-6.8978342849999308],[112.87485919200003,-6.8977981209999371],[112.87483205100011,-6.8977982269999529],[112.87483201600003,-6.8977891859999545],[112.87482296900009,-6.8977892219999717],[112.87482289800005,-6.8977711389999286],[112.8748319450001,-6.8977711039999576],[112.87483190900002,-6.8977620629999592],[112.87482286200009,-6.8977620979999301],[112.87482272000011,-6.8977259339999364]],[[112.87429796100002,-6.8977189539999699],[112.87427082000011,-6.897719059999929],[112.87427078500002,-6.8977100189999305],[112.87427983200007,-6.8977099839999596],[112.87427979600011,-6.8977009429999612],[112.87428884300004,-6.897700906999944],[112.87428887900001,-6.8977099479999424],[112.87429792500006,-6.8977099129999715],[112.87429796100002,-6.8977189539999699]],[[112.87428880700008,-6.8976918659999455],[112.87427976000004,-6.8976919009999733],[112.87427972500006,-6.8976828599999749],[112.87428877200011,-6.8976828249999471],[112.87428880700008,-6.8976918659999455]],[[112.87506478200009,-6.897164423999925],[112.87505573500005,-6.8971644599999422],[112.87505577100001,-6.8971735009999406],[112.87504672400007,-6.8971735359999684],[112.87504668800011,-6.89716449499997],[112.87503764200005,-6.8971645309999303],[112.87503757000002,-6.897146447999944],[112.87504661700007,-6.8971464129999731],[112.87504633300011,-6.8970740839999394],[112.8750644270001,-6.8970740129999513],[112.87506449800003,-6.8970920949999481],[112.87505545100009,-6.8970921309999653],[112.87505566400012,-6.8971463769999559],[112.87506471100005,-6.8971463419999282],[112.87506478200009,-6.897164423999925]],[[112.87393359400005,-6.8970874959999264],[112.87388836000002,-6.8970876729999304],[112.87388839500011,-6.8970967139999289],[112.87387934800006,-6.897096749999946],[112.8738794190001,-6.8971148319999429],[112.87385227900006,-6.8971149389999482],[112.8738522430001,-6.8971058979999498],[112.87384319600005,-6.8971059329999775],[112.87384316100008,-6.8970968919999791],[112.87386125400008,-6.8970968209999342],[112.87386107700002,-6.8970516149999526],[112.87385203000008,-6.8970516509999698],[112.87385195900004,-6.8970335679999266],[112.87386100600008,-6.8970335329999557],[112.87386093500004,-6.8970154509999588],[112.8738518880001,-6.8970154859999298],[112.87385181700006,-6.8969974039999329],[112.87384277000001,-6.8969974389999607],[112.87384269900008,-6.8969793569999638],[112.87385174500002,-6.896979321999936],[112.87385171000005,-6.8969702809999376],[112.87386980400004,-6.8969702099999495],[112.87386976800008,-6.8969611679999616],[112.87388786200006,-6.8969610969999735],[112.87388789800002,-6.8969701379999719],[112.87387885100009,-6.8969701739999323],[112.87387888600006,-6.8969792149999307],[112.87388793300011,-6.8969791799999598],[112.87388796900007,-6.8969882209999582],[112.87389701600011,-6.896988184999941],[112.87389698000004,-6.8969791439999426],[112.87394221500006,-6.8969789659999492],[112.87394225000003,-6.8969880079999371],[112.87395129700008,-6.8969879719999767],[112.87395133300004,-6.8969970129999751],[112.8739422860001,-6.8969970489999355],[112.87394235700003,-6.8970151309999324],[112.8739333100001,-6.8970151669999495],[112.87393338100003,-6.8970332489999464],[112.87394242800008,-6.8970332129999292],[112.87394249900001,-6.8970512959999724],[112.87393345200007,-6.8970513309999433],[112.87393359400005,-6.8970874959999264]],[[112.87396928500004,-6.8969607779999365],[112.87395119100006,-6.8969608489999814],[112.8739511550001,-6.8969518079999261],[112.87397829600002,-6.8969517009999777],[112.87397833200009,-6.8969607419999761],[112.87398737800004,-6.8969607069999483],[112.87398741400011,-6.8969697479999468],[112.87396932000001,-6.8969698189999349],[112.87396928500004,-6.8969607779999365]],[[112.87396052200006,-6.8970331419999411],[112.87397861600004,-6.897033070999953],[112.87397865100002,-6.8970421119999514],[112.87396960500007,-6.8970421479999686],[112.87396964000004,-6.8970511889999671],[112.87396059300011,-6.897051223999938],[112.87396052200006,-6.8970331419999411]],[[112.87392394300002,-6.8969338319999451],[112.87390584900004,-6.8969339029999333],[112.87390588500011,-6.8969429439999317],[112.87389683800006,-6.8969429799999489],[112.8738968020001,-6.896933937999961],[112.87388775500006,-6.8969339739999782],[112.87388772000008,-6.8969249329999798],[112.87389676700002,-6.8969248969999626],[112.87389673100006,-6.8969158559999642],[112.87390577800011,-6.8969158209999364],[112.87390570700006,-6.8968977379999501],[112.87388761300008,-6.8968978089999382],[112.87388754200003,-6.8968797269999413],[112.87390563600002,-6.8968796559999532],[112.87390560100005,-6.8968706149999548],[112.87389655400011,-6.8968706499999257],[112.87389648300007,-6.8968525679999289],[112.87391457600006,-6.8968524969999407],[112.87391479000007,-6.8969067439999776],[112.87392383700001,-6.8969067079999604],[112.87392394300002,-6.8969338319999451]],[[112.87399599900004,-6.8968521769999711],[112.87398695200011,-6.8968522129999315],[112.87398691600004,-6.896843171999933],[112.87399596300008,-6.8968431359999727],[112.87399592800011,-6.8968340949999742],[112.87400497500005,-6.8968340599999465],[112.87400501000002,-6.8968431009999449],[112.87401405700007,-6.8968430649999277],[112.87401409300003,-6.8968521059999262],[112.87400504600009,-6.8968521419999433],[112.87400508100006,-6.8968611829999418],[112.87399603400002,-6.896861218999959],[112.87399599900004,-6.8968521769999711]],[[112.87404126900003,-6.8968610409999656],[112.87405936300001,-6.8968609699999774],[112.87405932700005,-6.896851928999979],[112.8740683740001,-6.8968518929999618],[112.87406848100011,-6.8968790169999465],[112.87405943400006,-6.8968790519999743],[112.87405954100007,-6.896906175999959],[112.87405049400002,-6.89690621099993],[112.87405056500006,-6.8969242929999268],[112.87404151800001,-6.896924328999944],[112.87404148200005,-6.8969152879999456],[112.87403243500012,-6.8969153229999733],[112.87403240000003,-6.8969062819999749],[112.87401430600005,-6.896906352999963],[112.87401427100008,-6.8968973119999646],[112.87402331700002,-6.8968972769999368],[112.87402324600009,-6.8968791939999505],[112.87403229300003,-6.8968791589999796],[112.87403225800006,-6.8968701179999812],[112.87404130500011,-6.896870081999964],[112.87404126900003,-6.8968610409999656]],[[112.87433062900004,-6.8968237399999452],[112.87432158200011,-6.896823774999973],[112.8743214750001,-6.8967966519999777],[112.87433052200004,-6.8967966159999605],[112.87433062900004,-6.8968237399999452]],[[112.87433953400011,-6.8967875399999343],[112.87432144000002,-6.8967876109999793],[112.87432140400006,-6.8967785689999346],[112.87433045100011,-6.8967785339999637],[112.87433041600002,-6.8967694929999652],[112.87433946300007,-6.896769456999948],[112.87433953400011,-6.8967875399999343]],[[112.87434847400004,-6.8967603809999787],[112.87433038000006,-6.8967604519999668],[112.87433034500009,-6.8967514109999684],[112.87433939200002,-6.8967513749999512],[112.87433935600006,-6.8967423339999527],[112.87434840300011,-6.8967422979999355],[112.87434847400004,-6.8967603809999787]]]},"properties":{"OBJECTID":39354,"FID_mangrove_utm":39180,"OBJECTID_1":39180,"Name":"18102566,9293","FolderPath":"JATIM/JATIM","SymbolID":0,"AltMode":0,"Base":0,"Clamped":-1,"Extruded":0,"Snippet":"","PopupInfo":"\u003chtml xmlns:fo=\"http://www.w3.org/1999/XSL/Format\" xmlns:msxsl=\"urn:schemas-microsoft-com:xslt\"\u003e\n\u003chead\u003e\n\u003cMETA http-equiv=\"Content-Type\" content=\"text/html\"\u003e\n\u003cmeta http-equiv=\"content-type\" content=\"text/html; charset=UTF-8\"\u003e\n\u003c/head\u003e\n\u003cbody style=\"margin:0px 0px 0px 0px;overflow:auto;background:#FFFFFF;\"\u003e\n\u003ctable style=\"font-family:Arial,Verdana,Times;font-size:12px;text-align:left;width:100%;border-collapse:collapse;padding:3px 3px 3px 3px\"\u003e\n\u003ctr style=\"text-align:center;font-weight:bold;background:#9CBCE2\"\u003e\n\u003ctd\u003e18102566,9293\u003c/td\u003e\n\u003c/tr\u003e\n\u003ctr\u003e\n\u003ctd\u003e\n\u003ctable style=\"font-family:Arial,Verdana,Times;font-size:12px;text-align:left;width:100%;border-spacing:0px; padding:3px 3px 3px 3px\"\u003e\n\u003ctr\u003e\n\u003ctd\u003eFID\u003c/td\u003e\n\u003ctd\u003e0\u003c/td\u003e\n\u003c/tr\u003e\n\u003ctr bgcolor=\"#D4E4F3\"\u003e\n\u003ctd\u003eShape_Leng\u003c/td\u003e\n\u003ctd\u003e18102566,9293\u003c/td\u003e\n\u003c/tr\u003e\n\u003c/table\u003e\n\u003c/td\u003e\n\u003c/tr\u003e\n\u003c/table\u003e\n\u003c/body\u003e\u003cscript type=\"text/javascript\"\u003e\n\t\t\t\tfunction changeImage(attElement, nameElement) {\n\t\t\t\tdocument.getElementById('imageAttachment').src = attElement;\n\t\t\t\tdocument.getElementById('imageName').innerHTML = nameElement;}\n\t\t\t\u003c/script\u003e\u003c/html\u003e\n","FID_active_grids":229,"GridID":"I05","Shape_Length":0.012146143008071068,"Shape_Area":1.350562559826812e-06}},{"type":"Feature","id":39356,"geometry":{"type":"Polygon","coordinates":[[[112.87791403200004,-6.8970176019999485],[112.87795926700005,-6.8970174239999551],[112.87795923100009,-6.8970083829999567],[112.87796827800003,-6.8970083479999289],[112.87796831300011,-6.8970173889999273],[112.87797736000005,-6.897017352999967],[112.87797732500007,-6.8970083119999686],[112.87800446600011,-6.8970082049999633],[112.87800443000003,-6.8969991639999648],[112.87801347700008,-6.8969991289999371],[112.87801344100001,-6.8969900869999492],[112.87804058200004,-6.8969899809999333],[112.87804065300008,-6.8970080629999302],[112.87803160600004,-6.897008097999958],[112.87803164200011,-6.8970171399999458],[112.87804068900004,-6.8970171039999286],[112.87804072400002,-6.8970261449999271],[112.87804977100006,-6.8970261089999667],[112.87804980700002,-6.8970351509999546],[112.87805885400007,-6.8970351149999374],[112.87805881800011,-6.8970260739999389],[112.87810405300002,-6.8970258959999455],[112.87810408900009,-6.897034936999944],[112.87809504200004,-6.8970349729999612],[112.87809510700004,-6.8970516479999446],[112.87833779300001,-6.8970235899999466],[112.87835733200006,-6.8970161749999761],[112.87835722400007,-6.8969887349999794],[112.87834817700002,-6.8969887699999504],[112.87834810600009,-6.8969706879999535],[112.87835715300002,-6.8969706519999363],[112.87835704600002,-6.896943528999941],[112.87834799900008,-6.8969435649999582],[112.87834778500007,-6.8968893179999782],[112.87833873800002,-6.8968893529999491],[112.87833866700009,-6.8968712709999522],[112.87832962000004,-6.8968713069999694],[112.87832954900011,-6.8968532249999726],[112.87831145500002,-6.8968532959999607],[112.87831142000005,-6.8968442549999622],[112.87830237300011,-6.8968442899999332],[112.87830233700004,-6.8968352489999347],[112.87827519600012,-6.89683535599994],[112.87827516100003,-6.8968263149999416],[112.8782661140001,-6.8968263509999588],[112.87826607800002,-6.8968173089999709],[112.87825703100009,-6.8968173449999313],[112.878256996,-6.8968083039999328],[112.87823890200002,-6.8968083749999778],[112.87823886600006,-6.8967993339999794],[112.87822077200008,-6.8967994049999675],[112.87822055900006,-6.8967451589999769],[112.87821151200001,-6.8967451939999478],[112.87821147600005,-6.8967361529999494],[112.87817528800008,-6.8967362949999256],[112.8781750390001,-6.8966730079999365],[112.87816599200005,-6.8966730429999643],[112.878165921,-6.8966549609999674],[112.87764120000008,-6.8966570259999571],[112.87764127100002,-6.896675107999954],[112.87765031800006,-6.8966750719999368],[112.87765049600011,-6.8967202779999752],[112.8776685900001,-6.8967202069999303],[112.87766862500007,-6.8967292479999287],[112.877677672,-6.8967292119999684],[112.87767774300005,-6.8967472939999652],[112.87769583700003,-6.8967472229999771],[112.87769590900007,-6.896765304999974],[112.87771400200006,-6.896765233999929],[112.87771403800002,-6.8967742749999275],[112.87772308500007,-6.8967742399999565],[112.87772315600012,-6.8967923219999534],[112.8777412500001,-6.8967922509999653],[112.87774128600006,-6.8968012919999637],[112.87775033300011,-6.8968012559999465],[112.87775054600002,-6.8968555029999266],[112.87775959300006,-6.8968554669999662],[112.87775980700007,-6.8969097139999462],[112.87776885400001,-6.8969096789999753],[112.87776896100002,-6.8969368019999706],[112.87777800800006,-6.8969367659999534],[112.87777804300003,-6.8969458069999519],[112.87778709000008,-6.8969457719999809],[112.87778712600004,-6.8969548129999794],[112.87779617300009,-6.8969547769999622],[112.87779620800006,-6.8969638179999606],[112.87780525500011,-6.8969637829999328],[112.87780532600004,-6.8969818649999297],[112.87781437300009,-6.8969818289999694],[112.8778145870001,-6.8970360759999494],[112.87782363400004,-6.8970360409999785],[112.87782387200002,-6.8970965639999804],[112.87783036300004,-6.8970944449999365],[112.87786907500004,-6.8970881819999477],[112.87786901100003,-6.8970720269999788],[112.87787805800008,-6.8970719909999616],[112.8778779160001,-6.8970358269999679],[112.87791410300008,-6.8970356849999348],[112.87791403200004,-6.8970176019999485],[112.8779049850001,-6.8970176379999657],[112.87790494900003,-6.8970085969999673],[112.87791399600007,-6.8970085609999501],[112.87791403200004,-6.8970176019999485]]]},"properties":{"OBJECTID":39356,"FID_mangrove_utm":39181,"OBJECTID_1":39181,"Name":"18102566,9293","FolderPath":"JATIM/JATIM","SymbolID":0,"AltMode":0,"Base":0,"Clamped":-1,"Extruded":0,"Snippet":"","PopupInfo":"\u003chtml xmlns:fo=\"http://www.w3.org/1999/XSL/Format\" xmlns:msxsl=\"urn:schemas-microsoft-com:xslt\"\u003e\n\u003chead\u003e\n\u003cMETA http-equiv=\"Content-Type\" content=\"text/html\"\u003e\n\u003cmeta http-equiv=\"content-type\" content=\"text/html; charset=UTF-8\"\u003e\n\u003c/head\u003e\n\u003cbody style=\"margin:0px 0px 0px 0px;overflow:auto;background:#FFFFFF;\"\u003e\n\u003ctable style=\"font-family:Arial,Verdana,Times;font-size:12px;text-align:left;width:100%;border-collapse:collapse;padding:3px 3px 3px 3px\"\u003e\n\u003ctr style=\"text-align:center;font-weight:bold;background:#9CBCE2\"\u003e\n\u003ctd\u003e18102566,9293\u003c/td\u003e\n\u003c/tr\u003e\n\u003ctr\u003e\n\u003ctd\u003e\n\u003ctable style=\"font-family:Arial,Verdana,Times;font-size:12px;text-align:left;width:100%;border-spacing:0px; padding:3px 3px 3px 3px\"\u003e\n\u003ctr\u003e\n\u003ctd\u003eFID\u003c/td\u003e\n\u003ctd\u003e0\u003c/td\u003e\n\u003c/tr\u003e\n\u003ctr bgcolor=\"#D4E4F3\"\u003e\n\u003ctd\u003eShape_Leng\u003c/td\u003e\n\u003ctd\u003e18102566,9293\u003c/td\u003e\n\u003c/tr\u003e\n\u003c/table\u003e\n\u003c/td\u003e\n\u003c/tr\u003e\n\u003c/table\u003e\n\u003c/body\u003e\u003cscript type=\"text/javascript\"\u003e\n\t\t\t\tfunction changeImage(attElement, nameElement) {\n\t\t\t\tdocument.getElementById('imageAttachment').src = attElement;\n\t\t\t\tdocument.getElementById('imageName').innerHTML = nameElement;}\n\t\t\t\u003c/script\u003e\u003c/html\u003e\n","FID_active_grids":229,"GridID":"I05","Shape_Length":0.002521320834410761,"Shape_Area":2.0406746152561941e-07}},{"type":"Feature","id":39454,"geometry":{"type":"Polygon","coordinates":[[[112.8734304510001,-6.8966735719999406],[112.87347241600003,-6.8967772539999714],[112.8734942320001,-6.8968451059999438],[112.87350742900003,-6.8968450539999253],[112.87350739300007,-6.8968360129999269],[112.87351644000012,-6.896835977999956],[112.87351640400004,-6.8968269369999575],[112.87350735700011,-6.8968269719999284],[112.87350732200002,-6.89681793099993],[112.87355255700004,-6.8968177529999366],[112.87355252100008,-6.8968087119999382],[112.87357061500006,-6.8968086409999501],[112.8735705790001,-6.8967995999999516],[112.87359772000002,-6.8967994929999463],[112.87359764900009,-6.8967814109999495],[112.87358860200004,-6.8967814469999666],[112.87358856700007,-6.8967724059999682],[112.873597614,-6.896772369999951],[112.87359757800004,-6.8967633289999526],[112.87360662500009,-6.8967632929999354],[112.87360658900002,-6.896754251999937],[112.87361563600007,-6.896754216999966],[112.87361545900001,-6.8967090109999276],[112.87362450600006,-6.8967089759999567],[112.87362443500001,-6.8966908929999704],[112.87361538800008,-6.8966909289999307],[112.87361535200012,-6.8966818879999323],[112.87362439900005,-6.896681851999972],[112.87362436400008,-6.8966728109999735],[112.8734304510001,-6.8966735719999406]]]},"properties":{"OBJECTID":39454,"FID_mangrove_utm":39277,"OBJECTID_1":39277,"Name":"18102566,9293","FolderPath":"JATIM/JATIM","SymbolID":0,"AltMode":0,"Base":0,"Clamped":-1,"Extruded":0,"Snippet":"","PopupInfo":"\u003chtml xmlns:fo=\"http://www.w3.org/1999/XSL/Format\" xmlns:msxsl=\"urn:schemas-microsoft-com:xslt\"\u003e\n\u003chead\u003e\n\u003cMETA http-equiv=\"Content-Type\" content=\"text/html\"\u003e\n\u003cmeta http-equiv=\"content-type\" content=\"text/html; charset=UTF-8\"\u003e\n\u003c/head\u003e\n\u003cbody style=\"margin:0px 0px 0px 0px;overflow:auto;background:#FFFFFF;\"\u003e\n\u003ctable style=\"font-family:Arial,Verdana,Times;font-size:12px;text-align:left;width:100%;border-collapse:collapse;padding:3px 3px 3px 3px\"\u003e\n\u003ctr style=\"text-align:center;font-weight:bold;background:#9CBCE2\"\u003e\n\u003ctd\u003e18102566,9293\u003c/td\u003e\n\u003c/tr\u003e\n\u003ctr\u003e\n\u003ctd\u003e\n\u003ctable style=\"font-family:Arial,Verdana,Times;font-size:12px;text-align:left;width:100%;border-spacing:0px; padding:3px 3px 3px 3px\"\u003e\n\u003ctr\u003e\n\u003ctd\u003eFID\u003c/td\u003e\n\u003ctd\u003e0\u003c/td\u003e\n\u003c/tr\u003e\n\u003ctr bgcolor=\"#D4E4F3\"\u003e\n\u003ctd\u003eShape_Leng\u003c/td\u003e\n\u003ctd\u003e18102566,9293\u003c/td\u003e\n\u003c/tr\u003e\n\u003c/table\u003e\n\u003c/td\u003e\n\u003c/tr\u003e\n\u003c/table\u003e\n\u003c/body\u003e\u003cscript type=\"text/javascript\"\u003e\n\t\t\t\tfunction changeImage(attElement, nameElement) {\n\t\t\t\tdocument.getElementById('imageAttachment').src = attElement;\n\t\t\t\tdocument.getElementById('imageName').innerHTML = nameElement;}\n\t\t\t\u003c/script\u003e\u003c/html\u003e\n","FID_active_grids":229,"GridID":"I05","Shape_Length":0.00073391385716465966,"Shape_Area":2.1626984830779266e-08}},{"type":"Feature","id":39532,"geometry":{"type":"Polygon","coordinates":[[[112.8784735160001,-6.8966537509999739],[112.87847355200006,-6.8966627919999723],[112.87848259800001,-6.8966627559999552],[112.87848274100008,-6.8966989199999489],[112.87849178800002,-6.896698884999978],[112.87849185900006,-6.8967169669999748],[112.87850090600011,-6.8967169309999576],[112.87850104900008,-6.8967530959999408],[112.87851009500002,-6.8967530599999805],[112.8785102380001,-6.8967892249999636],[112.87851928500004,-6.8967891889999464],[112.87851932100011,-6.8967982299999449],[112.87852836700006,-6.8967981949999739],[112.8785285460001,-6.8968433999999661],[112.87853759300003,-6.8968433649999383],[112.87853769900005,-6.8968704879999336],[112.8785467460001,-6.8968704519999733],[112.87854681800002,-6.8968885349999596],[112.87855586500007,-6.8968884989999424],[112.87855590000004,-6.8968975399999408],[112.87858304100007,-6.8968974329999355],[112.87858314800008,-6.8969245569999771],[112.87860844300008,-6.8969244569999546],[112.87869690900004,-6.8968943549999722],[112.87882160800007,-6.8968627549999724],[112.87898649400006,-6.8967741589999605],[112.8790541620001,-6.8967023979999453],[112.8790763610001,-6.8966513769999551],[112.8784735160001,-6.8966537509999739]],[[112.878592088,-6.8968973979999646],[112.87860113500005,-6.8968973619999474],[112.8786012060001,-6.8969154439999443],[112.87859215900005,-6.8969154799999615],[112.878592088,-6.8968973979999646]]]},"properties":{"OBJECTID":39532,"FID_mangrove_utm":39354,"OBJECTID_1":39354,"Name":"18102566,9293","FolderPath":"JATIM/JATIM","SymbolID":0,"AltMode":0,"Base":0,"Clamped":-1,"Extruded":0,"Snippet":"","PopupInfo":"\u003chtml xmlns:fo=\"http://www.w3.org/1999/XSL/Format\" xmlns:msxsl=\"urn:schemas-microsoft-com:xslt\"\u003e\n\u003chead\u003e\n\u003cMETA http-equiv=\"Content-Type\" content=\"text/html\"\u003e\n\u003cmeta http-equiv=\"content-type\" content=\"text/html; charset=UTF-8\"\u003e\n\u003c/head\u003e\n\u003cbody style=\"margin:0px 0px 0px 0px;overflow:auto;background:#FFFFFF;\"\u003e\n\u003ctable style=\"font-family:Arial,Verdana,Times;font-size:12px;text-align:left;width:100%;border-collapse:collapse;padding:3px 3px 3px 3px\"\u003e\n\u003ctr style=\"text-align:center;font-weight:bold;background:#9CBCE2\"\u003e\n\u003ctd\u003e18102566,9293\u003c/td\u003e\n\u003c/tr\u003e\n\u003ctr\u003e\n\u003ctd\u003e\n\u003ctable style=\"font-family:Arial,Verdana,Times;font-size:12px;text-align:left;width:100%;border-spacing:0px; padding:3px 3px 3px 3px\"\u003e\n\u003ctr\u003e\n\u003ctd\u003eFID\u003c/td\u003e\n\u003ctd\u003e0\u003c/td\u003e\n\u003c/tr\u003e\n\u003ctr bgcolor=\"#D4E4F3\"\u003e\n\u003ctd\u003eShape_Leng\u003c/td\u003e\n\u003ctd\u003e18102566,9293\u003c/td\u003e\n\u003c/tr\u003e\n\u003c/table\u003e\n\u003c/td\u003e\n\u003c/tr\u003e\n\u003c/table\u003e\n\u003c/body\u003e\u003cscript type=\"text/javascript\"\u003e\n\t\t\t\tfunction changeImage(attElement, nameElement) {\n\t\t\t\tdocument.getElementById('imageAttachment').src = attElement;\n\t\t\t\tdocument.getElementById('imageName').innerHTML = nameElement;}\n\t\t\t\u003c/script\u003e\u003c/html\u003e\n","FID_active_grids":229,"GridID":"I05","Shape_Length":0.001625744551669073,"Shape_Area":1.084944632932598e-07}}]}