{"type":"FeatureCollection","features":[{"type":"Feature","id":37732,"geometry":{"type":"Polygon","coordinates":[[[115.47770291500001,-6.9243485589999523],[115.47768486600012,-6.9243487289999734],[115.47768495100001,-6.9243577469999309],[115.47767592700006,-6.9243578329999309],[115.47767609700009,-6.9243758689999595],[115.47765804800008,-6.9243760389999807],[115.47765821900009,-6.9243940759999418],[115.4776762680001,-6.9243939049999312],[115.47767635300011,-6.924402923999935],[115.47769440200011,-6.9244027529999812],[115.4776943170001,-6.9243937349999669],[115.47772139000006,-6.9243934799999352],[115.47772130500005,-6.9243844619999777],[115.47771228000011,-6.9243845469999314],[115.47771202500007,-6.924357491999956],[115.47770300000002,-6.9243575769999666],[115.47770291500001,-6.9243485589999523]]]},"properties":{"OBJECTID":37732,"FID_mangrove_utm":37574,"OBJECTID_1":37574,"Name":"18102566,9293","FolderPath":"JATIM/JATIM","SymbolID":0,"AltMode":0,"Base":0,"Clamped":-1,"Extruded":0,"Snippet":"","PopupInfo":"\u003chtml xmlns:fo=\"http://www.w3.org/1999/XSL/Format\" xmlns:msxsl=\"urn:schemas-microsoft-com:xslt\"\u003e\n\u003chead\u003e\n\u003cMETA http-equiv=\"Content-Type\" content=\"text/html\"\u003e\n\u003cmeta http-equiv=\"content-type\" content=\"text/html; charset=UTF-8\"\u003e\n\u003c/head\u003e\n\u003cbody style=\"margin:0px 0px 0px 0px;overflow:auto;background:#FFFFFF;\"\u003e\n\u003ctable style=\"font-family:Arial,Verdana,Times;font-size:12px;text-align:left;width:100%;border-collapse:collapse;padding:3px 3px 3px 3px\"\u003e\n\u003ctr style=\"text-align:center;font-weight:bold;background:#9CBCE2\"\u003e\n\u003ctd\u003e18102566,9293\u003c/td\u003e\n\u003c/tr\u003e\n\u003ctr\u003e\n\u003ctd\u003e\n\u003ctable style=\"font-family:Arial,Verdana,Times;font-size:12px;text-align:left;width:100%;border-spacing:0px; padding:3px 3px 3px 3px\"\u003e\n\u003ctr\u003e\n\u003ctd\u003eFID\u003c/td\u003e\n\u003ctd\u003e0\u003c/td\u003e\n\u003c/tr\u003e\n\u003ctr bgcolor=\"#D4E4F3\"\u003e\n\u003ctd\u003eShape_Leng\u003c/td\u003e\n\u003ctd\u003e18102566,9293\u003c/td\u003e\n\u003c/tr\u003e\n\u003c/table\u003e\n\u003c/td\u003e\n\u003c/tr\u003e\n\u003c/table\u003e\n\u003c/body\u003e\u003cscript type=\"text/javascript\"\u003e\n\t\t\t\tfunction changeImage(attElement, nameElement) {\n\t\t\t\tdocument.getElementById('imageAttachment').src = attElement;\n\t\t\t\tdocument.getElementById('imageName').innerHTML = nameElement;}\n\t\t\t\u003c/script\u003e\u003c/html\u003e\n","FID_active_grids":236,"GridID":"I54","Shape_Length":0.00023457244841438928,"Shape_Area":2.0348001679422441e-09}},{"type":"Feature","id":37739,"geometry":{"type":"Polygon","coordinates":[[[115.47406695800009,-6.9244820589999563],[115.47406687300008,-6.924473040999942],[115.47407589800002,-6.9244729559999314],[115.4740754720001,-6.9244278639999379],[115.47406644800003,-6.9244279489999485],[115.47406568200006,-6.9243467849999547],[115.47407470600001,-6.9243466999999441],[115.47407411000006,-6.9242835719999789],[115.47406508600011,-6.9242836579999789],[115.47406483000009,-6.9242566029999466],[115.47405580600002,-6.9242566879999572],[115.47405555000012,-6.9242296329999249],[115.47404652600005,-6.9242297179999355],[115.47404644100004,-6.924220699999978],[115.47404011300011,-6.9242207599999688],[115.47403645200006,-6.9242240319999269],[115.47399575000009,-6.9244827299999656],[115.47406695800009,-6.9244820589999563]]]},"properties":{"OBJECTID":37739,"FID_mangrove_utm":37579,"OBJECTID_1":37579,"Name":"18102566,9293","FolderPath":"JATIM/JATIM","SymbolID":0,"AltMode":0,"Base":0,"Clamped":-1,"Extruded":0,"Snippet":"","PopupInfo":"\u003chtml xmlns:fo=\"http://www.w3.org/1999/XSL/Format\" xmlns:msxsl=\"urn:schemas-microsoft-com:xslt\"\u003e\n\u003chead\u003e\n\u003cMETA http-equiv=\"Content-Type\" content=\"text/html\"\u003e\n\u003cmeta http-equiv=\"content-type\" content=\"text/html; charset=UTF-8\"\u003e\n\u003c/head\u003e\n\u003cbody style=\"margin:0px 0px 0px 0px;overflow:auto;background:#FFFFFF;\"\u003e\n\u003ctable style=\"font-family:Arial,Verdana,Times;font-size:12px;text-align:left;width:100%;border-collapse:collapse;padding:3px 3px 3px 3px\"\u003e\n\u003ctr style=\"text-align:center;font-weight:bold;background:#9CBCE2\"\u003e\n\u003ctd\u003e18102566,9293\u003c/td\u003e\n\u003c/tr\u003e\n\u003ctr\u003e\n\u003ctd\u003e\n\u003ctable style=\"font-family:Arial,Verdana,Times;font-size:12px;text-align:left;width:100%;border-spacing:0px; padding:3px 3px 3px 3px\"\u003e\n\u003ctr\u003e\n\u003ctd\u003eFID\u003c/td\u003e\n\u003ctd\u003e0\u003c/td\u003e\n\u003c/tr\u003e\n\u003ctr bgcolor=\"#D4E4F3\"\u003e\n\u003ctd\u003eShape_Leng\u003c/td\u003e\n\u003ctd\u003e18102566,9293\u003c/td\u003e\n\u003c/tr\u003e\n\u003c/table\u003e\n\u003c/td\u003e\n\u003c/tr\u003e\n\u003c/table\u003e\n\u003c/body\u003e\u003cscript type=\"text/javascript\"\u003e\n\t\t\t\tfunction changeImage(attElement, nameElement) {\n\t\t\t\tdocument.getElementById('imageAttachment').src = attElement;\n\t\t\t\tdocument.getElementById('imageName').innerHTML = nameElement;}\n\t\t\t\u003c/script\u003e\u003c/html\u003e\n","FID_active_grids":236,"GridID":"I54","Shape_Length":0.00066001893418705005,"Shape_Area":1.347699210690261e-08}},{"type":"Feature","id":37752,"geometry":{"type":"Polygon","coordinates":[[[115.47436902600009,-6.9239741449999315],[115.47436894700002,-6.9239657469999543],[115.47435709700005,-6.9239742569999407],[115.47436902600009,-6.9239741449999315]]]},"properties":{"OBJECTID":37752,"FID_mangrove_utm":37588,"OBJECTID_1":37588,"Name":"18102566,9293","FolderPath":"JATIM/JATIM","SymbolID":0,"AltMode":0,"Base":0,"Clamped":-1,"Extruded":0,"Snippet":"","PopupInfo":"\u003chtml xmlns:fo=\"http://www.w3.org/1999/XSL/Format\" xmlns:msxsl=\"urn:schemas-microsoft-com:xslt\"\u003e\n\u003chead\u003e\n\u003cMETA http-equiv=\"Content-Type\" content=\"text/html\"\u003e\n\u003cmeta http-equiv=\"content-type\" content=\"text/html; charset=UTF-8\"\u003e\n\u003c/head\u003e\n\u003cbody style=\"margin:0px 0px 0px 0px;overflow:auto;background:#FFFFFF;\"\u003e\n\u003ctable style=\"font-family:Arial,Verdana,Times;font-size:12px;text-align:left;width:100%;border-collapse:collapse;padding:3px 3px 3px 3px\"\u003e\n\u003ctr style=\"text-align:center;font-weight:bold;background:#9CBCE2\"\u003e\n\u003ctd\u003e18102566,9293\u003c/td\u003e\n\u003c/tr\u003e\n\u003ctr\u003e\n\u003ctd\u003e\n\u003ctable style=\"font-family:Arial,Verdana,Times;font-size:12px;text-align:left;width:100%;border-spacing:0px; padding:3px 3px 3px 3px\"\u003e\n\u003ctr\u003e\n\u003ctd\u003eFID\u003c/td\u003e\n\u003ctd\u003e0\u003c/td\u003e\n\u003c/tr\u003e\n\u003ctr bgcolor=\"#D4E4F3\"\u003e\n\u003ctd\u003eShape_Leng\u003c/td\u003e\n\u003ctd\u003e18102566,9293\u003c/td\u003e\n\u003c/tr\u003e\n\u003c/table\u003e\n\u003c/td\u003e\n\u003c/tr\u003e\n\u003c/table\u003e\n\u003c/body\u003e\u003cscript type=\"text/javascript\"\u003e\n\t\t\t\tfunction changeImage(attElement, nameElement) {\n\t\t\t\tdocument.getElementById('imageAttachment').src = attElement;\n\t\t\t\tdocument.getElementById('imageName').innerHTML = nameElement;}\n\t\t\t\u003c/script\u003e\u003c/html\u003e\n","FID_active_grids":236,"GridID":"I54","Shape_Length":3.4917023401494607e-05,"Shape_Area":5.009429502994418e-11}},{"type":"Feature","id":37802,"geometry":{"type":"Polygon","coordinates":[[[115.47530136400007,-6.9233069649999379],[115.47531038800003,-6.9233068799999273],[115.47531030300001,-6.9232978619999699],[115.47532835200002,-6.9232976909999593],[115.47532818200011,-6.9232796549999307],[115.47533720700005,-6.923279569999977],[115.47533712000006,-6.9232704329999706],[115.47436982200009,-6.9239651179999555],[115.47438699000008,-6.9239649559999634],[115.47438690500007,-6.9239559379999491],[115.47442300300008,-6.9239555979999636],[115.47442291800007,-6.9239465789999599],[115.47443194300001,-6.9239464939999493],[115.47443185800012,-6.923937475999935],[115.47444088200007,-6.9239373909999813],[115.47444079700006,-6.923928372999967],[115.47449494400007,-6.9239278619999709],[115.47449485900006,-6.9239188439999566],[115.47452193300001,-6.9239185889999249],[115.47452184800011,-6.9239095709999674],[115.47453989700011,-6.9239093999999568],[115.4745398120001,-6.9239003819999425],[115.47456688500006,-6.9239001269999676],[115.47456680000005,-6.9238911089999533],[115.4745758250001,-6.9238910239999427],[115.47457574000009,-6.923882004999939],[115.4746118380001,-6.9238816649999535],[115.47461175300009,-6.9238726469999392],[115.47462980200009,-6.9238724769999749],[115.47462971700008,-6.9238634579999712],[115.47466581500009,-6.9238631179999288],[115.47466573000008,-6.9238540999999714],[115.47467475400003,-6.9238540149999608],[115.47467466900002,-6.9238449969999465],[115.47469271800003,-6.9238448259999359],[115.47469263300002,-6.9238358079999784],[115.47470165800007,-6.9238357229999679],[115.47470157300006,-6.9238267049999536],[115.47471059700001,-6.923826619999943],[115.47471051200012,-6.9238176019999287],[115.47473758600006,-6.9238173459999643],[115.47473741500005,-6.9237993099999358],[115.4747464400001,-6.9237992249999252],[115.47474635500009,-6.9237902059999783],[115.4747644040001,-6.9237900359999571],[115.47476431900009,-6.9237810179999428],[115.47478236800009,-6.9237808479999785],[115.47478228300008,-6.9237718299999642],[115.47480033200009,-6.923771659999943],[115.47480016200007,-6.923753622999925],[115.47480918600002,-6.9237535379999713],[115.47480910100001,-6.923744519999957],[115.47481812600006,-6.9237444349999464],[115.47481821100007,-6.9237534529999607],[115.47482723500002,-6.9237533679999501],[115.47482715000001,-6.9237443499999358],[115.47483617500006,-6.9237442639999358],[115.47483608900006,-6.9237352459999784],[115.47485413900006,-6.9237350759999572],[115.47485405300006,-6.9237260579999429],[115.47487210300005,-6.9237258879999786],[115.47487201700005,-6.9237168689999748],[115.47488104200011,-6.9237167839999643],[115.4748809570001,-6.92370776599995],[115.47488998100005,-6.9237076809999394],[115.47488989600004,-6.9236986629999251],[115.47490794500004,-6.9236984929999608],[115.47490786000003,-6.923689473999957],[115.47492590900004,-6.9236893039999359],[115.47492573900001,-6.9236712679999641],[115.47493476400007,-6.9236711829999535],[115.47493467800007,-6.9236621639999498],[115.47494370300001,-6.9236620789999392],[115.47494361800011,-6.9236530609999249],[115.47495264200006,-6.9236529759999712],[115.47495255700005,-6.9236439579999569],[115.47497060600006,-6.9236437879999357],[115.47497043600004,-6.9236257509999746],[115.47497946100009,-6.923625665999964],[115.47497929000008,-6.9236076299999354],[115.47498831500002,-6.9236075449999248],[115.47498823000001,-6.9235985259999779],[115.47500627900001,-6.9235983559999568],[115.47500619400012,-6.9235893379999425],[115.47501521800007,-6.9235892529999319],[115.47501504800005,-6.9235712159999707],[115.47502407200011,-6.9235711309999601],[115.4750239870001,-6.9235621129999458],[115.47503301200004,-6.9235620279999353],[115.47503292700003,-6.9235530099999778],[115.4750600000001,-6.9235527539999566],[115.47505983000008,-6.923534717999928],[115.47506885500002,-6.9235346329999743],[115.47506876900002,-6.92352561499996],[115.47507779400007,-6.9235255299999494],[115.47507770900006,-6.9235165109999457],[115.47508673300001,-6.9235164259999351],[115.47508664800012,-6.9235074079999777],[115.47510469700001,-6.9235072379999565],[115.47510461200011,-6.9234982199999422],[115.47511363700005,-6.9234981349999316],[115.47511346600004,-6.9234800979999704],[115.47513151500004,-6.9234799279999493],[115.47513143000003,-6.923470909999935],[115.47514947900004,-6.9234707389999812],[115.47514939400003,-6.9234617209999669],[115.47515841900008,-6.9234616359999563],[115.47515824900006,-6.9234435999999278],[115.47516727300001,-6.923443514999974],[115.47516718800011,-6.9234344959999703],[115.47518523700001,-6.9234343259999491],[115.47518515200011,-6.9234253079999348],[115.47519417600006,-6.9234252229999811],[115.47519409100005,-6.9234162049999668],[115.4752031160001,-6.9234161199999562],[115.47520294500009,-6.9233980829999382],[115.47521197000003,-6.9233979979999276],[115.47521188500002,-6.9233889799999702],[115.47522090900009,-6.9233888949999596],[115.47522082400008,-6.9233798759999559],[115.47523887300008,-6.9233797059999347],[115.47523878800007,-6.9233706879999772],[115.47524781300001,-6.9233706029999666],[115.47524764200011,-6.9233525659999486],[115.47525666700005,-6.9233524809999381],[115.47525658200004,-6.9233434629999806],[115.47527463100005,-6.9233432929999594],[115.47527454600004,-6.9233342749999451],[115.4752835700001,-6.9233341899999346],[115.47528348500009,-6.9233251709999308],[115.4753015340001,-6.9233250009999665],[115.47530136400007,-6.9233069649999379]]]},"properties":{"OBJECTID":37802,"FID_mangrove_utm":37636,"OBJECTID_1":37636,"Name":"18102566,9293","FolderPath":"JATIM/JATIM","SymbolID":0,"AltMode":0,"Base":0,"Clamped":-1,"Extruded":0,"Snippet":"","PopupInfo":"\u003chtml xmlns:fo=\"http://www.w3.org/1999/XSL/Format\" xmlns:msxsl=\"urn:schemas-microsoft-com:xslt\"\u003e\n\u003chead\u003e\n\u003cMETA http-equiv=\"Content-Type\" content=\"text/html\"\u003e\n\u003cmeta http-equiv=\"content-type\" content=\"text/html; charset=UTF-8\"\u003e\n\u003c/head\u003e\n\u003cbody style=\"margin:0px 0px 0px 0px;overflow:auto;background:#FFFFFF;\"\u003e\n\u003ctable style=\"font-family:Arial,Verdana,Times;font-size:12px;text-align:left;width:100%;border-collapse:collapse;padding:3px 3px 3px 3px\"\u003e\n\u003ctr style=\"text-align:center;font-weight:bold;background:#9CBCE2\"\u003e\n\u003ctd\u003e18102566,9293\u003c/td\u003e\n\u003c/tr\u003e\n\u003ctr\u003e\n\u003ctd\u003e\n\u003ctable style=\"font-family:Arial,Verdana,Times;font-size:12px;text-align:left;width:100%;border-spacing:0px; padding:3px 3px 3px 3px\"\u003e\n\u003ctr\u003e\n\u003ctd\u003eFID\u003c/td\u003e\n\u003ctd\u003e0\u003c/td\u003e\n\u003c/tr\u003e\n\u003ctr bgcolor=\"#D4E4F3\"\u003e\n\u003ctd\u003eShape_Leng\u003c/td\u003e\n\u003ctd\u003e18102566,9293\u003c/td\u003e\n\u003c/tr\u003e\n\u003c/table\u003e\n\u003c/td\u003e\n\u003c/tr\u003e\n\u003c/table\u003e\n\u003c/body\u003e\u003cscript type=\"text/javascript\"\u003e\n\t\t\t\tfunction changeImage(attElement, nameElement) {\n\t\t\t\tdocument.getElementById('imageAttachment').src = attElement;\n\t\t\t\tdocument.getElementById('imageName').innerHTML = nameElement;}\n\t\t\t\u003c/script\u003e\u003c/html\u003e\n","FID_active_grids":236,"GridID":"I54","Shape_Length":0.0028682897621519197,"Shape_Area":6.6986592351555458e-08}},{"type":"Feature","id":37806,"geometry":{"type":"Polygon","coordinates":[[[115.4756134810001,-6.9231252909999625],[115.47556147200009,-6.9231346499999518],[115.47556154300003,-6.9231421689999593],[115.47555251800009,-6.9231422539999699],[115.4755526030001,-6.9231512719999273],[115.47556162800004,-6.9231511869999736],[115.47556213900009,-6.9232052969999813],[115.47557116300004,-6.9232052119999707],[115.47557133400005,-6.9232232479999425],[115.47556230900011,-6.9232233329999531],[115.47556239400001,-6.9232323509999674],[115.47557141900006,-6.9232322659999568],[115.47557158900008,-6.9232503029999748],[115.47558061400002,-6.9232502179999642],[115.47558095400007,-6.923286290999954],[115.47558997900001,-6.9232862059999434],[115.47559006400002,-6.9232952239999577],[115.47559908800008,-6.9232951389999471],[115.47559925900009,-6.9233131749999757],[115.47560828300004,-6.9233130899999651],[115.47560845400005,-6.9233311259999368],[115.47561747800012,-6.9233310409999262],[115.47561790400005,-6.9233761329999766],[115.47562692800011,-6.9233760469999766],[115.47562880200007,-6.9235744479999539],[115.47563782600002,-6.9235743629999433],[115.47563791100004,-6.9235833819999471],[115.47564693600009,-6.9235832969999365],[115.47564753200004,-6.9236464239999691],[115.47565655700009,-6.9236463389999585],[115.47565672700011,-6.9236643749999303],[115.47566575100007,-6.9236642899999765],[115.47566592200008,-6.9236823269999377],[115.47567494600003,-6.9236822419999271],[115.47567511700004,-6.9237002779999557],[115.4756841410001,-6.9237001929999451],[115.47568422600011,-6.9237092109999594],[115.47569325100005,-6.9237091259999488],[115.47569342100007,-6.9237271629999668],[115.47570244600001,-6.9237270779999562],[115.47570253100002,-6.9237360959999705],[115.47571155500009,-6.9237360109999599],[115.4757117260001,-6.9237540469999317],[115.47572075000005,-6.9237539619999779],[115.47572083500006,-6.9237629799999354],[115.47572986000011,-6.9237628949999248],[115.47572994500001,-6.9237719129999391],[115.47573897000007,-6.9237718279999285],[115.47573905500008,-6.9237808469999322],[115.47575710400008,-6.9237806759999785],[115.47575718900009,-6.9237896949999254],[115.47576621400003,-6.9237896089999253],[115.47576629900004,-6.9237986279999291],[115.47577532300011,-6.9237985429999753],[115.47577540800012,-6.9238075609999328],[115.47578443300006,-6.923807475999979],[115.47578451800007,-6.9238164939999365],[115.47579354300001,-6.9238164089999259],[115.47579371300003,-6.9238344449999545],[115.47580273800008,-6.9238343599999439],[115.47580282300009,-6.9238433779999582],[115.47579379800004,-6.9238434639999582],[115.47579430900009,-6.9238975729999765],[115.47580333400003,-6.923897487999966],[115.47580341900004,-6.9239065059999803],[115.47581244300011,-6.9239064209999697],[115.47581252900011,-6.9239154389999271],[115.47583057800011,-6.9239152689999628],[115.47583066300001,-6.9239242869999771],[115.47592993300009,-6.9239233509999281],[115.4759300180001,-6.9239323689999424],[115.47605636100002,-6.9239311779999753],[115.47605627600001,-6.9239221589999715],[115.47609237400002,-6.9239218189999292],[115.47609228900001,-6.9239128009999718],[115.47611936300007,-6.92391254599994],[115.47611944800008,-6.9239215639999543],[115.47615554600009,-6.9239212229999794],[115.4761556310001,-6.9239302419999262],[115.4762097790001,-6.9239297309999301],[115.47620986400011,-6.9239387489999444],[115.47621888800006,-6.9239386639999339],[115.47621897300007,-6.9239476819999481],[115.47622799800001,-6.9239475969999376],[115.47622808300002,-6.9239566149999519],[115.47624613200003,-6.9239564449999307],[115.47624621700004,-6.923965462999945],[115.47628231600004,-6.9239651229999595],[115.47628240100005,-6.9239741409999738],[115.47630045000005,-6.9239739709999526],[115.47630053500006,-6.9239829889999669],[115.47635468200008,-6.9239824779999708],[115.47635476700009,-6.9239914969999745],[115.47636379200003,-6.9239914109999745],[115.47636387700004,-6.9240004299999782],[115.47638192600004,-6.9240002589999676],[115.47638201100006,-6.9240092779999713],[115.47647225700007,-6.9240084269999329],[115.47647217100007,-6.9239994079999292],[115.47648119600001,-6.9239993229999754],[115.47648111100011,-6.9239903049999612],[115.47649013500006,-6.9239902199999506],[115.47649005000005,-6.9239812019999363],[115.47653517300012,-6.9239807759999508],[115.47653508800011,-6.9239717579999365],[115.47655313700011,-6.9239715879999721],[115.4765530520001,-6.9239625689999684],[115.4765711010001,-6.9239623989999473],[115.4765710150001,-6.923953380999933],[115.47658004000004,-6.9239532959999792],[115.47657995500003,-6.9239442779999649],[115.47659800400004,-6.9239441069999543],[115.47659791900003,-6.92393508899994],[115.47660694300009,-6.9239350039999294],[115.47660685800008,-6.923925985999972],[115.47662490700009,-6.9239258159999508],[115.47662482200008,-6.9239167969999471],[115.4766970180001,-6.9239161159999298],[115.47669710300011,-6.9239251349999336],[115.47671515200011,-6.9239249639999798],[115.47671523800011,-6.9239339829999267],[115.47674231100007,-6.9239337269999623],[115.47674248200008,-6.9239517639999804],[115.47676053100008,-6.9239515929999698],[115.47676061600009,-6.9239606119999735],[115.47680573800005,-6.9239601859999311],[115.47680582400005,-6.9239692039999454],[115.47684192200006,-6.9239688639999599],[115.47684200700007,-6.9239778819999742],[115.47691420300009,-6.9239772009999569],[115.4769142880001,-6.9239862189999712],[115.47694136200005,-6.9239859639999395],[115.47694144700006,-6.9239949819999538],[115.47695047200011,-6.9239948969999432],[115.47695064200002,-6.9240129329999718],[115.47695966700007,-6.9240128479999612],[115.47695983700009,-6.9240308849999792],[115.4769778860001,-6.9240307139999686],[115.47697797100011,-6.9240397329999723],[115.47698699600005,-6.9240396469999723],[115.47698708100006,-6.924048665999976],[115.47699610500001,-6.9240485809999655],[115.47699619100001,-6.9240575989999797],[115.47703228900002,-6.924057257999948],[115.47703237400003,-6.9240662759999623],[115.47708652100005,-6.9240657659999556],[115.47708660600006,-6.9240747839999699],[115.47711368000012,-6.9240745289999381],[115.47711376500001,-6.9240835469999524],[115.47712279000007,-6.9240834619999418],[115.47712287500008,-6.9240924799999561],[115.47714994800003,-6.924092223999935],[115.47715003300004,-6.9241012429999387],[115.47721320500011,-6.924100646999932],[115.47721337600001,-6.9241186829999606],[115.47724044900008,-6.9241184279999288],[115.47724036400007,-6.9241094099999714],[115.47729451100008,-6.9241088989999753],[115.47729459600009,-6.9241179169999327],[115.47730362100003,-6.924117831999979],[115.47730353600002,-6.9241088139999647],[115.47732158500003,-6.9241086429999541],[115.47732167000004,-6.9241176619999578],[115.47733971900004,-6.9241174909999472],[115.47733980400005,-6.9241265089999615],[115.47734882900011,-6.9241264239999509],[115.47734899900001,-6.9241444609999689],[115.47735802400007,-6.9241443759999584],[115.47735819400009,-6.9241624119999301],[115.47736721800004,-6.9241623269999764],[115.47736738900005,-6.9241803629999481],[115.47735836400011,-6.9241804479999587],[115.47735845000011,-6.9241894669999624],[115.47734942500006,-6.924189551999973],[115.47734951000007,-6.9241985699999304],[115.47735853500001,-6.9241984849999767],[115.47735862000002,-6.9242075029999341],[115.47736764400008,-6.9242074179999804],[115.4773679000001,-6.9242344729999559],[115.47737692500004,-6.9242343869999559],[115.47737701000005,-6.9242434059999596],[115.47738603400001,-6.9242433199999596],[115.47738611900002,-6.9242523389999633],[115.47739514400007,-6.9242522539999527],[115.47739505900006,-6.924243234999949],[115.47741310800006,-6.9242430649999278],[115.47741327800009,-6.9242611009999564],[115.4774674250001,-6.9242605909999497],[115.47746734000009,-6.924251571999946],[115.47756661000005,-6.9242506359999538],[115.47756669500006,-6.9242596539999681],[115.47757572000012,-6.9242595689999575],[115.47757580500001,-6.9242685869999718],[115.47759385400002,-6.9242684169999507],[115.47759393900003,-6.924277434999965],[115.47760296400008,-6.9242773499999544],[115.47760304900009,-6.9242863679999687],[115.47761207300005,-6.9242862829999581],[115.47761215900005,-6.9242953009999724],[115.47762118300011,-6.9242952159999618],[115.47762126800001,-6.9243042339999761],[115.47764834200007,-6.9243039789999443],[115.47764851200009,-6.9243220149999729],[115.47765753700003,-6.9243219299999623],[115.47765762200004,-6.9243309479999766],[115.47767567100004,-6.9243307779999554],[115.47767575600005,-6.9243397959999697],[115.47769380500006,-6.9243396259999486],[115.47769363500004,-6.9243215899999768],[115.47770266000009,-6.9243215039999768],[115.47770231900006,-6.9242854319999765],[115.47771134300001,-6.9242853459999765],[115.47771125800011,-6.9242763279999622],[115.47772930700012,-6.924276157999941],[115.47772896600009,-6.9242400849999513],[115.47773799100003,-6.9242399999999407],[115.47773807600004,-6.924249017999955],[115.47774710100009,-6.9242489329999444],[115.4777471860001,-6.9242579509999587],[115.47777425900006,-6.9242576959999269],[115.47777443000007,-6.9242757319999555],[115.47778345400002,-6.9242756469999449],[115.47778353900003,-6.9242846649999592],[115.47779256400008,-6.9242845799999486],[115.47779264900009,-6.9242935979999629],[115.47780167400003,-6.9242935129999523],[115.47780175900004,-6.9243025309999666],[115.47781980800005,-6.9243023609999454],[115.47781997800007,-6.9243203979999635],[115.47782900300001,-6.9243203119999635],[115.47782917300003,-6.9243383489999815],[115.47783819800009,-6.9243382639999709],[115.47783862400001,-6.9243833549999749],[115.47784764800008,-6.9243832689999749],[115.47784807400001,-6.924428359999979],[115.47785709900006,-6.9244282749999684],[115.47785718400007,-6.9244372939999721],[115.47793840500003,-6.9244365269999548],[115.47793814900001,-6.9244094729999688],[115.47794717400006,-6.9244093869999688],[115.47794700300005,-6.9243913509999402],[115.47795602800011,-6.9243912659999296],[115.47795551700005,-6.9243371569999681],[115.47794649200011,-6.9243372419999787],[115.4779464070001,-6.9243282239999644],[115.47795543100005,-6.9243281389999538],[115.47795526500011,-6.9243105279999781],[115.47751814500009,-6.9241071819999434],[115.47705054400001,-6.9239270699999338],[115.4763263210001,-6.9238332989999662],[115.4760085910001,-6.9237919679999322],[115.47588810900004,-6.9237444959999266],[115.47578663200011,-6.9234680559999333],[115.47569903100009,-6.923221410999929],[115.4756134810001,-6.9231252909999625]],[[115.47738484200011,-6.9241170659999511],[115.47739386600006,-6.9241169799999511],[115.47739395100007,-6.9241259989999548],[115.47738492700012,-6.9241260839999654],[115.47738484200011,-6.9241170659999511]],[[115.47792895400005,-6.9243915209999614],[115.4779379790001,-6.9243914359999508],[115.47793806400011,-6.9244004539999651],[115.47792903900006,-6.9244005399999651],[115.47792895400005,-6.9243915209999614]]]},"properties":{"OBJECTID":37806,"FID_mangrove_utm":37640,"OBJECTID_1":37640,"Name":"18102566,9293","FolderPath":"JATIM/JATIM","SymbolID":0,"AltMode":0,"Base":0,"Clamped":-1,"Extruded":0,"Snippet":"","PopupInfo":"\u003chtml xmlns:fo=\"http://www.w3.org/1999/XSL/Format\" xmlns:msxsl=\"urn:schemas-microsoft-com:xslt\"\u003e\n\u003chead\u003e\n\u003cMETA http-equiv=\"Content-Type\" content=\"text/html\"\u003e\n\u003cmeta http-equiv=\"content-type\" content=\"text/html; charset=UTF-8\"\u003e\n\u003c/head\u003e\n\u003cbody style=\"margin:0px 0px 0px 0px;overflow:auto;background:#FFFFFF;\"\u003e\n\u003ctable style=\"font-family:Arial,Verdana,Times;font-size:12px;text-align:left;width:100%;border-collapse:collapse;padding:3px 3px 3px 3px\"\u003e\n\u003ctr style=\"text-align:center;font-weight:bold;background:#9CBCE2\"\u003e\n\u003ctd\u003e18102566,9293\u003c/td\u003e\n\u003c/tr\u003e\n\u003ctr\u003e\n\u003ctd\u003e\n\u003ctable style=\"font-family:Arial,Verdana,Times;font-size:12px;text-align:left;width:100%;border-spacing:0px; padding:3px 3px 3px 3px\"\u003e\n\u003ctr\u003e\n\u003ctd\u003eFID\u003c/td\u003e\n\u003ctd\u003e0\u003c/td\u003e\n\u003c/tr\u003e\n\u003ctr bgcolor=\"#D4E4F3\"\u003e\n\u003ctd\u003eShape_Leng\u003c/td\u003e\n\u003ctd\u003e18102566,9293\u003c/td\u003e\n\u003c/tr\u003e\n\u003c/table\u003e\n\u003c/td\u003e\n\u003c/tr\u003e\n\u003c/table\u003e\n\u003c/body\u003e\u003cscript type=\"text/javascript\"\u003e\n\t\t\t\tfunction changeImage(attElement, nameElement) {\n\t\t\t\tdocument.getElementById('imageAttachment').src = attElement;\n\t\t\t\tdocument.getElementById('imageName').innerHTML = nameElement;}\n\t\t\t\u003c/script\u003e\u003c/html\u003e\n","FID_active_grids":236,"GridID":"I54","Shape_Length":0.0074012502784800071,"Shape_Area":3.5703462038557701e-07}},{"type":"Feature","id":39208,"geometry":{"type":"Polygon","coordinates":[[[115.51724790500009,-6.8812981319999267],[115.51722985800006,-6.8812983019999479],[115.51722994400006,-6.8813073199999621],[115.5172209210001,-6.8813074059999622],[115.51722093900003,-6.8813093029999663],[115.51724804100002,-6.8813125619999482],[115.51724790500009,-6.8812981319999267]]]},"properties":{"OBJECTID":39208,"FID_mangrove_utm":39035,"OBJECTID_1":39035,"Name":"18102566,9293","FolderPath":"JATIM/JATIM","SymbolID":0,"AltMode":0,"Base":0,"Clamped":-1,"Extruded":0,"Snippet":"","PopupInfo":"\u003chtml xmlns:fo=\"http://www.w3.org/1999/XSL/Format\" xmlns:msxsl=\"urn:schemas-microsoft-com:xslt\"\u003e\n\u003chead\u003e\n\u003cMETA http-equiv=\"Content-Type\" content=\"text/html\"\u003e\n\u003cmeta http-equiv=\"content-type\" content=\"text/html; charset=UTF-8\"\u003e\n\u003c/head\u003e\n\u003cbody style=\"margin:0px 0px 0px 0px;overflow:auto;background:#FFFFFF;\"\u003e\n\u003ctable style=\"font-family:Arial,Verdana,Times;font-size:12px;text-align:left;width:100%;border-collapse:collapse;padding:3px 3px 3px 3px\"\u003e\n\u003ctr style=\"text-align:center;font-weight:bold;background:#9CBCE2\"\u003e\n\u003ctd\u003e18102566,9293\u003c/td\u003e\n\u003c/tr\u003e\n\u003ctr\u003e\n\u003ctd\u003e\n\u003ctable style=\"font-family:Arial,Verdana,Times;font-size:12px;text-align:left;width:100%;border-spacing:0px; padding:3px 3px 3px 3px\"\u003e\n\u003ctr\u003e\n\u003ctd\u003eFID\u003c/td\u003e\n\u003ctd\u003e0\u003c/td\u003e\n\u003c/tr\u003e\n\u003ctr bgcolor=\"#D4E4F3\"\u003e\n\u003ctd\u003eShape_Leng\u003c/td\u003e\n\u003ctd\u003e18102566,9293\u003c/td\u003e\n\u003c/tr\u003e\n\u003c/table\u003e\n\u003c/td\u003e\n\u003c/tr\u003e\n\u003c/table\u003e\n\u003c/body\u003e\u003cscript type=\"text/javascript\"\u003e\n\t\t\t\tfunction changeImage(attElement, nameElement) {\n\t\t\t\tdocument.getElementById('imageAttachment').src = attElement;\n\t\t\t\tdocument.getElementById('imageName').innerHTML = nameElement;}\n\t\t\t\u003c/script\u003e\u003c/html\u003e\n","FID_active_grids":236,"GridID":"I54","Shape_Length":7.9714590019763288e-05,"Shape_Area":2.6169900229643901e-10}},{"type":"Feature","id":39212,"geometry":{"type":"Polygon","coordinates":[[[115.51726552400009,-6.8812528719999477],[115.51726543900008,-6.8812438549999797],[115.51725641600001,-6.8812439399999334],[115.51725650100002,-6.8812529579999477],[115.51726552400009,-6.8812528719999477]]]},"properties":{"OBJECTID":39212,"FID_mangrove_utm":39039,"OBJECTID_1":39039,"Name":"18102566,9293","FolderPath":"JATIM/JATIM","SymbolID":0,"AltMode":0,"Base":0,"Clamped":-1,"Extruded":0,"Snippet":"","PopupInfo":"\u003chtml xmlns:fo=\"http://www.w3.org/1999/XSL/Format\" xmlns:msxsl=\"urn:schemas-microsoft-com:xslt\"\u003e\n\u003chead\u003e\n\u003cMETA http-equiv=\"Content-Type\" content=\"text/html\"\u003e\n\u003cmeta http-equiv=\"content-type\" content=\"text/html; charset=UTF-8\"\u003e\n\u003c/head\u003e\n\u003cbody style=\"margin:0px 0px 0px 0px;overflow:auto;background:#FFFFFF;\"\u003e\n\u003ctable style=\"font-family:Arial,Verdana,Times;font-size:12px;text-align:left;width:100%;border-collapse:collapse;padding:3px 3px 3px 3px\"\u003e\n\u003ctr style=\"text-align:center;font-weight:bold;background:#9CBCE2\"\u003e\n\u003ctd\u003e18102566,9293\u003c/td\u003e\n\u003c/tr\u003e\n\u003ctr\u003e\n\u003ctd\u003e\n\u003ctable style=\"font-family:Arial,Verdana,Times;font-size:12px;text-align:left;width:100%;border-spacing:0px; padding:3px 3px 3px 3px\"\u003e\n\u003ctr\u003e\n\u003ctd\u003eFID\u003c/td\u003e\n\u003ctd\u003e0\u003c/td\u003e\n\u003c/tr\u003e\n\u003ctr bgcolor=\"#D4E4F3\"\u003e\n\u003ctd\u003eShape_Leng\u003c/td\u003e\n\u003ctd\u003e18102566,9293\u003c/td\u003e\n\u003c/tr\u003e\n\u003c/table\u003e\n\u003c/td\u003e\n\u003c/tr\u003e\n\u003c/table\u003e\n\u003c/body\u003e\u003cscript type=\"text/javascript\"\u003e\n\t\t\t\tfunction changeImage(attElement, nameElement) {\n\t\t\t\tdocument.getElementById('imageAttachment').src = attElement;\n\t\t\t\tdocument.getElementById('imageName').innerHTML = nameElement;}\n\t\t\t\u003c/script\u003e\u003c/html\u003e\n","FID_active_grids":236,"GridID":"I54","Shape_Length":3.6082611523398933e-05,"Shape_Area":8.1372170596418623e-11}},{"type":"Feature","id":39218,"geometry":{"type":"Polygon","coordinates":[[[115.51732774700008,-6.8811530799999332],[115.51732766200007,-6.8811440619999757],[115.51733668500003,-6.8811439769999652],[115.51733659900003,-6.8811349589999509],[115.51731855300011,-6.8811351299999615],[115.51731872400001,-6.8811531649999438],[115.51732774700008,-6.8811530799999332]]]},"properties":{"OBJECTID":39218,"FID_mangrove_utm":39045,"OBJECTID_1":39045,"Name":"18102566,9293","FolderPath":"JATIM/JATIM","SymbolID":0,"AltMode":0,"Base":0,"Clamped":-1,"Extruded":0,"Snippet":"","PopupInfo":"\u003chtml xmlns:fo=\"http://www.w3.org/1999/XSL/Format\" xmlns:msxsl=\"urn:schemas-microsoft-com:xslt\"\u003e\n\u003chead\u003e\n\u003cMETA http-equiv=\"Content-Type\" content=\"text/html\"\u003e\n\u003cmeta http-equiv=\"content-type\" content=\"text/html; charset=UTF-8\"\u003e\n\u003c/head\u003e\n\u003cbody style=\"margin:0px 0px 0px 0px;overflow:auto;background:#FFFFFF;\"\u003e\n\u003ctable style=\"font-family:Arial,Verdana,Times;font-size:12px;text-align:left;width:100%;border-collapse:collapse;padding:3px 3px 3px 3px\"\u003e\n\u003ctr style=\"text-align:center;font-weight:bold;background:#9CBCE2\"\u003e\n\u003ctd\u003e18102566,9293\u003c/td\u003e\n\u003c/tr\u003e\n\u003ctr\u003e\n\u003ctd\u003e\n\u003ctable style=\"font-family:Arial,Verdana,Times;font-size:12px;text-align:left;width:100%;border-spacing:0px; padding:3px 3px 3px 3px\"\u003e\n\u003ctr\u003e\n\u003ctd\u003eFID\u003c/td\u003e\n\u003ctd\u003e0\u003c/td\u003e\n\u003c/tr\u003e\n\u003ctr bgcolor=\"#D4E4F3\"\u003e\n\u003ctd\u003eShape_Leng\u003c/td\u003e\n\u003ctd\u003e18102566,9293\u003c/td\u003e\n\u003c/tr\u003e\n\u003c/table\u003e\n\u003c/td\u003e\n\u003c/tr\u003e\n\u003c/table\u003e\n\u003c/body\u003e\u003cscript type=\"text/javascript\"\u003e\n\t\t\t\tfunction changeImage(attElement, nameElement) {\n\t\t\t\tdocument.getElementById('imageAttachment').src = attElement;\n\t\t\t\tdocument.getElementById('imageName').innerHTML = nameElement;}\n\t\t\t\u003c/script\u003e\u003c/html\u003e\n","FID_active_grids":236,"GridID":"I54","Shape_Length":7.2166232081614072e-05,"Shape_Area":2.4412565839858378e-10}},{"type":"Feature","id":39219,"geometry":{"type":"Polygon","coordinates":[[[115.5173455370001,-6.881125855999926],[115.51734545200009,-6.8811168379999685],[115.51733642900001,-6.8811169239999685],[115.51733651400002,-6.8811259409999366],[115.5173455370001,-6.881125855999926]]]},"properties":{"OBJECTID":39219,"FID_mangrove_utm":39046,"OBJECTID_1":39046,"Name":"18102566,9293","FolderPath":"JATIM/JATIM","SymbolID":0,"AltMode":0,"Base":0,"Clamped":-1,"Extruded":0,"Snippet":"","PopupInfo":"\u003chtml xmlns:fo=\"http://www.w3.org/1999/XSL/Format\" xmlns:msxsl=\"urn:schemas-microsoft-com:xslt\"\u003e\n\u003chead\u003e\n\u003cMETA http-equiv=\"Content-Type\" content=\"text/html\"\u003e\n\u003cmeta http-equiv=\"content-type\" content=\"text/html; charset=UTF-8\"\u003e\n\u003c/head\u003e\n\u003cbody style=\"margin:0px 0px 0px 0px;overflow:auto;background:#FFFFFF;\"\u003e\n\u003ctable style=\"font-family:Arial,Verdana,Times;font-size:12px;text-align:left;width:100%;border-collapse:collapse;padding:3px 3px 3px 3px\"\u003e\n\u003ctr style=\"text-align:center;font-weight:bold;background:#9CBCE2\"\u003e\n\u003ctd\u003e18102566,9293\u003c/td\u003e\n\u003c/tr\u003e\n\u003ctr\u003e\n\u003ctd\u003e\n\u003ctable style=\"font-family:Arial,Verdana,Times;font-size:12px;text-align:left;width:100%;border-spacing:0px; padding:3px 3px 3px 3px\"\u003e\n\u003ctr\u003e\n\u003ctd\u003eFID\u003c/td\u003e\n\u003ctd\u003e0\u003c/td\u003e\n\u003c/tr\u003e\n\u003ctr bgcolor=\"#D4E4F3\"\u003e\n\u003ctd\u003eShape_Leng\u003c/td\u003e\n\u003ctd\u003e18102566,9293\u003c/td\u003e\n\u003c/tr\u003e\n\u003c/table\u003e\n\u003c/td\u003e\n\u003c/tr\u003e\n\u003c/table\u003e\n\u003c/body\u003e\u003cscript type=\"text/javascript\"\u003e\n\t\t\t\tfunction changeImage(attElement, nameElement) {\n\t\t\t\tdocument.getElementById('imageAttachment').src = attElement;\n\t\t\t\tdocument.getElementById('imageName').innerHTML = nameElement;}\n\t\t\t\u003c/script\u003e\u003c/html\u003e\n","FID_active_grids":236,"GridID":"I54","Shape_Length":3.6082611467093496e-05,"Shape_Area":8.1372170342385382e-11}},{"type":"Feature","id":39223,"geometry":{"type":"Polygon","coordinates":[[[115.51747857900011,-6.8808810969999286],[115.5174784940001,-6.8808720789999711],[115.51748751700006,-6.8808719939999605],[115.51748743200005,-6.8808629759999462],[115.51746938500003,-6.8808631469999568],[115.51746955600004,-6.8808811819999391],[115.51747857900011,-6.8808810969999286]]]},"properties":{"OBJECTID":39223,"FID_mangrove_utm":39050,"OBJECTID_1":39050,"Name":"18102566,9293","FolderPath":"JATIM/JATIM","SymbolID":0,"AltMode":0,"Base":0,"Clamped":-1,"Extruded":0,"Snippet":"","PopupInfo":"\u003chtml xmlns:fo=\"http://www.w3.org/1999/XSL/Format\" xmlns:msxsl=\"urn:schemas-microsoft-com:xslt\"\u003e\n\u003chead\u003e\n\u003cMETA http-equiv=\"Content-Type\" content=\"text/html\"\u003e\n\u003cmeta http-equiv=\"content-type\" content=\"text/html; charset=UTF-8\"\u003e\n\u003c/head\u003e\n\u003cbody style=\"margin:0px 0px 0px 0px;overflow:auto;background:#FFFFFF;\"\u003e\n\u003ctable style=\"font-family:Arial,Verdana,Times;font-size:12px;text-align:left;width:100%;border-collapse:collapse;padding:3px 3px 3px 3px\"\u003e\n\u003ctr style=\"text-align:center;font-weight:bold;background:#9CBCE2\"\u003e\n\u003ctd\u003e18102566,9293\u003c/td\u003e\n\u003c/tr\u003e\n\u003ctr\u003e\n\u003ctd\u003e\n\u003ctable style=\"font-family:Arial,Verdana,Times;font-size:12px;text-align:left;width:100%;border-spacing:0px; padding:3px 3px 3px 3px\"\u003e\n\u003ctr\u003e\n\u003ctd\u003eFID\u003c/td\u003e\n\u003ctd\u003e0\u003c/td\u003e\n\u003c/tr\u003e\n\u003ctr bgcolor=\"#D4E4F3\"\u003e\n\u003ctd\u003eShape_Leng\u003c/td\u003e\n\u003ctd\u003e18102566,9293\u003c/td\u003e\n\u003c/tr\u003e\n\u003c/table\u003e\n\u003c/td\u003e\n\u003c/tr\u003e\n\u003c/table\u003e\n\u003c/body\u003e\u003cscript type=\"text/javascript\"\u003e\n\t\t\t\tfunction changeImage(attElement, nameElement) {\n\t\t\t\tdocument.getElementById('imageAttachment').src = attElement;\n\t\t\t\tdocument.getElementById('imageName').innerHTML = nameElement;}\n\t\t\t\u003c/script\u003e\u003c/html\u003e\n","FID_active_grids":236,"GridID":"I54","Shape_Length":7.216722266039689e-05,"Shape_Area":2.4413008288669667e-10}},{"type":"Feature","id":39235,"geometry":{"type":"Polygon","coordinates":[[[115.51499531500008,-6.8807061749999434],[115.51499532200012,-6.8807068929999673],[115.51500437800007,-6.880710224999973],[115.51500433800004,-6.8807060889999434],[115.51499531500008,-6.8807061749999434]]]},"properties":{"OBJECTID":39235,"FID_mangrove_utm":39062,"OBJECTID_1":39062,"Name":"18102566,9293","FolderPath":"JATIM/JATIM","SymbolID":0,"AltMode":0,"Base":0,"Clamped":-1,"Extruded":0,"Snippet":"","PopupInfo":"\u003chtml xmlns:fo=\"http://www.w3.org/1999/XSL/Format\" xmlns:msxsl=\"urn:schemas-microsoft-com:xslt\"\u003e\n\u003chead\u003e\n\u003cMETA http-equiv=\"Content-Type\" content=\"text/html\"\u003e\n\u003cmeta http-equiv=\"content-type\" content=\"text/html; charset=UTF-8\"\u003e\n\u003c/head\u003e\n\u003cbody style=\"margin:0px 0px 0px 0px;overflow:auto;background:#FFFFFF;\"\u003e\n\u003ctable style=\"font-family:Arial,Verdana,Times;font-size:12px;text-align:left;width:100%;border-collapse:collapse;padding:3px 3px 3px 3px\"\u003e\n\u003ctr style=\"text-align:center;font-weight:bold;background:#9CBCE2\"\u003e\n\u003ctd\u003e18102566,9293\u003c/td\u003e\n\u003c/tr\u003e\n\u003ctr\u003e\n\u003ctd\u003e\n\u003ctable style=\"font-family:Arial,Verdana,Times;font-size:12px;text-align:left;width:100%;border-spacing:0px; padding:3px 3px 3px 3px\"\u003e\n\u003ctr\u003e\n\u003ctd\u003eFID\u003c/td\u003e\n\u003ctd\u003e0\u003c/td\u003e\n\u003c/tr\u003e\n\u003ctr bgcolor=\"#D4E4F3\"\u003e\n\u003ctd\u003eShape_Leng\u003c/td\u003e\n\u003ctd\u003e18102566,9293\u003c/td\u003e\n\u003c/tr\u003e\n\u003c/table\u003e\n\u003c/td\u003e\n\u003c/tr\u003e\n\u003c/table\u003e\n\u003c/body\u003e\u003cscript type=\"text/javascript\"\u003e\n\t\t\t\tfunction changeImage(attElement, nameElement) {\n\t\t\t\tdocument.getElementById('imageAttachment').src = attElement;\n\t\t\t\tdocument.getElementById('imageName').innerHTML = nameElement;}\n\t\t\t\u003c/script\u003e\u003c/html\u003e\n","FID_active_grids":236,"GridID":"I54","Shape_Length":2.3527163760163118e-05,"Shape_Area":2.1900726080344915e-11}},{"type":"Feature","id":39237,"geometry":{"type":"Polygon","coordinates":[[[115.5148867800001,-6.8806801449999284],[115.51488686300002,-6.8806889059999321],[115.51488858000005,-6.8806891469999414],[115.51489588900006,-6.8806890779999321],[115.51489580300006,-6.8806800599999747],[115.5148867800001,-6.8806801449999284]]]},"properties":{"OBJECTID":39237,"FID_mangrove_utm":39064,"OBJECTID_1":39064,"Name":"18102566,9293","FolderPath":"JATIM/JATIM","SymbolID":0,"AltMode":0,"Base":0,"Clamped":-1,"Extruded":0,"Snippet":"","PopupInfo":"\u003chtml xmlns:fo=\"http://www.w3.org/1999/XSL/Format\" xmlns:msxsl=\"urn:schemas-microsoft-com:xslt\"\u003e\n\u003chead\u003e\n\u003cMETA http-equiv=\"Content-Type\" content=\"text/html\"\u003e\n\u003cmeta http-equiv=\"content-type\" content=\"text/html; charset=UTF-8\"\u003e\n\u003c/head\u003e\n\u003cbody style=\"margin:0px 0px 0px 0px;overflow:auto;background:#FFFFFF;\"\u003e\n\u003ctable style=\"font-family:Arial,Verdana,Times;font-size:12px;text-align:left;width:100%;border-collapse:collapse;padding:3px 3px 3px 3px\"\u003e\n\u003ctr style=\"text-align:center;font-weight:bold;background:#9CBCE2\"\u003e\n\u003ctd\u003e18102566,9293\u003c/td\u003e\n\u003c/tr\u003e\n\u003ctr\u003e\n\u003ctd\u003e\n\u003ctable style=\"font-family:Arial,Verdana,Times;font-size:12px;text-align:left;width:100%;border-spacing:0px; padding:3px 3px 3px 3px\"\u003e\n\u003ctr\u003e\n\u003ctd\u003eFID\u003c/td\u003e\n\u003ctd\u003e0\u003c/td\u003e\n\u003c/tr\u003e\n\u003ctr bgcolor=\"#D4E4F3\"\u003e\n\u003ctd\u003eShape_Leng\u003c/td\u003e\n\u003ctd\u003e18102566,9293\u003c/td\u003e\n\u003c/tr\u003e\n\u003c/table\u003e\n\u003c/td\u003e\n\u003c/tr\u003e\n\u003c/table\u003e\n\u003c/body\u003e\u003cscript type=\"text/javascript\"\u003e\n\t\t\t\tfunction changeImage(attElement, nameElement) {\n\t\t\t\tdocument.getElementById('imageAttachment').src = attElement;\n\t\t\t\tdocument.getElementById('imageName').innerHTML = nameElement;}\n\t\t\t\u003c/script\u003e\u003c/html\u003e\n","FID_active_grids":236,"GridID":"I54","Shape_Length":3.5846360241515812e-05,"Shape_Area":8.1159587890132787e-11}},{"type":"Feature","id":39238,"geometry":{"type":"Polygon","coordinates":[[[115.51499531500008,-6.8807061749999434],[115.51499514400007,-6.8806881389999717],[115.51497709800003,-6.8806883099999254],[115.51497701300002,-6.880679291999968],[115.51496798900007,-6.8806793769999786],[115.51496816000008,-6.8806974129999503],[115.51498620700011,-6.8806972419999397],[115.51498626600005,-6.8807035599999722],[115.51499342000011,-6.8807061929999804],[115.51499531500008,-6.8807061749999434]]]},"properties":{"OBJECTID":39238,"FID_mangrove_utm":39065,"OBJECTID_1":39065,"Name":"18102566,9293","FolderPath":"JATIM/JATIM","SymbolID":0,"AltMode":0,"Base":0,"Clamped":-1,"Extruded":0,"Snippet":"","PopupInfo":"\u003chtml xmlns:fo=\"http://www.w3.org/1999/XSL/Format\" xmlns:msxsl=\"urn:schemas-microsoft-com:xslt\"\u003e\n\u003chead\u003e\n\u003cMETA http-equiv=\"Content-Type\" content=\"text/html\"\u003e\n\u003cmeta http-equiv=\"content-type\" content=\"text/html; charset=UTF-8\"\u003e\n\u003c/head\u003e\n\u003cbody style=\"margin:0px 0px 0px 0px;overflow:auto;background:#FFFFFF;\"\u003e\n\u003ctable style=\"font-family:Arial,Verdana,Times;font-size:12px;text-align:left;width:100%;border-collapse:collapse;padding:3px 3px 3px 3px\"\u003e\n\u003ctr style=\"text-align:center;font-weight:bold;background:#9CBCE2\"\u003e\n\u003ctd\u003e18102566,9293\u003c/td\u003e\n\u003c/tr\u003e\n\u003ctr\u003e\n\u003ctd\u003e\n\u003ctable style=\"font-family:Arial,Verdana,Times;font-size:12px;text-align:left;width:100%;border-spacing:0px; padding:3px 3px 3px 3px\"\u003e\n\u003ctr\u003e\n\u003ctd\u003eFID\u003c/td\u003e\n\u003ctd\u003e0\u003c/td\u003e\n\u003c/tr\u003e\n\u003ctr bgcolor=\"#D4E4F3\"\u003e\n\u003ctd\u003eShape_Leng\u003c/td\u003e\n\u003ctd\u003e18102566,9293\u003c/td\u003e\n\u003c/tr\u003e\n\u003c/table\u003e\n\u003c/td\u003e\n\u003c/tr\u003e\n\u003c/table\u003e\n\u003c/body\u003e\u003cscript type=\"text/javascript\"\u003e\n\t\t\t\tfunction changeImage(attElement, nameElement) {\n\t\t\t\tdocument.getElementById('imageAttachment').src = attElement;\n\t\t\t\tdocument.getElementById('imageName').innerHTML = nameElement;}\n\t\t\t\u003c/script\u003e\u003c/html\u003e\n","FID_active_grids":236,"GridID":"I54","Shape_Length":0.00010604755261006923,"Shape_Area":3.9726296993291925e-10}},{"type":"Feature","id":39239,"geometry":{"type":"Polygon","coordinates":[[[115.51495896600011,-6.8806794629999786],[115.5149588810001,-6.8806704449999643],[115.51494985800002,-6.8806705299999749],[115.51494994300003,-6.8806795479999323],[115.51495896600011,-6.8806794629999786]]]},"properties":{"OBJECTID":39239,"FID_mangrove_utm":39066,"OBJECTID_1":39066,"Name":"18102566,9293","FolderPath":"JATIM/JATIM","SymbolID":0,"AltMode":0,"Base":0,"Clamped":-1,"Extruded":0,"Snippet":"","PopupInfo":"\u003chtml xmlns:fo=\"http://www.w3.org/1999/XSL/Format\" xmlns:msxsl=\"urn:schemas-microsoft-com:xslt\"\u003e\n\u003chead\u003e\n\u003cMETA http-equiv=\"Content-Type\" content=\"text/html\"\u003e\n\u003cmeta http-equiv=\"content-type\" content=\"text/html; charset=UTF-8\"\u003e\n\u003c/head\u003e\n\u003cbody style=\"margin:0px 0px 0px 0px;overflow:auto;background:#FFFFFF;\"\u003e\n\u003ctable style=\"font-family:Arial,Verdana,Times;font-size:12px;text-align:left;width:100%;border-collapse:collapse;padding:3px 3px 3px 3px\"\u003e\n\u003ctr style=\"text-align:center;font-weight:bold;background:#9CBCE2\"\u003e\n\u003ctd\u003e18102566,9293\u003c/td\u003e\n\u003c/tr\u003e\n\u003ctr\u003e\n\u003ctd\u003e\n\u003ctable style=\"font-family:Arial,Verdana,Times;font-size:12px;text-align:left;width:100%;border-spacing:0px; padding:3px 3px 3px 3px\"\u003e\n\u003ctr\u003e\n\u003ctd\u003eFID\u003c/td\u003e\n\u003ctd\u003e0\u003c/td\u003e\n\u003c/tr\u003e\n\u003ctr bgcolor=\"#D4E4F3\"\u003e\n\u003ctd\u003eShape_Leng\u003c/td\u003e\n\u003ctd\u003e18102566,9293\u003c/td\u003e\n\u003c/tr\u003e\n\u003c/table\u003e\n\u003c/td\u003e\n\u003c/tr\u003e\n\u003c/table\u003e\n\u003c/body\u003e\u003cscript type=\"text/javascript\"\u003e\n\t\t\t\tfunction changeImage(attElement, nameElement) {\n\t\t\t\tdocument.getElementById('imageAttachment').src = attElement;\n\t\t\t\tdocument.getElementById('imageName').innerHTML = nameElement;}\n\t\t\t\u003c/script\u003e\u003c/html\u003e\n","FID_active_grids":236,"GridID":"I54","Shape_Length":3.6083601993142116e-05,"Shape_Area":8.1376639549189416e-11}},{"type":"Feature","id":39242,"geometry":{"type":"Polygon","coordinates":[[[115.5148867800001,-6.8806801449999284],[115.51488661000008,-6.8806621099999461],[115.51487758600001,-6.8806621949999567],[115.51487750100011,-6.8806531769999424],[115.51486847800004,-6.8806532629999424],[115.51486839200004,-6.8806442449999281],[115.51485034600012,-6.8806444149999493],[115.51485026000012,-6.8806353979999813],[115.51483221400008,-6.8806355679999456],[115.51483229900009,-6.8806445859999599],[115.51484132300004,-6.8806445009999493],[115.51484140800005,-6.8806535179999742],[115.51485945400009,-6.880653347999953],[115.51485954000009,-6.8806623659999673],[115.51486856300005,-6.8806622799999673],[115.51486873400006,-6.880680315999939],[115.5148867800001,-6.8806801449999284]]]},"properties":{"OBJECTID":39242,"FID_mangrove_utm":39069,"OBJECTID_1":39069,"Name":"18102566,9293","FolderPath":"JATIM/JATIM","SymbolID":0,"AltMode":0,"Base":0,"Clamped":-1,"Extruded":0,"Snippet":"","PopupInfo":"\u003chtml xmlns:fo=\"http://www.w3.org/1999/XSL/Format\" xmlns:msxsl=\"urn:schemas-microsoft-com:xslt\"\u003e\n\u003chead\u003e\n\u003cMETA http-equiv=\"Content-Type\" content=\"text/html\"\u003e\n\u003cmeta http-equiv=\"content-type\" content=\"text/html; charset=UTF-8\"\u003e\n\u003c/head\u003e\n\u003cbody style=\"margin:0px 0px 0px 0px;overflow:auto;background:#FFFFFF;\"\u003e\n\u003ctable style=\"font-family:Arial,Verdana,Times;font-size:12px;text-align:left;width:100%;border-collapse:collapse;padding:3px 3px 3px 3px\"\u003e\n\u003ctr style=\"text-align:center;font-weight:bold;background:#9CBCE2\"\u003e\n\u003ctd\u003e18102566,9293\u003c/td\u003e\n\u003c/tr\u003e\n\u003ctr\u003e\n\u003ctd\u003e\n\u003ctable style=\"font-family:Arial,Verdana,Times;font-size:12px;text-align:left;width:100%;border-spacing:0px; padding:3px 3px 3px 3px\"\u003e\n\u003ctr\u003e\n\u003ctd\u003eFID\u003c/td\u003e\n\u003ctd\u003e0\u003c/td\u003e\n\u003c/tr\u003e\n\u003ctr bgcolor=\"#D4E4F3\"\u003e\n\u003ctd\u003eShape_Leng\u003c/td\u003e\n\u003ctd\u003e18102566,9293\u003c/td\u003e\n\u003c/tr\u003e\n\u003c/table\u003e\n\u003c/td\u003e\n\u003c/tr\u003e\n\u003c/table\u003e\n\u003c/body\u003e\u003cscript type=\"text/javascript\"\u003e\n\t\t\t\tfunction changeImage(attElement, nameElement) {\n\t\t\t\tdocument.getElementById('imageAttachment').src = attElement;\n\t\t\t\tdocument.getElementById('imageName').innerHTML = nameElement;}\n\t\t\t\u003c/script\u003e\u003c/html\u003e\n","FID_active_grids":236,"GridID":"I54","Shape_Length":0.00019846387649735965,"Shape_Area":8.9513910121532425e-10}},{"type":"Feature","id":39244,"geometry":{"type":"Polygon","coordinates":[[[115.51483221400008,-6.8806355679999456],[115.51483212900007,-6.8806265499999313],[115.51484115200003,-6.8806264649999775],[115.51484106700002,-6.8806174469999632],[115.51483204300007,-6.8806175329999633],[115.51483195800006,-6.880608514999949],[115.51480488800007,-6.8806087709999701],[115.51480480300006,-6.8805997529999559],[115.51478675600003,-6.8805999239999664],[115.51478667100002,-6.8805909059999522],[115.51477764800006,-6.8805909909999627],[115.51477756200006,-6.8805819739999379],[115.5147685390001,-6.8805820589999485],[115.5147686250001,-6.8805910769999628],[115.51475057800008,-6.8805912469999271],[115.51475066300009,-6.8806002649999414],[115.51475968700004,-6.8806001799999308],[115.51475977200005,-6.8806091969999557],[115.51476879500001,-6.8806091119999451],[115.51476896600002,-6.8806271479999737],[115.51481408200004,-6.8806267209999419],[115.51481416800004,-6.8806357389999562],[115.51483221400008,-6.8806355679999456]]]},"properties":{"OBJECTID":39244,"FID_mangrove_utm":39071,"OBJECTID_1":39071,"Name":"18102566,9293","FolderPath":"JATIM/JATIM","SymbolID":0,"AltMode":0,"Base":0,"Clamped":-1,"Extruded":0,"Snippet":"","PopupInfo":"\u003chtml xmlns:fo=\"http://www.w3.org/1999/XSL/Format\" xmlns:msxsl=\"urn:schemas-microsoft-com:xslt\"\u003e\n\u003chead\u003e\n\u003cMETA http-equiv=\"Content-Type\" content=\"text/html\"\u003e\n\u003cmeta http-equiv=\"content-type\" content=\"text/html; charset=UTF-8\"\u003e\n\u003c/head\u003e\n\u003cbody style=\"margin:0px 0px 0px 0px;overflow:auto;background:#FFFFFF;\"\u003e\n\u003ctable style=\"font-family:Arial,Verdana,Times;font-size:12px;text-align:left;width:100%;border-collapse:collapse;padding:3px 3px 3px 3px\"\u003e\n\u003ctr style=\"text-align:center;font-weight:bold;background:#9CBCE2\"\u003e\n\u003ctd\u003e18102566,9293\u003c/td\u003e\n\u003c/tr\u003e\n\u003ctr\u003e\n\u003ctd\u003e\n\u003ctable style=\"font-family:Arial,Verdana,Times;font-size:12px;text-align:left;width:100%;border-spacing:0px; padding:3px 3px 3px 3px\"\u003e\n\u003ctr\u003e\n\u003ctd\u003eFID\u003c/td\u003e\n\u003ctd\u003e0\u003c/td\u003e\n\u003c/tr\u003e\n\u003ctr bgcolor=\"#D4E4F3\"\u003e\n\u003ctd\u003eShape_Leng\u003c/td\u003e\n\u003ctd\u003e18102566,9293\u003c/td\u003e\n\u003c/tr\u003e\n\u003c/table\u003e\n\u003c/td\u003e\n\u003c/tr\u003e\n\u003c/table\u003e\n\u003c/body\u003e\u003cscript type=\"text/javascript\"\u003e\n\t\t\t\tfunction changeImage(attElement, nameElement) {\n\t\t\t\tdocument.getElementById('imageAttachment').src = attElement;\n\t\t\t\tdocument.getElementById('imageName').innerHTML = nameElement;}\n\t\t\t\u003c/script\u003e\u003c/html\u003e\n","FID_active_grids":236,"GridID":"I54","Shape_Length":0.00028869290853301158,"Shape_Area":2.1971663260067101e-09}},{"type":"Feature","id":39249,"geometry":{"type":"Polygon","coordinates":[[[115.51472333800007,-6.8805734679999659],[115.51472316700006,-6.8805554319999374],[115.5147141440001,-6.8805555169999479],[115.51471431400012,-6.8805735529999765],[115.51472333800007,-6.8805734679999659]]]},"properties":{"OBJECTID":39249,"FID_mangrove_utm":39076,"OBJECTID_1":39076,"Name":"18102566,9293","FolderPath":"JATIM/JATIM","SymbolID":0,"AltMode":0,"Base":0,"Clamped":-1,"Extruded":0,"Snippet":"","PopupInfo":"\u003chtml xmlns:fo=\"http://www.w3.org/1999/XSL/Format\" xmlns:msxsl=\"urn:schemas-microsoft-com:xslt\"\u003e\n\u003chead\u003e\n\u003cMETA http-equiv=\"Content-Type\" content=\"text/html\"\u003e\n\u003cmeta http-equiv=\"content-type\" content=\"text/html; charset=UTF-8\"\u003e\n\u003c/head\u003e\n\u003cbody style=\"margin:0px 0px 0px 0px;overflow:auto;background:#FFFFFF;\"\u003e\n\u003ctable style=\"font-family:Arial,Verdana,Times;font-size:12px;text-align:left;width:100%;border-collapse:collapse;padding:3px 3px 3px 3px\"\u003e\n\u003ctr style=\"text-align:center;font-weight:bold;background:#9CBCE2\"\u003e\n\u003ctd\u003e18102566,9293\u003c/td\u003e\n\u003c/tr\u003e\n\u003ctr\u003e\n\u003ctd\u003e\n\u003ctable style=\"font-family:Arial,Verdana,Times;font-size:12px;text-align:left;width:100%;border-spacing:0px; padding:3px 3px 3px 3px\"\u003e\n\u003ctr\u003e\n\u003ctd\u003eFID\u003c/td\u003e\n\u003ctd\u003e0\u003c/td\u003e\n\u003c/tr\u003e\n\u003ctr bgcolor=\"#D4E4F3\"\u003e\n\u003ctd\u003eShape_Leng\u003c/td\u003e\n\u003ctd\u003e18102566,9293\u003c/td\u003e\n\u003c/tr\u003e\n\u003c/table\u003e\n\u003c/td\u003e\n\u003c/tr\u003e\n\u003c/table\u003e\n\u003c/body\u003e\u003cscript type=\"text/javascript\"\u003e\n\t\t\t\tfunction changeImage(attElement, nameElement) {\n\t\t\t\tdocument.getElementById('imageAttachment').src = attElement;\n\t\t\t\tdocument.getElementById('imageName').innerHTML = nameElement;}\n\t\t\t\u003c/script\u003e\u003c/html\u003e\n","FID_active_grids":236,"GridID":"I54","Shape_Length":5.4121412407429047e-05,"Shape_Area":1.6276233796985406e-10}},{"type":"Feature","id":39257,"geometry":{"type":"Polygon","coordinates":[[[115.51446983400001,-6.8804856789999462],[115.51446966300011,-6.8804676429999745],[115.51446064000004,-6.8804677279999282],[115.51446081000006,-6.8804857639999568],[115.51446983400001,-6.8804856789999462]]]},"properties":{"OBJECTID":39257,"FID_mangrove_utm":39084,"OBJECTID_1":39084,"Name":"18102566,9293","FolderPath":"JATIM/JATIM","SymbolID":0,"AltMode":0,"Base":0,"Clamped":-1,"Extruded":0,"Snippet":"","PopupInfo":"\u003chtml xmlns:fo=\"http://www.w3.org/1999/XSL/Format\" xmlns:msxsl=\"urn:schemas-microsoft-com:xslt\"\u003e\n\u003chead\u003e\n\u003cMETA http-equiv=\"Content-Type\" content=\"text/html\"\u003e\n\u003cmeta http-equiv=\"content-type\" content=\"text/html; charset=UTF-8\"\u003e\n\u003c/head\u003e\n\u003cbody style=\"margin:0px 0px 0px 0px;overflow:auto;background:#FFFFFF;\"\u003e\n\u003ctable style=\"font-family:Arial,Verdana,Times;font-size:12px;text-align:left;width:100%;border-collapse:collapse;padding:3px 3px 3px 3px\"\u003e\n\u003ctr style=\"text-align:center;font-weight:bold;background:#9CBCE2\"\u003e\n\u003ctd\u003e18102566,9293\u003c/td\u003e\n\u003c/tr\u003e\n\u003ctr\u003e\n\u003ctd\u003e\n\u003ctable style=\"font-family:Arial,Verdana,Times;font-size:12px;text-align:left;width:100%;border-spacing:0px; padding:3px 3px 3px 3px\"\u003e\n\u003ctr\u003e\n\u003ctd\u003eFID\u003c/td\u003e\n\u003ctd\u003e0\u003c/td\u003e\n\u003c/tr\u003e\n\u003ctr bgcolor=\"#D4E4F3\"\u003e\n\u003ctd\u003eShape_Leng\u003c/td\u003e\n\u003ctd\u003e18102566,9293\u003c/td\u003e\n\u003c/tr\u003e\n\u003c/table\u003e\n\u003c/td\u003e\n\u003c/tr\u003e\n\u003c/table\u003e\n\u003c/body\u003e\u003cscript type=\"text/javascript\"\u003e\n\t\t\t\tfunction changeImage(attElement, nameElement) {\n\t\t\t\tdocument.getElementById('imageAttachment').src = attElement;\n\t\t\t\tdocument.getElementById('imageName').innerHTML = nameElement;}\n\t\t\t\u003c/script\u003e\u003c/html\u003e\n","FID_active_grids":236,"GridID":"I54","Shape_Length":5.4121412462656693e-05,"Shape_Area":1.6276233872894108e-10}},{"type":"Feature","id":39258,"geometry":{"type":"Polygon","coordinates":[[[115.51444259300001,-6.8804678989999388],[115.51444250800012,-6.8804588809999814],[115.51443348500004,-6.8804589659999351],[115.51443357000005,-6.8804679839999494],[115.51444259300001,-6.8804678989999388]]]},"properties":{"OBJECTID":39258,"FID_mangrove_utm":39085,"OBJECTID_1":39085,"Name":"18102566,9293","FolderPath":"JATIM/JATIM","SymbolID":0,"AltMode":0,"Base":0,"Clamped":-1,"Extruded":0,"Snippet":"","PopupInfo":"\u003chtml xmlns:fo=\"http://www.w3.org/1999/XSL/Format\" xmlns:msxsl=\"urn:schemas-microsoft-com:xslt\"\u003e\n\u003chead\u003e\n\u003cMETA http-equiv=\"Content-Type\" content=\"text/html\"\u003e\n\u003cmeta http-equiv=\"content-type\" content=\"text/html; charset=UTF-8\"\u003e\n\u003c/head\u003e\n\u003cbody style=\"margin:0px 0px 0px 0px;overflow:auto;background:#FFFFFF;\"\u003e\n\u003ctable style=\"font-family:Arial,Verdana,Times;font-size:12px;text-align:left;width:100%;border-collapse:collapse;padding:3px 3px 3px 3px\"\u003e\n\u003ctr style=\"text-align:center;font-weight:bold;background:#9CBCE2\"\u003e\n\u003ctd\u003e18102566,9293\u003c/td\u003e\n\u003c/tr\u003e\n\u003ctr\u003e\n\u003ctd\u003e\n\u003ctable style=\"font-family:Arial,Verdana,Times;font-size:12px;text-align:left;width:100%;border-spacing:0px; padding:3px 3px 3px 3px\"\u003e\n\u003ctr\u003e\n\u003ctd\u003eFID\u003c/td\u003e\n\u003ctd\u003e0\u003c/td\u003e\n\u003c/tr\u003e\n\u003ctr bgcolor=\"#D4E4F3\"\u003e\n\u003ctd\u003eShape_Leng\u003c/td\u003e\n\u003ctd\u003e18102566,9293\u003c/td\u003e\n\u003c/tr\u003e\n\u003c/table\u003e\n\u003c/td\u003e\n\u003c/tr\u003e\n\u003c/table\u003e\n\u003c/body\u003e\u003cscript type=\"text/javascript\"\u003e\n\t\t\t\tfunction changeImage(attElement, nameElement) {\n\t\t\t\tdocument.getElementById('imageAttachment').src = attElement;\n\t\t\t\tdocument.getElementById('imageName').innerHTML = nameElement;}\n\t\t\t\u003c/script\u003e\u003c/html\u003e\n","FID_active_grids":236,"GridID":"I54","Shape_Length":3.6083601878388803e-05,"Shape_Area":8.1376639031743779e-11}},{"type":"Feature","id":39280,"geometry":{"type":"Polygon","coordinates":[[[115.5134566700001,-6.8802246979999495],[115.51345658500009,-6.8802156799999352],[115.51344756200001,-6.8802157649999458],[115.51344764700002,-6.8802247829999601],[115.5134566700001,-6.8802246979999495]]]},"properties":{"OBJECTID":39280,"FID_mangrove_utm":39107,"OBJECTID_1":39107,"Name":"18102566,9293","FolderPath":"JATIM/JATIM","SymbolID":0,"AltMode":0,"Base":0,"Clamped":-1,"Extruded":0,"Snippet":"","PopupInfo":"\u003chtml xmlns:fo=\"http://www.w3.org/1999/XSL/Format\" xmlns:msxsl=\"urn:schemas-microsoft-com:xslt\"\u003e\n\u003chead\u003e\n\u003cMETA http-equiv=\"Content-Type\" content=\"text/html\"\u003e\n\u003cmeta http-equiv=\"content-type\" content=\"text/html; charset=UTF-8\"\u003e\n\u003c/head\u003e\n\u003cbody style=\"margin:0px 0px 0px 0px;overflow:auto;background:#FFFFFF;\"\u003e\n\u003ctable style=\"font-family:Arial,Verdana,Times;font-size:12px;text-align:left;width:100%;border-collapse:collapse;padding:3px 3px 3px 3px\"\u003e\n\u003ctr style=\"text-align:center;font-weight:bold;background:#9CBCE2\"\u003e\n\u003ctd\u003e18102566,9293\u003c/td\u003e\n\u003c/tr\u003e\n\u003ctr\u003e\n\u003ctd\u003e\n\u003ctable style=\"font-family:Arial,Verdana,Times;font-size:12px;text-align:left;width:100%;border-spacing:0px; padding:3px 3px 3px 3px\"\u003e\n\u003ctr\u003e\n\u003ctd\u003eFID\u003c/td\u003e\n\u003ctd\u003e0\u003c/td\u003e\n\u003c/tr\u003e\n\u003ctr bgcolor=\"#D4E4F3\"\u003e\n\u003ctd\u003eShape_Leng\u003c/td\u003e\n\u003ctd\u003e18102566,9293\u003c/td\u003e\n\u003c/tr\u003e\n\u003c/table\u003e\n\u003c/td\u003e\n\u003c/tr\u003e\n\u003c/table\u003e\n\u003c/body\u003e\u003cscript type=\"text/javascript\"\u003e\n\t\t\t\tfunction changeImage(attElement, nameElement) {\n\t\t\t\tdocument.getElementById('imageAttachment').src = attElement;\n\t\t\t\tdocument.getElementById('imageName').innerHTML = nameElement;}\n\t\t\t\u003c/script\u003e\u003c/html\u003e\n","FID_active_grids":236,"GridID":"I54","Shape_Length":3.6083602050518468e-05,"Shape_Area":8.1376639808054348e-11}},{"type":"Feature","id":39288,"geometry":{"type":"Polygon","coordinates":[[[115.51322146900009,-6.8801637909999727],[115.51322138300009,-6.8801547729999584],[115.51321236000001,-6.880154857999969],[115.51321244500002,-6.8801638759999264],[115.51322146900009,-6.8801637909999727]]]},"properties":{"OBJECTID":39288,"FID_mangrove_utm":39115,"OBJECTID_1":39115,"Name":"18102566,9293","FolderPath":"JATIM/JATIM","SymbolID":0,"AltMode":0,"Base":0,"Clamped":-1,"Extruded":0,"Snippet":"","PopupInfo":"\u003chtml xmlns:fo=\"http://www.w3.org/1999/XSL/Format\" xmlns:msxsl=\"urn:schemas-microsoft-com:xslt\"\u003e\n\u003chead\u003e\n\u003cMETA http-equiv=\"Content-Type\" content=\"text/html\"\u003e\n\u003cmeta http-equiv=\"content-type\" content=\"text/html; charset=UTF-8\"\u003e\n\u003c/head\u003e\n\u003cbody style=\"margin:0px 0px 0px 0px;overflow:auto;background:#FFFFFF;\"\u003e\n\u003ctable style=\"font-family:Arial,Verdana,Times;font-size:12px;text-align:left;width:100%;border-collapse:collapse;padding:3px 3px 3px 3px\"\u003e\n\u003ctr style=\"text-align:center;font-weight:bold;background:#9CBCE2\"\u003e\n\u003ctd\u003e18102566,9293\u003c/td\u003e\n\u003c/tr\u003e\n\u003ctr\u003e\n\u003ctd\u003e\n\u003ctable style=\"font-family:Arial,Verdana,Times;font-size:12px;text-align:left;width:100%;border-spacing:0px; padding:3px 3px 3px 3px\"\u003e\n\u003ctr\u003e\n\u003ctd\u003eFID\u003c/td\u003e\n\u003ctd\u003e0\u003c/td\u003e\n\u003c/tr\u003e\n\u003ctr bgcolor=\"#D4E4F3\"\u003e\n\u003ctd\u003eShape_Leng\u003c/td\u003e\n\u003ctd\u003e18102566,9293\u003c/td\u003e\n\u003c/tr\u003e\n\u003c/table\u003e\n\u003c/td\u003e\n\u003c/tr\u003e\n\u003c/table\u003e\n\u003c/body\u003e\u003cscript type=\"text/javascript\"\u003e\n\t\t\t\tfunction changeImage(attElement, nameElement) {\n\t\t\t\tdocument.getElementById('imageAttachment').src = attElement;\n\t\t\t\tdocument.getElementById('imageName').innerHTML = nameElement;}\n\t\t\t\u003c/script\u003e\u003c/html\u003e\n","FID_active_grids":236,"GridID":"I54","Shape_Length":3.6084611418715532e-05,"Shape_Area":8.1381191001039498e-11}},{"type":"Feature","id":39289,"geometry":{"type":"Polygon","coordinates":[[[115.51345598800003,-6.8801525559999277],[115.51343794100001,-6.8801527259999489],[115.51343819700003,-6.8801797799999349],[115.5134472200001,-6.8801796939999349],[115.51344713500009,-6.8801706769999669],[115.51347420500008,-6.8801704209999457],[115.51347429000009,-6.88017943899996],[115.51348331300005,-6.88017935299996],[115.51348314300003,-6.8801613179999777],[115.51345607300004,-6.880161573999942],[115.51345598800003,-6.8801525559999277]]]},"properties":{"OBJECTID":39289,"FID_mangrove_utm":39116,"OBJECTID_1":39116,"Name":"18102566,9293","FolderPath":"JATIM/JATIM","SymbolID":0,"AltMode":0,"Base":0,"Clamped":-1,"Extruded":0,"Snippet":"","PopupInfo":"\u003chtml xmlns:fo=\"http://www.w3.org/1999/XSL/Format\" xmlns:msxsl=\"urn:schemas-microsoft-com:xslt\"\u003e\n\u003chead\u003e\n\u003cMETA http-equiv=\"Content-Type\" content=\"text/html\"\u003e\n\u003cmeta http-equiv=\"content-type\" content=\"text/html; charset=UTF-8\"\u003e\n\u003c/head\u003e\n\u003cbody style=\"margin:0px 0px 0px 0px;overflow:auto;background:#FFFFFF;\"\u003e\n\u003ctable style=\"font-family:Arial,Verdana,Times;font-size:12px;text-align:left;width:100%;border-collapse:collapse;padding:3px 3px 3px 3px\"\u003e\n\u003ctr style=\"text-align:center;font-weight:bold;background:#9CBCE2\"\u003e\n\u003ctd\u003e18102566,9293\u003c/td\u003e\n\u003c/tr\u003e\n\u003ctr\u003e\n\u003ctd\u003e\n\u003ctable style=\"font-family:Arial,Verdana,Times;font-size:12px;text-align:left;width:100%;border-spacing:0px; padding:3px 3px 3px 3px\"\u003e\n\u003ctr\u003e\n\u003ctd\u003eFID\u003c/td\u003e\n\u003ctd\u003e0\u003c/td\u003e\n\u003c/tr\u003e\n\u003ctr bgcolor=\"#D4E4F3\"\u003e\n\u003ctd\u003eShape_Leng\u003c/td\u003e\n\u003ctd\u003e18102566,9293\u003c/td\u003e\n\u003c/tr\u003e\n\u003c/table\u003e\n\u003c/td\u003e\n\u003c/tr\u003e\n\u003c/table\u003e\n\u003c/body\u003e\u003cscript type=\"text/javascript\"\u003e\n\t\t\t\tfunction changeImage(attElement, nameElement) {\n\t\t\t\tdocument.getElementById('imageAttachment').src = attElement;\n\t\t\t\tdocument.getElementById('imageName').innerHTML = nameElement;}\n\t\t\t\u003c/script\u003e\u003c/html\u003e\n","FID_active_grids":236,"GridID":"I54","Shape_Length":0.00016238225542821049,"Shape_Area":7.3239463331735888e-10}},{"type":"Feature","id":39291,"geometry":{"type":"Polygon","coordinates":[[[115.51341972400007,-6.8801348609999309],[115.51341980900008,-6.8801438789999452],[115.51342883300003,-6.8801437939999346],[115.51342874700003,-6.8801347759999771],[115.51341972400007,-6.8801348609999309]]]},"properties":{"OBJECTID":39291,"FID_mangrove_utm":39118,"OBJECTID_1":39118,"Name":"18102566,9293","FolderPath":"JATIM/JATIM","SymbolID":0,"AltMode":0,"Base":0,"Clamped":-1,"Extruded":0,"Snippet":"","PopupInfo":"\u003chtml xmlns:fo=\"http://www.w3.org/1999/XSL/Format\" xmlns:msxsl=\"urn:schemas-microsoft-com:xslt\"\u003e\n\u003chead\u003e\n\u003cMETA http-equiv=\"Content-Type\" content=\"text/html\"\u003e\n\u003cmeta http-equiv=\"content-type\" content=\"text/html; charset=UTF-8\"\u003e\n\u003c/head\u003e\n\u003cbody style=\"margin:0px 0px 0px 0px;overflow:auto;background:#FFFFFF;\"\u003e\n\u003ctable style=\"font-family:Arial,Verdana,Times;font-size:12px;text-align:left;width:100%;border-collapse:collapse;padding:3px 3px 3px 3px\"\u003e\n\u003ctr style=\"text-align:center;font-weight:bold;background:#9CBCE2\"\u003e\n\u003ctd\u003e18102566,9293\u003c/td\u003e\n\u003c/tr\u003e\n\u003ctr\u003e\n\u003ctd\u003e\n\u003ctable style=\"font-family:Arial,Verdana,Times;font-size:12px;text-align:left;width:100%;border-spacing:0px; padding:3px 3px 3px 3px\"\u003e\n\u003ctr\u003e\n\u003ctd\u003eFID\u003c/td\u003e\n\u003ctd\u003e0\u003c/td\u003e\n\u003c/tr\u003e\n\u003ctr bgcolor=\"#D4E4F3\"\u003e\n\u003ctd\u003eShape_Leng\u003c/td\u003e\n\u003ctd\u003e18102566,9293\u003c/td\u003e\n\u003c/tr\u003e\n\u003c/table\u003e\n\u003c/td\u003e\n\u003c/tr\u003e\n\u003c/table\u003e\n\u003c/body\u003e\u003cscript type=\"text/javascript\"\u003e\n\t\t\t\tfunction changeImage(attElement, nameElement) {\n\t\t\t\tdocument.getElementById('imageAttachment').src = attElement;\n\t\t\t\tdocument.getElementById('imageName').innerHTML = nameElement;}\n\t\t\t\u003c/script\u003e\u003c/html\u003e\n","FID_active_grids":236,"GridID":"I54","Shape_Length":3.6084611191351953e-05,"Shape_Area":8.1381189975811594e-11}},{"type":"Feature","id":39292,"geometry":{"type":"Polygon","coordinates":[[[115.51360921200001,-6.880133070999932],[115.5135640960001,-6.8801334969999743],[115.51356418100011,-6.8801425149999318],[115.51354613500007,-6.880142684999953],[115.51354630500009,-6.8801607209999815],[115.51353728200002,-6.8801608059999353],[115.51353736800002,-6.8801698239999496],[115.51352834400006,-6.8801699089999602],[115.51352851500008,-6.8801879449999319],[115.51351949200011,-6.8801880299999425],[115.51351966200002,-6.8802060649999248],[115.51351063900006,-6.8802061509999248],[115.51351072500006,-6.8802151689999391],[115.51349267800003,-6.8802153389999603],[115.51349259300002,-6.880206320999946],[115.51347454600011,-6.8802064919999566],[115.51347488800002,-6.8802425629999675],[115.51349293400006,-6.8802423919999569],[115.51349301900007,-6.8802514099999712],[115.5134839960001,-6.8802514949999249],[115.51348408100012,-6.8802605129999392],[115.51347505800004,-6.8802605989999392],[115.51347514400004,-6.8802696159999641],[115.51348416700012,-6.8802695309999535],[115.51348433700002,-6.8802875669999253],[115.51349336100009,-6.8802874809999253],[115.5134934460001,-6.8802964989999396],[115.51348442300002,-6.8802965839999501],[115.51348450800003,-6.8803056019999644],[115.51349353100011,-6.8803055169999539],[115.51349361700011,-6.8803145349999681],[115.51351166300003,-6.8803143639999575],[115.51351174800004,-6.8803233819999718],[115.51352077200011,-6.8803232969999613],[115.51352084900009,-6.8803314819999741],[115.51358974900006,-6.8803587189999575],[115.51361134600006,-6.8803585149999549],[115.51361117500005,-6.8803404789999263],[115.51359312800002,-6.8803406499999369],[115.51359304300001,-6.8803316319999794],[115.51361109000004,-6.8803314609999688],[115.51361100400004,-6.880322443999944],[115.51363807400003,-6.8803221879999796],[115.51363798900002,-6.8803131699999653],[115.51364701200009,-6.8803130849999548],[115.51364675600007,-6.8802860319999581],[115.51365577900003,-6.8802859459999581],[115.51365569400002,-6.8802769279999438],[115.51364667000007,-6.8802770139999438],[115.51364658500006,-6.8802679959999296],[115.51365560800002,-6.8802679109999758],[115.51365509600009,-6.8802138039999363],[115.51364607300002,-6.8802138889999469],[115.51364598800001,-6.8802048719999789],[115.51363696500005,-6.8802049569999326],[115.51363670900002,-6.880177903999936],[115.51362768500007,-6.8801779889999466],[115.51362742900005,-6.88015093599995],[115.51361840600009,-6.8801510209999606],[115.51361832100008,-6.8801420029999463],[115.51360929800001,-6.8801420879999569],[115.51360921200001,-6.880133070999932]]]},"properties":{"OBJECTID":39292,"FID_mangrove_utm":39119,"OBJECTID_1":39119,"Name":"18102566,9293","FolderPath":"JATIM/JATIM","SymbolID":0,"AltMode":0,"Base":0,"Clamped":-1,"Extruded":0,"Snippet":"","PopupInfo":"\u003chtml xmlns:fo=\"http://www.w3.org/1999/XSL/Format\" xmlns:msxsl=\"urn:schemas-microsoft-com:xslt\"\u003e\n\u003chead\u003e\n\u003cMETA http-equiv=\"Content-Type\" content=\"text/html\"\u003e\n\u003cmeta http-equiv=\"content-type\" content=\"text/html; charset=UTF-8\"\u003e\n\u003c/head\u003e\n\u003cbody style=\"margin:0px 0px 0px 0px;overflow:auto;background:#FFFFFF;\"\u003e\n\u003ctable style=\"font-family:Arial,Verdana,Times;font-size:12px;text-align:left;width:100%;border-collapse:collapse;padding:3px 3px 3px 3px\"\u003e\n\u003ctr style=\"text-align:center;font-weight:bold;background:#9CBCE2\"\u003e\n\u003ctd\u003e18102566,9293\u003c/td\u003e\n\u003c/tr\u003e\n\u003ctr\u003e\n\u003ctd\u003e\n\u003ctable style=\"font-family:Arial,Verdana,Times;font-size:12px;text-align:left;width:100%;border-spacing:0px; padding:3px 3px 3px 3px\"\u003e\n\u003ctr\u003e\n\u003ctd\u003eFID\u003c/td\u003e\n\u003ctd\u003e0\u003c/td\u003e\n\u003c/tr\u003e\n\u003ctr bgcolor=\"#D4E4F3\"\u003e\n\u003ctd\u003eShape_Leng\u003c/td\u003e\n\u003ctd\u003e18102566,9293\u003c/td\u003e\n\u003c/tr\u003e\n\u003c/table\u003e\n\u003c/td\u003e\n\u003c/tr\u003e\n\u003c/table\u003e\n\u003c/body\u003e\u003cscript type=\"text/javascript\"\u003e\n\t\t\t\tfunction changeImage(attElement, nameElement) {\n\t\t\t\tdocument.getElementById('imageAttachment').src = attElement;\n\t\t\t\tdocument.getElementById('imageName').innerHTML = nameElement;}\n\t\t\t\u003c/script\u003e\u003c/html\u003e\n","FID_active_grids":236,"GridID":"I54","Shape_Length":0.00091573884292177657,"Shape_Area":2.8013087050515518e-08}},{"type":"Feature","id":39298,"geometry":{"type":"Polygon","coordinates":[[[115.5133017390001,-6.8800638279999475],[115.51328369300006,-6.8800639979999687],[115.51328377800007,-6.8800730159999262],[115.51327475500011,-6.8800731009999367],[115.5132746700001,-6.8800640839999687],[115.51325662300007,-6.880064253999933],[115.51325679400009,-6.8800822899999616],[115.51329288700003,-6.8800819489999299],[115.51329280100003,-6.8800729309999724],[115.5133018250001,-6.8800728459999618],[115.5133017390001,-6.8800638279999475]]]},"properties":{"OBJECTID":39298,"FID_mangrove_utm":39125,"OBJECTID_1":39125,"Name":"18102566,9293","FolderPath":"JATIM/JATIM","SymbolID":0,"AltMode":0,"Base":0,"Clamped":-1,"Extruded":0,"Snippet":"","PopupInfo":"\u003chtml xmlns:fo=\"http://www.w3.org/1999/XSL/Format\" xmlns:msxsl=\"urn:schemas-microsoft-com:xslt\"\u003e\n\u003chead\u003e\n\u003cMETA http-equiv=\"Content-Type\" content=\"text/html\"\u003e\n\u003cmeta http-equiv=\"content-type\" content=\"text/html; charset=UTF-8\"\u003e\n\u003c/head\u003e\n\u003cbody style=\"margin:0px 0px 0px 0px;overflow:auto;background:#FFFFFF;\"\u003e\n\u003ctable style=\"font-family:Arial,Verdana,Times;font-size:12px;text-align:left;width:100%;border-collapse:collapse;padding:3px 3px 3px 3px\"\u003e\n\u003ctr style=\"text-align:center;font-weight:bold;background:#9CBCE2\"\u003e\n\u003ctd\u003e18102566,9293\u003c/td\u003e\n\u003c/tr\u003e\n\u003ctr\u003e\n\u003ctd\u003e\n\u003ctable style=\"font-family:Arial,Verdana,Times;font-size:12px;text-align:left;width:100%;border-spacing:0px; padding:3px 3px 3px 3px\"\u003e\n\u003ctr\u003e\n\u003ctd\u003eFID\u003c/td\u003e\n\u003ctd\u003e0\u003c/td\u003e\n\u003c/tr\u003e\n\u003ctr bgcolor=\"#D4E4F3\"\u003e\n\u003ctd\u003eShape_Leng\u003c/td\u003e\n\u003ctd\u003e18102566,9293\u003c/td\u003e\n\u003c/tr\u003e\n\u003c/table\u003e\n\u003c/td\u003e\n\u003c/tr\u003e\n\u003c/table\u003e\n\u003c/body\u003e\u003cscript type=\"text/javascript\"\u003e\n\t\t\t\tfunction changeImage(attElement, nameElement) {\n\t\t\t\tdocument.getElementById('imageAttachment').src = attElement;\n\t\t\t\tdocument.getElementById('imageName').innerHTML = nameElement;}\n\t\t\t\u003c/script\u003e\u003c/html\u003e\n","FID_active_grids":236,"GridID":"I54","Shape_Length":0.00014434644476404341,"Shape_Area":6.5103157359548109e-10}},{"type":"Feature","id":39302,"geometry":{"type":"Polygon","coordinates":[[[115.51323832100002,-6.8800373709999576],[115.51323823500002,-6.8800283539999327],[115.51322921200006,-6.8800284389999433],[115.51322929700007,-6.8800374569999576],[115.51323832100002,-6.8800373709999576]]]},"properties":{"OBJECTID":39302,"FID_mangrove_utm":39129,"OBJECTID_1":39129,"Name":"18102566,9293","FolderPath":"JATIM/JATIM","SymbolID":0,"AltMode":0,"Base":0,"Clamped":-1,"Extruded":0,"Snippet":"","PopupInfo":"\u003chtml xmlns:fo=\"http://www.w3.org/1999/XSL/Format\" xmlns:msxsl=\"urn:schemas-microsoft-com:xslt\"\u003e\n\u003chead\u003e\n\u003cMETA http-equiv=\"Content-Type\" content=\"text/html\"\u003e\n\u003cmeta http-equiv=\"content-type\" content=\"text/html; charset=UTF-8\"\u003e\n\u003c/head\u003e\n\u003cbody style=\"margin:0px 0px 0px 0px;overflow:auto;background:#FFFFFF;\"\u003e\n\u003ctable style=\"font-family:Arial,Verdana,Times;font-size:12px;text-align:left;width:100%;border-collapse:collapse;padding:3px 3px 3px 3px\"\u003e\n\u003ctr style=\"text-align:center;font-weight:bold;background:#9CBCE2\"\u003e\n\u003ctd\u003e18102566,9293\u003c/td\u003e\n\u003c/tr\u003e\n\u003ctr\u003e\n\u003ctd\u003e\n\u003ctable style=\"font-family:Arial,Verdana,Times;font-size:12px;text-align:left;width:100%;border-spacing:0px; padding:3px 3px 3px 3px\"\u003e\n\u003ctr\u003e\n\u003ctd\u003eFID\u003c/td\u003e\n\u003ctd\u003e0\u003c/td\u003e\n\u003c/tr\u003e\n\u003ctr bgcolor=\"#D4E4F3\"\u003e\n\u003ctd\u003eShape_Leng\u003c/td\u003e\n\u003ctd\u003e18102566,9293\u003c/td\u003e\n\u003c/tr\u003e\n\u003c/table\u003e\n\u003c/td\u003e\n\u003c/tr\u003e\n\u003c/table\u003e\n\u003c/body\u003e\u003cscript type=\"text/javascript\"\u003e\n\t\t\t\tfunction changeImage(attElement, nameElement) {\n\t\t\t\tdocument.getElementById('imageAttachment').src = attElement;\n\t\t\t\tdocument.getElementById('imageName').innerHTML = nameElement;}\n\t\t\t\u003c/script\u003e\u003c/html\u003e\n","FID_active_grids":236,"GridID":"I54","Shape_Length":3.6083620778986578e-05,"Shape_Area":8.1376721281990997e-11}},{"type":"Feature","id":39306,"geometry":{"type":"Polygon","coordinates":[[[115.51341972400007,-6.8801348609999309],[115.51341955300006,-6.8801168259999486],[115.5134105300001,-6.8801169109999591],[115.51341010400006,-6.8800718219999339],[115.51340108000011,-6.880071907999934],[115.5134009950001,-6.8800628899999765],[115.51339197200002,-6.8800629749999302],[115.51339188600002,-6.8800539569999728],[115.51338286300006,-6.8800540429999728],[115.51338277800005,-6.8800450249999585],[115.51339180100001,-6.8800449389999585],[115.51339163000011,-6.8800269039999762],[115.51338260700004,-6.8800269889999299],[115.51338243700002,-6.8800089539999476],[115.51337341300007,-6.8800090389999582],[115.51337307200004,-6.8799729679999473],[115.51336404900007,-6.8799730529999579],[115.51336387800006,-6.8799550179999756],[115.5133548550001,-6.8799551029999293],[115.51335477000009,-6.8799460849999718],[115.5133277000001,-6.8799463409999362],[115.51332761500009,-6.8799373229999787],[115.51330956800007,-6.8799374939999325],[115.51330965300008,-6.8799465109999574],[115.51330063000012,-6.8799465969999574],[115.51330071500001,-6.8799556139999254],[115.51330973900008,-6.8799555289999716],[115.51330982400009,-6.8799645469999291],[115.51331884700005,-6.8799644619999754],[115.51331893300005,-6.8799734789999434],[115.51330088600002,-6.879973649999954],[115.51330114200005,-6.8800007029999506],[115.51329211900008,-6.8800007889999506],[115.51329220400009,-6.8800098059999755],[115.51330122700006,-6.8800097209999649],[115.51330131300006,-6.8800187389999792],[115.51331033600002,-6.8800186539999686],[115.51331042100003,-6.8800276709999366],[115.51331944500009,-6.880027585999926],[115.5133195300001,-6.8800366039999403],[115.51333757600003,-6.8800364329999297],[115.51333774700004,-6.8800544689999583],[115.51334677000011,-6.8800543839999477],[115.51334685600011,-6.8800634009999726],[115.51335587900007,-6.880063315999962],[115.51335604900009,-6.8800813519999338],[115.51336507300005,-6.8800812659999337],[115.51336524300007,-6.8800993019999623],[115.51335622000011,-6.8800993869999729],[115.51335630500012,-6.8801084049999304],[115.5133833750001,-6.880108148999966],[115.51338346000011,-6.8801171669999803],[115.51339248400006,-6.8801170819999697],[115.51339256900008,-6.8801260989999378],[115.5134106160001,-6.8801259289999734],[115.51341070100011,-6.8801349469999309],[115.51341972400007,-6.8801348609999309]]]},"properties":{"OBJECTID":39306,"FID_mangrove_utm":39133,"OBJECTID_1":39133,"Name":"18102566,9293","FolderPath":"JATIM/JATIM","SymbolID":0,"AltMode":0,"Base":0,"Clamped":-1,"Extruded":0,"Snippet":"","PopupInfo":"\u003chtml xmlns:fo=\"http://www.w3.org/1999/XSL/Format\" xmlns:msxsl=\"urn:schemas-microsoft-com:xslt\"\u003e\n\u003chead\u003e\n\u003cMETA http-equiv=\"Content-Type\" content=\"text/html\"\u003e\n\u003cmeta http-equiv=\"content-type\" content=\"text/html; charset=UTF-8\"\u003e\n\u003c/head\u003e\n\u003cbody style=\"margin:0px 0px 0px 0px;overflow:auto;background:#FFFFFF;\"\u003e\n\u003ctable style=\"font-family:Arial,Verdana,Times;font-size:12px;text-align:left;width:100%;border-collapse:collapse;padding:3px 3px 3px 3px\"\u003e\n\u003ctr style=\"text-align:center;font-weight:bold;background:#9CBCE2\"\u003e\n\u003ctd\u003e18102566,9293\u003c/td\u003e\n\u003c/tr\u003e\n\u003ctr\u003e\n\u003ctd\u003e\n\u003ctable style=\"font-family:Arial,Verdana,Times;font-size:12px;text-align:left;width:100%;border-spacing:0px; padding:3px 3px 3px 3px\"\u003e\n\u003ctr\u003e\n\u003ctd\u003eFID\u003c/td\u003e\n\u003ctd\u003e0\u003c/td\u003e\n\u003c/tr\u003e\n\u003ctr bgcolor=\"#D4E4F3\"\u003e\n\u003ctd\u003eShape_Leng\u003c/td\u003e\n\u003ctd\u003e18102566,9293\u003c/td\u003e\n\u003c/tr\u003e\n\u003c/table\u003e\n\u003c/td\u003e\n\u003c/tr\u003e\n\u003c/table\u003e\n\u003c/body\u003e\u003cscript type=\"text/javascript\"\u003e\n\t\t\t\tfunction changeImage(attElement, nameElement) {\n\t\t\t\tdocument.getElementById('imageAttachment').src = attElement;\n\t\t\t\tdocument.getElementById('imageName').innerHTML = nameElement;}\n\t\t\t\u003c/script\u003e\u003c/html\u003e\n","FID_active_grids":236,"GridID":"I54","Shape_Length":0.00072164925537659312,"Shape_Area":1.033484375905111e-08}},{"type":"Feature","id":39311,"geometry":{"type":"Polygon","coordinates":[[[115.51361456600011,-6.8797452209999506],[115.51356945000009,-6.8797456469999361],[115.51356996200002,-6.8797997539999756],[115.51356093900006,-6.8797998389999293],[115.5135613650001,-6.8798449279999545],[115.51355234200003,-6.8798450129999651],[115.51355242800003,-6.8798540309999794],[115.51354340400007,-6.8798541169999794],[115.51354349000007,-6.8798631339999474],[115.51353446600001,-6.8798632199999474],[115.51353455200001,-6.8798722369999723],[115.51352552800006,-6.8798723229999723],[115.51352578400008,-6.8798993759999689],[115.51351676100001,-6.8798994609999795],[115.51351684700001,-6.879908478999937],[115.51349880000009,-6.8799086499999476],[115.51349914100001,-6.8799447209999585],[115.51350816500008,-6.8799446349999585],[115.51350825000009,-6.8799536529999727],[115.51351727300005,-6.8799535679999622],[115.51351744400006,-6.8799716029999445],[115.51353549000009,-6.8799714329999802],[115.51353557600009,-6.8799804509999376],[115.51355362200002,-6.879980279999927],[115.51355370700003,-6.8799892979999413],[115.51356273100009,-6.8799892129999307],[115.51356264500009,-6.8799801949999733],[115.51357166900004,-6.8799801099999627],[115.51357158300004,-6.8799710919999484],[115.51360767600011,-6.8799707509999735],[115.5136075910001,-6.8799617329999592],[115.51364368400004,-6.8799613919999274],[115.51364359900003,-6.87995237399997],[115.51367066800003,-6.8799521179999488],[115.51367058300002,-6.8799430999999345],[115.51369765300001,-6.8799428449999596],[115.51369748200011,-6.879924808999931],[115.51370650500007,-6.8799247239999772],[115.51370624900005,-6.8798976699999344],[115.51371527200001,-6.8798975849999806],[115.51371501600011,-6.8798705319999272],[115.51370599300003,-6.8798706169999377],[115.51370590800002,-6.8798615989999803],[115.51369688500006,-6.8798616849999803],[115.51369679900006,-6.879852666999966],[115.51367875300002,-6.8798528369999303],[115.51367866700002,-6.8798438199999623],[115.51366964400006,-6.8798439049999729],[115.51366955900005,-6.8798348869999586],[115.51366053600009,-6.8798349719999692],[115.51366036500008,-6.87981693699993],[115.51365134200012,-6.8798170219999406],[115.5136510000001,-6.8797809509999297],[115.51364197700002,-6.8797810359999403],[115.51364189200001,-6.8797720189999723],[115.5136238450001,-6.8797721889999366],[115.51362376000009,-6.8797631709999791],[115.51361473700001,-6.8797632569999791],[115.51361456600011,-6.8797452209999506]]]},"properties":{"OBJECTID":39311,"FID_mangrove_utm":39138,"OBJECTID_1":39138,"Name":"18102566,9293","FolderPath":"JATIM/JATIM","SymbolID":0,"AltMode":0,"Base":0,"Clamped":-1,"Extruded":0,"Snippet":"","PopupInfo":"\u003chtml xmlns:fo=\"http://www.w3.org/1999/XSL/Format\" xmlns:msxsl=\"urn:schemas-microsoft-com:xslt\"\u003e\n\u003chead\u003e\n\u003cMETA http-equiv=\"Content-Type\" content=\"text/html\"\u003e\n\u003cmeta http-equiv=\"content-type\" content=\"text/html; charset=UTF-8\"\u003e\n\u003c/head\u003e\n\u003cbody style=\"margin:0px 0px 0px 0px;overflow:auto;background:#FFFFFF;\"\u003e\n\u003ctable style=\"font-family:Arial,Verdana,Times;font-size:12px;text-align:left;width:100%;border-collapse:collapse;padding:3px 3px 3px 3px\"\u003e\n\u003ctr style=\"text-align:center;font-weight:bold;background:#9CBCE2\"\u003e\n\u003ctd\u003e18102566,9293\u003c/td\u003e\n\u003c/tr\u003e\n\u003ctr\u003e\n\u003ctd\u003e\n\u003ctable style=\"font-family:Arial,Verdana,Times;font-size:12px;text-align:left;width:100%;border-spacing:0px; padding:3px 3px 3px 3px\"\u003e\n\u003ctr\u003e\n\u003ctd\u003eFID\u003c/td\u003e\n\u003ctd\u003e0\u003c/td\u003e\n\u003c/tr\u003e\n\u003ctr bgcolor=\"#D4E4F3\"\u003e\n\u003ctd\u003eShape_Leng\u003c/td\u003e\n\u003ctd\u003e18102566,9293\u003c/td\u003e\n\u003c/tr\u003e\n\u003c/table\u003e\n\u003c/td\u003e\n\u003c/tr\u003e\n\u003c/table\u003e\n\u003c/body\u003e\u003cscript type=\"text/javascript\"\u003e\n\t\t\t\tfunction changeImage(attElement, nameElement) {\n\t\t\t\tdocument.getElementById('imageAttachment').src = attElement;\n\t\t\t\tdocument.getElementById('imageName').innerHTML = nameElement;}\n\t\t\t\u003c/script\u003e\u003c/html\u003e\n","FID_active_grids":236,"GridID":"I54","Shape_Length":0.0009201171700037792,"Shape_Area":2.986531267567667e-08}},{"type":"Feature","id":39313,"geometry":{"type":"Polygon","coordinates":[[[115.51264908000007,-6.8797543449999807],[115.51264899400007,-6.8797453269999664],[115.51263997100011,-6.879745411999977],[115.51264005600001,-6.8797544299999345],[115.51264908000007,-6.8797543449999807]]]},"properties":{"OBJECTID":39313,"FID_mangrove_utm":39140,"OBJECTID_1":39140,"Name":"18102566,9293","FolderPath":"JATIM/JATIM","SymbolID":0,"AltMode":0,"Base":0,"Clamped":-1,"Extruded":0,"Snippet":"","PopupInfo":"\u003chtml xmlns:fo=\"http://www.w3.org/1999/XSL/Format\" xmlns:msxsl=\"urn:schemas-microsoft-com:xslt\"\u003e\n\u003chead\u003e\n\u003cMETA http-equiv=\"Content-Type\" content=\"text/html\"\u003e\n\u003cmeta http-equiv=\"content-type\" content=\"text/html; charset=UTF-8\"\u003e\n\u003c/head\u003e\n\u003cbody style=\"margin:0px 0px 0px 0px;overflow:auto;background:#FFFFFF;\"\u003e\n\u003ctable style=\"font-family:Arial,Verdana,Times;font-size:12px;text-align:left;width:100%;border-collapse:collapse;padding:3px 3px 3px 3px\"\u003e\n\u003ctr style=\"text-align:center;font-weight:bold;background:#9CBCE2\"\u003e\n\u003ctd\u003e18102566,9293\u003c/td\u003e\n\u003c/tr\u003e\n\u003ctr\u003e\n\u003ctd\u003e\n\u003ctable style=\"font-family:Arial,Verdana,Times;font-size:12px;text-align:left;width:100%;border-spacing:0px; padding:3px 3px 3px 3px\"\u003e\n\u003ctr\u003e\n\u003ctd\u003eFID\u003c/td\u003e\n\u003ctd\u003e0\u003c/td\u003e\n\u003c/tr\u003e\n\u003ctr bgcolor=\"#D4E4F3\"\u003e\n\u003ctd\u003eShape_Leng\u003c/td\u003e\n\u003ctd\u003e18102566,9293\u003c/td\u003e\n\u003c/tr\u003e\n\u003c/table\u003e\n\u003c/td\u003e\n\u003c/tr\u003e\n\u003c/table\u003e\n\u003c/body\u003e\u003cscript type=\"text/javascript\"\u003e\n\t\t\t\tfunction changeImage(attElement, nameElement) {\n\t\t\t\tdocument.getElementById('imageAttachment').src = attElement;\n\t\t\t\tdocument.getElementById('imageName').innerHTML = nameElement;}\n\t\t\t\u003c/script\u003e\u003c/html\u003e\n","FID_active_grids":236,"GridID":"I54","Shape_Length":3.6084611303962219e-05,"Shape_Area":8.1381190483593861e-11}},{"type":"Feature","id":39314,"geometry":{"type":"Polygon","coordinates":[[[115.51297374600006,-6.8797332399999505],[115.51297366000006,-6.8797242219999362],[115.5129646370001,-6.8797243069999467],[115.5129647230001,-6.879733324999961],[115.51297374600006,-6.8797332399999505]]]},"properties":{"OBJECTID":39314,"FID_mangrove_utm":39141,"OBJECTID_1":39141,"Name":"18102566,9293","FolderPath":"JATIM/JATIM","SymbolID":0,"AltMode":0,"Base":0,"Clamped":-1,"Extruded":0,"Snippet":"","PopupInfo":"\u003chtml xmlns:fo=\"http://www.w3.org/1999/XSL/Format\" xmlns:msxsl=\"urn:schemas-microsoft-com:xslt\"\u003e\n\u003chead\u003e\n\u003cMETA http-equiv=\"Content-Type\" content=\"text/html\"\u003e\n\u003cmeta http-equiv=\"content-type\" content=\"text/html; charset=UTF-8\"\u003e\n\u003c/head\u003e\n\u003cbody style=\"margin:0px 0px 0px 0px;overflow:auto;background:#FFFFFF;\"\u003e\n\u003ctable style=\"font-family:Arial,Verdana,Times;font-size:12px;text-align:left;width:100%;border-collapse:collapse;padding:3px 3px 3px 3px\"\u003e\n\u003ctr style=\"text-align:center;font-weight:bold;background:#9CBCE2\"\u003e\n\u003ctd\u003e18102566,9293\u003c/td\u003e\n\u003c/tr\u003e\n\u003ctr\u003e\n\u003ctd\u003e\n\u003ctable style=\"font-family:Arial,Verdana,Times;font-size:12px;text-align:left;width:100%;border-spacing:0px; padding:3px 3px 3px 3px\"\u003e\n\u003ctr\u003e\n\u003ctd\u003eFID\u003c/td\u003e\n\u003ctd\u003e0\u003c/td\u003e\n\u003c/tr\u003e\n\u003ctr bgcolor=\"#D4E4F3\"\u003e\n\u003ctd\u003eShape_Leng\u003c/td\u003e\n\u003ctd\u003e18102566,9293\u003c/td\u003e\n\u003c/tr\u003e\n\u003c/table\u003e\n\u003c/td\u003e\n\u003c/tr\u003e\n\u003c/table\u003e\n\u003c/body\u003e\u003cscript type=\"text/javascript\"\u003e\n\t\t\t\tfunction changeImage(attElement, nameElement) {\n\t\t\t\tdocument.getElementById('imageAttachment').src = attElement;\n\t\t\t\tdocument.getElementById('imageName').innerHTML = nameElement;}\n\t\t\t\u003c/script\u003e\u003c/html\u003e\n","FID_active_grids":236,"GridID":"I54","Shape_Length":3.6083620784179134e-05,"Shape_Area":8.137672378193812e-11}},{"type":"Feature","id":39315,"geometry":{"type":"Polygon","coordinates":[[[115.51302780000003,-6.8797237099999506],[115.51302771500002,-6.8797146929999258],[115.51301869100007,-6.8797147779999364],[115.51301877700007,-6.8797237959999507],[115.51302780000003,-6.8797237099999506]]]},"properties":{"OBJECTID":39315,"FID_mangrove_utm":39142,"OBJECTID_1":39142,"Name":"18102566,9293","FolderPath":"JATIM/JATIM","SymbolID":0,"AltMode":0,"Base":0,"Clamped":-1,"Extruded":0,"Snippet":"","PopupInfo":"\u003chtml xmlns:fo=\"http://www.w3.org/1999/XSL/Format\" xmlns:msxsl=\"urn:schemas-microsoft-com:xslt\"\u003e\n\u003chead\u003e\n\u003cMETA http-equiv=\"Content-Type\" content=\"text/html\"\u003e\n\u003cmeta http-equiv=\"content-type\" content=\"text/html; charset=UTF-8\"\u003e\n\u003c/head\u003e\n\u003cbody style=\"margin:0px 0px 0px 0px;overflow:auto;background:#FFFFFF;\"\u003e\n\u003ctable style=\"font-family:Arial,Verdana,Times;font-size:12px;text-align:left;width:100%;border-collapse:collapse;padding:3px 3px 3px 3px\"\u003e\n\u003ctr style=\"text-align:center;font-weight:bold;background:#9CBCE2\"\u003e\n\u003ctd\u003e18102566,9293\u003c/td\u003e\n\u003c/tr\u003e\n\u003ctr\u003e\n\u003ctd\u003e\n\u003ctable style=\"font-family:Arial,Verdana,Times;font-size:12px;text-align:left;width:100%;border-spacing:0px; padding:3px 3px 3px 3px\"\u003e\n\u003ctr\u003e\n\u003ctd\u003eFID\u003c/td\u003e\n\u003ctd\u003e0\u003c/td\u003e\n\u003c/tr\u003e\n\u003ctr bgcolor=\"#D4E4F3\"\u003e\n\u003ctd\u003eShape_Leng\u003c/td\u003e\n\u003ctd\u003e18102566,9293\u003c/td\u003e\n\u003c/tr\u003e\n\u003c/table\u003e\n\u003c/td\u003e\n\u003c/tr\u003e\n\u003c/table\u003e\n\u003c/body\u003e\u003cscript type=\"text/javascript\"\u003e\n\t\t\t\tfunction changeImage(attElement, nameElement) {\n\t\t\t\tdocument.getElementById('imageAttachment').src = attElement;\n\t\t\t\tdocument.getElementById('imageName').innerHTML = nameElement;}\n\t\t\t\u003c/script\u003e\u003c/html\u003e\n","FID_active_grids":236,"GridID":"I54","Shape_Length":3.6083620778985183e-05,"Shape_Area":8.1376721281990997e-11}},{"type":"Feature","id":39324,"geometry":{"type":"Polygon","coordinates":[[[115.51347768200003,-6.879584179999938],[115.51343256600001,-6.8795846069999698],[115.51343290700004,-6.8796206779999807],[115.51344193000011,-6.8796205919999807],[115.51344201600011,-6.8796296099999381],[115.51347810900006,-6.8796292689999632],[115.51347802300006,-6.8796202509999489],[115.5134690000001,-6.8796203369999489],[115.51346891500009,-6.8796113189999346],[115.51347793800005,-6.8796112339999809],[115.51347785300004,-6.8796022159999666],[115.51348687600012,-6.879602130999956],[115.51348679000012,-6.8795931129999417],[115.51347776700004,-6.8795931979999523],[115.51347768200003,-6.879584179999938]]]},"properties":{"OBJECTID":39324,"FID_mangrove_utm":39151,"OBJECTID_1":39151,"Name":"18102566,9293","FolderPath":"JATIM/JATIM","SymbolID":0,"AltMode":0,"Base":0,"Clamped":-1,"Extruded":0,"Snippet":"","PopupInfo":"\u003chtml xmlns:fo=\"http://www.w3.org/1999/XSL/Format\" xmlns:msxsl=\"urn:schemas-microsoft-com:xslt\"\u003e\n\u003chead\u003e\n\u003cMETA http-equiv=\"Content-Type\" content=\"text/html\"\u003e\n\u003cmeta http-equiv=\"content-type\" content=\"text/html; charset=UTF-8\"\u003e\n\u003c/head\u003e\n\u003cbody style=\"margin:0px 0px 0px 0px;overflow:auto;background:#FFFFFF;\"\u003e\n\u003ctable style=\"font-family:Arial,Verdana,Times;font-size:12px;text-align:left;width:100%;border-collapse:collapse;padding:3px 3px 3px 3px\"\u003e\n\u003ctr style=\"text-align:center;font-weight:bold;background:#9CBCE2\"\u003e\n\u003ctd\u003e18102566,9293\u003c/td\u003e\n\u003c/tr\u003e\n\u003ctr\u003e\n\u003ctd\u003e\n\u003ctable style=\"font-family:Arial,Verdana,Times;font-size:12px;text-align:left;width:100%;border-spacing:0px; padding:3px 3px 3px 3px\"\u003e\n\u003ctr\u003e\n\u003ctd\u003eFID\u003c/td\u003e\n\u003ctd\u003e0\u003c/td\u003e\n\u003c/tr\u003e\n\u003ctr bgcolor=\"#D4E4F3\"\u003e\n\u003ctd\u003eShape_Leng\u003c/td\u003e\n\u003ctd\u003e18102566,9293\u003c/td\u003e\n\u003c/tr\u003e\n\u003c/table\u003e\n\u003c/td\u003e\n\u003c/tr\u003e\n\u003c/table\u003e\n\u003c/body\u003e\u003cscript type=\"text/javascript\"\u003e\n\t\t\t\tfunction changeImage(attElement, nameElement) {\n\t\t\t\tdocument.getElementById('imageAttachment').src = attElement;\n\t\t\t\tdocument.getElementById('imageName').innerHTML = nameElement;}\n\t\t\t\u003c/script\u003e\u003c/html\u003e\n","FID_active_grids":236,"GridID":"I54","Shape_Length":0.00021651269605000038,"Shape_Area":1.9530362022467873e-09}},{"type":"Feature","id":39327,"geometry":{"type":"Polygon","coordinates":[[[115.5129987680001,-6.8795165569999313],[115.51296267500004,-6.879516897999963],[115.51296276000005,-6.8795259159999773],[115.51295373700009,-6.8795260009999311],[115.5129538220001,-6.8795350189999454],[115.51294479900002,-6.8795351039999559],[115.51294505500005,-6.879562157999942],[115.51295407800001,-6.879562071999942],[115.51295416400001,-6.8795710899999563],[115.51297221000004,-6.8795709199999351],[115.51297212500003,-6.8795619019999776],[115.51299017100007,-6.879561730999967],[115.51299025700007,-6.8795707489999813],[115.512981233,-6.8795708339999351],[115.51298140400002,-6.8795888699999637],[115.51299945000005,-6.8795886989999531],[115.51299936500004,-6.8795796819999282],[115.51300838800012,-6.8795795959999282],[115.51300830300011,-6.8795705789999602],[115.51299928000003,-6.8795706639999707],[115.51299919500002,-6.8795616459999565],[115.5130082180001,-6.8795615609999459],[115.51300796200007,-6.8795345069999598],[115.51299893900011,-6.8795345929999598],[115.5129987680001,-6.8795165569999313]]]},"properties":{"OBJECTID":39327,"FID_mangrove_utm":39154,"OBJECTID_1":39154,"Name":"18102566,9293","FolderPath":"JATIM/JATIM","SymbolID":0,"AltMode":0,"Base":0,"Clamped":-1,"Extruded":0,"Snippet":"","PopupInfo":"\u003chtml xmlns:fo=\"http://www.w3.org/1999/XSL/Format\" xmlns:msxsl=\"urn:schemas-microsoft-com:xslt\"\u003e\n\u003chead\u003e\n\u003cMETA http-equiv=\"Content-Type\" content=\"text/html\"\u003e\n\u003cmeta http-equiv=\"content-type\" content=\"text/html; charset=UTF-8\"\u003e\n\u003c/head\u003e\n\u003cbody style=\"margin:0px 0px 0px 0px;overflow:auto;background:#FFFFFF;\"\u003e\n\u003ctable style=\"font-family:Arial,Verdana,Times;font-size:12px;text-align:left;width:100%;border-collapse:collapse;padding:3px 3px 3px 3px\"\u003e\n\u003ctr style=\"text-align:center;font-weight:bold;background:#9CBCE2\"\u003e\n\u003ctd\u003e18102566,9293\u003c/td\u003e\n\u003c/tr\u003e\n\u003ctr\u003e\n\u003ctd\u003e\n\u003ctable style=\"font-family:Arial,Verdana,Times;font-size:12px;text-align:left;width:100%;border-spacing:0px; padding:3px 3px 3px 3px\"\u003e\n\u003ctr\u003e\n\u003ctd\u003eFID\u003c/td\u003e\n\u003ctd\u003e0\u003c/td\u003e\n\u003c/tr\u003e\n\u003ctr bgcolor=\"#D4E4F3\"\u003e\n\u003ctd\u003eShape_Leng\u003c/td\u003e\n\u003ctd\u003e18102566,9293\u003c/td\u003e\n\u003c/tr\u003e\n\u003c/table\u003e\n\u003c/td\u003e\n\u003c/tr\u003e\n\u003c/table\u003e\n\u003c/body\u003e\u003cscript type=\"text/javascript\"\u003e\n\t\t\t\tfunction changeImage(attElement, nameElement) {\n\t\t\t\tdocument.getElementById('imageAttachment').src = attElement;\n\t\t\t\tdocument.getElementById('imageName').innerHTML = nameElement;}\n\t\t\t\u003c/script\u003e\u003c/html\u003e\n","FID_active_grids":236,"GridID":"I54","Shape_Length":0.00032475253082494767,"Shape_Area":3.0923455536148188e-09}}]}