{
  "type" : "FeatureCollection",
  "features" : [{"type":"Feature","id":0,"geometry":{"type":"MultiPolygon","coordinates":[[[[113.0779991047128,-7.1702854971746648],[113.07799914570478,-7.1702945370854625],[113.0780081968194,-7.1702944961441046],[113.07800815582725,-7.1702854562333611],[113.0779991047128,-7.1702854971746648]]],[[[113.0779991047128,-7.1702854971746648],[113.07799906372088,-7.1702764572638618],[113.07798096149226,-7.1702765391458314],[113.07798100248382,-7.1702855790567357],[113.0779991047128,-7.1702854971746648]]],[[[113.07800799185912,-7.1702492965903408],[113.07799894074542,-7.1702493375314367],[113.07799898173718,-7.1702583774422495],[113.07798993062325,-7.1702584183832174],[113.07798997161488,-7.1702674582940791],[113.07801712495709,-7.1702673354704816],[113.07801708396489,-7.1702582955597771],[113.07800803285109,-7.170258336501103],[113.07800799185912,-7.1702492965903408]]],[[[113.07854184458425,-7.1702109679669004],[113.07854184346462,-7.1702107211198998],[113.07852374124485,-7.1702108030225],[113.07852375549594,-7.1702139450411897],[113.07854184458425,-7.1702109679669004]]],[[[113.07802588912564,-7.1702040151542805],[113.07802584813366,-7.1701949752435858],[113.07800774590856,-7.1701950571256825],[113.07800778690019,-7.1702040970364838],[113.07802588912564,-7.1702040151542805]]],[[[113.07740128026498,-7.1701887598502028],[113.07740132124462,-7.1701977997644644],[113.07741037236077,-7.1701977588354318],[113.07741041334064,-7.1702067987496729],[113.0774194644569,-7.1702067578204103],[113.07741938249686,-7.1701886779920638],[113.07740128026498,-7.1701887598502028]]],[[[113.07740128026498,-7.1701887598502028],[113.07740123928541,-7.170179719935919],[113.07741029040119,-7.1701796790069903],[113.07741024942149,-7.1701706390927544],[113.07739214719022,-7.1701707209503294],[113.07739210621092,-7.1701616810359861],[113.07738305509541,-7.1701617219644547],[113.07738301411634,-7.1701526820500732],[113.07737396300092,-7.1701527229783117],[113.07737392202209,-7.1701436830638379],[113.07738297313733,-7.1701436421356526],[113.07738293215837,-7.1701346022212462],[113.07737388104331,-7.1701346431493809],[113.0773737990859,-7.17011656332045],[113.07738285020062,-7.1701165223924219],[113.07738276824307,-7.1700984425635816],[113.07739181935733,-7.170098401635479],[113.07739177837846,-7.1700893617211054],[113.0774008294925,-7.1700893207928758],[113.07740074753455,-7.170071240964222],[113.07740979864822,-7.1700712000359204],[113.07740975766913,-7.1700621601216392],[113.07739165544216,-7.1700622419779627],[113.07739169642088,-7.1700712818923469],[113.07738264530714,-7.170071322820295],[113.07738268628573,-7.1700803627347272],[113.07737363517174,-7.1700804036625483],[113.07737371712872,-7.1700984834915067],[113.07736466601433,-7.170098524419255],[113.07736470699273,-7.1701075643337804],[113.07735565587811,-7.1701076052614017],[113.07735573783471,-7.1701256850905466],[113.07736478894967,-7.1701256441628214],[113.07736487090682,-7.1701437239918473],[113.07733771756067,-7.1701438467748027],[113.07733779951697,-7.1701619266041243],[113.0773559017485,-7.170161844748792],[113.0773559427271,-7.1701708846633432],[113.07738309607453,-7.1701707618788504],[113.0773831370537,-7.1701798017932408],[113.07739218816958,-7.1701797608646691],[113.07739222914898,-7.1701888007790036],[113.07740128026498,-7.1701887598502028]]],[[[113.07734639987379,-7.1700624466156553],[113.07734638240498,-7.1700585929084744],[113.07733733873253,-7.1700602754332898],[113.07733734875997,-7.1700624875426611],[113.07734639987379,-7.1700624466156553]]],[[[113.07740975766913,-7.1700621601216392],[113.07741880878254,-7.1700621191932106],[113.07741876780335,-7.1700530792789783],[113.07740971669011,-7.1700531202073554],[113.07740975766913,-7.1700621601216392]]],[[[113.07741876780335,-7.1700530792789783],[113.07743687002966,-7.1700529974216902],[113.07743682905016,-7.1700439575075583],[113.07744588016305,-7.1700439165787007],[113.07744579820384,-7.1700258367505301],[113.07746390042878,-7.1700257548924871],[113.0774638594489,-7.170016714978499],[113.0774729105611,-7.1700166740492639],[113.07747286958111,-7.1700076341353265],[113.07748192069306,-7.1700075932059626],[113.07748187971293,-7.1699985532920731],[113.07748061215632,-7.1699985590240001],[113.0774277397271,-7.1700355693900129],[113.07742777793722,-7.1700439984362392],[113.07741872682421,-7.1700440393647424],[113.07741876780335,-7.1700530792789783]]],[[[113.07748187971293,-7.1699985532920731],[113.07749998193637,-7.169998471432919],[113.07749994095595,-7.1699894315191122],[113.07749361067005,-7.1699894601450245],[113.0774818757293,-7.169997674530773],[113.07748187971293,-7.1699985532920731]]],[[[113.07835078619806,-7.1699946232494884],[113.07835074520088,-7.1699855833405834],[113.07833264298776,-7.1699856652331002],[113.07833268398458,-7.1699947051421082],[113.07835078619806,-7.1699946232494884]]],[[[113.07749994095595,-7.1699894315191122],[113.07750899206739,-7.1699893905893219],[113.07750895108683,-7.1699803506755977],[113.07751800219808,-7.1699803097456787],[113.0775179612174,-7.1699712698319864],[113.07750977659211,-7.1699713068435393],[113.07750757100007,-7.16997968799995],[113.07749992106119,-7.169985042910155],[113.07749994095595,-7.1699894315191122]]],[[[113.0775179612174,-7.1699712698319864],[113.07752701232837,-7.1699712289019413],[113.07752697134757,-7.169962188988297],[113.07751792023676,-7.1699622299182888],[113.0775179612174,-7.1699712698319864]]],[[[113.07754499160689,-7.1699440273007049],[113.07753594049652,-7.1699440682309499],[113.0775359814774,-7.1699531081445311],[113.07754503258793,-7.1699530672142373],[113.07754499160689,-7.1699440273007049]]],[[[113.07754499160689,-7.1699440273007049],[113.07755404271717,-7.1699439863702832],[113.07755400173599,-7.1699349464567677],[113.07754495062588,-7.1699349873871361],[113.07754499160689,-7.1699440273007049]]],[[[113.07762632864998,-7.1699165391812292],[113.07762628766753,-7.1699074992681364],[113.07764438988569,-7.1699074174043274],[113.07764434890295,-7.169898377491335],[113.07761719557617,-7.1698985002866218],[113.07761723655838,-7.1699075401997723],[113.07760818544915,-7.1699075811312323],[113.07760822643125,-7.169916621044429],[113.07762632864998,-7.1699165391812292]]],[[[113.07761715459401,-7.1698894603734686],[113.07761711361189,-7.169880420460311],[113.0776080625032,-7.1698804613916147],[113.07760810348513,-7.1698895013048238],[113.07761715459401,-7.1698894603734686]]],[[[113.07870324626843,-7.1698755074116685],[113.07870320526499,-7.1698664675047636],[113.07869415416282,-7.1698665084573756],[113.07869419516609,-7.1698755483643337],[113.07870324626843,-7.1698755074116685]]],[[[113.07796961494444,-7.1697703450668833],[113.07796957395607,-7.1697613051557099],[113.07796052285178,-7.1697613460932761],[113.07796056383997,-7.1697703860045019],[113.07796961494444,-7.1697703450668833]]],[[[113.07981599812302,-7.1697529501699497],[113.07981603914776,-7.1697619900704828],[113.07987939680181,-7.1697617032479739],[113.07987935577584,-7.169752663347805],[113.07981599812302,-7.1697529501699497]]],[[[113.07981599812302,-7.1697529501699497],[113.07981595709835,-7.169743910269414],[113.07980690600506,-7.1697439512432419],[113.07980694702955,-7.16975299114383],[113.07981599812302,-7.1697529501699497]]],[[[113.07900127647224,-7.1697295173905511],[113.07897412317894,-7.1697296402631263],[113.07897416418695,-7.1697386801685061],[113.07900131748077,-7.1697385572957737],[113.07900127647224,-7.1697295173905511]]],[[[113.07900127647224,-7.1697295173905511],[113.0790193786675,-7.1697294354746113],[113.07901933765865,-7.1697203955694553],[113.07900123546376,-7.1697204774852912],[113.07900127647224,-7.1697295173905511]]],[[[113.07913691989829,-7.1697017832902326],[113.07912786880189,-7.1697018242504509],[113.07912790981275,-7.1697108641549709],[113.07913696090932,-7.169710823194702],[113.07913691989829,-7.1697017832902326]]],[[[113.07939907354252,-7.1696282761427392],[113.0793989915111,-7.1696101963367402],[113.0794080426041,-7.1696101553717053],[113.07940796057255,-7.1695920755658289],[113.07939890947991,-7.169592116530759],[113.07939895049547,-7.1696011564337603],[113.0793898994026,-7.1696011973985652],[113.0793900224491,-7.1696283171077022],[113.07939907354252,-7.1696282761427392]]],[[[113.07944412392622,-7.1695828718015822],[113.07944408290986,-7.1695738318988358],[113.07945313400188,-7.1695737909331196],[113.0794530929854,-7.1695647510304363],[113.07943499080163,-7.1695648329615871],[113.07943503181777,-7.1695738728643734],[113.07942598072563,-7.1695739138297352],[113.07942602174164,-7.1695829537325846],[113.07944412392622,-7.1695828718015822]]],[[[113.07827579471386,-7.1694254365220429],[113.07826674361797,-7.1694254774637329],[113.07826678461026,-7.1694345173733263],[113.07827583570632,-7.1694344764315829],[113.07827579471386,-7.1694254365220429]]],[[[113.07827579471386,-7.1694254365220429],[113.07828484580972,-7.1694253955801743],[113.07828480481713,-7.169416355670684],[113.07827575372144,-7.1694163966124993],[113.07827579471386,-7.1694254365220429]]],[[[113.0784828630176,-7.1691804172874152],[113.07848282202251,-7.1691713773789676],[113.07847377093283,-7.1691714183232929],[113.07847381192774,-7.169180458231792],[113.0784828630176,-7.1691804172874152]]],[[[113.07850088320635,-7.1691622555814414],[113.07850084221101,-7.1691532156731084],[113.07849179112179,-7.1691532566176832],[113.07849183211695,-7.1691622965260695],[113.07850088320635,-7.1691622555814414]]],[[[113.07913691989829,-7.1697017832902326],[113.0791821753794,-7.1697015784864799],[113.07918213436753,-7.169692538582269],[113.0791911854634,-7.1696924976210372],[113.07919110343944,-7.1696744178127068],[113.07917300124834,-7.1696744997347848],[113.07917296023678,-7.1696654598305116],[113.07918201133219,-7.1696654188696129],[113.07918197032052,-7.1696563789653691],[113.0791910214157,-7.1696563380043461],[113.07919098040389,-7.169647298100184],[113.07920003149883,-7.1696472571390357],[113.07919999048691,-7.1696382172349056],[113.07923619486546,-7.1696380533887361],[113.07923611284035,-7.1696199735808808],[113.07928136831053,-7.1696197687696861],[113.07928132729717,-7.1696107288659974],[113.07931753167163,-7.1696105650140458],[113.0793175726857,-7.1696196049175258],[113.079308521592,-7.1696196458808323],[113.07930856260595,-7.1696286857843443],[113.07925425604147,-7.1696289315607622],[113.07925429705439,-7.1696379714645824],[113.07926334814879,-7.1696379305022377],[113.07926338916195,-7.1696469704060037],[113.07923623587808,-7.1696470932926566],[113.07923627689077,-7.1696561331965558],[113.07920912360589,-7.1696562560817645],[113.07920920563035,-7.1696743358899164],[113.07923635891629,-7.169674213004396],[113.07923631790351,-7.169665173100487],[113.07925442009353,-7.1696650911760207],[113.07925437908042,-7.1696560512721943],[113.07927248126985,-7.1696559693471213],[113.0792725222833,-7.1696650092508429],[113.07930872666228,-7.1696648453983505],[113.07930868564812,-7.1696558054948376],[113.07932678783692,-7.1696557235676277],[113.07932699291005,-7.169700923084565],[113.07928173743319,-7.1697011279025586],[113.07928177844708,-7.1697101678061932],[113.07926367625561,-7.1697102497322485],[113.07926375828283,-7.1697283295397298],[113.07923660499416,-7.1697284524277922],[113.07923664600733,-7.1697374923316568],[113.07921854381424,-7.1697375742562457],[113.0792185848271,-7.1697466141602302],[113.07920048263345,-7.1697466960842098],[113.07920052364601,-7.1697557359882955],[113.07919147254893,-7.1697557769500708],[113.07919159558639,-7.1697828966624568],[113.07918254448872,-7.1697829376242117],[113.07918258550113,-7.1697919775283827],[113.07917353440322,-7.1697920184900132],[113.07917357541551,-7.1698010583942349],[113.07916452431739,-7.1698010993557375],[113.07916456532955,-7.169810139260008],[113.07915551423118,-7.1698101802213845],[113.07915555524322,-7.1698192201256861],[113.07914650414463,-7.1698192610869382],[113.07914654515653,-7.1698283009913215],[113.0791193918599,-7.1698284238741614],[113.07911943287134,-7.1698374637786815],[113.07910133067296,-7.1698375456997896],[113.07910137168408,-7.1698465856044109],[113.07909232058464,-7.1698466265647491],[113.07909236159564,-7.1698556664694184],[113.07908331049595,-7.1698557074296314],[113.07908339251776,-7.1698737872390623],[113.07907434141768,-7.1698738281991998],[113.07907438242849,-7.1698828681039632],[113.07905628022779,-7.1698829500238128],[113.07905632123828,-7.1698919899286748],[113.07904727013769,-7.1698920308883842],[113.07904731114806,-7.1699010707932951],[113.07902015784539,-7.1699011936715147],[113.07902023986523,-7.1699192734816375],[113.07901118876389,-7.1699193144407918],[113.07901122977371,-7.1699283543458998],[113.0789840764688,-7.1699284772224523],[113.07898411747816,-7.1699375171277291],[113.07897506637623,-7.1699375580862759],[113.07897514839472,-7.169955637896873],[113.07896609729238,-7.1699556788553469],[113.07896613830152,-7.1699647187607001],[113.07893898499368,-7.1699648416352071],[113.07893902600235,-7.1699738815407148],[113.0789209237965,-7.1699739634562674],[113.07892096480485,-7.1699830033618577],[113.07890286259844,-7.1699830852768036],[113.0789029446146,-7.170001165088232],[113.07889389351097,-7.1700012060455398],[113.07889393451894,-7.1700102459512918],[113.07886678120715,-7.1700103688223109],[113.07886682221466,-7.1700194087282156],[113.07883966890188,-7.1700195315977862],[113.07883970990889,-7.1700285715038286],[113.07882160769974,-7.1700286534160895],[113.07882164870645,-7.1700376933222651],[113.0788125976016,-7.170037734278182],[113.07881267961484,-7.1700558140905892],[113.0788036285096,-7.1700558550464333],[113.07880366951612,-7.1700648949526826],[113.0787855673051,-7.1700649768639391],[113.07878560831132,-7.1700740167702914],[113.07875845499389,-7.1700741396359966],[113.07875849599962,-7.1700831795424991],[113.07874944489353,-7.1700832204974301],[113.07874948589914,-7.1700922604039841],[113.07874043479281,-7.1700923013587889],[113.07874047579828,-7.17010134126539],[113.07872237358514,-7.1701014231745699],[113.07872241459032,-7.1701104630812713],[113.07870431237656,-7.1701105449898446],[113.07870435338144,-7.1701195848966464],[113.07865909784528,-7.1701197896652253],[113.07865913884932,-7.1701288295722838],[113.07864103663412,-7.1701289114785718],[113.07864107763784,-7.1701379513857333],[113.07863202653,-7.1701379923386632],[113.0786320675336,-7.1701470322458869],[113.07861396531737,-7.1701471141513178],[113.07861408832746,-7.1701742338732153],[113.07860503721872,-7.1701742748258175],[113.0786049552123,-7.1701561950111099],[113.07854159745223,-7.1701564816736258],[113.07854163845417,-7.1701655215813469],[113.07850543401796,-7.1701656853847915],[113.07850547501921,-7.1701747252927195],[113.07847832169097,-7.1701748481435903],[113.07847836269177,-7.1701838880516693],[113.07849646491101,-7.1701838061511616],[113.07849650591221,-7.1701928460591171],[113.07855081256973,-7.170192600353011],[113.07855085357205,-7.1702016402606814],[113.07855990468164,-7.1702015993089878],[113.07855993373033,-7.1702080037282023],[113.0786594241801,-7.170191734365658],[113.07865938487465,-7.1701830690145583],[113.07866843598323,-7.1701830280608325],[113.07866839497869,-7.1701739881538478],[113.07868649719536,-7.1701739062459708],[113.07868645619052,-7.1701648663390865],[113.07869550729859,-7.1701648253849317],[113.07869546629362,-7.1701557854780962],[113.07870451740148,-7.1701557445238162],[113.0787044763964,-7.1701467046170473],[113.07871352750399,-7.1701466636626403],[113.07871356850926,-7.1701557035693586],[113.07872261961701,-7.1701556626147225],[113.07872257861156,-7.1701466227080575],[113.0787406808265,-7.1701465407983545],[113.07874063982075,-7.1701375008917552],[113.07874969092798,-7.1701374599366892],[113.0787496499221,-7.1701284200301556],[113.07878585434973,-7.1701282562083195],[113.07878581334319,-7.1701192163019911],[113.0787948644498,-7.17011917534614],[113.07879482344315,-7.1701101354398578],[113.07881292565581,-7.1701100535277256],[113.07881284364194,-7.1700919737153619],[113.0788309458537,-7.1700918918027252],[113.07883090484648,-7.1700828518966411],[113.07886710926866,-7.1700826880694422],[113.07886702725297,-7.1700646082576815],[113.07887607835801,-7.1700645673005416],[113.07887603735006,-7.1700555273947062],[113.07890319066435,-7.1700554045223717],[113.07890314965593,-7.1700463646166925],[113.07891220076043,-7.1700463236589425],[113.07891215975187,-7.1700372837533104],[113.07893931306447,-7.1700371608791515],[113.07893927205542,-7.1700281209736554],[113.07894832315932,-7.1700280800152996],[113.07894828215018,-7.1700190401098842],[113.0789663843575,-7.1700189581927418],[113.07896634334803,-7.1700099182874109],[113.07897539445145,-7.1700098773286243],[113.07897535344185,-7.1700008374233422],[113.07899345564812,-7.17000075550534],[113.07899341463823,-7.1699917156001591],[113.07900246574113,-7.1699916746409427],[113.0790024247311,-7.1699826347357929],[113.07901147583375,-7.1699825937764503],[113.07901139381353,-7.1699645139662929],[113.07902044491577,-7.1699644730068774],[113.07902040390555,-7.1699554331018378],[113.07903850610951,-7.1699553511825762],[113.079038465099,-7.169946311277636],[113.07904751620075,-7.1699462703177916],[113.07904747519009,-7.1699372304129172],[113.07905652629158,-7.1699371894529449],[113.07905648528082,-7.1699281495480864],[113.0790745874833,-7.1699280676277137],[113.07907454647223,-7.1699190277229725],[113.07909264867413,-7.1699189458019914],[113.07909260766277,-7.1699099058973514],[113.07910165876345,-7.1699098649366464],[113.07910161775196,-7.1699008250320535],[113.07911066885241,-7.1699007840712223],[113.07911058682922,-7.1698827042621271],[113.07911963792927,-7.1698826633012231],[113.07911967894103,-7.169891703205721],[113.07913778114134,-7.1698916212832735],[113.07913774012923,-7.1698825813788813],[113.07914679122912,-7.1698825404174427],[113.07914675021689,-7.1698735005130994],[113.07915580131655,-7.1698734595515363],[113.07915576030419,-7.1698644196472383],[113.07917386250301,-7.1698643377236815],[113.07917382149034,-7.1698552978194865],[113.0791828725895,-7.1698552568574927],[113.07918283157672,-7.1698462169533457],[113.07920093377449,-7.16984613502893],[113.07920085174837,-7.1698280552208331],[113.07920990284683,-7.1698280142584609],[113.07920986183368,-7.1698189743544427],[113.07922796403005,-7.1698188924292712],[113.07922779997652,-7.1697827328136601],[113.07924590217128,-7.1697826508881946],[113.07924586115766,-7.1697736109843984],[113.07926396335186,-7.1697735290583244],[113.07926400436583,-7.1697825689620158],[113.07928210656016,-7.1697824870351248],[113.07928214757453,-7.1697915269387256],[113.07930930086616,-7.1697914040468991],[113.07930925985124,-7.1697823641434537],[113.07936356643199,-7.1697821183553057],[113.07936344338438,-7.1697549986458933],[113.07940869886423,-7.169754793818325],[113.07940865784757,-7.1697457539154401],[113.07941770894321,-7.1697457129494451],[113.07941766792644,-7.1697366730466099],[113.07942671902181,-7.1697366320804869],[113.07942676003877,-7.1697456719832715],[113.07943581113429,-7.1697456310169212],[113.07943585215148,-7.1697546709196471],[113.07947205653376,-7.1697545070522519],[113.07947209755172,-7.1697635469547683],[113.07949019974289,-7.1697634650198978],[113.07949024076126,-7.1697725049223218],[113.07950834295258,-7.1697724229866351],[113.07950842499018,-7.169790502791213],[113.07953557827784,-7.1697903798860354],[113.07953561929725,-7.1697994197881698],[113.07958992587218,-7.1697991739726961],[113.07958996689273,-7.1698082138745134],[113.07961712018,-7.1698080909642172],[113.07961707915892,-7.1697990510625553],[113.07964423244519,-7.1697989281508132],[113.07964427346681,-7.1698079680523179],[113.07965332456232,-7.1698079270813295],[113.07965336558415,-7.1698169669827614],[113.07967146777536,-7.1698168850401442],[113.0796715087976,-7.1698259249415033],[113.07968055989329,-7.1698258839698763],[113.07968060091576,-7.1698349238711598],[113.07970775420306,-7.1698348009550541],[113.07970779522613,-7.1698438408561787],[113.07974399960916,-7.1698436769653346],[113.079744040633,-7.1698527168662478],[113.07974503189716,-7.1698527123789244],[113.07985756478725,-7.1697979624273609],[113.07984335652996,-7.169798026749084],[113.07984331550449,-7.1697889868487241],[113.07978900893954,-7.1697892326937902],[113.07978896791519,-7.1697801927931124],[113.07977991682101,-7.1697802337666143],[113.07977987579689,-7.1697711938658966],[113.07977082470285,-7.1697712348391702],[113.07977078367897,-7.1697621949383636],[113.07976173258506,-7.1697622359114064],[113.0797616915614,-7.1697531960105598],[113.07974358937375,-7.1697532779560067],[113.07974354835051,-7.1697442380550509],[113.07975259944416,-7.16974419708247],[113.07975255842079,-7.1697351571815648],[113.07972540514017,-7.16973528009862],[113.07972536411739,-7.1697262401975701],[113.07969821083682,-7.1697263631128676],[113.07969816981462,-7.169717323211624],[113.07968911872116,-7.169717364182981],[113.0796890776992,-7.1697083242817001],[113.07961666895113,-7.1697086520457303],[113.07961662793063,-7.1696996121440275],[113.07957137246225,-7.1696998169905015],[113.07957133144269,-7.1696907770885341],[113.07956228034905,-7.1696908180572425],[113.07956219831048,-7.1696727382531922],[113.07955314721713,-7.1696727792216182],[113.07955310619809,-7.1696637393195344],[113.07948069745076,-7.1696640670601193],[113.07948065643322,-7.1696550271575967],[113.07940824768393,-7.1696553548863733],[113.07940820666786,-7.1696463149834635],[113.07938105338653,-7.1696464378786597],[113.07938109440208,-7.1696554777817258],[113.0793629922139,-7.1696555597110718],[113.07936291018359,-7.1696374799047122],[113.07937196127736,-7.1696374389402315],[113.0793719202621,-7.1696283990370908],[113.07938097135563,-7.1696283580724849],[113.07938093034025,-7.1696193181693912],[113.07936282815349,-7.1696194000983198],[113.07936278713852,-7.1696103601950991],[113.07933563385855,-7.1696104830870011],[113.07933555182984,-7.1695924032802898],[113.07935365401585,-7.1695923213527433],[113.07935357198663,-7.1695742415462096],[113.07937167417171,-7.1695741596181586],[113.07937163315682,-7.1695651197150063],[113.07939878643349,-7.1695649968217507],[113.07939874541813,-7.1695559569187202],[113.07942589869378,-7.1695558340240186],[113.07942585767795,-7.1695467941211559],[113.07944395986109,-7.16954671219057],[113.07944391884496,-7.1695376722878077],[113.07945296993627,-7.1695376313223003],[113.07945292891998,-7.1695285914195868],[113.07948913328403,-7.1695284275559832],[113.0794890922671,-7.1695193876534926],[113.07949814335778,-7.1695193466871991],[113.07949810234072,-7.1695103067847192],[113.07950715343119,-7.1695102658183023],[113.07950711241402,-7.1695012259158899],[113.07951616350424,-7.1695011849493433],[113.07951608146969,-7.1694831051446117],[113.07953418364927,-7.169483023211197],[113.07953414263172,-7.1694739833089303],[113.07955224481076,-7.169473901374908],[113.07955220379289,-7.1694648614727399],[113.07956125488214,-7.1694648205055147],[113.07956104979273,-7.1694196209948844],[113.07957010088104,-7.1694195800277418],[113.07957005986313,-7.1694105401256563],[113.07958816203924,-7.1694104581909404],[113.07958808000289,-7.1693923783869673],[113.07959713109052,-7.1693923374194464],[113.07959709007226,-7.1693832975175074],[113.07960614115963,-7.1693832565498612],[113.07960610014123,-7.1693742166479684],[113.07963325340252,-7.1693740937441168],[113.07963300729003,-7.1693198543336276],[113.07965110946184,-7.1693197723974631],[113.07965115048081,-7.1693288122991188],[113.07967830373865,-7.1693286893933781],[113.07967826271913,-7.1693196494918814],[113.0796873138048,-7.1693196085229998],[113.07968735482447,-7.1693286484244441],[113.07969640591027,-7.1693286074553306],[113.07969644693019,-7.1693376473567181],[113.0797054980161,-7.1693376063873755],[113.07970553903624,-7.169346646288707],[113.07971459012229,-7.1693466053191335],[113.07971467216311,-7.1693646851216828],[113.07973277433571,-7.1693646031817932],[113.07973281535656,-7.1693736430829578],[113.07975996861565,-7.1693735201716304],[113.07976000963708,-7.1693825600726342],[113.07976906072351,-7.1693825191017853],[113.07976910174516,-7.1693915590027331],[113.07978720391823,-7.169391477060393],[113.07978724494031,-7.1694005169612174],[113.07980534711351,-7.169400435018062],[113.07980542915853,-7.1694185148195393],[113.07981448024539,-7.1694184738475899],[113.07981452126816,-7.1694275137482624],[113.07982357235515,-7.1694274727760821],[113.07982361337815,-7.1694365126766995],[113.07983266446529,-7.16943647170429],[113.07983270548851,-7.1694455116048337],[113.07984175657576,-7.1694454706321942],[113.07984179759922,-7.1694545105327139],[113.07985084868658,-7.1694544695598452],[113.07985088971029,-7.1694635094602939],[113.07986899188523,-7.1694634275139162],[113.07986903290933,-7.1694724674142547],[113.07987808399692,-7.1694724264407466],[113.07987824809456,-7.1695085860418626],[113.07989635027097,-7.1695085040938942],[113.07989639129586,-7.1695175439940764],[113.07990544238419,-7.1695175030197724],[113.07990548340932,-7.1695265429198649],[113.07991453449773,-7.1695265019453309],[113.07991457552311,-7.1695355418453852],[113.07992362661167,-7.1695355008706203],[113.07992370866292,-7.1695535806706117],[113.07993275975177,-7.1695535396955652],[113.07993280077764,-7.1695625795955191],[113.07995995404444,-7.1695624566691576],[113.07996011815061,-7.1695986162682255],[113.07996916924017,-7.1695985752922056],[113.07996925129393,-7.1696166550916214],[113.07996020020403,-7.1696166960677452],[113.07996040533847,-7.1696618955664793],[113.07995135424764,-7.1696619365426848],[113.07995143630144,-7.169680016342256],[113.07994238521017,-7.1696800573183879],[113.07994250829073,-7.169707177017874],[113.07993345719889,-7.1697072179939854],[113.07993353925251,-7.169725297793744],[113.07992448816027,-7.1697253387697808],[113.07992452918698,-7.1697343786696823],[113.07991547809449,-7.1697344196455939],[113.07991556014771,-7.1697524994455213],[113.07989745796188,-7.1697525813970211],[113.0798975755728,-7.1697784962113484],[113.08007883100004,-7.1696903109999575],[113.079741582571,-7.169120480966142],[113.07973166679304,-7.1691205258489159],[113.07973162577368,-7.1691114859476448],[113.0797225746924,-7.1691115269162191],[113.07972253367326,-7.1691024870149098],[113.0797134825921,-7.1691025279832514],[113.07971335953559,-7.1690754082790766],[113.07970430845489,-7.1690754492470843],[113.07970422641782,-7.1690573694441895],[113.07969517533745,-7.1690574104119156],[113.07969510518876,-7.1690419505335603],[113.07969355872611,-7.1690393375547794],[113.07968604222086,-7.1690393715763427],[113.07968600120286,-7.1690303316747599],[113.07967695012292,-7.1690303726419744],[113.07967690910516,-7.1690213327403693],[113.07966785802535,-7.1690213737073529],[113.07966781700782,-7.1690123338056768],[113.0796587659281,-7.1690123747724295],[113.07965864287637,-7.1689852550672013],[113.07963148963853,-7.1689853779659227],[113.07963140760539,-7.1689672981621326],[113.07962235652637,-7.1689673391279136],[113.07962219246143,-7.1689311795200474],[113.07961314138305,-7.1689312204854403],[113.07961305935125,-7.168913140681382],[113.07960400827318,-7.1689131816464915],[113.07960396725755,-7.1689041417444033],[113.07958586510159,-7.1689042236739873],[113.07958578307118,-7.1688861438695914],[113.0795767319935,-7.1688861848340135],[113.07957664996367,-7.1688681050294978],[113.07955854780883,-7.168868186957595],[113.07955850679434,-7.168859147055227],[113.07954945571704,-7.1688591880189581],[113.0795494147028,-7.168850148116535],[113.07953131254835,-7.1688502300433568],[113.07953127153452,-7.1688411901408244],[113.07951316938022,-7.1688412720668309],[113.07951312836678,-7.168832232164192],[113.07947692405827,-7.1688323960138582],[113.07947700608376,-7.1688504758195526],[113.07946795500617,-7.1688505167816281],[113.07946791399355,-7.1688414768787316],[113.07945886291608,-7.1688415178405789],[113.07945882190371,-7.1688324779376256],[113.07940451543871,-7.1688327237046519],[113.07940455645002,-7.1688417636079187],[113.07942265860558,-7.1688416816861835],[113.0794226996173,-7.1688507215893411],[113.079440801773,-7.1688506396667906],[113.0794408427851,-7.1688596795698407],[113.07942274062904,-7.168859761492496],[113.07942282265273,-7.1688778412987926],[113.07941377157427,-7.1688778822599568],[113.079413812586,-7.1688869221631526],[113.07942286366465,-7.1688868812019351],[113.0794229046766,-7.1688959211050749],[113.0794410068341,-7.1688958391820021],[113.07944108885891,-7.1689139189880589],[113.07945013993793,-7.168913878026153],[113.0794501809506,-7.1689229179291241],[113.07945923202976,-7.1689228769669864],[113.07945927304266,-7.1689319168699015],[113.07946832412192,-7.1689318759075329],[113.07946836513504,-7.1689409158104098],[113.07948646729379,-7.1689408338850349],[113.07948663134825,-7.1689769934960008],[113.07949568242825,-7.1689769525328373],[113.07949584648428,-7.1690131121435519],[113.07950489756495,-7.169013071180002],[113.07950510263706,-7.1690582706930464],[113.07951415371856,-7.1690582297290577],[113.07951427676301,-7.169085349436684],[113.07952332784497,-7.1690853084723605],[113.07952340987522,-7.169103388277339],[113.07953246095752,-7.169103347312733],[113.07953254298833,-7.1691214271175561],[113.07954159407092,-7.1691213861526686],[113.07954171711808,-7.1691485058597619],[113.07955076820117,-7.1691484648945405],[113.07955085023322,-7.1691665446991184],[113.07955990131659,-7.1691665037336136],[113.07956022944839,-7.1692388229514057],[113.07956928053314,-7.1692387819853067],[113.07956932155003,-7.1692478218874793],[113.0795783726349,-7.1692477809211494],[113.07957882382618,-7.1693472198440507],[113.07956072165246,-7.1693473017776821],[113.07956088572217,-7.169383461386313],[113.0795427835468,-7.1693835433196487],[113.07954286558127,-7.1694016231241342],[113.07953381449317,-7.1694016640906391],[113.07953389652749,-7.1694197438952463],[113.07951579435039,-7.1694198258279318],[113.07951583536727,-7.1694288657303247],[113.07950678427846,-7.1694289066964529],[113.07950682529523,-7.1694379465988956],[113.07949777420617,-7.1694379875648968],[113.07949785623948,-7.1694560673698762],[113.07948880515005,-7.1694561083358037],[113.07948896921661,-7.1694922679459232],[113.07947991812638,-7.1694923089118827],[113.07947995914299,-7.1695013488144559],[113.07946185696206,-7.1695014307459441],[113.07946189797835,-7.1695104706486177],[113.07945284688761,-7.1695105116141473],[113.07945288790377,-7.1695195515168848],[113.07942573463073,-7.1695196744125615],[113.07942577564641,-7.169528714315418],[113.07940767346376,-7.1695287962450838],[113.07940771447913,-7.1695378361480575],[113.07939866338756,-7.1695378771126759],[113.07939870440282,-7.1695469170156993],[113.07937155112722,-7.1695470399086414],[113.079371592142,-7.1695560798118176],[113.07936254104985,-7.1695561207758267],[113.07936258206448,-7.1695651606790687],[113.07929922441672,-7.1695654474225199],[113.07929926543015,-7.1695744873260887],[113.07928116324425,-7.1695745692512913],[113.07928120425738,-7.1695836091549783],[113.07925405097758,-7.1695837320416027],[113.07925409199025,-7.1695927719454424],[113.07924504089668,-7.1695928129073483],[113.07924508190922,-7.1696018528112351],[113.0792269797216,-7.1696019347346143],[113.07922702073384,-7.1696109746385854],[113.07921796963977,-7.1696110156000596],[113.0792180106519,-7.1696200555041134],[113.0792089595576,-7.1696200964654624],[113.07920900056959,-7.1696291363695481],[113.07918184728584,-7.1696292592526847],[113.07918188829736,-7.1696382991569214],[113.07916378610754,-7.1696383810782267],[113.07916382711876,-7.1696474209825647],[113.07912762273781,-7.1696475848232479],[113.07912766374837,-7.1696566247277742],[113.0791095615572,-7.1696567066471522],[113.0791096845881,-7.169683826361088],[113.07914588897232,-7.1696836625209954],[113.07914592998344,-7.1696927024254178],[113.0791368788873,-7.1696927433857605],[113.07913691989829,-7.1697017832902326]],[[113.07916395015269,-7.1696745406955564],[113.07913679686547,-7.1696746635768056],[113.07913675585463,-7.1696656236723237],[113.07914580695025,-7.1696655827121374],[113.0791457659393,-7.1696565428076839],[113.07916386813002,-7.1696564608868831],[113.07916395015269,-7.1696745406955564]],[[113.07945362620384,-7.1696822697652127],[113.07946267729797,-7.1696822287986919],[113.07946271831533,-7.1696912687012908],[113.079453667221,-7.1696913096678623],[113.07945362620384,-7.1696822697652127]],[[113.07942655495451,-7.1697004724693141],[113.07944465714372,-7.1697003905369545],[113.07944473917799,-7.1697184703423398],[113.07943568808304,-7.1697185113087141],[113.07943564706606,-7.1697094714059713],[113.07942659597126,-7.1697095123721128],[113.07942655495451,-7.1697004724693141]],[[113.0796419353199,-7.1692926936604975],[113.0796328842345,-7.1692927346283328],[113.07963284321609,-7.1692836947265617],[113.07962379213085,-7.1692837356941679],[113.07962371009455,-7.1692656558905057],[113.07963276117945,-7.1692656149230034],[113.07963272016121,-7.1692565750212189],[113.07964177124587,-7.1692565340535914],[113.0796419353199,-7.1692926936604975]]],[[[113.07945865785479,-7.168796318325775],[113.07944960677813,-7.1687963592871817],[113.07944968880213,-7.1688144390932189],[113.07946779095609,-7.1688143571700165],[113.0794677499437,-7.1688053172671058],[113.07945869886694,-7.1688053582287434],[113.07945865785479,-7.168796318325775]]],[[[113.07944039165477,-7.1687602406360824],[113.07944047367799,-7.1687783204422377],[113.07944952475434,-7.1687782794811126],[113.07944944273075,-7.1687601996750629],[113.07944039165477,-7.1687602406360824]]],[[[113.07874317166049,-7.1687001147503659],[113.07874313066306,-7.168691074843232],[113.07873407958432,-7.1686911157899518],[113.07873412058159,-7.168700155697139],[113.07874317166049,-7.1687001147503659]]],[[[113.07866158896127,-7.1686733635420934],[113.0786616709528,-7.1686914433573143],[113.07867977311099,-7.1686913614665411],[113.07867969111878,-7.1686732816515297],[113.07866158896127,-7.1686733635420934]]],[[[113.07866158896127,-7.1686733635420934],[113.07866154796559,-7.1686643236344789],[113.07864344580825,-7.1686644055242263],[113.07864348680357,-7.1686734454319456],[113.07866158896127,-7.1686733635420934]]],[[[113.07869762929082,-7.168637040130605],[113.07869771128334,-7.1686551199454378],[113.07870676236152,-7.1686550789996373],[113.07870680335805,-7.1686641189069951],[113.07871585443638,-7.1686640779609636],[113.07871589543313,-7.1686731178682663],[113.07872494651157,-7.1686730769220057],[113.07872486451778,-7.1686549971075024],[113.07871581343969,-7.1686550380536582],[113.07871577244305,-7.1686459981463484],[113.07870672136507,-7.168646039092275],[113.07870668036865,-7.1686369991849093],[113.07869762929082,-7.168637040130605]]],[[[113.07869762929082,-7.168637040130605],[113.07869758829465,-7.1686280002231832],[113.0787066393723,-7.168627959277539],[113.078706598376,-7.1686189193701493],[113.07869754729853,-7.1686189603157402],[113.07869750630245,-7.1686099204083273],[113.07868845522508,-7.16860996135369],[113.0786885782129,-7.1686370810761231],[113.07869762929082,-7.168637040130605]]],[[[113.07867031207471,-7.1686010033362892],[113.07867035307021,-7.1686100432438797],[113.07867940414765,-7.1686100022988741],[113.07867936315199,-7.168600962391336],[113.07867031207471,-7.1686010033362892]]],[[[113.07867031207471,-7.1686010033362892],[113.07867027107928,-7.1685919634286952],[113.0786612200021,-7.1685920043734193],[113.07866126099736,-7.1686010442810639],[113.07867031207471,-7.1686010033362892]]],[[[113.07925842695396,-7.1685531420230619],[113.07923127373478,-7.168553264890777],[113.07923131474104,-7.1685623047951523],[113.07924036581433,-7.1685622638393722],[113.07924040682083,-7.1685713037436738],[113.07925850896761,-7.1685712218314768],[113.07925842695396,-7.1685531420230619]]],[[[113.07944039165477,-7.1687602406360824],[113.07944030963175,-7.168742160829896],[113.07943125855606,-7.1687422017906348],[113.07943109451139,-7.1687060421780071],[113.07942204343637,-7.1687060831383587],[113.07942196141471,-7.1686880033319182],[113.07941291034,-7.1686880442919882],[113.07941282831891,-7.1686699644854261],[113.07942187939325,-7.1686699235254627],[113.07942183838261,-7.1686608836222288],[113.07941278730844,-7.1686609245821424],[113.07941274629802,-7.1686518846788516],[113.07940369522395,-7.1686519256385344],[113.07940365421375,-7.1686428857351894],[113.07939460313983,-7.1686429266946421],[113.07939443910035,-7.1686067670810134],[113.07938538802708,-7.1686068080400789],[113.07938526499855,-7.168579688329662],[113.07937621392574,-7.1685797292883935],[113.07937613190735,-7.1685616494813242],[113.0793580297623,-7.1685617313980448],[113.07935798875354,-7.1685526914943996],[113.07933988660865,-7.1685527734103029],[113.0793398456003,-7.1685437335065512],[113.07933079452793,-7.1685437744641849],[113.07933067150374,-7.1685166547527492],[113.07930351828797,-7.1685167776241094],[113.0793036823182,-7.1685529372399763],[113.07931273339089,-7.1685528962828258],[113.0793129794389,-7.1686071357061971],[113.07928582621746,-7.1686072585780574],[113.07928578520986,-7.1685982186740143],[113.07927673413613,-7.1685982596308913],[113.07927677514355,-7.1686072995349885],[113.07926772406957,-7.1686073404917385],[113.07926801112175,-7.1686706198206629],[113.07927706219698,-7.1686705788635452],[113.07927714421274,-7.1686886586716705],[113.07928619528825,-7.1686886177142712],[113.07928623629638,-7.1686976576182762],[113.07930433844763,-7.1686975757028391],[113.07930442046475,-7.1687156555106268],[113.07932252261649,-7.1687155735942696],[113.0793225636255,-7.1687246134980542],[113.07934971685324,-7.1687244906220267],[113.07934979887249,-7.1687425704292709],[113.07935884994865,-7.1687425294701335],[113.07935889095852,-7.1687515693736996],[113.07936794203482,-7.1687515284143313],[113.07936802405507,-7.1687696082213455],[113.07935897297843,-7.1687696491808177],[113.07935909600867,-7.1687967688914673],[113.07936814708587,-7.1687967279318405],[113.07936818809624,-7.1688057678353294],[113.07938629025082,-7.1688056859154363],[113.07938637227242,-7.1688237657221796],[113.07939542334998,-7.1688237247618609],[113.07939546436104,-7.1688327646651997],[113.07940451543871,-7.1688327237046519],[113.07940443341629,-7.1688146438981075],[113.07939538233897,-7.1688146848585514],[113.079395136274,-7.168760445438517],[113.07938608519771,-7.1687604863984706],[113.07938600317684,-7.1687424065916572],[113.07939505425279,-7.1687423656318074],[113.07939497223177,-7.1687242858250846],[113.0794040233073,-7.168724244865162],[113.07940410532868,-7.1687423246717819],[113.07942220748032,-7.1687422427511951],[113.07942224849145,-7.1687512826543953],[113.07943129956736,-7.1687512416937818],[113.07943134057871,-7.168760281596926],[113.07944039165477,-7.1687602406360824]],[[113.07936769597531,-7.1686972889931999],[113.07935864490005,-7.1686973299522547],[113.07935860389051,-7.1686882900486664],[113.07936765496557,-7.1686882490896648],[113.07936769597531,-7.1686972889931999]],[[113.07932223555497,-7.1686522942676705],[113.07931318448036,-7.1686523352255733],[113.07931310246362,-7.1686342554178344],[113.07932215353787,-7.1686342144600346],[113.07932223555497,-7.1686522942676705]]],[[[113.07855195118935,-7.1684478571633621],[113.07855199218163,-7.1684568970716942],[113.07856104325674,-7.1684568561298878],[113.07856100226429,-7.168447816221609],[113.07855195118935,-7.1684478571633621]]],[[[113.07855195118935,-7.1684478571633621],[113.07855191019713,-7.1684388172550255],[113.07854285912229,-7.1684388581965495],[113.07854290011434,-7.1684478981049367],[113.07855195118935,-7.1684478571633621]]],[[[113.07855186920499,-7.1684297773466863],[113.07855182821287,-7.1684207374383435],[113.0785427771384,-7.1684207783797618],[113.07854281813032,-7.168429818288157],[113.07855186920499,-7.1684297773466863]]],[[[113.07854257217954,-7.1683755788377281],[113.07854253118795,-7.1683665389292948],[113.07853348011449,-7.168366579870221],[113.07853352110592,-7.1683756197787085],[113.07854257217954,-7.1683755788377281]]],[[[113.07851533697639,-7.168357621842981],[113.07851525499451,-7.168339542025814],[113.07850620392144,-7.1683395829660519],[113.07850628590298,-7.1683576627833245],[113.07851533697639,-7.168357621842981]]],[[[113.07856947944808,-7.1683212165641095],[113.07854232623069,-7.1683213393871794],[113.07854240821342,-7.1683394192040337],[113.07855145928632,-7.1683393782630827],[113.07855150027794,-7.168348418171461],[113.07856055135093,-7.1683483772302798],[113.07856051035913,-7.1683393373219557],[113.07856956143189,-7.1683392963806503],[113.07856947944808,-7.1683212165641095]]],[[[113.07856947944808,-7.1683212165641095],[113.07857853052045,-7.1683211756227312],[113.07857848952844,-7.1683121357144826],[113.07856943845624,-7.1683121766558084],[113.07856947944808,-7.1683212165641095]]],[[[113.07911250269291,-7.1683097198611829],[113.07911242068803,-7.1682916400508612],[113.0790943185506,-7.1682917219541302],[113.07909435955266,-7.1683007618593955],[113.07910341062156,-7.1683007209077996],[113.07910345162384,-7.1683097608130097],[113.07911250269291,-7.1683097198611829]]],[[[113.07851505004072,-7.1682943424828274],[113.07851500905014,-7.168285302574219],[113.07850595797812,-7.1682853435141443],[113.07850599896854,-7.1682943834228032],[113.07851505004072,-7.1682943424828274]]],[[[113.07855006560251,-7.1680320213760043],[113.07855002461275,-7.1680229814674963],[113.0785409735461,-7.1680230224066213],[113.0785410145357,-7.1680320623151816],[113.07855006560251,-7.1680320213760043]]],[[[113.0785861059076,-7.1679956979842769],[113.07858606491733,-7.1679866580759768],[113.07857701385163,-7.1679866990156045],[113.07857705484173,-7.167995738923957],[113.0785861059076,-7.1679956979842769]]],[[[113.07863123826291,-7.1679683735590487],[113.07861313613267,-7.1679684554396967],[113.07861325910494,-7.16799557516417],[113.07864041230179,-7.1679954523424616],[113.07864033031917,-7.1679773725264679],[113.07863127925397,-7.1679774134671108],[113.07863123826291,-7.1679683735590487]]],[[[113.07875717430116,-7.1677960421345404],[113.07875713330867,-7.1677870022271151],[113.07874808224788,-7.1677870431689756],[113.07874812324019,-7.1677960830764533],[113.07875717430116,-7.1677960421345404]]],[[[113.07863905961554,-7.1676971353763941],[113.07863910060519,-7.1677061752845015],[113.07864815166502,-7.1677061343452442],[113.07864811067519,-7.1676970944371892],[113.07863905961554,-7.1676971353763941]]],[[[113.07863905961554,-7.1676971353763941],[113.07863901862595,-7.1676880954682485],[113.07862996756644,-7.1676881364072225],[113.07863000855586,-7.1676971763154205],[113.07863905961554,-7.1676971353763941]]],[[[113.07862988558779,-7.1676700565908513],[113.07862083452858,-7.1676700975295438],[113.07862087551771,-7.1676791374377835],[113.07862992657709,-7.1676790964990396],[113.07862988558779,-7.1676700565908513]]],[[[113.07860265043263,-7.1676520995896942],[113.07860260944402,-7.167643059681339],[113.07859355838517,-7.1676431006193413],[113.0785935993736,-7.1676521405277471],[113.07860265043263,-7.1676520995896942]]],[[[113.07853003702365,-7.1676072275452398],[113.07852999603674,-7.1675981876364503],[113.07851189391995,-7.1675982695089067],[113.0785119349065,-7.167607309417801],[113.07853003702365,-7.1676072275452398]]],[[[113.07911250269291,-7.1683097198611829],[113.07911254369542,-7.1683187597663549],[113.07912159476459,-7.1683187188142963],[113.07912163576734,-7.1683277587193786],[113.079112584698,-7.1683277996714887],[113.07911262570062,-7.1683368395766367],[113.07909452356139,-7.1683369214804245],[113.07909460556608,-7.1683550012909176],[113.07910365663606,-7.1683549603390073],[113.07910369763867,-7.1683640002441784],[113.07911274870879,-7.1683639592920372],[113.07911278971164,-7.168372999197187],[113.07912184078187,-7.1683729582448166],[113.07912196379122,-7.1684000779600332],[113.07913101486196,-7.1684000370073289],[113.07913109686882,-7.1684181168173513],[113.07914014793984,-7.1684180758643636],[113.07914018894351,-7.1684271157693171],[113.07914924001466,-7.1684270748160994],[113.07914928101857,-7.1684361147209961],[113.07916738316108,-7.1684360328139238],[113.07916742416542,-7.1684450727187121],[113.07918552630805,-7.1684449908108245],[113.07918569032734,-7.1684811504295238],[113.07920379247118,-7.1684810685205065],[113.07920375146593,-7.168472028615942],[113.0791947003942,-7.1684720695704867],[113.07919449536962,-7.1684268700473437],[113.07920354644047,-7.1684268290930584],[113.07920338242104,-7.1683906694746851],[113.07921243349109,-7.16839062852043],[113.07921247449605,-7.1683996684249776],[113.07922152556624,-7.1683996274704933],[113.07922156657143,-7.1684086673749672],[113.07923061764174,-7.168408626420252],[113.07923065864716,-7.1684176663247055],[113.0792397097176,-7.1684176253697602],[113.07923979172894,-7.1684357051785135],[113.0792488427997,-7.1684356642232867],[113.07924851475416,-7.1683633449885802],[113.07923946368483,-7.1683633859433886],[113.07923938167433,-7.1683453061345928],[113.07923033060533,-7.1683453470891196],[113.07923024859539,-7.1683272672801834],[113.07922119752666,-7.1683273082344288],[113.0792210745127,-7.1683001885208419],[113.07921202344448,-7.1683002294747533],[113.07921198244011,-7.1682911895701658],[113.07920293137201,-7.1682912305238462],[113.07920289036787,-7.1682821906192009],[113.07919383929988,-7.1682822315726513],[113.07919375729212,-7.168264151763247],[113.07917565515673,-7.1682642336694053],[113.07917561415327,-7.1682551937645922],[113.07915751201801,-7.1682552756699343],[113.07915747101497,-7.1682462357650145],[113.07914841994743,-7.1682462767173654],[113.07914833794187,-7.1682281969074086],[113.07915738900907,-7.1682281559551617],[113.07915726600059,-7.1682010362403386],[113.07914821493394,-7.1682010771924283],[113.0791481739314,-7.1681920372874508],[113.07913007179832,-7.1681921191909943],[113.07912982578634,-7.1681378797603177],[113.07912077472078,-7.1681379207115086],[113.07912073371914,-7.1681288808063321],[113.07911168265372,-7.168128921757293],[113.07911160474978,-7.1681117456489369],[113.07911155964968,-7.168101802041579],[113.07910250858471,-7.1681018429922068],[113.07910238558166,-7.1680747232763018],[113.07909333451722,-7.1680747642265947],[113.07909329351648,-7.1680657243212327],[113.07908424245215,-7.1680657652712956],[113.07908411945083,-7.1680386455550167],[113.07907506838696,-7.1680386865047456],[113.07907498638669,-7.1680206066937959],[113.07906593532314,-7.1680206476432415],[113.07906589432326,-7.1680116077377027],[113.07905684325982,-7.1680116486869183],[113.07905680226018,-7.1680026087813218],[113.07904775119688,-7.1680026497303082],[113.07904762819881,-7.1679755300133392],[113.07903857713599,-7.1679755709619917],[113.07903845413892,-7.1679484512448495],[113.07902940307658,-7.1679484921931662],[113.07902936207783,-7.167939452287369],[113.07902031101563,-7.1679394932354565],[113.07902022901865,-7.1679214134237821],[113.07901117795673,-7.1679214543715872],[113.07901105496222,-7.1678943346538908],[113.0790020039008,-7.1678943756013602],[113.07900192190507,-7.1678762957894389],[113.07899287084396,-7.1678763367366267],[113.07899277523421,-7.1678552549200543],[113.07898387531652,-7.1678402170662174],[113.07898365579339,-7.1678402180593332],[113.07898365409369,-7.1678398432743737],[113.07877043753915,-7.1674795788903012],[113.07875573959555,-7.1674796453729988],[113.07875562581214,-7.1674545520132495],[113.07875442972153,-7.1674525310189994],[113.0787465655696,-7.1674525665902973],[113.07874650469012,-7.1674391403580016],[113.07869874300003,-7.1673584389999334],[113.07860356500031,-7.1672989519999017],[113.07852049824558,-7.167499697822719],[113.07852053511384,-7.1675078294841219],[113.07851712706059,-7.1675078448978962],[113.07850259195966,-7.1675429715824475],[113.07850271990264,-7.1675711907180002],[113.07851177096056,-7.1675711497821961],[113.07851156602932,-7.1675259502376027],[113.07852061708631,-7.1675259093018813],[113.07852090399166,-7.1675891886639196],[113.07853900610799,-7.1675891067912101],[113.078538965121,-7.1675800668824463],[113.0785480161789,-7.1675800259458784],[113.07854793420472,-7.1675619461284947],[113.07857508737703,-7.1675618233180325],[113.07857512836465,-7.1675708632265787],[113.07858417942215,-7.1675708222893491],[113.07858422040998,-7.1675798621978224],[113.0785932714676,-7.1675798212603654],[113.07859343542019,-7.1676159808940945],[113.07861153753672,-7.1676158990182266],[113.07861161951404,-7.1676339788348518],[113.0786206705726,-7.1676339378965475],[113.07862071156151,-7.1676429778048014],[113.07862976262018,-7.1676429368662662],[113.07862988558779,-7.1676700565908513],[113.07864798770605,-7.1676699747129335],[113.07864802869571,-7.167679014621017],[113.07865707975492,-7.1676789736817392],[113.07865703876509,-7.1676699337737082],[113.07867514088302,-7.1676698518947219],[113.07867518187322,-7.1676788918026499],[113.07868423293229,-7.1676788508628366],[113.07868431491319,-7.1676969306785931],[113.07869336597257,-7.1676968897384983],[113.0786934069633,-7.1677059296462922],[113.07871150908224,-7.1677058477654656],[113.07871155007335,-7.1677148876731698],[113.07872965219242,-7.1677148057915279],[113.07872973417552,-7.1677328856067133],[113.07873878523536,-7.1677328446655215],[113.07873890821098,-7.1677599643881162],[113.07874795927127,-7.1677599234465905],[113.07874804125562,-7.1677780032615281],[113.07877519443726,-7.1677778804355672],[113.07877523543006,-7.1677869203428584],[113.07878428649069,-7.167786879400464],[113.07878432748372,-7.1677959193077321],[113.0787752764229,-7.1677959602501788],[113.07877539940176,-7.1678230799720684],[113.07878445046312,-7.1678230390294653],[113.07878457344297,-7.1678501587511638],[113.07877552238109,-7.1678501996939241],[113.07877556337432,-7.167859239601202],[113.07879366549837,-7.1678591577153989],[113.07879362450478,-7.167850117808225],[113.07882077768993,-7.1678499949783427],[113.07882081868402,-7.1678590348853595],[113.07882986974582,-7.1678589939416577],[113.07882995173455,-7.1678770737555757],[113.07883900279663,-7.1678770328115915],[113.07883904379125,-7.1678860727184919],[113.07884809485346,-7.1678860317742776],[113.0788481358483,-7.1678950716811221],[113.07885718691067,-7.1678950307366778],[113.07885722790574,-7.1679040706434849],[113.07886627896821,-7.1679040296988097],[113.07886631996351,-7.1679130696055253],[113.07887537102611,-7.167913028660621],[113.07887549401292,-7.1679401483806418],[113.07888454507598,-7.1679401074354026],[113.07888458607187,-7.1679491473420329],[113.07889363713505,-7.1679491063965637],[113.07889376012356,-7.1679762261162079],[113.07890281118725,-7.1679761851704038],[113.0789028521837,-7.1679852250769001],[113.07892095431126,-7.1679851431846542],[113.07892103630503,-7.1680032229974229],[113.07893008736907,-7.1680031820509287],[113.07893012836622,-7.1680122219572553],[113.07893917943039,-7.1680121810105284],[113.07893926142521,-7.1680302608230679],[113.07894831248969,-7.1680302198760613],[113.07894843548284,-7.1680573395946814],[113.07895748654779,-7.1680572986473408],[113.07895752754581,-7.168066338553488],[113.07896657861089,-7.1680662976059164],[113.07896661960913,-7.1680753375120094],[113.07898472173947,-7.1680752556162277],[113.07898476273812,-7.1680842955222106],[113.07899381380341,-7.1680842545740022],[113.07899385480229,-7.1680932944799292],[113.07898480373682,-7.1680933354281908],[113.07898488573437,-7.1681114152401566],[113.07899393680019,-7.1681113742917901],[113.07899394089878,-7.1681122779939574],[113.07899397779923,-7.1681204141976886],[113.07900302886516,-7.1681203732490921],[113.07900306986443,-7.1681294131549524],[113.07901212093047,-7.1681293722061268],[113.07901228492878,-7.1681655318293203],[113.07903038706219,-7.1681654499307177],[113.07903051006254,-7.1681925696477604],[113.07903956112969,-7.1681925286980341],[113.07903964313056,-7.1682106085092734],[113.07904869419801,-7.1682105675592656],[113.07904885820106,-7.1682467271814891],[113.07905790926917,-7.1682466862310958],[113.07905799127138,-7.1682647660420802],[113.07907609340816,-7.1682646841405502],[113.07907592940255,-7.168228524518983],[113.07908498047016,-7.1682284835681589],[113.07908481646467,-7.1681923239467382],[113.07907576539777,-7.1681923648973545],[113.07907580639889,-7.1682014048027503],[113.07906675533177,-7.1682014457532386],[113.07906671433084,-7.1681924058477913],[113.07905766326384,-7.1681924467980513],[113.07905758126248,-7.1681743669870048],[113.0790756833957,-7.1681742850865175],[113.07907572439672,-7.1681833249919382],[113.07908477546343,-7.1681832840413744],[113.07908481646467,-7.1681923239467382],[113.07909386753151,-7.1681922829959452],[113.07909390853298,-7.1682013229012362],[113.07911201066685,-7.1682012409990126],[113.07911209267067,-7.1682193208094267],[113.07912114373786,-7.1682192798579436],[113.07912126674452,-7.1682463995733521],[113.07913031781221,-7.168246358621535],[113.07913039981727,-7.1682644384316854],[113.07913945088526,-7.168264397479585],[113.07913961489672,-7.1683005570996325],[113.07913056382802,-7.1683005980519399],[113.07913060483084,-7.1683096379569937],[113.07911250269291,-7.1683097198611829]],[[113.07913969690277,-7.1683186369096488],[113.07914874797177,-7.1683185959570572],[113.07914882997839,-7.1683366757669225],[113.07913072783961,-7.168336757672134],[113.07913068683665,-7.1683277177670908],[113.07913973790588,-7.1683276768146253],[113.07913969690277,-7.1683186369096488]],[[113.07906659132836,-7.1681652861313738],[113.07903943812882,-7.1681654089811495],[113.07903939712862,-7.168156369075529],[113.07903034606217,-7.1681564100250448],[113.0790303050622,-7.1681473701193354],[113.0790212539959,-7.168147411068623],[113.07902121299618,-7.1681383711628754],[113.0790574172604,-7.1681382073648692],[113.07905745826085,-7.1681472472704097],[113.07906650932696,-7.1681472063204099],[113.07906659132836,-7.1681652861313738]],[[113.07903022306246,-7.1681292903079408],[113.0790211719965,-7.1681293312571226],[113.07902109409596,-7.1681121551477753],[113.0790210489978,-7.1681022115398436],[113.07903010006322,-7.1681021705908181],[113.07903014516158,-7.1681121141986939],[113.07903022306246,-7.1681292903079408]],[[113.07894806650482,-7.1679759804387162],[113.07892091331443,-7.1679761032782627],[113.07892087231768,-7.1679670633718695],[113.07891182125428,-7.1679671043179773],[113.07891173926129,-7.1679490245050905],[113.0789026881982,-7.1679490654509159],[113.07890256520963,-7.1679219457313597],[113.07893876945951,-7.1679217819476158],[113.07893881045636,-7.1679308218539237],[113.07894786151888,-7.1679307809074908],[113.0789479435131,-7.1679488607200099],[113.07895699457592,-7.1679488197732946],[113.07895707657069,-7.16796689958566],[113.07894802550753,-7.1679669405324784],[113.07894806650482,-7.1679759804387162]],[[113.07882065470791,-7.1678228752572695],[113.07881160364678,-7.1678229162005866],[113.07881164464057,-7.1678319561076487],[113.0788025935792,-7.1678319970508388],[113.07880251159206,-7.1678139172365878],[113.07879346053102,-7.1678139581794946],[113.07879333755125,-7.1677868384578902],[113.07880238861176,-7.1677867975151388],[113.07880242960513,-7.167795837422303],[113.07881148066579,-7.1677957964793215],[113.0788115216594,-7.1678048363864129],[113.07882057272018,-7.1678047954432031],[113.07882065470791,-7.1678228752572695]],[[113.07876593841449,-7.1677327218408751],[113.07874783629512,-7.1677328037241503],[113.07874779530317,-7.1677237638166638],[113.07876589742219,-7.1677236819334933],[113.07876593841449,-7.1677327218408751]],[[113.07870204811626,-7.1676154896282078],[113.07869299705854,-7.1676155305680114],[113.07869295606835,-7.1676064906601615],[113.07868390501076,-7.1676065315997333],[113.0786838640208,-7.1675974916918301],[113.07867481296334,-7.1675975326311709],[113.07867477197364,-7.1675884927232119],[113.07866572091631,-7.1675885336623235],[113.07866567992681,-7.1675794937542898],[113.0786566288696,-7.1675795346931714],[113.07865658788033,-7.1675704947851164],[113.07864753682325,-7.1675705357237671],[113.07864749583422,-7.1675614958156393],[113.07863844477725,-7.1675615367540617],[113.07863836279971,-7.167543456937687],[113.07860215857276,-7.1675436206891794],[113.07860224054888,-7.1675617005059706],[113.07859318949164,-7.1675617414435022],[113.07859314850373,-7.1675527015350555],[113.0785750463895,-7.1675527834094828],[113.07857492342717,-7.1675256636838114],[113.07859302554033,-7.1675255818096977],[113.07859286158988,-7.1674894221758318],[113.07857475947813,-7.167489504049529],[113.07857463651692,-7.1674623843237786],[113.07858368757229,-7.167462343387176],[113.07858364658514,-7.1674533034786361],[113.07859269764029,-7.1674532625419092],[113.07859277961498,-7.1674713423588772],[113.07860183067044,-7.1674713014218661],[113.07860191264571,-7.1674893812387168],[113.07861096370145,-7.1674893403014259],[113.07861100468934,-7.1674983802097927],[113.0786381578568,-7.167498257396689],[113.07863819884527,-7.1675072973048968],[113.07864724990118,-7.1675072563667879],[113.07864733187864,-7.1675253361830871],[113.07865638293484,-7.1675252952446948],[113.07865642392383,-7.167534335152804],[113.07866547498017,-7.1675342942141818],[113.07866555695865,-7.1675523740302323],[113.07868365907186,-7.167552292152247],[113.07868378204107,-7.1675794118759919],[113.07869283309813,-7.1675793709365738],[113.07869287408816,-7.167588410844453],[113.07870192514532,-7.1675883699048057],[113.07870204811626,-7.1676154896282078]],[[113.07856595434497,-7.1675437844378234],[113.07855690328788,-7.1675438253745396],[113.07855686230079,-7.1675347854658948],[113.07854781124385,-7.1675348264023793],[113.07854777025699,-7.1675257864936475],[113.07856587237048,-7.1675257046206005],[113.07856595434497,-7.1675437844378234]]]]},"properties":{"FID":0,"Shape_Leng":18102566.929299999,"Shape_Area":236516885.403}}]
}