{
  "type" : "FeatureCollection",
  "features" : [{"type":"Feature","id":0,"geometry":{"type":"MultiPolygon","coordinates":[[[[113.68966732602023,-7.7266355643406159],[113.68966726880558,-7.7266265286989553],[113.68965821032218,-7.7266265857692087],[113.68965826753664,-7.726635621410936],[113.68966732602023,-7.7266355643406159]]],[[[113.68955839536369,-7.7266001066019481],[113.68955104938129,-7.726600152881085],[113.68955841410624,-7.7266030666557217],[113.68955839536369,-7.7266001066019481]]],[[[113.6896580386792,-7.7265994788440633],[113.68965798146502,-7.7265904432023342],[113.68964892298234,-7.726590500272124],[113.68964898019634,-7.7265995359139215],[113.6896580386792,-7.7265994788440633]]],[[[113.68955833815161,-7.7265910709594765],[113.68955828093962,-7.7265820353170191],[113.68954922245636,-7.726582092384632],[113.68954927966819,-7.7265911280271578],[113.68955833815161,-7.7265910709594765]]],[[[113.68954010676147,-7.7265731138094225],[113.68953104827828,-7.726573170876585],[113.68953116270106,-7.7265912421619447],[113.68954022118466,-7.7265911850946472],[113.68954010676147,-7.7265731138094225]]],[[[113.68962169032051,-7.7265816358383557],[113.68962163310722,-7.7265726001963326],[113.68961257462463,-7.7265726572652191],[113.68961263183772,-7.7265816929073123],[113.68962169032051,-7.7265816358383557]]],[[[113.68954010676147,-7.7265731138094225],[113.68954916524463,-7.7265730567420672],[113.68954910803296,-7.7265640210995175],[113.68954004955,-7.7265640781668026],[113.68954010676147,-7.7265731138094225]]],[[[113.68955839536369,-7.7266001066019481],[113.68957651233077,-7.7265999924658768],[113.68957657785984,-7.7266103415495442],[113.68961723786892,-7.726626843901431],[113.6896310348716,-7.726626756978809],[113.68963092044403,-7.7266086856949849],[113.68961280347739,-7.7266087998334934],[113.68961268905088,-7.7265907285493647],[113.68959457208474,-7.7265908426868375],[113.68959440044664,-7.7265637357602062],[113.68958534196403,-7.7265637928284505],[113.68958539917647,-7.7265728284707329],[113.68957634069362,-7.7265728855388547],[113.68957639790592,-7.7265819211812161],[113.68956733942279,-7.7265819782492144],[113.689567396635,-7.7265910138916043],[113.68955833815161,-7.7265910709594765],[113.68955839536369,-7.7266001066019481]]],[[[113.68953076222253,-7.7265279926631107],[113.68953070501158,-7.726518957020402],[113.68952164652949,-7.7265190140869668],[113.68952170374023,-7.7265280497297422],[113.68953076222253,-7.7265279926631107]]],[[[113.68963034831036,-7.7265183292755255],[113.68963029109737,-7.7265092936335567],[113.6896212326162,-7.7265093507021634],[113.68962128982901,-7.7265183863442006],[113.68963034831036,-7.7265183292755255]]],[[[113.68944889262497,-7.726474292395956],[113.68944883541617,-7.7264652567526166],[113.68943977693459,-7.7264653138170516],[113.6894398341432,-7.7264743494604602],[113.68944889262497,-7.726474292395956]]],[[[113.6966823481655,-7.7229046420683733],[113.69668229559964,-7.7228963581686152],[113.69667324265431,-7.7228972673142042],[113.6966732898139,-7.7229046992599804],[113.6966823481655,-7.7229046420683733]]]]},"properties":{"FID":0,"Shape_Leng":18102566.929299999,"Shape_Area":236516885.403}}]
}