{
  "type" : "FeatureCollection",
  "features" : [{"type":"Feature","id":0,"geometry":{"type":"MultiPolygon","coordinates":[[[[113.78438628713089,-7.7340426320476254],[113.78438616856005,-7.7340245622080248],[113.78437711063945,-7.7340246213427326],[113.78437722920991,-7.7340426911824736],[113.78438628713089,-7.7340426320476254]]],[[[113.78429458154318,-7.7338715598973069],[113.7842943444149,-7.7338354202149704],[113.78428528649764,-7.7338354793462933],[113.78428552362516,-7.7338716190289105],[113.78429458154318,-7.7338715598973069]]],[[[113.78420335028092,-7.7337727670704233],[113.78420340956046,-7.7337818019917419],[113.78421246747719,-7.7337817428625657],[113.78421252675699,-7.7337907777838115],[113.78423970050734,-7.7337906003949177],[113.78423975978781,-7.7337996353159495],[113.78424881770465,-7.7337995761858638],[113.78424883909295,-7.7338028359580822],[113.78424887698537,-7.7338086111068378],[113.78425793490231,-7.7338085519764928],[113.78425799418329,-7.7338175868973584],[113.78427611001739,-7.7338174686359515],[113.78427605073603,-7.7338084337152253],[113.78426699281923,-7.7338084928459541],[113.78426695492655,-7.7338027176972872],[113.7842668742571,-7.7337904230042991],[113.78425781634057,-7.7337904821346957],[113.78425775705981,-7.7337814472137998],[113.78423964122697,-7.7337815654738824],[113.78423958194666,-7.7337725305528418],[113.78423052403035,-7.7337725896825251],[113.78423046475029,-7.7337635547614116],[113.78423952266643,-7.7337634956317993],[113.78423940410616,-7.7337454257896967],[113.78422128827459,-7.7337455440484515],[113.78422122899495,-7.7337365091272554],[113.78421217107925,-7.7337365682562744],[113.78421223035869,-7.7337456031775424],[113.78420317244273,-7.7337456623064407],[113.78420323172206,-7.7337546972277726],[113.78417605797314,-7.733754874613525],[113.78417611725196,-7.7337639095350639],[113.78417587202293,-7.7337639111358722],[113.78418526482655,-7.7337775154797228],[113.78418517516852,-7.7337638504066009],[113.78419423308502,-7.7337637912779469],[113.78419429236429,-7.7337728261993393],[113.78420335028092,-7.7337727670704233],[113.78420329100145,-7.7337637321491011],[113.78422140683409,-7.7337636138908321],[113.78422146611395,-7.7337726488120158],[113.78420335028092,-7.7337727670704233]]],[[[113.78412117697758,-7.7336739150820488],[113.78411376974312,-7.7336739634335068],[113.78415782919478,-7.7337377782701786],[113.78415770502714,-7.7337188531829835],[113.78414864711132,-7.733718912310521],[113.78414858783344,-7.733709877388752],[113.78415764574906,-7.7337098182612847],[113.78415746791525,-7.7336827134961617],[113.78412123625461,-7.7336829500040452],[113.78412117697758,-7.7336739150820488]]],[[[113.78411205978568,-7.7336649392864016],[113.78410755951678,-7.7336649686622385],[113.78411210315481,-7.7336715495794168],[113.78411205978568,-7.7336649392864016]]],[[[113.78413929280767,-7.7336737968286311],[113.78413923353031,-7.7336647619067715],[113.78413017561553,-7.7336648210335053],[113.78413023489267,-7.733673855955435],[113.78413929280767,-7.7336737968286311]]],[[[113.78411205978568,-7.7336649392864016],[113.78412111770062,-7.7336648801600507],[113.78412105842374,-7.7336558452380464],[113.784112000509,-7.7336559043643271],[113.78411205978568,-7.7336649392864016]]],[[[113.78401147433186,-7.7335210308976174],[113.78401150592406,-7.7335258464239987],[113.78401440615771,-7.7335300470706816],[113.78402059151821,-7.7335300066973121],[113.78402053224451,-7.7335209717744933],[113.78401147433186,-7.7335210308976174]]],[[[113.78399306214179,-7.7334759745279937],[113.78399294359647,-7.7334579046818446],[113.78398388568492,-7.7334579638039029],[113.78398394495736,-7.7334669987270512],[113.78397488704556,-7.733467057848987],[113.78397492513234,-7.7334728634461714],[113.78397714483296,-7.7334760784222629],[113.78399306214179,-7.7334759745279937]]],[[[113.78401147433186,-7.7335210308976174],[113.78401135578507,-7.7335029610517916],[113.78402041369733,-7.7335029019288051],[113.78402011733063,-7.7334577273145149],[113.78401105941931,-7.7334577864371514],[113.78401111869232,-7.7334668213600875],[113.78400206078074,-7.7334668804826014],[113.78400236072514,-7.7335126006801431],[113.78400819593618,-7.7335210522964282],[113.78401147433186,-7.7335210308976174]]],[[[113.78396559204596,-7.7334309772775658],[113.7839655327742,-7.7334219423542621],[113.78395647486322,-7.7334220014754651],[113.78395653413479,-7.733431036398839],[113.78396559204596,-7.7334309772775658]]],[[[113.78399270650671,-7.7334217649894965],[113.78399264723443,-7.7334127300663997],[113.78397453141322,-7.7334128483096265],[113.7839745906851,-7.7334218832328654],[113.78399270650671,-7.7334217649894965]]],[[[113.78398335223628,-7.7333766494953986],[113.78395617850646,-7.733376826858537],[113.78395629704895,-7.7333948967053399],[113.78396535495935,-7.7333948375843438],[113.78396541423089,-7.7334038725076422],[113.78398353005184,-7.7334037542649368],[113.78398347077992,-7.7333947193417778],[113.78400158660023,-7.7333946010984462],[113.78400152732797,-7.7333855661753894],[113.78398341150806,-7.7333856844185807],[113.78398335223628,-7.7333766494953986]]],[[[113.78396517714515,-7.7333677328143544],[113.78396511787389,-7.7333586978910205],[113.78395605996424,-7.7333587570117377],[113.78395611923531,-7.73336779193514],[113.78396517714515,-7.7333677328143544]]],[[[113.78395594142232,-7.7333406871649188],[113.78395588215147,-7.7333316522415032],[113.78394682424236,-7.7333317113618163],[113.78394688351301,-7.733340746285303],[113.78395594142232,-7.7333406871649188]]],[[[113.78391047406556,-7.7333138779936128],[113.78391065187503,-7.733340982764922],[113.78393782560364,-7.7333408054054944],[113.78393776633317,-7.7333317704819384],[113.78391965051456,-7.7333318887216072],[113.7839195319746,-7.7333138188742048],[113.78391047406556,-7.7333138779936128]]],[[[113.7839195319746,-7.7333138188742048],[113.78392858988354,-7.7333137597546067],[113.78392853061348,-7.7333047248309672],[113.78391947270472,-7.7333047839504978],[113.7839195319746,-7.7333138188742048]]],[[[113.78391047406556,-7.7333138779936128],[113.78391041479588,-7.7333048430698339],[113.78390135688699,-7.7333049021889808],[113.78390129761758,-7.7332958672651264],[113.78389223970881,-7.7332959263840131],[113.78389241751668,-7.7333230311557477],[113.78390147542603,-7.733322972036655],[113.78390141615648,-7.7333139371128281],[113.78391047406556,-7.7333138779936128]]],[[[113.78387400535355,-7.7332779747730518],[113.78386494744493,-7.7332780338912208],[113.783865065982,-7.733296103739514],[113.78388318179994,-7.7332959855027052],[113.78388312253098,-7.7332869505787096],[113.78387406462225,-7.7332870096971398],[113.78387400535355,-7.7332779747730518]]],[[[113.78392841207358,-7.7332866549836794],[113.78392835280373,-7.7332776200600115],[113.78391929489555,-7.7332776791793316],[113.78391935416521,-7.7332867141030679],[113.78392841207358,-7.7332866549836794]]],[[[113.78410939240527,-7.7332583677888529],[113.7841003344989,-7.7332584269118669],[113.78410039377226,-7.733267461834199],[113.78410945167882,-7.733267402711113],[113.78410939240527,-7.7332583677888529]]],[[[113.78389194336377,-7.7332507517643396],[113.78389206190155,-7.7332688216122207],[113.78390111980977,-7.7332687624935481],[113.78390100127157,-7.7332506926458047],[113.78389194336377,-7.7332507517643396]]],[[[113.78410939240527,-7.7332583677888529],[113.78411845031157,-7.7332583086656452],[113.78411839103789,-7.7332492737434499],[113.78410933313179,-7.7332493328665839],[113.78410939240527,-7.7332583677888529]]],[[[113.78385559319577,-7.7332329183881185],[113.78385565246373,-7.7332419533123327],[113.78386471037163,-7.7332418941946353],[113.78386465110349,-7.7332328592704913],[113.78385559319577,-7.7332329183881185]]],[[[113.78389194336377,-7.7332507517643396],[113.78389182482624,-7.7332326819164567],[113.78388276691872,-7.7332327410346595],[113.78388282618725,-7.7332417759586658],[113.78387376827949,-7.733241835076746],[113.78387388681638,-7.7332599049249167],[113.78388294472454,-7.7332598458066961],[113.78388288545585,-7.7332508108826801],[113.78389194336377,-7.7332507517643396]]],[[[113.78385559319577,-7.7332329183881185],[113.78385553392789,-7.7332238834638671],[113.7838464760203,-7.7332239425812324],[113.78384653528799,-7.7332329775055539],[113.78385559319577,-7.7332329183881185]]],[[[113.78480661382905,-7.7332176750733099],[113.78480655454105,-7.7332086401564091],[113.78478843874113,-7.7332087584310809],[113.78478849802875,-7.7332177933481203],[113.78480661382905,-7.7332176750733099]]],[[[113.78388252984531,-7.7331966013385136],[113.78388247057714,-7.7331875664144887],[113.78387341267052,-7.7331876255321488],[113.78387347193851,-7.7331966604562474],[113.78388252984531,-7.7331966013385136]]],[[[113.78391876147185,-7.7331963648656696],[113.78391870220291,-7.7331873299419227],[113.78390964429657,-7.733187389060352],[113.78390970356531,-7.7331964239841682],[113.78391876147185,-7.7331963648656696]]],[[[113.78417232355129,-7.7331856745480634],[113.78417226427703,-7.7331766396262367],[113.78416320637288,-7.7331766987499657],[113.78416326564694,-7.7331857336718617],[113.78417232355129,-7.7331856745480634]]],[[[113.78481537528884,-7.73317244135142],[113.7847882015914,-7.7331726187628735],[113.78478826087873,-7.7331816536799476],[113.78479731877815,-7.7331815945429181],[113.78479737806575,-7.7331906294598847],[113.78481549386473,-7.7331905111851142],[113.78481537528884,-7.73317244135142]]],[[[113.78483355037507,-7.7331813579928861],[113.78483349108679,-7.7331723230761602],[113.78482443318786,-7.733172382213886],[113.78482449247595,-7.733181417130683],[113.78483355037507,-7.7331813579928861]]],[[[113.78380089014864,-7.733179063541848],[113.78380100868145,-7.7331971333911964],[113.78381006658883,-7.733197074275],[113.78381012585554,-7.7332061091995978],[113.78383729957783,-7.7332059318496427],[113.78383724031053,-7.7331968969252554],[113.78384629821765,-7.7331968378082907],[113.78384635748513,-7.7332058727326087],[113.78385541539234,-7.733205813615383],[113.78385547466007,-7.7332148485396264],[113.78386453256741,-7.7332147894221395],[113.78386435476382,-7.7331876846496206],[113.78384623895025,-7.7331878028839851],[113.78384606114847,-7.7331606981109751],[113.78385511905471,-7.7331606389940983],[113.7838551783221,-7.7331696739183649],[113.78386423622847,-7.7331696148012243],[113.78386411769338,-7.7331515449528299],[113.78387317559931,-7.7331514858356405],[113.78387305706414,-7.7331334159873677],[113.7838821149696,-7.733133356870125],[113.78388205570192,-7.7331243219460513],[113.7838639398913,-7.7331244401802044],[113.78386405842596,-7.7331425100286264],[113.78383688470834,-7.7331426873788374],[113.78383679923834,-7.7331296579032847],[113.78381529500008,-7.7331353169999488],[113.78381439500014,-7.7331358129998771],[113.7837916304681,-7.733148362907758],[113.78379165444345,-7.7331520178834507],[113.7837849209192,-7.7331520618290996],[113.78377357915772,-7.7331583144523472],[113.78377359789582,-7.7331611710390877],[113.78379171370941,-7.7331610528082111],[113.78379183224156,-7.7331791226577158],[113.78380089014864,-7.733179063541848],[113.78380083088234,-7.7331700286171685],[113.78380988878912,-7.7331699695011817],[113.78380994805562,-7.7331790044257911],[113.78380089014864,-7.733179063541848]],[[113.78380982952271,-7.7331609345765662],[113.78380077161611,-7.7331609936924846],[113.78380071234994,-7.7331519587677962],[113.78380977025635,-7.733151899651947],[113.78380982952271,-7.7331609345765662]]],[[[113.784805961665,-7.733118290987167],[113.7848059023778,-7.7331092560702022],[113.78479684448,-7.7331093152068613],[113.78479690376703,-7.7331183501238971],[113.784805961665,-7.733118290987167]]],[[[113.78486019047482,-7.7330998663296899],[113.7848420746804,-7.7330999846049799],[113.78484201539257,-7.7330909496883047],[113.78482389959822,-7.7330910679626914],[113.78482413674845,-7.7331272076299307],[113.78485131044216,-7.7331270302172275],[113.78485136973048,-7.7331360651338157],[113.78483325393435,-7.7331361834092842],[113.78483331322235,-7.7331452183260101],[113.784860486917,-7.7331450409123113],[113.78486030905147,-7.7331179361627518],[113.78486936694898,-7.7331178770246787],[113.78486930766043,-7.7331088421082006],[113.78486024976311,-7.7331089012462053],[113.78486019047482,-7.7330998663296899]]],[[[113.78486019047482,-7.7330998663296899],[113.78486924837195,-7.7330998071917554],[113.78486918908352,-7.7330907722752871],[113.78486013118659,-7.7330908314131532],[113.78486019047482,-7.7330998663296899]]],[[[113.78439776340218,-7.7330306027491158],[113.78439773882778,-7.7330268572068981],[113.78438868490849,-7.7330275229418453],[113.78438870550289,-7.733030661876521],[113.78439776340218,-7.7330306027491158]]],[[[113.78442493709962,-7.7330304253657562],[113.78442490057648,-7.7330248586941224],[113.78442481900002,-7.7330248659999326],[113.78441584666605,-7.733025525736462],[113.78441587920054,-7.7330304844937343],[113.78442493709962,-7.7330304253657562]]],[[[113.78504087406895,-7.7330264042133505],[113.78504081477746,-7.7330173692981958],[113.78502269898934,-7.7330174875798994],[113.78502275828045,-7.7330265224951944],[113.78504087406895,-7.7330264042133505]]],[[[113.78510427932649,-7.7330259902208569],[113.78510422003365,-7.7330169553061907],[113.78508610424652,-7.7330170735905783],[113.78508616353898,-7.7330261085053849],[113.78510427932649,-7.7330259902208569]]],[[[113.78541159538119,-7.7329245952309211],[113.78541153608259,-7.7329155603185651],[113.78540247819363,-7.7329156194666062],[113.78540253749203,-7.7329246543790306],[113.78541159538119,-7.7329245952309211]]],[[[113.78618139707044,-7.7329014971278838],[113.78618133775565,-7.7328924622214501],[113.78616322199053,-7.7328925805496569],[113.78616328130494,-7.7329016154562309],[113.78618139707044,-7.7329014971278838]]],[[[113.78618092255414,-7.7328292178764215],[113.78618098186843,-7.7328382527828685],[113.78619003974975,-7.7328381936188979],[113.78618998043527,-7.7328291587125211],[113.78618092255414,-7.7328292178764215]]],[[[113.78618998043527,-7.7328291587125211],[113.7861990383163,-7.732829099548427],[113.7861989790017,-7.732820064642115],[113.78618992112087,-7.732820123806138],[113.78618998043527,-7.7328291587125211]]],[[[113.7860722872872,-7.732838962735566],[113.78607222797523,-7.7328299278282797],[113.78609034373909,-7.7328298095048869],[113.78609022511458,-7.7328117396905798],[113.78607210935148,-7.7328118580136911],[113.78607216866331,-7.7328208929209881],[113.78606311078144,-7.7328209520823252],[113.78606322940495,-7.7328390218970444],[113.7860722872872,-7.732838962735566]]],[[[113.78618092255414,-7.7328292178764215],[113.78618080392579,-7.7328111480635142],[113.78617174604499,-7.7328112072270825],[113.78617186467295,-7.732829277040131],[113.78618092255414,-7.7328292178764215]]],[[[113.78621691681866,-7.7327928415949518],[113.78621685750396,-7.7327838066887624],[113.78620779962404,-7.7327838658528893],[113.78620785893854,-7.732792900759148],[113.78621691681866,-7.7327928415949518]]],[[[113.78619868242977,-7.7327748901104911],[113.78621679818934,-7.7327747717825686],[113.78621673887478,-7.732765736876372],[113.7861986231156,-7.7327658552041525],[113.78619868242977,-7.7327748901104911]]],[[[113.78614427583635,-7.7327662101828976],[113.78615333371638,-7.732766151020253],[113.78615327440326,-7.73275711611356],[113.7861442165234,-7.7327571752761344],[113.78614427583635,-7.7327662101828976]]],[[[113.7861986231156,-7.7327658552041525],[113.78619856380149,-7.7327568202978103],[113.78618044804242,-7.7327569386246857],[113.78618050735612,-7.7327659735311665],[113.7861714494763,-7.7327660326943874],[113.78617139016276,-7.7327569977878357],[113.78616233228307,-7.7327570569507937],[113.78616251022326,-7.7327841616706472],[113.78614439446245,-7.7327842799964079],[113.78614427583635,-7.7327662101828976],[113.78613521795623,-7.7327662693453494],[113.78613539589493,-7.7327933740658166],[113.78612633801414,-7.7327934332282879],[113.786126397327,-7.7328024681351906],[113.78613545520795,-7.7328024089726499],[113.78613551452108,-7.7328114438794415],[113.78612645663992,-7.7328115030420559],[113.7861265159529,-7.7328205379489301],[113.78614463171554,-7.7328204196233763],[113.78614451308886,-7.7328023498099165],[113.78617168673109,-7.7328021723205689],[113.78617162741729,-7.7327931374140171],[113.78618068529771,-7.7327930782505874],[113.78618074461171,-7.732802113157069],[113.78619886037271,-7.7328019948294955],[113.78619868242977,-7.7327748901104911],[113.78618962454989,-7.7327749492741624],[113.7861895652359,-7.7327659143677572],[113.7861986231156,-7.7327658552041525]]],[[[113.78599005462621,-7.7327310762866901],[113.78598099674565,-7.7327311354456034],[113.78598111536425,-7.7327492052616664],[113.7859992311261,-7.7327490869433673],[113.7859992904359,-7.7327581218512513],[113.7860083483169,-7.7327580626917465],[113.78600822969699,-7.7327399928761116],[113.78599011393568,-7.7327401111946541],[113.78599005462621,-7.7327310762866901]]],[[[113.78608945406218,-7.7326942858971677],[113.78608951337347,-7.7327033208043776],[113.78609857125261,-7.7327032616433744],[113.78609851194111,-7.7326942267362329],[113.78608945406218,-7.7326942858971677]]],[[[113.7859988159595,-7.7326858425880367],[113.78598975807995,-7.732685901746791],[113.78598987669824,-7.732703971562775],[113.78599893457817,-7.7327039124038786],[113.78599899388762,-7.7327129473117839],[113.78600805176767,-7.7327128881526273],[113.78600811107736,-7.7327219230604589],[113.78604434259759,-7.7327216864216339],[113.78604428328713,-7.7327126515140803],[113.78603522540735,-7.732712710674007],[113.78603516609714,-7.7327036757663805],[113.78602610821751,-7.7327037349260408],[113.78602604890756,-7.7326947000183415],[113.7859988752688,-7.732694877495967],[113.7859988159595,-7.7326858425880367]]],[[[113.78608945406218,-7.7326942858971677],[113.78608939475096,-7.7326852509899346],[113.7860984526297,-7.73268519182907],[113.78609833400708,-7.7326671220147842],[113.78608021825028,-7.732667240336041],[113.78608039618315,-7.7326943450579098],[113.78608945406218,-7.7326942858971677]]],[[[113.78617949903266,-7.7326123801203952],[113.78618855690917,-7.7326123209581707],[113.78618849759648,-7.7326032860516891],[113.78617038184379,-7.7326034043758023],[113.78617050046847,-7.7326214741890462],[113.78616144259166,-7.7326215333509536],[113.7861615019039,-7.7326305682576404],[113.7861524440268,-7.7326306274194279],[113.78615238471473,-7.7326215925126727],[113.78614332683776,-7.7326216516741972],[113.78614338614965,-7.7326306865810235],[113.7861343282724,-7.7326307457424273],[113.78613438758416,-7.7326397806493006],[113.78614344546159,-7.7326397214878266],[113.78614350477361,-7.7326487563946635],[113.78613444689599,-7.732648815556205],[113.78613450620789,-7.7326578504630881],[113.78612544832998,-7.7326579096245087],[113.78612550764176,-7.7326669445314584],[113.78610739188537,-7.7326670628538663],[113.78610745119684,-7.7326760977609492],[113.78611650907527,-7.7326760385997728],[113.78611674632261,-7.7327121782277866],[113.78612580420172,-7.7327121190661359],[113.7861259228262,-7.7327301888799784],[113.78613498070564,-7.7327301297179964],[113.78613504001818,-7.7327391646248422],[113.78614409789772,-7.7327391054626],[113.78614403858499,-7.7327300705558244],[113.78618932798069,-7.7327297747420811],[113.78618920935352,-7.73271170492922],[113.78618015147489,-7.7327117640922127],[113.78618009216162,-7.7327027291857053],[113.78618915004004,-7.7327026700227828],[113.78618909072664,-7.7326936351163411],[113.78619814860478,-7.7326935759532978],[113.78619802997781,-7.7326755061405406],[113.78620708785552,-7.7326754469774448],[113.78620702854194,-7.7326664120711301],[113.78621608641937,-7.7326663529079118],[113.78621602710567,-7.732657318001662],[113.78620696922843,-7.7326573771648111],[113.78620685060163,-7.7326393073521436],[113.78621590847848,-7.7326392481891366],[113.78621578985158,-7.7326211783766228],[113.78619767409855,-7.7326212967021695],[113.78619773341158,-7.7326303316085765],[113.78618867553477,-7.7326303907711278],[113.78618861622195,-7.7326213558646524],[113.78617955834522,-7.7326214150269452],[113.78617949903266,-7.7326123801203952]],[[113.78615268127578,-7.7326667670464087],[113.78617079703146,-7.7326666487220823],[113.78617085634426,-7.7326756836286767],[113.78615274058821,-7.7326758019531434],[113.78615268127578,-7.7326667670464087]]],[[[113.78635130209392,-7.7325660814792094],[113.78635124277812,-7.7325570465739615],[113.78633312702992,-7.7325571649042786],[113.78633318634533,-7.7325661998096642],[113.78635130209392,-7.7325660814792094]]],[[[113.78703851373375,-7.7323808863541466],[113.78703845440478,-7.7323718514541149],[113.78702939653996,-7.7323719106325415],[113.78702945586876,-7.7323809455326442],[113.78703851373375,-7.7323808863541466]]],[[[113.78700228227339,-7.7323811230669861],[113.78702039800372,-7.7323810047109491],[113.78702028592535,-7.73236393676346],[113.78701124306696,-7.7323662812092566],[113.78701128081018,-7.7323720289888209],[113.78698849896763,-7.7323721778293244],[113.78696602877257,-7.7323780034359073],[113.7869660508119,-7.7323813597767543],[113.78697510867737,-7.7323813005996005],[113.78697522733285,-7.7323993704005813],[113.78698428519864,-7.7323993112230953],[113.78698422587067,-7.7323902763226675],[113.78700234160168,-7.7323901579672611],[113.78700228227339,-7.7323811230669861]]],[[[113.787888350378,-7.7321313805950043],[113.78788829103289,-7.7321223457014501],[113.78789734888572,-7.7321222865066979],[113.78789728954047,-7.7321132516132085],[113.78787011598239,-7.7321134291966791],[113.78787023467179,-7.7321314989840726],[113.787888350378,-7.7321313805950043]]],[[[113.78788805365313,-7.7320862061271916],[113.78786993794884,-7.7320863245155609],[113.78786999729328,-7.7320953594092696],[113.78786093944082,-7.7320954186032376],[113.78786099878515,-7.7321044534970147],[113.78787911449037,-7.7321043351087484],[113.78787905514565,-7.7320953002151107],[113.78788811299796,-7.7320952410207635],[113.78788805365313,-7.7320862061271916]]],[[[113.78788805365313,-7.7320862061271916],[113.78790616935716,-7.7320860877380566],[113.78790622870237,-7.7320951226314882],[113.78794246011033,-7.7320948858506346],[113.78794234141843,-7.7320768160643292],[113.78793328356693,-7.7320768752596898],[113.78793334291265,-7.7320859101529154],[113.78791522720907,-7.7320860285432014],[113.78791510851848,-7.732067958756466],[113.78795133992382,-7.732067721975687],[113.78795122123198,-7.7320496521894784],[113.78792404767921,-7.7320498297749305],[113.78792410702452,-7.7320588646682538],[113.78790599132194,-7.7320589830577369],[113.78790605066695,-7.7320680179511818],[113.78789699281536,-7.7320680771457049],[113.78789705216025,-7.7320771120392147],[113.78788799430838,-7.732077171233616],[113.78788805365313,-7.7320862061271916]]],[[[113.78796021973675,-7.7320405581009286],[113.78796016039081,-7.7320315232078931],[113.78796921824112,-7.732031464012306],[113.78796916036322,-7.7320226526321303],[113.78795992500011,-7.7320246729999509],[113.78795106328357,-7.732025605872523],[113.78795116188614,-7.7320406172963931],[113.78796021973675,-7.7320405581009286]]],[[[113.78817731137728,-7.7319939628954479],[113.78816825352938,-7.7319940220951633],[113.78816837222961,-7.7320120918780457],[113.7881864879261,-7.7320119734781434],[113.78818642857557,-7.7320029385868603],[113.78817737072755,-7.7320029977868376],[113.78817731137728,-7.7319939628954479]]],[[[113.78812278624186,-7.731967213415456],[113.78812272689302,-7.7319581785236622],[113.78811366904546,-7.7319582377219467],[113.78811372839408,-7.7319672726138116],[113.78812278624186,-7.731967213415456]]],[[[113.78827635417969,-7.7319029627796461],[113.78829446986987,-7.7319028443768225],[113.78829441051789,-7.7318938094863103],[113.78828535267304,-7.7318938686877514],[113.78828529332132,-7.7318848337971486],[113.78831246685512,-7.7318846561924683],[113.78831242161776,-7.7318777699370882],[113.7882960500001,-7.7318821779999718],[113.78828514100007,-7.7318842229999012],[113.78827286900014,-7.7318869499999234],[113.78826264200006,-7.7318889959999471],[113.78825105200019,-7.7318917229998787],[113.78824910912293,-7.7318922528873051],[113.78824912129285,-7.7318941054915848],[113.78824214931393,-7.7318941510592261],[113.78824006708861,-7.7318947189514642],[113.78824012279846,-7.7319031995829945],[113.78824918064387,-7.7319031403824452],[113.78824923999495,-7.7319121752733038],[113.78824018214935,-7.7319122344739206],[113.78824012279846,-7.7319031995829945],[113.78822200710741,-7.7319033179835177],[113.78822206645792,-7.731912352874585],[113.78821300861209,-7.731912412074629],[113.78821312731294,-7.7319304818568906],[113.78820519886496,-7.7319305336754072],[113.78816783808087,-7.7319307778549353],[113.78816789743043,-7.7319398127464085],[113.78813166604269,-7.7319400495416728],[113.78813184408953,-7.7319671542169104],[113.7881499597847,-7.7319670358192418],[113.78815001913418,-7.7319760707108367],[113.78815907698184,-7.7319760115116445],[113.78815913633159,-7.7319850464031665],[113.78817725202708,-7.7319849280040707],[113.78817719267695,-7.7319758931126872],[113.7881862505244,-7.7319758339129194],[113.78818613182399,-7.7319577641302981],[113.788195189671,-7.7319577049304797],[113.78819530837181,-7.7319757747129589],[113.78820436621911,-7.7319757155128102],[113.78820418816743,-7.7319486108392645],[113.78820531756575,-7.7319486034577718],[113.78822230386069,-7.7319484924388107],[113.78822236321156,-7.7319575273298708],[113.78823142105826,-7.731957468129286],[113.7882313617072,-7.7319484332382924],[113.78824947740003,-7.7319483148366865],[113.78824941804865,-7.7319392799458466],[113.78825847589476,-7.7319392207448256],[113.78825835719184,-7.7319211509632737],[113.7882674150375,-7.7319210917622021],[113.78826735568596,-7.7319120568714883],[113.78827641353134,-7.731911997670295],[113.78827635417969,-7.7319029627796461],[113.78825823848921,-7.731903081181704],[113.78825817913798,-7.7318940462909138],[113.78827629482809,-7.7318939278889962],[113.78827635417969,-7.7319029627796461]],[[113.7881680161298,-7.7319578825293593],[113.78817707397693,-7.7319578233299247],[113.78817713332691,-7.7319668582213001],[113.78816807547959,-7.7319669174208041],[113.7881680161298,-7.7319578825293593]]],[[[113.78842098292053,-7.7318568410878834],[113.78842092356622,-7.7318478061983322],[113.78841186572332,-7.7318478654021021],[113.78841192507744,-7.7318569002917252],[113.78842098292053,-7.7318568410878834]]],[[[113.78941586085988,-7.7316244554472409],[113.78941580148621,-7.7316154205652987],[113.78940674365599,-7.7316154797884105],[113.78940680302946,-7.731624514670421],[113.78941586085988,-7.7316244554472409]]],[[[113.78935221855653,-7.731588730475675],[113.78935209981253,-7.73157066071074],[113.78934304198275,-7.7315707199321571],[113.78934316072638,-7.7315887896972342],[113.78935221855653,-7.731588730475675]]],[[[113.78946943597388,-7.7315066466438198],[113.78947849380133,-7.7315065874202098],[113.78947843442724,-7.7314975525386842],[113.78944220311786,-7.7314977894317023],[113.78944226249118,-7.7315068243135059],[113.78945132031882,-7.7315067650904687],[113.78945137969239,-7.7315157999721977],[113.78946949534784,-7.7315156815254094],[113.78946943597388,-7.7315066466438198]]],[[[113.78951425011353,-7.7314340714737746],[113.78951419073924,-7.7314250365924959],[113.78950513291382,-7.7314250958162445],[113.78950519228789,-7.7314341306975933],[113.78951425011353,-7.7314340714737746]]],[[[113.78945072658698,-7.7314164162729213],[113.78944166876126,-7.7314164754952586],[113.78944160938865,-7.7314074406134292],[113.78943255156304,-7.7314074998355053],[113.78943267030793,-7.7314255695993337],[113.78942361248187,-7.7314256288213556],[113.78942367185422,-7.7314346637033342],[113.78943272968047,-7.7314346044812412],[113.78943278905309,-7.7314436393631443],[113.78944184687948,-7.7314435801407901],[113.78944172813392,-7.7314255103771172],[113.78945078595984,-7.7314254511547107],[113.78945072658698,-7.7314164162729213]]],[[[113.78945072658698,-7.7314164162729213],[113.78945978441261,-7.731416357050394],[113.78945972503963,-7.7314073221687032],[113.78945066721417,-7.7314073813911639],[113.78945072658698,-7.7314164162729213]]],[[[113.78945035525592,-7.7313599098721397],[113.78944078300026,-7.7313646959998934],[113.78943532900017,-7.7313674229999378],[113.78943229749584,-7.731368837524129],[113.78943231407412,-7.7313713603078131],[113.78944137189897,-7.7313713010860186],[113.78944149064367,-7.7313893708497226],[113.78946866411889,-7.7313891931827676],[113.78946854537304,-7.731371123419482],[113.78945948754841,-7.7313711826418539],[113.78945942817579,-7.7313621477601071],[113.7894503703513,-7.7313622069822161],[113.78945035525592,-7.7313599098721397]]],[[[113.78948654227574,-7.7313529352111097],[113.78948648504917,-7.7313442269631114],[113.78948646400022,-7.7313442419999605],[113.78947745879883,-7.7313490907983011],[113.78947748445164,-7.7313529944337249],[113.78948654227574,-7.7313529352111097]]],[[[113.78956764706732,-7.7312891580326015],[113.78956759796881,-7.7312816868008349],[113.78956350600002,-7.731284243999875],[113.78955686018855,-7.7312892285617272],[113.78956764706732,-7.7312891580326015]]],[[[113.78959470178353,-7.7312709105984689],[113.78959468483959,-7.7312683322882902],[113.78959418700002,-7.731268561999908],[113.78959146000024,-7.7312692439999733],[113.78958775091485,-7.7312709560465249],[113.78959470178353,-7.7312709105984689]]],[[[113.78964898933519,-7.7312615203684381],[113.7896489299594,-7.7312524854881133],[113.78965798778,-7.7312524262626274],[113.78965792840408,-7.7312433913824012],[113.78964590911103,-7.731243469971643],[113.7896419130001,-7.7312453809999555],[113.78963983019318,-7.7312461620764621],[113.78963987213868,-7.7312525447134064],[113.78962250758659,-7.7312526582523988],[113.7896217583114,-7.7312529392391749],[113.78962181587232,-7.731261698043955],[113.78964898933519,-7.7312615203684381]]],[[[113.78975726753494,-7.7311975654927512],[113.78975720815733,-7.7311885306132551],[113.78974815033884,-7.7311885898403565],[113.78974820971627,-7.7311976247199254],[113.78975726753494,-7.7311975654927512]]],[[[113.79035448951002,-7.7311033073264666],[113.79035443012043,-7.731094272451549],[113.79034537230861,-7.7310943316906044],[113.790345431698,-7.7311033665655939],[113.79035448951002,-7.7311033073264666]]],[[[113.7903897111313,-7.7309494774986351],[113.79038959235311,-7.7309314077491909],[113.79037147673682,-7.7309315262261231],[113.79037159551424,-7.7309495959758481],[113.7903897111313,-7.7309494774986351]]],[[[113.79019020178889,-7.7309146412007443],[113.79018114397961,-7.7309147004349485],[113.79018126274867,-7.7309327701876143],[113.79019032055834,-7.7309327109532697],[113.79019020178889,-7.7309146412007443]]],[[[113.79019020178889,-7.7309146412007443],[113.79019925959813,-7.7309145819663492],[113.79019920021331,-7.7309055470901509],[113.79019729145986,-7.7309055595726237],[113.79019075800009,-7.730907892999932],[113.79019015864614,-7.7309080773905414],[113.79019020178889,-7.7309146412007443]]],[[[113.7903441845359,-7.7309136341899398],[113.79034406576019,-7.7308955644397805],[113.79032595014473,-7.7308956829142339],[113.79032606891968,-7.7309137526646738],[113.7903441845359,-7.7309136341899398]]],[[[113.79023536370987,-7.7308950044056202],[113.79022757500003,-7.7308963029999509],[113.79022552900005,-7.7308963029999438],[113.79022540593722,-7.7308963404501085],[113.79023537206319,-7.7308962752750059],[113.79023536370987,-7.7308950044056202]]],[[[113.79042546724732,-7.7308769615463291],[113.790425407858,-7.7308679266718645],[113.79040729224499,-7.7308680451493501],[113.79040735163393,-7.7308770800239532],[113.79042546724732,-7.7308769615463291]]],[[[113.79040723285611,-7.7308590102747399],[113.79040717346733,-7.730849975400127],[113.79039811566108,-7.7308500346384426],[113.79039817504969,-7.7308590695131256],[113.79040723285611,-7.7308590102747399]]],[[[113.79037094224196,-7.7308502123522347],[113.79037088285401,-7.7308411774773376],[113.79038899846644,-7.7308410590018095],[113.79038887968997,-7.7308229892522808],[113.7903979374957,-7.7308229300143649],[113.79039787810737,-7.7308138951396668],[113.79038643097196,-7.7308139700036396],[113.79038711500004,-7.730815850999873],[113.79037984434856,-7.7308264660665689],[113.79037988127216,-7.7308320833648194],[113.79037597937487,-7.7308321088830585],[113.79036354650997,-7.7308502607199241],[113.79037094224196,-7.7308502123522347]]],[[[113.79041575616411,-7.7307776371651205],[113.79041581555252,-7.7307866720396827],[113.79042487335727,-7.7307866128014746],[113.79042481396866,-7.7307775779269843],[113.79041575616411,-7.7307776371651205]]],[[[113.79041575616411,-7.7307776371651205],[113.79041569677577,-7.7307686022905386],[113.7904247545801,-7.7307685430524717],[113.79042463580323,-7.730750473303436],[113.79044275141098,-7.7307503548270047],[113.79044269202227,-7.7307413199526369],[113.79043363421863,-7.7307413791908797],[113.79043357582482,-7.730732495633017],[113.79042120400015,-7.7307374439999483],[113.79039734200013,-7.7307469889999529],[113.79038438700003,-7.7307510799999433],[113.79038029700007,-7.7307510799999477],[113.79037416000018,-7.7307524439999558],[113.79036802400003,-7.7307633529998645],[113.79037987518045,-7.7307959423517332],[113.79038870152579,-7.7307958846279545],[113.79038858275004,-7.7307778148783832],[113.79039764055479,-7.7307777556408208],[113.79039769994283,-7.7307867905155225],[113.79040675774772,-7.7307867312776981],[113.79040669835949,-7.7307776964030666],[113.79041575616411,-7.7307776371651205]]],[[[113.79053267615231,-7.7306503788225935],[113.79052361835132,-7.7306504380620531],[113.79052357382486,-7.7306436643075784],[113.79046893000022,-7.7306706279999196],[113.79046483900026,-7.7306842639999571],[113.79046382420677,-7.7306869701710594],[113.79046950909851,-7.7306869329916124],[113.79046962787631,-7.7307050027400086],[113.79049680128384,-7.73070482502325],[113.79049674189433,-7.730695790149265],[113.7904876840921,-7.7306958493883045],[113.79048762470285,-7.7306868145142476],[113.79051479810879,-7.7306866367967579],[113.79051461993977,-7.730659532175185],[113.79053273554223,-7.7306594136963218],[113.79053267615231,-7.7306503788225935]]],[[[113.79056884796499,-7.7306411069893981],[113.79056890735559,-7.7306501418628493],[113.79057796515623,-7.7306500826224314],[113.79057790576543,-7.7306410477490521],[113.79056884796499,-7.7306411069893981]]],[[[113.79056884796499,-7.7306411069893981],[113.79056871834267,-7.7306213879888013],[113.79054163163269,-7.7306347537804401],[113.79054167456319,-7.7306412847092831],[113.79053261676246,-7.7306413439488653],[113.79053267615231,-7.7306503788225935],[113.79055984955487,-7.7306502011030735],[113.79055979016445,-7.7306411662295504],[113.79056884796499,-7.7306411069893981]]],[[[113.79060501977504,-7.7306318351536909],[113.79060490099263,-7.7306137654073268],[113.79059584319297,-7.7306138246480387],[113.790595961975,-7.7306318943945413],[113.79060501977504,-7.7306318351536909]]],[[[113.79138048537544,-7.7300936825540525],[113.79138042597191,-7.7300846476866454],[113.79136231040711,-7.7300847661927179],[113.79136236981027,-7.7300938010602636],[113.79138048537544,-7.7300936825540525]]],[[[113.79146164898465,-7.7300389400658815],[113.7914615895798,-7.7300299051990979],[113.79145253179925,-7.730029964453534],[113.79145259120389,-7.7300389993203877],[113.79146164898465,-7.7300389400658815]]],[[[113.79166985910391,-7.730019507428973],[113.79166979969477,-7.7300104725637748],[113.79166074191626,-7.7300105318224794],[113.79166080132518,-7.730019566687746],[113.79166985910391,-7.730019507428973]]],[[[113.79142494263058,-7.7299668981460048],[113.79141588485105,-7.7299669573991858],[113.79141594425444,-7.7299759922663664],[113.79140688647468,-7.7299760515194231],[113.79140694587795,-7.7299850863866695],[113.79142506143781,-7.7299849678802239],[113.79142494263058,-7.7299668981460048]]],[[[113.79142494263058,-7.7299668981460048],[113.79143400041001,-7.7299668388926355],[113.7914339410063,-7.7299578040255899],[113.79143037967573,-7.7299578273227789],[113.79142490560713,-7.7299612671345974],[113.79142494263058,-7.7299668981460048]]],[[[113.79224807127973,-7.7297898429496543],[113.79222995574096,-7.7297899614880379],[113.79223001516027,-7.7297989963489933],[113.79224813069942,-7.7297988778104676],[113.79224807127973,-7.7297898429496543]]],[[[113.79224807127973,-7.7297898429496543],[113.79225712904901,-7.7297897836801699],[113.79225706962919,-7.7297807488194055],[113.79226612739819,-7.7297806895498029],[113.79226606797825,-7.7297716546891371],[113.79224795244053,-7.7297717732280091],[113.79224807127973,-7.7297898429496543]]],[[[113.79255585711667,-7.7297607231044658],[113.79255579769071,-7.7297516882460187],[113.79254673992456,-7.7297517475215436],[113.79254679935032,-7.7297607823800609],[113.79255585711667,-7.7297607231044658]]],[[[113.79257397264911,-7.729760604552701],[113.79257391322278,-7.7297515696943924],[113.79256485545679,-7.729751628970301],[113.79256491488292,-7.7297606638286798],[113.79257397264911,-7.729760604552701]]],[[[113.79260108652038,-7.7297513918655172],[113.79260102709353,-7.7297423570074146],[113.79258291156226,-7.7297424755600508],[113.79258297098872,-7.7297515104182928],[113.79260108652038,-7.7297513918655172]]],[[[113.79229306302315,-7.7297443722979473],[113.79229303757801,-7.7297405033587712],[113.79228399810518,-7.7297433444115518],[113.79228400525513,-7.7297444315678447],[113.79229306302315,-7.7297443722979473]]],[[[113.79232923467356,-7.7297351003562493],[113.79232017690599,-7.7297351596268431],[113.7923202363268,-7.7297441944871066],[113.79231117855899,-7.7297442537575787],[113.79231111923706,-7.7297352339029608],[113.79230636700004,-7.7297363139999975],[113.79230207705066,-7.7297376623058236],[113.79230218021162,-7.7297533478882734],[113.79229312244345,-7.7297534071584328],[113.79229324128427,-7.7297714768793906],[113.79231135682127,-7.7297713583386027],[113.79231129740045,-7.7297623234782646],[113.79232035516863,-7.7297622642076531],[113.79232029574767,-7.7297532293473816],[113.79232935351563,-7.7297531700766475],[113.79232923467356,-7.7297351003562493]]],[[[113.79234752847282,-7.7297620863946674],[113.79234746905128,-7.7297530515346065],[113.79236558458663,-7.7297529329917962],[113.79236546574302,-7.7297348632719611],[113.79237452351022,-7.7297348040004081],[113.79237446408834,-7.7297257691405283],[113.79235901914663,-7.7297258702077709],[113.79235818300002,-7.7297260869999498],[113.79233826042694,-7.7297301734127632],[113.79233847070482,-7.7297621456658545],[113.79234752847282,-7.7297620863946674]]],[[[113.79261920205171,-7.729751273311976],[113.79261908319734,-7.729733203596064],[113.79262814096255,-7.7297331443191455],[113.79262802210806,-7.7297150746033223],[113.79261896434325,-7.7297151338801013],[113.79261902377026,-7.729724168738076],[113.7926099660052,-7.7297242280147325],[113.79261014428607,-7.7297513325888429],[113.79261920205171,-7.729751273311976]]],[[[113.79254656164773,-7.7297246429459614],[113.79254638337153,-7.729697538370341],[113.79253879060668,-7.729697588058162],[113.79253733102871,-7.7296984220299141],[113.79253750388209,-7.7297247022210849],[113.79254656164773,-7.7297246429459614]]],[[[113.79268207155469,-7.7296695446511468],[113.7926730137913,-7.7296696039287234],[113.79267307321909,-7.7296786387862992],[113.79268213098268,-7.7296785795086516],[113.79268207155469,-7.7296695446511468]]],[[[113.79271830260764,-7.7296693075389191],[113.79271824317895,-7.7296602726816914],[113.792709185416,-7.7296603319599626],[113.7927092448445,-7.729669366817264],[113.79271830260764,-7.7296693075389191]]],[[[113.79268207155469,-7.7296695446511468],[113.79269112931803,-7.7296694853733774],[113.79269101046188,-7.7296514156584948],[113.7926728949359,-7.729651534213561],[113.79267295436355,-7.7296605690711431],[113.79268201212678,-7.7296605097936366],[113.79268207155469,-7.7296695446511468]]],[[[113.792690891606,-7.7296333459435926],[113.79269095103389,-7.7296423808010459],[113.79270000879661,-7.7296423215232943],[113.79269994936851,-7.729633286665913],[113.792690891606,-7.7296333459435926]]],[[[113.792690891606,-7.7296333459435926],[113.79269083217817,-7.7296243110861358],[113.7926817744158,-7.7296243703635552],[113.79268176109765,-7.7296223455884592],[113.79267274189642,-7.7296282673915417],[113.79267277608079,-7.7296334644983791],[113.792690891606,-7.7296333459435926]]],[[[113.7928448141277,-7.7296233033406958],[113.79284475469669,-7.7296142684844096],[113.79285381245758,-7.7296142092036106],[113.79285369359536,-7.7295961394912167],[113.79283557807427,-7.7295962580523421],[113.79283563750495,-7.7296052929086896],[113.7928265797441,-7.7296053521890355],[113.79282663917466,-7.729614387045431],[113.79281758141354,-7.7296144463256544],[113.79281764084401,-7.7296234811821503],[113.7928448141277,-7.7296233033406958]]],[[[113.79292597737954,-7.7295685606720701],[113.79292591794722,-7.7295595258164216],[113.79291686018801,-7.7295595850983334],[113.79291691962015,-7.7295686199540503],[113.79292597737954,-7.7295685606720701]]],[[[113.79288933032225,-7.7295055538071615],[113.79286660079001,-7.7295057025658016],[113.79282609801238,-7.7295321171386204],[113.79282610430212,-7.7295330733375689],[113.79282461689846,-7.7295330830720763],[113.79280805909767,-7.7295438815206836],[113.7928081076426,-7.7295512616097355],[113.79279662763392,-7.729551336741685],[113.79279316800012,-7.7295535929998742],[113.79279001917409,-7.7295554927084007],[113.79279005155206,-7.729560415024963],[113.79278177044911,-7.7295604692211279],[113.79278099682841,-7.7295609359518167],[113.79278111265037,-7.7295785440175653],[113.79279017041101,-7.729578484738389],[113.79279022984061,-7.7295875195950972],[113.79280834536205,-7.7295874010360279],[113.79280840479208,-7.7295964358925913],[113.79282652031361,-7.7295963173326152],[113.79282640145283,-7.7295782476197683],[113.79283545921311,-7.7295781883396328],[113.79283528092191,-7.7295510837705388],[113.79287151195997,-7.7295508466489249],[113.79287145252894,-7.7295418117928314],[113.79288051028811,-7.72954175251202],[113.79288080744492,-7.7295869267920914],[113.79287174968481,-7.7295869860732536],[113.79287180911619,-7.7295960209293257],[113.79288992463673,-7.7295959023666674],[113.79288980577326,-7.729577832654801],[113.79289886353301,-7.7295777733733235],[113.79289868523779,-7.7295506688057021],[113.79288962747859,-7.7295507280869682],[113.79288933032225,-7.7295055538071615]]],[[[113.79304331220257,-7.7295045460055336],[113.79304325276824,-7.7294955111507511],[113.79303419501133,-7.729495570434664],[113.79303425444544,-7.729504605289514],[113.79304331220257,-7.7295045460055336]]],[[[113.79323346564661,-7.7294942661443322],[113.79323340620833,-7.7294852312910161],[113.79322434845312,-7.729485290578884],[113.79322440789122,-7.7294943254322677],[113.79323346564661,-7.7294942661443322]]],[[[113.79305201335357,-7.7294502775930205],[113.79305189448549,-7.7294322078835433],[113.79304283673001,-7.7294322671671569],[113.79304295559771,-7.7294503368767762],[113.79305201335357,-7.7294502775930205]]],[[[113.79309730213184,-7.7294499811713839],[113.79309712382693,-7.7294228766082087],[113.79308806607199,-7.7294229358927113],[113.7930881255067,-7.729431970747175],[113.79307906775149,-7.7294320300315551],[113.79307918662074,-7.7294500997406139],[113.79309730213184,-7.7294499811713839]]],[[[113.79337761699115,-7.7293758644324475],[113.7933685592394,-7.7293759237225386],[113.79336867812009,-7.7293939934271627],[113.79337773587223,-7.7293939341369304],[113.79337761699115,-7.7293758644324475]]],[[[113.79338667474285,-7.7293758051421646],[113.79338673418354,-7.7293848399943386],[113.79339579193534,-7.7293847807037928],[113.79339573249445,-7.729375745851689],[113.79338667474285,-7.7293758051421646]]],[[[113.79338667474285,-7.7293758051421646],[113.79338661530223,-7.729366770289988],[113.79337755755073,-7.7293668295801989],[113.79337761699115,-7.7293758644324475],[113.79338667474285,-7.7293758051421646]]],[[[113.79318734475291,-7.7293680746304005],[113.79318722588033,-7.7293500049229493],[113.79317816812765,-7.7293500642088047],[113.79317828699985,-7.7293681339163998],[113.79318734475291,-7.7293680746304005]]],[[[113.79322351632737,-7.7293588026310385],[113.79322345689035,-7.7293497677776068],[113.79321439913794,-7.7293498270642287],[113.79321445857477,-7.7293588619177305],[113.79322351632737,-7.7293588026310385]]],[[[113.79338661530223,-7.729366770289988],[113.79340473080498,-7.7293666517089861],[113.79340479024597,-7.7293756865610241],[113.79341384799746,-7.7293756272701657],[113.79341366967408,-7.7293485227142504],[113.79340461192319,-7.7293485820048975],[113.79340467136404,-7.7293576168569267],[113.79338655586169,-7.7293577354377883],[113.79338661530223,-7.729366770289988]]],[[[113.79341366967408,-7.7293485227142504],[113.79343178517567,-7.7293484041323799],[113.79343166629302,-7.7293303344286963],[113.79342260854263,-7.7293303937195885],[113.79342266798373,-7.7293394285715014],[113.7934136102331,-7.729339487862271],[113.79341366967408,-7.7293485227142504]]],[[[113.79356759198403,-7.7293384798931291],[113.79356753253985,-7.7293294450423362],[113.79355847479057,-7.7293295043361017],[113.79355853423455,-7.7293385391869638],[113.79356759198403,-7.7293384798931291]]],[[[113.79345901786948,-7.7293572611097447],[113.79345878010186,-7.7293211217032356],[113.79344972235189,-7.7293211809946314],[113.79344996011875,-7.729357320401423],[113.79345901786948,-7.7293572611097447]]],[[[113.79347683615944,-7.7293119682683855],[113.7934767767174,-7.7293029334168617],[113.79346771896797,-7.7293029927085],[113.79346777840983,-7.7293120275600948],[113.79347683615944,-7.7293119682683855]]],[[[113.7935040094079,-7.7293117903921083],[113.79350394996527,-7.7293027555407949],[113.79349489221605,-7.7293028148330087],[113.79349495165846,-7.7293118496843904],[113.7935040094079,-7.7293117903921083]]],[[[113.79356741365173,-7.7293113753407559],[113.79356735420777,-7.7293023404899337],[113.79355829645905,-7.7293023997834895],[113.79355835590283,-7.7293114346343801],[113.79356741365173,-7.7293113753407559]]],[[[113.7935671758763,-7.729275235937493],[113.79356711643263,-7.72926620108667],[113.7935580586847,-7.729266260379946],[113.79355811812819,-7.7292752952308392],[113.7935671758763,-7.729275235937493]]],[[[113.79331349946311,-7.7292678612259182],[113.79331344002489,-7.7292588263731288],[113.79330438227514,-7.7292588856609674],[113.79330444171318,-7.7292679205138271],[113.79331349946311,-7.7292678612259182]]],[[[113.79349411947106,-7.72918536176486],[113.79349406002964,-7.7291763269134348],[113.79348500228305,-7.7291763862044753],[113.79348506172428,-7.7291854210559716],[113.79349411947106,-7.72918536176486]]],[[[113.79355752369659,-7.7291849467217206],[113.79355746425381,-7.7291759118707857],[113.79353934876156,-7.7291760304553581],[113.79353940820393,-7.7291850653064333],[113.79355752369659,-7.7291849467217206]]],[[[113.79348488340081,-7.7291583165014695],[113.79345771016175,-7.7291584943730207],[113.79345776960226,-7.7291675292247364],[113.79343965410879,-7.7291676478049505],[113.79343959466867,-7.7291586129530954],[113.7934360340231,-7.7291586362602169],[113.79343055844456,-7.7291619436599852],[113.79343065580197,-7.7291767419466915],[113.79342159805488,-7.7291768012363899],[113.79342153616099,-7.729167393366696],[113.79341087500018,-7.7291738329998925],[113.7933583827899,-7.7292059397838724],[113.79335843157776,-7.7292133556688016],[113.79334937382933,-7.7292134149572478],[113.79334943326796,-7.7292224498097779],[113.79334037551926,-7.7292225090981033],[113.79334043495778,-7.7292315439507],[113.7933313772088,-7.729231603238901],[113.79333143664719,-7.7292406380915644],[113.79334049439636,-7.7292405788032914],[113.79334055383502,-7.7292496136558801],[113.79335866933349,-7.7292494950786175],[113.79335860989445,-7.72924046022617],[113.79336766764339,-7.7292404009373215],[113.79336760820424,-7.7292313660849397],[113.79337666595292,-7.7292313067959713],[113.79337672539226,-7.729240341648282],[113.79338578314108,-7.7292402823590498],[113.79338584258069,-7.7292493172112886],[113.7934311313246,-7.7292490207619045],[113.793431071884,-7.7292399859100183],[113.79342201413556,-7.7292400452002097],[113.79342195469523,-7.7292310103482471],[113.79346724343577,-7.7292307138957348],[113.79346712455344,-7.7292126441925006],[113.79343089356271,-7.7292128813543339],[113.79343083412242,-7.7292038465024291],[113.79343989187002,-7.7292037872123291],[113.7934398324296,-7.7291947523604749],[113.79344889017693,-7.7291946930702506],[113.79344883073641,-7.729185658218495],[113.79346694623048,-7.7291855396376157],[113.79346688678964,-7.7291765047859808],[113.79347594453637,-7.729176445495324],[113.79347588509542,-7.7291674106437531],[113.79348494284189,-7.7291673513529755],[113.79348488340081,-7.7291583165014695]],[[113.79339472201039,-7.7292221533652796],[113.79340377975866,-7.7292220940758067],[113.79340383919853,-7.7292311289279114],[113.79339478145006,-7.7292311882174571],[113.79339472201039,-7.7292221533652796]]],[[[113.79345765072131,-7.7291494595212837],[113.79345762529356,-7.7291455945391814],[113.7934511562279,-7.7291495020328638],[113.79345765072131,-7.7291494595212837]]],[[[113.79346664902697,-7.7291403653793953],[113.793466647576,-7.7291401448320158],[113.79346627843188,-7.7291403678052371],[113.79346664902697,-7.7291403653793953]]],[[[113.79363868674405,-7.7291302039791434],[113.79363874618818,-7.7291392388294682],[113.79365686167733,-7.7291391202412401],[113.79365680223282,-7.7291300853910556],[113.79363868674405,-7.7291302039791434]]],[[[113.79363868674405,-7.7291302039791434],[113.79363862729997,-7.7291211691288133],[113.79360239632237,-7.729121406302407],[113.79360251520903,-7.7291394760036232],[113.79361157295392,-7.7291394167103729],[113.79361163239754,-7.7291484515608859],[113.79362069014259,-7.7291483922673727],[113.79362063069875,-7.729139357416928],[113.7936296884435,-7.7291392981232923],[113.79362962899957,-7.7291302632728982],[113.79363868674405,-7.7291302039791434]]],[[[113.79348488340081,-7.7291583165014695],[113.79350299889317,-7.7291581979194772],[113.79350282056919,-7.7291310933653605],[113.79351187831467,-7.7291310340742871],[113.79351181887328,-7.7291219992229774],[113.79352993436369,-7.7291218806403963],[113.793529874922,-7.7291128457892206],[113.79354799041171,-7.7291127272060134],[113.79354804985378,-7.7291217620570487],[113.79356616534359,-7.7291216434729346],[113.79356612145942,-7.7291149733770812],[113.79355950600007,-7.7291145169999664],[113.79355200600003,-7.7291138349999073],[113.79354177900029,-7.7291104259999726],[113.79353768800001,-7.7291083809998948],[113.793529507,-7.7291076989999183],[113.79351246200008,-7.7291124719998878],[113.7934846921402,-7.7291292454384939],[113.79348470507799,-7.72913121194693],[113.79348140063509,-7.7291312335772879],[113.79347566985815,-7.7291346951247579],[113.79347570677294,-7.7291403060890165],[113.79348476451885,-7.7291402467984485],[113.79348488340081,-7.7291583165014695]]],[[[113.79388318636899,-7.7291195681268539],[113.79388306747069,-7.7291014984299853],[113.79389212521259,-7.7291014391310737],[113.79389200631421,-7.729083369434294],[113.79388294857269,-7.7290834287330661],[113.79388300802165,-7.7290924635815186],[113.79387395027987,-7.7290925228801681],[113.79387406917763,-7.7291105925772037],[113.79386501143537,-7.7291106518758017],[113.79386507088417,-7.7291196867243812],[113.79388318636899,-7.7291195681268539]]],[[[113.79367456105336,-7.7290757577018443],[113.79367444216463,-7.7290576880016921],[113.79366538442197,-7.7290577472956521],[113.79366550331032,-7.7290758169959455],[113.79367456105336,-7.7290757577018443]]],[[[113.79390994344884,-7.7290561462914233],[113.79391000289817,-7.7290651811396787],[113.79392811837995,-7.7290650625410739],[113.79392805893025,-7.7290560276929581],[113.79390994344884,-7.7290561462914233]]],[[[113.79395535105245,-7.7290739194896325],[113.7939552321518,-7.7290558497938262],[113.79394617441136,-7.7290559090937272],[113.79394629331162,-7.7290739787896747],[113.79395535105245,-7.7290739194896325]]],[[[113.79390994344884,-7.7290561462914233],[113.79390988399958,-7.7290471114431645],[113.79390082625898,-7.7290471707420387],[113.79390088570804,-7.7290562055903669],[113.79390994344884,-7.7290561462914233]]],[[[113.79390076680998,-7.7290381358937017],[113.79390070736108,-7.7290291010453638],[113.79389164962076,-7.7290291603439067],[113.79389170906948,-7.7290381951923148],[113.79390076680998,-7.7290381358937017]]],[[[113.79364703116211,-7.7290217264818004],[113.79365608890414,-7.7290216671885039],[113.79365603904039,-7.7290140883814633],[113.79364813900008,-7.7290183839999074],[113.7936222310002,-7.729047018999899],[113.79361268600007,-7.7290613369998855],[113.79361061011545,-7.7290852115751996],[113.79362933178091,-7.7290850890208578],[113.79362939122448,-7.7290941238712758],[113.79363844896821,-7.729094064577799],[113.79363815175003,-7.7290488903260242],[113.79364720949273,-7.7290488310327063],[113.79364715004911,-7.7290397961824082],[113.79365620779154,-7.7290397368889714],[113.79365614834781,-7.729030702038739],[113.79364709060557,-7.7290307613321074],[113.79364703116211,-7.7290217264818004]]],[[[113.79367414494403,-7.7290125137512318],[113.79366508720234,-7.7290125730448436],[113.79366514664612,-7.7290216078950138],[113.79367420438803,-7.7290215486013336],[113.79367414494403,-7.7290125137512318]]],[[[113.79367414494403,-7.7290125137512318],[113.79368320268567,-7.7290124544574299],[113.79368314324158,-7.7290034196073947],[113.79367556871274,-7.7290034691917429],[113.7936740907238,-7.7290042728430013],[113.79367414494403,-7.7290125137512318]]],[[[113.79368314324158,-7.7290034196073947],[113.79369220098295,-7.7290033603134702],[113.79369214240619,-7.728994457304033],[113.79368311656511,-7.7289993650735918],[113.79368314324158,-7.7290034196073947]]],[[[113.79402727791202,-7.72899213145618],[113.79402721846077,-7.7289830966087854],[113.79401816072244,-7.7289831559096598],[113.79401822017351,-7.7289921907571264],[113.79402727791202,-7.72899213145618]]],[[[113.79372831305781,-7.7289850534364612],[113.79372825361298,-7.7289760185867822],[113.79372602596021,-7.7289760331696318],[113.79371759600019,-7.7289806169998538],[113.79371019408752,-7.7289846417646286],[113.79371019757636,-7.7289851720253697],[113.79372831305781,-7.7289850534364612]]],[[[113.7937643656833,-7.7289577117080999],[113.79378248116276,-7.7289575931173102],[113.79378242171698,-7.7289485582680229],[113.7937914794564,-7.7289484989724109],[113.79379142001051,-7.7289394641232043],[113.79376295033326,-7.7289396504963168],[113.7937579080002,-7.7289481589999705],[113.79375722600014,-7.7289590679998872],[113.79373727160657,-7.728969918296416],[113.79373731135342,-7.7289759592921099],[113.79374636909378,-7.7289758999972458],[113.79374648798431,-7.7289939696963543],[113.79376460346559,-7.7289938511057716],[113.7937643656833,-7.7289577117080999]]],[[[113.79409032536523,-7.728937507262831],[113.79409014700893,-7.7289104027220654],[113.79408108927265,-7.7289104620237206],[113.79408114872447,-7.7289194968707129],[113.7940720909879,-7.7289195561722455],[113.7940722098914,-7.728937625866374],[113.79409032536523,-7.728937507262831]]],[[[113.79409908584094,-7.7288922737265198],[113.79409002810509,-7.7288923330282264],[113.794090087557,-7.7289013678751388],[113.794099145293,-7.7289013085733629],[113.79409908584094,-7.7288922737265198]]],[[[113.79409908584094,-7.7288922737265198],[113.79412625904806,-7.7288920958202523],[113.79412619959548,-7.7288830609735806],[113.79409902638893,-7.7288832388796385],[113.79409908584094,-7.7288922737265198]]],[[[113.79411690405121,-7.7288469808888562],[113.79410784631646,-7.7288470401905958],[113.79410790576837,-7.7288560750374051],[113.7941169635033,-7.7288560157355972],[113.79411690405121,-7.7288469808888562]]],[[[113.79411690405121,-7.7288469808888562],[113.79412596178588,-7.7288469215869258],[113.79412590233366,-7.7288378867402514],[113.79411684459917,-7.7288379460421117],[113.79411690405121,-7.7288469808888562]]],[[[113.79415313498944,-7.7288467436799833],[113.79415307553666,-7.7288377088335194],[113.79414401780238,-7.7288377681359552],[113.794144077255,-7.7288468029824884],[113.79415313498944,-7.7288467436799833]]],[[[113.79418030819238,-7.7288465657713177],[113.794180248739,-7.7288375309250643],[113.79417119100496,-7.7288375902280748],[113.79417125045815,-7.7288466250743975],[113.79418030819238,-7.7288465657713177]]],[[[113.79420754084867,-7.7288554227069666],[113.79420748139466,-7.7288463878609264],[113.79421653912863,-7.7288463285570801],[113.79421647967449,-7.7288372937111047],[113.79419836420689,-7.7288374123184669],[113.79419848311449,-7.7288554820106903],[113.79420754084867,-7.7288554227069666]]],[[[113.79404426382001,-7.7288203507554707],[113.79404432327036,-7.7288293856027863],[113.79405338100521,-7.7288293263025274],[113.79405332155468,-7.7288202914552837],[113.79404426382001,-7.7288203507554707]]],[[[113.79420736248684,-7.7288283181688353],[113.79420730303303,-7.7288192833227827],[113.7941982452996,-7.7288193426262284],[113.79419830475321,-7.7288283774723494],[113.79420736248684,-7.7288283181688353]]],[[[113.79409861022692,-7.7288199949514746],[113.7940985507755,-7.7288109601045765],[113.79408949304138,-7.7288110194056507],[113.79408955249264,-7.7288200542526191],[113.79409861022692,-7.7288199949514746]]],[[[113.79423441677864,-7.7288100705654523],[113.7942343573244,-7.7288010357196031],[113.79420718412563,-7.7288012136306659],[113.79420724357929,-7.7288102484767283],[113.79421630131249,-7.72881018917316],[113.79421642022042,-7.7288282588651285],[113.7942254779539,-7.7288281995612307],[113.7942253590456,-7.7288101298694007],[113.79423441677864,-7.7288100705654523]]],[[[113.79407125867145,-7.7287930683129957],[113.79407131812215,-7.7288021031601142],[113.79408943359023,-7.7288019845586788],[113.79408937413913,-7.7287929497117025],[113.79409843187285,-7.7287928904107677],[113.7940983129705,-7.7287748207169251],[113.79408925523715,-7.7287748800177187],[113.79408931468811,-7.7287839148647208],[113.7940802569545,-7.7287839741653928],[113.79408031640534,-7.7287930090124446],[113.79407125867145,-7.7287930683129957]]],[[[113.79423441677864,-7.7288100705654523],[113.79423447623294,-7.728819105411298],[113.79427070716515,-7.7288188681933025],[113.79427058825509,-7.7288007985021689],[113.7942615305225,-7.7288008578068137],[113.79426141161308,-7.7287827881155229],[113.79427046934528,-7.7287827288110158],[113.79427035043577,-7.7287646591198476],[113.79426129270395,-7.7287647184242125],[113.79426135215849,-7.7287737532698531],[113.79423417896211,-7.7287739311820101],[113.79423423841612,-7.7287829660278886],[113.79425235388084,-7.7287828474198363],[113.79425241333531,-7.728791882265555],[113.79424335560282,-7.7287919415697486],[113.79424347451162,-7.7288100112613121],[113.79423441677864,-7.7288100705654523]]],[[[113.79408925523715,-7.7287748800177187],[113.79408919578627,-7.7287658451707468],[113.79406202258639,-7.7287660230717696],[113.794061903686,-7.7287479533773586],[113.79405284595293,-7.7287480126771753],[113.79405302430305,-7.7287751172189818],[113.79406208203669,-7.7287750579189529],[113.79406214148706,-7.7287840927661664],[113.79403496828539,-7.7287842706658862],[113.79403508718519,-7.7288023403606854],[113.79402602945075,-7.7288023996603474],[113.79402608890057,-7.7288114345078114],[113.79403514663521,-7.7288113752080774],[113.79403520608528,-7.7288204100554667],[113.79404426382001,-7.7288203507554707],[113.79404414491954,-7.7288022810608306],[113.79406226038803,-7.7288021624605445],[113.7940622009375,-7.7287931276133568],[113.79407125867145,-7.7287930683129957],[113.79407113977025,-7.728774998618734],[113.79408925523715,-7.7287748800177187]]],[[[113.79409819406843,-7.7287567510230994],[113.7940981346175,-7.7287477161761702],[113.79408907688473,-7.7287477754767551],[113.79408913633547,-7.7287568103237527],[113.79409819406843,-7.7287567510230994]]],[[[113.79432469682502,-7.7287643032896289],[113.79432457791349,-7.728746233599284],[113.79431552018251,-7.7287462929046606],[113.79431563909365,-7.7287643625951441],[113.79432469682502,-7.7287643032896289]]],[[[113.79405284595293,-7.7287480126771753],[113.79405278650303,-7.7287389778298934],[113.79402561330402,-7.7287391557279852],[113.79402567275334,-7.7287481905754776],[113.79405284595293,-7.7287480126771753]]],[[[113.7941161906316,-7.7287385627276377],[113.79410713289916,-7.7287386220285326],[113.79410725180134,-7.7287566917222517],[113.7941253672669,-7.728756573119985],[113.79412530781541,-7.7287475382732671],[113.79411625008282,-7.7287475975744275],[113.7941161906316,-7.7287385627276377]]],[[[113.79407090196869,-7.7287388592302069],[113.79407084251848,-7.7287298243830742],[113.7940617847859,-7.728729883682945],[113.79406184423591,-7.7287389185301461],[113.79407090196869,-7.7287388592302069]]],[[[113.79403461158766,-7.7287300615814036],[113.79403449268901,-7.7287119918865184],[113.79402543495648,-7.7287120511854805],[113.79402555385477,-7.7287301208805061],[113.79403461158766,-7.7287300615814036]]],[[[113.79408883908251,-7.7287116360887191],[113.79407978135045,-7.7287116953888333],[113.79407995970142,-7.7287387999300741],[113.79408901743408,-7.7287387406297512],[113.79408883908251,-7.7287116360887191]]],[[[113.79431528236108,-7.7287101535236395],[113.79431522290589,-7.7287011186783738],[113.7943061651758,-7.7287011779832069],[113.79430622463079,-7.7287102128285436],[113.79431528236108,-7.7287101535236395]]],[[[113.79408883908251,-7.7287116360887191],[113.79409789681451,-7.7287115767884158],[113.79409783736394,-7.7287025419414679],[113.79412501055896,-7.7287023640396182],[113.79412477275507,-7.7286662246526197],[113.79411571502425,-7.7286662839531486],[113.79411589337646,-7.7286933884936131],[113.79410683564498,-7.7286934477941598],[113.79410677619438,-7.7286844129472891],[113.79409771846301,-7.7286844722475738],[113.79409765901266,-7.7286754374005957],[113.79407954355013,-7.7286755560004501],[113.79407966245014,-7.7286936256946479],[113.79408872018183,-7.7286935663946768],[113.79408883908251,-7.7287116360887191]]],[[[113.79414276931423,-7.7286480363577459],[113.79414282876533,-7.7286570712043696],[113.79415188649575,-7.728657011903338],[113.79415182704446,-7.7286479770567826],[113.79414276931423,-7.7286480363577459]]],[[[113.79407029005051,-7.7286458634546049],[113.79406127641249,-7.7286526237801878],[113.79406130918835,-7.7286576049050408],[113.7940703669194,-7.7286575456057331],[113.79407042636903,-7.7286665804529111],[113.79408854183133,-7.7286664618535816],[113.79408848238133,-7.7286574270065413],[113.79407942465041,-7.7286574863062327],[113.79407936520064,-7.7286484514591161],[113.79407030746984,-7.7286485107585463],[113.79407029005051,-7.7286458634546049]]],[[[113.79480392396758,-7.7286346720423653],[113.7948038645026,-7.728625637200853],[113.79478574905315,-7.7286257558299019],[113.79478580851774,-7.7286347906715545],[113.79480392396758,-7.7286346720423653]]],[[[113.79421511224899,-7.7286294922525407],[113.79421505279657,-7.7286204574064641],[113.7941969373382,-7.7286205760104618],[113.79419699679023,-7.728629610856677],[113.79421511224899,-7.7286294922525407]]],[[[113.79419687788622,-7.7286115411642244],[113.79419681843433,-7.7286025063180155],[113.79418776070541,-7.7286025656195854],[113.79418782015712,-7.7286116004658618],[113.79419687788622,-7.7286115411642244]]],[[[113.79421499334423,-7.7286114225603706],[113.79421493389195,-7.7286023877143002],[113.79420587616316,-7.7286024470162538],[113.79420593561525,-7.7286114818623908],[113.79421499334423,-7.7286114225603706]]],[[[113.79414276931423,-7.7286480363577459],[113.79414270986319,-7.7286390015111177],[113.79417894078293,-7.728638764306397],[113.79417882187954,-7.7286206946136895],[113.79416976415011,-7.7286207539150169],[113.79416982360158,-7.7286297887614444],[113.79414265041224,-7.7286299666644842],[113.79414259096136,-7.728620931817848],[113.79413353323164,-7.7286209911184072],[113.79413359268233,-7.7286300259651153],[113.79411547722229,-7.7286301445658001],[113.79411541777196,-7.7286211097189534],[113.79412447550186,-7.728621050418778],[113.7941243200631,-7.7285974279373448],[113.79411585000013,-7.7286058979998966],[113.79410632225084,-7.7286154257495587],[113.79410636004204,-7.7286211690189379],[113.79410054088412,-7.7286212071162401],[113.79409266900008,-7.7286290789999681],[113.79408831732562,-7.7286323428031176],[113.79408836348149,-7.7286393573124466],[113.79409742121194,-7.7286392980127046],[113.79409754011216,-7.7286573677066581],[113.79410659784294,-7.7286573084065848],[113.79410647894234,-7.7286392387127698],[113.79412459440293,-7.7286391201123275],[113.79412465385357,-7.7286481549590951],[113.79414276931423,-7.7286480363577459]]],[[[113.79423293044414,-7.728584199417921],[113.79423287099168,-7.7285751645719616],[113.79421475553553,-7.7285752831760206],[113.7942148149876,-7.7285843180221194],[113.79423293044414,-7.728584199417921]]],[[[113.79428715790493,-7.728565773909625],[113.79428709845148,-7.7285567390640972],[113.79427804072424,-7.728556798367233],[113.79427810017749,-7.7285658332128309],[113.79428715790493,-7.728565773909625]]],[[[113.79434144481336,-7.7285563832412594],[113.79434138535881,-7.7285473483961304],[113.79433232763222,-7.728547407700348],[113.79433238708657,-7.7285564425455435],[113.79434144481336,-7.7285563832412594]]],[[[113.79484814221489,-7.7284717483245045],[113.79484808275025,-7.7284627134832489],[113.79483902502938,-7.728462772797565],[113.79483908449384,-7.7284718076388899],[113.79484814221489,-7.7284717483245045]]],[[[113.79498341335012,-7.7283805101836638],[113.79498335388331,-7.7283714753434358],[113.79497429616542,-7.7283715346599235],[113.79497435563205,-7.7283805695002226],[113.79498341335012,-7.7283805101836638]]],[[[113.79475661360593,-7.7283277839881732],[113.79474755588723,-7.7283278432995184],[113.7947476153487,-7.7283368781415902],[113.79475667306758,-7.7283368188301758],[113.79475661360593,-7.7283277839881732]]],[[[113.79475661360593,-7.7283277839881732],[113.79476567132456,-7.7283277246766344],[113.79476561186277,-7.7283186898346976],[113.79475655414434,-7.7283187491461645],[113.79475661360593,-7.7283277839881732]]],[[[113.7947112060905,-7.7283100108582845],[113.79471114663002,-7.7283009760159],[113.79473831978505,-7.7283007980842164],[113.79473820086315,-7.7282827283998907],[113.79471102770927,-7.7282829063311516],[113.79471108716962,-7.7282919411735271],[113.79470202945133,-7.7282920004836368],[113.79470214837183,-7.7283100701685319],[113.7947112060905,-7.7283100108582845]]],[[[113.794774431734,-7.7282824911555252],[113.79477437227237,-7.7282734563136337],[113.79476531455495,-7.7282735156249434],[113.79476537401638,-7.7282825504669015],[113.794774431734,-7.7282824911555252]]],[[[113.79486488997907,-7.7282638283488323],[113.79486494944253,-7.7282728631900062],[113.79487400715915,-7.7282728038765907],[113.79487394769551,-7.728263769035487],[113.79486488997907,-7.7282638283488323]]],[[[113.79482871857533,-7.7282731004417569],[113.79482865911262,-7.7282640656003032],[113.79483771682936,-7.7282640062877217],[113.79483765736656,-7.7282549714462982],[113.79481954193344,-7.7282550900711264],[113.79481966085835,-7.7282731597542167],[113.79482871857533,-7.7282731004417569]]],[[[113.79486488997907,-7.7282638283488323],[113.79486483051569,-7.7282547935076193],[113.79485577279937,-7.7282548528207053],[113.79485583226257,-7.7282638876619867],[113.79486488997907,-7.7282638283488323]]],[[[113.79494634995923,-7.7282542596812336],[113.79492823452783,-7.7282543783106608],[113.79492829399257,-7.7282634131513825],[113.79491923627658,-7.728263472465879],[113.79491929574118,-7.7282725073066318],[113.79492835345737,-7.7282724479920653],[113.79492841292226,-7.7282814828327613],[113.79494652835481,-7.7282813642029149],[113.79494634995923,-7.7282542596812336]]],[[[113.79488294594807,-7.7282546748808763],[113.79488288648437,-7.7282456400398152],[113.7948738287684,-7.7282456993532129],[113.79487388823192,-7.7282547341943433],[113.79488294594807,-7.7282546748808763]]],[[[113.79484641776905,-7.7282097379268535],[113.79483736005356,-7.7282097972392032],[113.79483747897854,-7.7282278669220545],[113.79484653669441,-7.7282278076095636],[113.7948465961572,-7.7282368424509142],[113.79485565387319,-7.7282367831381586],[113.79485553494729,-7.7282187134555977],[113.79484647723169,-7.7282187727682103],[113.79484641776905,-7.7282097379268535]]],[[[113.79505462627166,-7.728190304010381],[113.79505456680482,-7.7281812691706397],[113.79504550909157,-7.7281813284871879],[113.79504556855821,-7.7281903633269975],[113.79505462627166,-7.728190304010381]]],[[[113.7949095244566,-7.7281641485306354],[113.79492763988443,-7.7281640299033771],[113.79492758042048,-7.7281549950626252],[113.79493663813412,-7.7281549357487807],[113.79493669759826,-7.7281639705894607],[113.79494575531199,-7.7281639112753542],[113.7949456363834,-7.7281458415941122],[113.79492752095661,-7.7281459602218519],[113.7949274614928,-7.7281369253811105],[113.79491840377949,-7.7281369846946246],[113.79491846324311,-7.728146019535437],[113.79490940552954,-7.7281460788488321],[113.7949095244566,-7.7281641485306354]]],[[[113.79487347198885,-7.7281914903063278],[113.79487359091509,-7.7282095599886498],[113.79489170634542,-7.7282094413622247],[113.79489164688189,-7.7282004065212133],[113.79490070459676,-7.7282003472077818],[113.79490076406049,-7.7282093820487257],[113.79490982177549,-7.728209322735033],[113.79490994070353,-7.728227392416759],[113.79490088298816,-7.7282274517305929],[113.7949009424521,-7.7282364865715198],[113.79489188473647,-7.728236545885232],[113.79489206312815,-7.7282636504082181],[113.79490112084436,-7.7282635910942972],[113.7949010613802,-7.7282545562533649],[113.79491011909616,-7.7282544969393214],[113.79491005963189,-7.7282454620984717],[113.79496440592493,-7.7282451062106112],[113.79496422752906,-7.7282180016893003],[113.7949279966696,-7.7282182389477994],[113.79492793720523,-7.7282092041070722],[113.79497322577839,-7.7282089075338227],[113.79497316631313,-7.728199872693442],[113.79500033945561,-7.7281996947474036],[113.79500022052414,-7.7281816250670499],[113.79501833595131,-7.7281815064356811],[113.79501827648531,-7.7281724715956397],[113.79502733419861,-7.7281724122797373],[113.79502727473248,-7.7281633774397607],[113.79503633244549,-7.7281633181237375],[113.79503627297923,-7.7281542832838275],[113.79505438840469,-7.7281541646513441],[113.7950542847598,-7.7281384177263019],[113.79504510365453,-7.7281197296688999],[113.79504515229311,-7.7281271194481365],[113.79503609458091,-7.7281271787640726],[113.79503615404694,-7.7281362136039942],[113.79500898090939,-7.7281363915508603],[113.79500909984051,-7.7281544612311137],[113.79500004212748,-7.728154520546493],[113.79500010159296,-7.7281635553866828],[113.79499104387963,-7.7281636147019404],[113.794991103345,-7.7281726495421985],[113.79497298791776,-7.7281727681722776],[113.79497292845279,-7.72816373333188],[113.79496387073927,-7.7281637926465647],[113.79496398966891,-7.7281818623274923],[113.79495493195493,-7.7281819216421237],[113.79495499141967,-7.7281909564826359],[113.79494593370542,-7.7281910157971465],[113.79494599317003,-7.7282000506377564],[113.79490976231156,-7.728200287894162],[113.79490970284772,-7.7281912530532679],[113.7949006451331,-7.7281913123668211],[113.79490052620599,-7.7281732426849352],[113.79490958392024,-7.7281731833715233],[113.7949095244566,-7.7281641485306354],[113.79489140902847,-7.7281642671571253],[113.7948914684917,-7.7281733019981544],[113.79486429534839,-7.7281734799366655],[113.79486441427397,-7.7281915496191136],[113.79487347198885,-7.7281914903063278],[113.79487341252585,-7.7281824554651823],[113.79489152795503,-7.7281823368391791],[113.79489158741842,-7.7281913716801807],[113.79487347198885,-7.7281914903063278]]],[[[113.7949906276241,-7.7281003708200444],[113.79498156991207,-7.728100430134619],[113.79498151044747,-7.7280913952942418],[113.79497245273554,-7.7280914546085535],[113.79497251219995,-7.7281004894490026],[113.79496345448777,-7.7281005487631935],[113.7949635734164,-7.7281186184441655],[113.79493640027827,-7.7281187963860107],[113.79493651920606,-7.7281368660674046],[113.79495463463232,-7.728136747439418],[113.79495457516801,-7.7281277125988641],[113.79496363288084,-7.7281276532846537],[113.79496369234533,-7.7281366881251374],[113.79499086548397,-7.7281365101811454],[113.7949906276241,-7.7281003708200444]]],[[[113.7949906276241,-7.7281003708200444],[113.79499968533608,-7.7281003115052771],[113.79499962587109,-7.7280912766650403],[113.79499056815931,-7.7280913359797374],[113.7949906276241,-7.7281003708200444]]],[[[113.79501756289875,-7.7280640535148075],[113.7950085051877,-7.7280641128296761],[113.79500868358281,-7.7280912173501521],[113.79503102419521,-7.7280910710506898],[113.79502659958639,-7.7280820647962907],[113.79501768182912,-7.728082123194989],[113.79501756289875,-7.7280640535148075]]],[[[113.79501756289875,-7.7280640535148075],[113.79501775036948,-7.7280640522871433],[113.79501756034489,-7.7280636654935959],[113.79501756289875,-7.7280640535148075]]]]},"properties":{"FID":0,"Shape_Leng":18102566.929299999,"Shape_Area":236516885.403}}]
}