{
  "type" : "FeatureCollection",
  "features" : [{"type":"Feature","id":0,"geometry":{"type":"MultiPolygon","coordinates":[[[[114.36325430303935,-8.3130407130094213],[114.36324523724265,-8.3130407897337157],[114.3632453142733,-8.3130498194684339],[114.3632543800702,-8.3130497427440559],[114.36325430303935,-8.3130407130094213]]],[[[114.36325430303935,-8.3130407130094213],[114.3632815004289,-8.3130404828353068],[114.36328142339751,-8.3130314531009191],[114.36325422600859,-8.313031683274783],[114.36325430303935,-8.3130407130094213]]],[[[114.36313583145341,-8.3129694725231555],[114.36313575442603,-8.3129604427873787],[114.36312668863008,-8.3129605195082377],[114.36312676565726,-8.312969549244098],[114.36313583145341,-8.3129694725231555]]],[[[114.3632990157695,-8.3129680915109976],[114.36331714735844,-8.3129679380610852],[114.36331707032691,-8.3129589083269977],[114.36328987294399,-8.3129591385013057],[114.3632899499749,-8.3129681682356455],[114.36328088418023,-8.3129682449600875],[114.363280961211,-8.3129772746944894],[114.36329002700589,-8.312977197969964],[114.36329010403696,-8.3129862277043092],[114.36328103824187,-8.3129863044289216],[114.36328111527283,-8.3129953341633307],[114.36329924686333,-8.3129951807137346],[114.3632990157695,-8.3129680915109976]]],[[[114.36324438991124,-8.3129414626514979],[114.36324431288163,-8.3129324329167051],[114.36323524708735,-8.3129325096397775],[114.36323532411676,-8.3129415393746573],[114.36324438991124,-8.3129414626514979]]],[[[114.36340749716413,-8.3129310518661583],[114.36340742013088,-8.3129220221329163],[114.36339835433837,-8.3129220988596106],[114.36339843137141,-8.3129311285929397],[114.36340749716413,-8.3129310518661583]]],[[[114.3632532246165,-8.3129142967240437],[114.36325314758693,-8.312905266989338],[114.36324408179333,-8.3129053437123641],[114.36324415882268,-8.3129143734471533],[114.3632532246165,-8.3129142967240437]]],[[[114.36333481675673,-8.3129136062067754],[114.36334388254966,-8.3129135294816052],[114.36334380551804,-8.3129044997477433],[114.36332567393252,-8.3129046531977089],[114.36332575096372,-8.3129136829317396],[114.36331668517062,-8.3129137596564995],[114.36331676220171,-8.3129227893906084],[114.36328956482126,-8.3129230195639003],[114.36328964185181,-8.3129320492982419],[114.3633259050264,-8.3129317423997691],[114.36332598205787,-8.3129407721338016],[114.36333504785149,-8.3129406954085852],[114.36333481675673,-8.3129136062067754]]],[[[114.36326213635076,-8.3128961605314782],[114.36326198229166,-8.3128781010622124],[114.36325291649878,-8.3128781777851906],[114.36325299352809,-8.3128872075199283],[114.3632439277349,-8.3128872842427839],[114.36324400476407,-8.3128963139775696],[114.36326213635076,-8.3128961605314782]]],[[[114.3631984447117,-8.3128696083835116],[114.36317124733161,-8.3128698385472539],[114.36317140138638,-8.3128878980182375],[114.36318046718024,-8.3128878212970267],[114.36318054420796,-8.3128968510324022],[114.36318961000197,-8.3128967743109001],[114.36318953297403,-8.31288774457561],[114.36320766456134,-8.3128875911321582],[114.36320774158969,-8.3128966208672797],[114.36322587317704,-8.3128964674228349],[114.36322579614828,-8.3128874376878841],[114.36321673035486,-8.3128875144101233],[114.36321665332639,-8.3128784846750481],[114.36319852173968,-8.3128786381187432],[114.3631984447117,-8.3128696083835116]]],[[[114.3634522868884,-8.3128674600992216],[114.36344322109755,-8.31286753682644],[114.36344329813112,-8.3128765665593889],[114.36343423233996,-8.3128766432864882],[114.36343430937337,-8.3128856730195348],[114.36344337516474,-8.312885596292352],[114.36344352923227,-8.3129036557582161],[114.36345259502396,-8.3129035790306585],[114.3634522868884,-8.3128674600992216]]],[[[114.36325283946958,-8.3128691480504653],[114.36325276244047,-8.3128601183157347],[114.36324369664788,-8.3128601950383398],[114.3632437736768,-8.3128692247731557],[114.36325283946958,-8.3128691480504653]]],[[[114.36343415530659,-8.3128676135534523],[114.3634339242071,-8.312840524354316],[114.36338859525419,-8.3128409079850218],[114.3633888263506,-8.3128679971854247],[114.36343415530659,-8.3128676135534523]]],[[[114.36349684549826,-8.3127767791353353],[114.36348777970991,-8.3127768558627402],[114.36348793377744,-8.3127949153278884],[114.36351513114349,-8.3127946851445529],[114.36351505410906,-8.3127856554122364],[114.36349692253219,-8.3127858088678277],[114.36349684549826,-8.3127767791353353]]],[[[114.36344237373424,-8.3127682097636431],[114.36343330794556,-8.3127682864897281],[114.36343338497795,-8.3127773162228316],[114.36342431918899,-8.3127773929487923],[114.36342439622126,-8.3127864226819614],[114.36341533043202,-8.3127864994078013],[114.36341525339995,-8.3127774696745504],[114.36339712182159,-8.3127776231254433],[114.36339719885324,-8.3127866528588648],[114.36338813306371,-8.3127867295840883],[114.36338828712687,-8.3128047890510857],[114.36343361607564,-8.3128044054220709],[114.36343384717411,-8.3128314946212623],[114.36344291296423,-8.3128314178945875],[114.36344306703072,-8.3128494773605244],[114.36346119861152,-8.3128493239062191],[114.36346112157783,-8.3128402941734212],[114.36347925315783,-8.3128401407184622],[114.36347902205601,-8.3128130515205498],[114.36345182468769,-8.3128132817019207],[114.36345174765455,-8.3128042519690215],[114.36346987923311,-8.3128040985151497],[114.36346980219963,-8.3127950687824121],[114.3634607364106,-8.3127951455093676],[114.36346065937744,-8.3127861157765413],[114.36345159358851,-8.3127861925032054],[114.36345151655561,-8.3127771627702902],[114.36344245076684,-8.3127772394966648],[114.36344237373424,-8.3127682097636431]]],[[[114.36363206194774,-8.3126853308870743],[114.36362299616276,-8.3126854076167209],[114.36362322727086,-8.3127124968107786],[114.36363229305648,-8.3127124200808797],[114.36363221602015,-8.3127033903496166],[114.36365034759069,-8.3127032368893694],[114.36365027055403,-8.3126942071582697],[114.36363213898392,-8.3126943606183481],[114.36363206194774,-8.3126853308870743]]],[[[114.36360409424192,-8.3125952637598672],[114.36360401720734,-8.3125862340282879],[114.36358588564129,-8.3125863874842807],[114.36358596267546,-8.3125954172160288],[114.36360409424192,-8.3125952637598672]]],[[[114.36366732361395,-8.3125676374638395],[114.36366716954248,-8.3125495780018319],[114.36365810376094,-8.3125496547310345],[114.36365825783197,-8.3125677141932108],[114.36366732361395,-8.3125676374638395]]],[[[114.36362176359935,-8.3125409319143504],[114.36362168656487,-8.3125319021829096],[114.36360355500165,-8.3125320556387123],[114.36360363203571,-8.3125410853703201],[114.36362176359935,-8.3125409319143504]]],[[[114.36372141015634,-8.3125310581612784],[114.36373047593685,-8.3125309814308075],[114.36373045148622,-8.3125281154971393],[114.3637122684849,-8.3125222394451956],[114.36371265252241,-8.3125672538138975],[114.3637035867409,-8.3125673305442973],[114.36370374081436,-8.3125853900056121],[114.36369467503233,-8.3125854667359746],[114.36369475206898,-8.3125944964667102],[114.36366755472179,-8.3125947266568172],[114.36366778583039,-8.312621815849754],[114.36365872004718,-8.3126218925796298],[114.36365895115595,-8.3126489817727762],[114.36364988537206,-8.3126490585027017],[114.36364996240829,-8.3126580882338246],[114.36366809397641,-8.3126579347735969],[114.36366824804996,-8.3126759942355104],[114.36367731383429,-8.3126759175049187],[114.36367723679727,-8.3126668877740411],[114.36368630258133,-8.3126668110433286],[114.36368607147017,-8.3126397218509727],[114.36369513725354,-8.3126396451203082],[114.36369490614254,-8.3126125559281618],[114.36370397192519,-8.3126124791975453],[114.3637038178512,-8.3125944197362589],[114.36372194941542,-8.3125942662747452],[114.36372179534095,-8.3125762068137785],[114.36373086112251,-8.3125761300828831],[114.36373070704799,-8.3125580706220497],[114.36372164126685,-8.3125581473527781],[114.36372156422993,-8.312549117622293],[114.36373063001086,-8.3125490408916516],[114.36373055297382,-8.3125400111612304],[114.36372148719309,-8.3125400878917883],[114.36372141015634,-8.3125310581612784]]],[[[114.36366693843597,-8.3125224888087814],[114.36363974109291,-8.3125227189950106],[114.36363981812771,-8.3125317487262862],[114.36365794969025,-8.312531595268835],[114.36365802672555,-8.3125406249999383],[114.3636670925069,-8.3125405482708175],[114.36366693843597,-8.3125224888087814]]],[[[114.3636577194824,-8.3125046112830532],[114.36365779561989,-8.3125135358066355],[114.36367592718125,-8.3125133823487012],[114.3636760042168,-8.3125224120796268],[114.36368506999753,-8.3125223353502662],[114.36368514703337,-8.3125313650811172],[114.36370327859504,-8.3125312116216108],[114.36370320155878,-8.3125221818909267],[114.36371186352838,-8.3125221085786851],[114.3636577194824,-8.3125046112830532]]],[[[114.36365740221149,-8.3125045087531433],[114.36364862798222,-8.3125016732551114],[114.36364865280426,-8.3125045828040776],[114.36365740221149,-8.3125045087531433]]],[[[114.36363017155388,-8.3124957088368383],[114.36362135348196,-8.3124928591697369],[114.36362137842782,-8.3124957832571056],[114.36363017155388,-8.3124957088368383]]]]},"properties":{"FID":0,"Shape_Leng":18102566.929299999,"Shape_Area":236516885.403}}]
}