{
  "type" : "FeatureCollection",
  "features" : [{"type":"Feature","id":0,"geometry":{"type":"MultiPolygon","coordinates":[[[[113.15178149552597,-6.8927156023814637],[113.15178145473851,-6.8927065627965742],[113.15176336411821,-6.8927066443194676],[113.15176340490532,-6.8927156839044654],[113.15178149552597,-6.8927156023814637]]],[[[113.15065030135945,-6.892603181562956],[113.15065017906353,-6.8925760627879713],[113.15064113374913,-6.8925761035273165],[113.15064125604454,-6.892603222302462],[113.15065030135945,-6.892603181562956]]],[[[113.1506773557722,-6.8925849801604189],[113.15067731500643,-6.8925759405689107],[113.15066826969219,-6.8925759813087684],[113.15066831045777,-6.8925850209003308],[113.1506773557722,-6.8925849801604189]]],[[[113.15087631190592,-6.8925750442487645],[113.15087627113644,-6.8925660046584394],[113.15086722582357,-6.8925660454020052],[113.15086726659288,-6.8925750849923855],[113.15087631190592,-6.8925750442487645]]],[[[113.15092145692968,-6.8925567613479961],[113.15092141615946,-6.8925477217579161],[113.15091237084722,-6.8925477625022298],[113.15091241161726,-6.8925568020923649],[113.15092145692968,-6.8925567613479961]]],[[[113.15124704736402,-6.8925462548487149],[113.15123800205376,-6.8925462955991863],[113.15123804282996,-6.892555335187379],[113.15124708814039,-6.8925552944368542],[113.15124704736402,-6.8925462548487149]]],[[[113.15124704736402,-6.8925462548487149],[113.15125609267426,-6.8925462140980738],[113.15125607266899,-6.8925417792044792],[113.15124700785813,-6.8925374968998812],[113.15124704736402,-6.8925462548487149]]],[[[113.15123796127759,-6.892537256011007],[113.15123794304743,-6.8925332145950593],[113.15121981342635,-6.8925246499847788],[113.1512198706572,-6.8925373375113272],[113.15123796127759,-6.892537256011007]]],[[[113.15095755663708,-6.892538519189098],[113.1509575158663,-6.8925294795992436],[113.15097560648951,-6.892529398108949],[113.1509755249474,-6.8925113189294445],[113.15095743432487,-6.8925114004195214],[113.15095747509555,-6.8925204400093838],[113.15094842978402,-6.8925204807542197],[113.15094851132521,-6.8925385599340432],[113.15095755663708,-6.892538519189098]]],[[[113.15102083304656,-6.8925291943802245],[113.15102075150276,-6.8925111152012573],[113.15101170619178,-6.8925111559472372],[113.15101178773527,-6.8925292351263119],[113.15102083304656,-6.8925291943802245]]],[[[113.15118356709073,-6.8925103817443842],[113.15118355463679,-6.8925076207678044],[113.15117449992812,-6.8925055778533109],[113.15117452178076,-6.8925104224934426],[113.15118356709073,-6.8925103817443842]]],[[[113.15098452948743,-6.8925022385944432],[113.15098448871635,-6.8924931990047353],[113.15097544340551,-6.892493239749923],[113.15097548417643,-6.892502279339686],[113.15098452948743,-6.8925022385944432]]],[[[113.14426319803053,-6.8923878310892945],[113.14425415268164,-6.8923878717066041],[113.14425423396759,-6.8924059509662587],[113.14427232466602,-6.8924058697312542],[113.14427228402268,-6.8923968301015357],[113.14426323867364,-6.8923968707190699],[113.14426319803053,-6.8923878310892945]]],[[[113.14421789000113,-6.8923699549140309],[113.144217808717,-6.8923518756539179],[113.14420876336851,-6.8923519162701554],[113.14420884465231,-6.8923699955303777],[113.14421789000113,-6.8923699549140309]]],[[[113.15034068195472,-6.8921435473372643],[113.15034064119797,-6.8921345077435641],[113.15033159589009,-6.8921345484744512],[113.15033163664667,-6.8921435880682065],[113.15034068195472,-6.8921435473372643]]],[[[113.15019575324979,-6.8920990010390293],[113.15019571249604,-6.8920899614444648],[113.15018666718812,-6.8920900021723464],[113.1501867079417,-6.892099041766965],[113.15019575324979,-6.8920990010390293]]],[[[113.15017741811404,-6.8920448449266427],[113.15017737736096,-6.8920358053319477],[113.15015928674693,-6.8920358867862097],[113.15015932749965,-6.8920449263810131],[113.15017741811404,-6.8920448449266427]]],[[[113.15016825054836,-6.8920177668696585],[113.15015015993491,-6.8920178483233618],[113.15015020068735,-6.8920268879182087],[113.15016829130114,-6.8920268064643961],[113.15016825054836,-6.8920177668696585]]],[[[113.15016825054836,-6.8920177668696585],[113.150177295855,-6.8920177261425497],[113.15017725510209,-6.892008686547844],[113.15016820979564,-6.8920087272748995],[113.15016825054836,-6.8920177668696585]]],[[[113.14970612496728,-6.891839051774582],[113.14970608422438,-6.8918300121770004],[113.14969703891846,-6.8918300528940852],[113.14969707966119,-6.8918390924917201],[113.14970612496728,-6.891839051774582]]],[[[113.14994130290583,-6.891837993068969],[113.14994126215846,-6.8918289534727899],[113.149932216854,-6.89182899419432],[113.14993225760118,-6.8918380337905543],[113.14994130290583,-6.891837993068969]]],[[[113.15003171520019,-6.8918285462480808],[113.15003167445117,-6.8918195066524195],[113.15002262914741,-6.8918195473756061],[113.15002266989626,-6.8918285869713207],[113.15003171520019,-6.8918285462480808]]],[[[113.15014025884305,-6.8918280575558581],[113.15014021809198,-6.8918190179608434],[113.15013117278886,-6.8918190586860808],[113.15013121353977,-6.8918280982811506],[113.15014025884305,-6.8918280575558581]]],[[[113.15020357596438,-6.8918277724740218],[113.15020353521211,-6.8918187328793854],[113.15019448990941,-6.891818773605821],[113.15019453066151,-6.8918278132005115],[113.15020357596438,-6.8918277724740218]]],[[[113.14997736187988,-6.8918107113930187],[113.14997728038418,-6.8917926322010654],[113.14996823508062,-6.8917926729230645],[113.14996827582827,-6.8918017125190971],[113.14995923052447,-6.8918017532409781],[113.1499593120196,-6.8918198324331241],[113.14995026671541,-6.891819873154942],[113.14995034821041,-6.8918379523472142],[113.14994130290583,-6.891837993068969],[113.14994134365324,-6.8918470326651455],[113.14995038895799,-6.8918469919433365],[113.14995042970563,-6.8918560315394544],[113.14995947501052,-6.8918559908174215],[113.14995943426271,-6.8918469512213552],[113.14996847956735,-6.8918469104992051],[113.14996843881941,-6.8918378709031911],[113.14998652942823,-6.8918377894584824],[113.14998648868001,-6.8918287498625732],[113.14999553398415,-6.8918287091400163],[113.14999549323582,-6.89181966954414],[113.14998644793185,-6.8918197102666428],[113.14998640718375,-6.8918106706707416],[113.14997736187988,-6.8918107113930187],[113.14997740262781,-6.8918197509889731],[113.14996835732374,-6.8918197917111339],[113.14996831657596,-6.8918107521151253],[113.14997736187988,-6.8918107113930187]]],[[[113.15028608406134,-6.8920714749681764],[113.15028620632751,-6.892098593750263],[113.15030429694241,-6.892098512290457],[113.15030433769826,-6.8921075518843704],[113.15028624708303,-6.8921076333442839],[113.15028628783858,-6.8921166729383012],[113.15026819722279,-6.8921167543976392],[113.15026823797804,-6.8921257939917604],[113.15027728328614,-6.8921257532621247],[113.15027732404164,-6.8921347928561891],[113.15028636934986,-6.8921347521263261],[113.15028641010558,-6.8921437917203505],[113.1502954554139,-6.8921437509902637],[113.150295414658,-6.8921347113962934],[113.15030445996612,-6.8921346706660902],[113.15030441921012,-6.8921256310721866],[113.15036773636407,-6.8921253459563498],[113.15036769560692,-6.8921163063628201],[113.15037674091427,-6.8921162656313557],[113.15037678167158,-6.8921253052248312],[113.15040831887514,-6.8921251632097258],[113.15040270787483,-6.8921161486999019],[113.15039483152871,-6.8921161841679153],[113.15039477389732,-6.8921034021449961],[113.1503858748754,-6.8920891051696227],[113.15035852802895,-6.8920892283133428],[113.15035848727219,-6.8920801887197456],[113.15034944196545,-6.8920802294506522],[113.15034940120891,-6.8920711898569973],[113.15034035590227,-6.8920712305876783],[113.15034031514595,-6.8920621909939666],[113.15036745106516,-6.8920620688015708],[113.15036743942538,-6.8920594871717009],[113.15034620600022,-6.8920253739999549],[113.15027993400008,-6.8919089339999013],[113.15022062700007,-6.8917922819999342],[113.15022030277729,-6.891791538049012],[113.15021245825781,-6.8917915733690753],[113.15021262126723,-6.8918277317473615],[113.15020357596438,-6.8918277724740218],[113.15020361671669,-6.8918368120686377],[113.15007698246893,-6.8918373822246846],[113.15007702321891,-6.891846421820051],[113.1500679779149,-6.8918464625442555],[113.15006801866477,-6.8918555021396726],[113.15005897336056,-6.8918555428637589],[113.15005893261085,-6.8918465032682876],[113.15004988730676,-6.8918465439921492],[113.15004992805629,-6.8918555835876747],[113.15004088275194,-6.8918556243114191],[113.15004092350134,-6.8918646639069951],[113.15002283289218,-6.891864745354078],[113.15002287364129,-6.8918737849497589],[113.15001382833645,-6.8918738256730974],[113.15001378758753,-6.8918647860773632],[113.1500047422828,-6.891864826800477],[113.15000478303158,-6.8918738663962644],[113.14999573772661,-6.8918739071192618],[113.14999577847527,-6.8918829467150999],[113.14998673317011,-6.8918829874379801],[113.14998665167319,-6.8918649082461911],[113.14997760636831,-6.8918649489687933],[113.14997756562009,-6.8918559093728398],[113.14996852031533,-6.8918559500952155],[113.14996856106336,-6.8918649896912223],[113.14995951575838,-6.8918650304134816],[113.14995955650629,-6.8918740700095391],[113.14996860181147,-6.8918740292872265],[113.14996872405605,-6.891901148075215],[113.14998681466726,-6.8919010666297513],[113.14998677391866,-6.8918920270338671],[113.15001390983451,-6.8918919048645542],[113.15001395058363,-6.8919009444602759],[113.15003204119427,-6.8919008630131042],[113.15003208194378,-6.8919099026087149],[113.15004112724918,-6.8919098618848187],[113.15004116799891,-6.8919189014803726],[113.15005021330447,-6.8919188607562507],[113.15005025405442,-6.8919279003517468],[113.15007738997119,-6.8919277781781938],[113.15007743072171,-6.8919368177735425],[113.15009552133296,-6.8919367363235446],[113.15009556208389,-6.8919457759187468],[113.15011365269524,-6.8919456944679576],[113.15011369344656,-6.8919547340630656],[113.15012273875234,-6.8919546933373601],[113.1501227795039,-6.8919637329324113],[113.15013182480978,-6.8919636922064802],[113.15013186556155,-6.8919727318014736],[113.15017709209104,-6.8919725281689876],[113.15017717359646,-6.8919906073584229],[113.15018621890252,-6.8919905666313044],[113.15018638191471,-6.8920267250098997],[113.15020447252806,-6.8920266435547202],[113.15020451328159,-6.8920356831492722],[113.15019546797477,-6.8920357238770027],[113.15019550872819,-6.8920447634715885],[113.15017741811404,-6.8920448449266427],[113.15017745886716,-6.8920538845213315],[113.15015936825243,-6.8920539659758102],[113.15015932749965,-6.8920449263810131],[113.1501502821924,-6.8920449671079416],[113.150150322945,-6.8920540067027929],[113.15013223232997,-6.8920540881562449],[113.15013227308228,-6.892063127751201],[113.15015036369766,-6.8920630462976407],[113.15015040445039,-6.8920720858924858],[113.15015944975815,-6.8920720451653965],[113.1501594905111,-6.892081084760183],[113.15017758112684,-6.892081003305381],[113.15017754037355,-6.892071963710702],[113.15020467629624,-6.8920718415273798],[113.15020463554249,-6.892062801932858],[113.15021368084979,-6.8920627612047962],[113.15021372160369,-6.8920718007992638],[113.15024990283295,-6.8920716378850893],[113.1502499435876,-6.8920806774793357],[113.15026803420224,-6.8920805960211151],[113.15026799344726,-6.8920715564269743],[113.15028608406134,-6.8920714749681764],[113.15028604330605,-6.8920624353741413],[113.15026795269232,-6.8920625168328309],[113.15026791193742,-6.892053477238683],[113.15027695724415,-6.8920534365094772],[113.15027687573419,-6.8920353573212791],[113.15029496634679,-6.89203527586257],[113.15029512936829,-6.8920714342385212],[113.15028608406134,-6.8920714749681764]],[[113.15030388938698,-6.8920081163511204],[113.15030393014227,-6.8920171559450703],[113.15029488483638,-6.8920171966745736],[113.15029484408126,-6.8920081570805696],[113.15030388938698,-6.8920081163511204],[113.15030384863174,-6.8919990767571653],[113.1502857580206,-6.8919991582157856],[113.15028567651096,-6.8919810790276337],[113.15027663120566,-6.8919811197565801],[113.15027659045109,-6.8919720801624695],[113.15028563575623,-6.8919720394335791],[113.15028567651096,-6.8919810790276337],[113.15029472181621,-6.8919810382985176],[113.15029476257118,-6.8919900778925491],[113.15030380787655,-6.8919900371632092],[113.15030384863174,-6.8919990767571653],[113.1503128939372,-6.8919990360276007],[113.15031293469262,-6.8920080756215008],[113.15030388938698,-6.8920081163511204]],[[113.15018609664398,-6.8919634478473082],[113.1501770513384,-6.8919634885742651],[113.15017696983332,-6.8919454093848067],[113.15018601513853,-6.8919453686579581],[113.15018609664398,-6.8919634478473082]],[[113.15005917710984,-6.8919007408410629],[113.1500501318047,-6.8919007815652478],[113.15005009105491,-6.8918917419697401],[113.15005913635987,-6.8918917012456093],[113.15005917710984,-6.8919007408410629]],[[113.15010436288385,-6.8918914976223906],[113.15011340818846,-6.8918914568972331],[113.15011344893946,-6.8919004964923642],[113.15010440363467,-6.8919005372175741],[113.15010436288385,-6.8918914976223906]],[[113.15021355858838,-6.892035642421372],[113.15022260389507,-6.8920356016933004],[113.15022264464899,-6.8920446412877236],[113.15021359934212,-6.8920446820158503],[113.15021355858838,-6.892035642421372]]],[[[113.15005860661529,-6.8917741865044002],[113.15005852511695,-6.8917561073133715],[113.15002234390704,-6.891756270205633],[113.15002242540402,-6.8917743493970942],[113.15003147070694,-6.8917743086741767],[113.15003159295333,-6.8918014274611377],[113.15004063825667,-6.891801386737888],[113.15004059750764,-6.8917923471422862],[113.15005868811386,-6.8917922656953818],[113.15005881036211,-6.8918193844818347],[113.15006785566564,-6.8918193437579642],[113.150067814916,-6.891810304162548],[113.15010399612892,-6.8918101412655712],[113.15010391462843,-6.8917920620751278],[113.15008582402277,-6.8917921435237428],[113.15008578327294,-6.8917831039284057],[113.1500767379702,-6.8917831446524032],[113.1500766972206,-6.8917741050570278],[113.15008574252317,-6.8917740643330836],[113.15008570177345,-6.8917650247377251],[113.15007665647107,-6.8917650654616143],[113.15007661572157,-6.8917560258662141],[113.15006757041928,-6.8917560665898767],[113.15006765191796,-6.8917741457807988],[113.15005860661529,-6.8917741865044002],[113.15005864736455,-6.8917832260998848],[113.15004960206164,-6.8917832668233689],[113.15004956131257,-6.8917742272278293],[113.15005860661529,-6.8917741865044002]]],[[[113.14974214321695,-6.8918027305148355],[113.14973309791179,-6.8918027712324408],[113.14973313865504,-6.8918118108298723],[113.14972409334966,-6.8918118515473621],[113.14972413409281,-6.8918208911448264],[113.14973317939835,-6.8918208504272815],[113.14973326088514,-6.8918389296221418],[113.14972421557925,-6.8918389703397924],[113.14972425632256,-6.891848009937263],[113.14971521101641,-6.8918480506547963],[113.1497152517596,-6.8918570902523175],[113.14972429706592,-6.8918570495347291],[113.14972433780933,-6.8918660891321917],[113.14976051903467,-6.8918659262599142],[113.14976055977883,-6.8918749658571583],[113.14980578631011,-6.8918747622626944],[113.1498057455651,-6.8918657226657212],[113.14981479087102,-6.8918656819463688],[113.1498147501259,-6.8918566423494454],[113.1498237954316,-6.8918566016299758],[113.14982375468637,-6.891847562033103],[113.14983279999183,-6.8918475213135153],[113.14983271850116,-6.8918294421198674],[113.14984176380625,-6.8918294014002175],[113.14984168231547,-6.8918113222066619],[113.14985072762013,-6.891811281486949],[113.14985064612922,-6.8917932022934858],[113.14985969143351,-6.891793161573708],[113.14985960994247,-6.8917750823803567],[113.14984151933454,-6.8917751638195215],[113.14984147858945,-6.8917661242227073],[113.14983243328557,-6.8917661649419779],[113.14983239254069,-6.891757125345122],[113.14981430193312,-6.8917572067830442],[113.14981426118865,-6.8917481671860781],[113.14980521588495,-6.8917482079047288],[113.14980513439653,-6.8917301287106918],[113.14978704378964,-6.8917302101472657],[113.14978700304584,-6.8917211705501096],[113.1497779577425,-6.8917212112680852],[113.14977791699894,-6.8917121716708865],[113.1497688716957,-6.8917122123886392],[113.14976891243909,-6.8917212519858904],[113.14975986713564,-6.8917212927035232],[113.14975998936563,-6.8917484114954197],[113.14974189875751,-6.891748492930498],[113.14974185801447,-6.8917394533330958],[113.14973281271051,-6.8917394940503245],[113.1497328534534,-6.8917485336477808],[113.1497238081492,-6.8917485743648932],[113.14972393037765,-6.8917756931574177],[113.14971488507287,-6.8917757338745211],[113.14971492581563,-6.8917847734720539],[113.14972397112057,-6.8917847327548971],[113.14972401186354,-6.891793772352389],[113.14974210247357,-6.8917936909174555],[113.14974214321695,-6.8918027305148355],[113.14975118852206,-6.8918026897970579],[113.14975122926568,-6.8918117293943801],[113.14974218396037,-6.891811770112211],[113.14974214321695,-6.8918027305148355]],[[113.14975106629159,-6.8917755710050841],[113.14974202098699,-6.8917756117226991],[113.14974193950061,-6.8917575325278975],[113.1497509848049,-6.8917574918103881],[113.14975106629159,-6.8917755710050841]]],[[[113.15017299324593,-6.891683273719166],[113.1501666803931,-6.8916694730250807],[113.15016674273379,-6.8916833018611463],[113.15017299324593,-6.891683273719166]]],[[[113.15016474011004,-6.8916652313208768],[113.1501606135424,-6.8916562101215844],[113.15015757518198,-6.8916562238012169],[113.1501576159324,-6.891665263396189],[113.15016474011004,-6.8916652313208768]]],[[[113.14998530700564,-6.891566601579604],[113.14997626170639,-6.8915666423004271],[113.14997630245284,-6.8915756818964802],[113.14998534775225,-6.8915756411756037],[113.14998530700564,-6.891566601579604]]],[[[113.14995821185387,-6.8915757633377188],[113.14995813036171,-6.8915576841453587],[113.14994908506246,-6.8915577248656144],[113.14994916655428,-6.891575804058081],[113.14995821185387,-6.8915757633377188]]],[[[113.14998530700564,-6.891566601579604],[113.14999435230482,-6.8915665608586121],[113.14999431155806,-6.8915575212626292],[113.14998526625907,-6.8915575619835678],[113.14998530700564,-6.891566601579604]]]]},"properties":{"FID":0,"Shape_Leng":18102566.929299999,"Shape_Area":236516885.403}}]
}