{
  "type" : "FeatureCollection",
  "features" : [{"type":"Feature","id":0,"geometry":{"type":"MultiPolygon","coordinates":[[[[113.71185258464875,-7.1121326271863046],[113.71185253159938,-7.1121235914619056],[113.71184348584218,-7.1121236444523257],[113.71184353889139,-7.1121326801767903],[113.71185258464875,-7.1121326271863046]]],[[[113.71170742815187,-7.1120611892089638],[113.71165315360838,-7.1120615071290656],[113.71165320665339,-7.1120705428549877],[113.71164416089572,-7.1120705958411206],[113.71164421394063,-7.1120796315671067],[113.71161651126357,-7.1120797938365099],[113.71175636600015,-7.112133612999969],[113.71178603376151,-7.1121510891117863],[113.71178937044213,-7.1121510695657362],[113.71178931739385,-7.1121420338408869],[113.71183454618301,-7.1121417688916324],[113.71183449313392,-7.1121327331671038],[113.71182544737641,-7.1121327861572388],[113.71182539432756,-7.1121237504326364],[113.71178921129749,-7.1121239623911432],[113.71178915824942,-7.1121149266662647],[113.71178011249191,-7.1121149796553835],[113.71178005944408,-7.1121059439304517],[113.71175292217167,-7.1121061028965427],[113.71175286912444,-7.1120970671713701],[113.71174382336699,-7.1120971201596479],[113.71174377032,-7.1120880844344168],[113.71172567880529,-7.112088190410307],[113.71172562575873,-7.1120791546849382],[113.71171658000142,-7.1120792076725499],[113.7117165269551,-7.11207017194711],[113.71170748119793,-7.1120702249344765],[113.71170742815187,-7.1120611892089638]]],[[[113.71140870597158,-7.1120267947799443],[113.71140865293168,-7.1120177590521694],[113.71139960717322,-7.1120178120331374],[113.71139965489122,-7.1120259411640383],[113.71140468357136,-7.1120268183391762],[113.71140870597158,-7.1120267947799443]]],[[[113.71150778497933,-7.1119539261605755],[113.71148064770969,-7.1119540851073406],[113.71148070075053,-7.1119631208346004],[113.71147165499367,-7.1119631738165703],[113.7114717080344,-7.1119722095438949],[113.71146266227727,-7.1119722625257564],[113.71146282139934,-7.1119993697079087],[113.71145377564164,-7.1119994226897978],[113.71145388172302,-7.1120174941446814],[113.71144483596488,-7.1120175471265306],[113.71144494124023,-7.1120354812837174],[113.7114455615626,-7.1120356149529673],[113.71145398780466,-7.11203556559955],[113.71145399876673,-7.1120374330313396],[113.71148638569208,-7.1120444118780322],[113.71149022387951,-7.1120443893970018],[113.71149022887286,-7.1120452400197394],[113.71155363155907,-7.1120589022415093],[113.71155359722918,-7.1120530542394338],[113.71154455147112,-7.1120531072234954],[113.71154439234304,-7.1120260000432483],[113.71153534658541,-7.1120260530269288],[113.71153529354305,-7.1120170173001034],[113.71152624778554,-7.1120170702835406],[113.71152614170134,-7.1119989988297432],[113.71153518745849,-7.1119989458464437],[113.71153502833221,-7.1119718386659239],[113.71152598257559,-7.11197189164902],[113.71152592953379,-7.1119628559221049],[113.71150783802069,-7.1119629618876301],[113.71150778497933,-7.1119539261605755]]],[[[113.70535305613704,-7.1113754809398158],[113.70535204608059,-7.1113754868419665],[113.70535306106537,-7.1113763224732605],[113.70535305613704,-7.1113754809398158]]],[[[113.70534395742916,-7.1113664980242257],[113.70534114791332,-7.111366514441233],[113.70534397113742,-7.1113688387860581],[113.70534395742916,-7.1113664980242257]]],[[[113.70529846389502,-7.1113215834415424],[113.70528914177564,-7.1113216379127042],[113.7052985121382,-7.1113298214208678],[113.70529846389502,-7.1113215834415424]]],[[[113.70540690754454,-7.1113028776033671],[113.7053707243857,-7.1113030890362898],[113.70537083021878,-7.1113211605830715],[113.70531655547637,-7.1113214777279827],[113.70531660839195,-7.1113305135017759],[113.70529941959674,-7.1113306139402779],[113.70533025306239,-7.1113575420207216],[113.70534390451277,-7.1113574622506697],[113.70534385159645,-7.1113484264770754],[113.70533480580548,-7.1113484793346755],[113.70533475288941,-7.1113394435610271],[113.70532570709854,-7.1113394964183838],[113.7053256541827,-7.1113304606446635],[113.70536183734502,-7.1113302492144514],[113.70536194317818,-7.1113483207613468],[113.70540717213129,-7.1113480564689375],[113.70540690754454,-7.1113028776033671]]],[[[113.70519816650149,-7.1111866282329439],[113.7052072122903,-7.1111865753792074],[113.70520715937795,-7.1111775396045385],[113.70519811358929,-7.1111775924582075],[113.70519816650149,-7.1111866282329439]]],[[[113.70511627820599,-7.1111057819303944],[113.70511622529601,-7.1110967461549945],[113.70510717950827,-7.1110967990062894],[113.70510723241809,-7.111105834781756],[113.70511627820599,-7.1111057819303944]]],[[[113.70031263822237,-7.1110796063402528],[113.7003035923989,-7.1110796590976415],[113.70030359785287,-7.1110805921712563],[113.7003126422689,-7.1110802986265522],[113.70031263822237,-7.1110796063402528]]],[[[113.69978792754274,-7.1110736301621165],[113.69977888171547,-7.1110736829092147],[113.69977898732652,-7.1110917545399763],[113.69979707898169,-7.1110916490453304],[113.69979702617579,-7.1110826132300877],[113.6997879803484,-7.1110826659774311],[113.69978792754274,-7.1110736301621165]]],[[[113.70031263822237,-7.1110796063402528],[113.70032168404573,-7.1110795535826901],[113.70032163122966,-7.1110705177713687],[113.70031258540646,-7.1110705705288666],[113.70031263822237,-7.1110796063402528]]],[[[113.70485357999549,-7.1110440641068573],[113.7048264426292,-7.1110442226436659],[113.70482645673918,-7.1110466325736654],[113.7048531690001,-7.1110510729998797],[113.70485362231634,-7.1110512922683995],[113.70485357999549,-7.1110440641068573]]],[[[113.70101815940981,-7.1110664549150213],[113.70101810658022,-7.1110574191088922],[113.70100906076249,-7.1110574718798896],[113.70100911359191,-7.1110665076860853],[113.70101815940981,-7.1110664549150213]]],[[[113.69866624443694,-7.1110801694585772],[113.69866613886956,-7.1110620978111534],[113.69864804719862,-7.111062203261203],[113.69864815276529,-7.1110802749088977],[113.69866624443694,-7.1110801694585772]]],[[[113.70388552155809,-7.1110226102519905],[113.70388546867278,-7.1110135744673473],[113.70387642287743,-7.1110136272940005],[113.70387647576256,-7.1110226630787112],[113.70388552155809,-7.1110226102519905]]],[[[113.70519816650149,-7.1111866282329439],[113.70517102913459,-7.1111867867930965],[113.70517097622293,-7.1111777510181557],[113.705161930434,-7.1111778038711186],[113.70516182461124,-7.1111597323210916],[113.70515277882261,-7.1111597851737436],[113.70515267300047,-7.1111417136235637],[113.70513458142368,-7.1111418193280675],[113.70513452851307,-7.1111327835528364],[113.70512548272475,-7.1111328364047566],[113.70512542981439,-7.1111238006294544],[113.70510733823789,-7.1111239063326277],[113.70510728532795,-7.1111148705571861],[113.70507110217484,-7.1111150819611506],[113.70507094344754,-7.1110879746339872],[113.70506189765962,-7.1110880274843336],[113.70506195056848,-7.111097063260126],[113.7050529047803,-7.1110971161103658],[113.70505285187163,-7.1110880803345049],[113.70503476029546,-7.1110881860343174],[113.70503486611217,-7.1111062575863233],[113.70502582032361,-7.1111063104361012],[113.70502571450724,-7.1110882388839602],[113.70500762293064,-7.1110883445827158],[113.70500757002291,-7.1110793088065112],[113.7049985242347,-7.1110793616555572],[113.70499857714225,-7.1110883974318293],[113.70498953135379,-7.1110884502807661],[113.70498947844641,-7.1110794145044274],[113.70496234108111,-7.1110795730499774],[113.70496228817434,-7.1110705372734309],[113.70495324238593,-7.1110705901215274],[113.7049531894794,-7.1110615543449107],[113.70492605211435,-7.1110617128879401],[113.70492594630254,-7.111043641334283],[113.70491690051441,-7.111043694181471],[113.70491684760879,-7.1110346584045532],[113.70490780182074,-7.1110347112514978],[113.70490774891536,-7.1110256754745418],[113.70488965733944,-7.1110257811677666],[113.70488960443448,-7.1110167453906534],[113.70488055864661,-7.1110167982369337],[113.7048805057419,-7.1110077624597485],[113.70486241416627,-7.1110078681516447],[113.70486246707063,-7.1110169039289648],[113.70485342128254,-7.1110169567747166],[113.70485352709109,-7.1110350283294652],[113.70486257287953,-7.1110349754835775],[113.70486267868873,-7.1110530470382072],[113.70485731491472,-7.1110530783737085],[113.70513596100011,-7.111187858999906],[113.70528032693061,-7.1113139395594143],[113.70528031939857,-7.1113126533803479],[113.70528936518924,-7.1113126005240757],[113.70528931227432,-7.1113035647500551],[113.70528026648381,-7.111303617606259],[113.70528021356914,-7.1112945818321842],[113.70527116777876,-7.1112946346881438],[113.70527111486433,-7.1112855989139971],[113.70526206907404,-7.1112856517697134],[113.70526196324573,-7.1112675802212708],[113.70525291745575,-7.1112676330766753],[113.70525281162807,-7.1112495615280817],[113.70523472004857,-7.1112496672380896],[113.70523461422188,-7.11123159568921],[113.70522556843238,-7.1112316485438143],[113.70522551551933,-7.1112226127693008],[113.70523456130864,-7.1112225599147649],[113.70523445548235,-7.1112044883658614],[113.7052254096934,-7.1112045412202605],[113.70522546260634,-7.1112135769947837],[113.70520737102781,-7.1112136827031911],[113.70520726520274,-7.1111956111538559],[113.70519821941375,-7.111195664007659],[113.70519816650149,-7.1111866282329439]]],[[[113.70204009104937,-7.1110185441936862],[113.70204007214268,-7.1110153116574297],[113.7019857972862,-7.1110156283986123],[113.70198582984631,-7.1110211954129081],[113.70204009104937,-7.1110185441936862]]],[[[113.70208530871629,-7.111016334839638],[113.70208530118785,-7.1110150477015956],[113.70207625537897,-7.1110151004931144],[113.70207626518308,-7.1110167767107963],[113.70208530871629,-7.111016334839638]]],[[[113.70410252698686,-7.1110053440566041],[113.70410251485134,-7.1110032707917927],[113.70409346905782,-7.1110033236226071],[113.70409349592315,-7.1110079133866853],[113.70410252698686,-7.1110053440566041]]],[[[113.70191348157084,-7.1110247303623453],[113.70191337796032,-7.1110070149108822],[113.70183196566757,-7.1110074899974673],[113.70183201851269,-7.1110165257975186],[113.70181392689096,-7.1110166313705117],[113.7018139797358,-7.1110256671706757],[113.70179588811347,-7.1110257727431003],[113.70179583526898,-7.1110167369427995],[113.70178678945787,-7.11101678972868],[113.70178684230217,-7.1110258255290484],[113.70177779649084,-7.1110258783148215],[113.70177782853986,-7.1110313583631442],[113.70191348157084,-7.1110247303623453]]],[[[113.70260990512577,-7.1110029496977738],[113.70260985226555,-7.1109939139035783],[113.70259176065639,-7.1109940195066113],[113.70259181351625,-7.11100305530094],[113.70260990512577,-7.1110029496977738]]],[[[113.70287223343284,-7.1110014183726475],[113.70287218056751,-7.1109923825804184],[113.70286313476497,-7.1109924353871312],[113.70286318763014,-7.1110014711794278],[113.70287223343284,-7.1110014183726475]]],[[[113.70369524254873,-7.1109695048596624],[113.70368619675278,-7.1109695576822762],[113.70368624963388,-7.1109785934684302],[113.7036772038377,-7.1109786462909357],[113.70367736248082,-7.1110057536495788],[113.70366831668404,-7.1110058064721091],[113.70366842244611,-7.1110238780446542],[113.70367746824323,-7.1110238252219871],[113.70367751917324,-7.1110325275900923],[113.70369746400003,-7.1110329859999393],[113.70371371896233,-7.1110351527876396],[113.70371354566721,-7.1110055423576872],[113.70370449987071,-7.1110055951809237],[113.70370434122601,-7.1109784878228917],[113.70369529542998,-7.1109785406457497],[113.70369524254873,-7.1109695048596624]]],[[[113.70466308941477,-7.1109548160430291],[113.7045816773169,-7.1109552916092875],[113.70458188891119,-7.1109914347270315],[113.70459093470083,-7.1109913818867687],[113.70459098759976,-7.1110004176661494],[113.70458194180993,-7.1110004705064789],[113.70458197413316,-7.1110059917186206],[113.70469063306972,-7.1110240543388441],[113.70469038548146,-7.1109817648536557],[113.70468133969274,-7.1109818176957873],[113.70468128679219,-7.1109727819170949],[113.70467224100361,-7.110972834758984],[113.7046721881033,-7.1109637989802197],[113.70466314231483,-7.1109638518218645],[113.70466308941477,-7.1109548160430291]]],[[[113.7035142737394,-7.1109615254910077],[113.70351422086182,-7.1109524897035756],[113.70349612926783,-7.1109525953413071],[113.70349618214507,-7.110961631128875],[113.7035142737394,-7.1109615254910077]]],[[[113.70369508390539,-7.110942397501379],[113.70368603810998,-7.1109424503237895],[113.70368609099084,-7.1109514861099727],[113.70369513678642,-7.1109514332874948],[113.70369508390539,-7.110942397501379]]],[[[113.70440065573416,-7.1109382768104794],[113.70436447257367,-7.1109384881540407],[113.70436452546778,-7.1109475239351392],[113.70437357125817,-7.110947471099446],[113.70437362415251,-7.1109565068804379],[113.70433744098979,-7.1109567182224271],[113.70433754677727,-7.1109747897849775],[113.70437372994141,-7.1109745784424447],[113.70437377475793,-7.1109822342836253],[113.70438282522822,-7.110982980786356],[113.70438277573228,-7.1109745256063714],[113.70439182152309,-7.1109744727701214],[113.70439187441798,-7.1109835085509827],[113.70438939905044,-7.1109835230095833],[113.70440997663884,-7.1109852202934158],[113.70440996599973,-7.1109834028778209],[113.70440092020887,-7.1109834557144911],[113.70440086731379,-7.1109744199336964],[113.70442800468557,-7.1109742614233609],[113.70442795179004,-7.1109652256427669],[113.70443699758032,-7.1109651728057042],[113.70443694468467,-7.1109561370251715],[113.70442789889455,-7.1109561898621685],[113.70442784599915,-7.1109471540815816],[113.70440070862898,-7.110947312591307],[113.70440065573416,-7.1109382768104794]]],[[[113.70369508390539,-7.110942397501379],[113.70370412970071,-7.1109423446787945],[113.70370402393847,-7.110924273106721],[113.7036949781435,-7.1109243259291715],[113.70369508390539,-7.110942397501379]]],[[[113.69734444377949,-7.1108981129734339],[113.69734439102295,-7.1108890771397641],[113.697335345181,-7.1108891298377976],[113.69733539793735,-7.110898165671534],[113.69734444377949,-7.1108981129734339]]],[[[113.69345456728119,-7.1108936493153045],[113.69345460670122,-7.1109004107113529],[113.69346487757173,-7.1108935893375165],[113.69345456728119,-7.1108936493153045]]],[[[113.69345456728119,-7.1108936493153045],[113.69345451460075,-7.1108846134525825],[113.69343642285871,-7.1108847186965232],[113.69343647553883,-7.1108937545593811],[113.69345456728119,-7.1108936493153045]]],[[[113.6932916362355,-7.1108765247587096],[113.6932644986192,-7.110876682614637],[113.6932645512959,-7.1108857184787988],[113.69325550542349,-7.1108857710971565],[113.69325555810008,-7.1108948069613644],[113.69323746635469,-7.1108949121976872],[113.69323751903097,-7.1109039480620595],[113.69322847315799,-7.1109040006800237],[113.69322842048187,-7.1108949648155839],[113.69321937460901,-7.110895017433303],[113.69321932193314,-7.1108859815688241],[113.69317409256867,-7.1108862446544459],[113.69317419791872,-7.110904316384107],[113.69316515204528,-7.1109043690008376],[113.69316517086268,-7.1109075969402147],[113.69318318247899,-7.110922336466146],[113.69319239501647,-7.1109222828794945],[113.69319243949013,-7.1109299117964095],[113.69320773300011,-7.1109424269998831],[113.69326424800023,-7.1109683989999111],[113.69333398900007,-7.1109730879999171],[113.6933923843022,-7.1109391918940963],[113.69337341783381,-7.1109393022247893],[113.69337336515459,-7.1109302663614606],[113.69336431928211,-7.1109303189822706],[113.69336437196115,-7.110939354845665],[113.69335532608844,-7.1109394074663665],[113.69335527340958,-7.1109303716029046],[113.69333718166429,-7.1109304768436434],[113.69333712898583,-7.1109214409800412],[113.69332808311329,-7.1109214936000784],[113.69332787240089,-7.1108853501453613],[113.69331882652892,-7.1108854027649517],[113.69331893188463,-7.1109034744924529],[113.69329179426738,-7.110903632350575],[113.6932916362355,-7.1108765247587096]],[[113.69328285374938,-7.1109217566976222],[113.69331903724063,-7.1109215462199389],[113.69331908991872,-7.110930582083677],[113.69330099817287,-7.1109306873230045],[113.69330105085068,-7.1109397231868732],[113.69329200497749,-7.1109397758063411],[113.69329195229986,-7.1109307399424049],[113.69328290642677,-7.1109307925616303],[113.69328285374938,-7.1109217566976222]]],[[[113.69343642285871,-7.1108847186965232],[113.69343637017867,-7.1108756828336439],[113.69342732430773,-7.1108757354552825],[113.69342737698761,-7.1108847713182293],[113.69343642285871,-7.1108847186965232]]],[[[113.69321921658158,-7.1108679098398229],[113.69321916390591,-7.1108588739753147],[113.69321011803369,-7.1108589265925888],[113.69321017070919,-7.1108679624571627],[113.69321921658158,-7.1108679098398229]]],[[[113.69684650038734,-7.1108287244080497],[113.69683745454282,-7.1108287770959171],[113.69683747398487,-7.1108321076747947],[113.6968465284271,-7.1108335278278174],[113.69684650038734,-7.1108287244080497]]],[[[113.69684650038734,-7.1108287244080497],[113.69685554623176,-7.1108286717200055],[113.69685549348532,-7.1108196358826712],[113.69684644764106,-7.1108196885706478],[113.69684650038734,-7.1108287244080497]]],[[[113.69317382919471,-7.110841065330221],[113.69317377652013,-7.1108320294653646],[113.69316473064809,-7.1108320820815551],[113.69316478332249,-7.110841117946479],[113.69317382919471,-7.110841065330221]]],[[[113.69320086146078,-7.1108228357510788],[113.69319181558913,-7.1108228883677302],[113.69319186826401,-7.110831924232456],[113.69318282239209,-7.1108319768489983],[113.69318292774169,-7.1108500485785555],[113.69319197361395,-7.1108499959618783],[113.69319192093894,-7.1108409600971774],[113.69320096681095,-7.1108409074803909],[113.69320086146078,-7.1108228357510788]]],[[[113.69324609081806,-7.1108225726651781],[113.69324614349399,-7.110831608529498],[113.69325518936543,-7.110831555911723],[113.69325513668932,-7.1108225200474697],[113.69324609081806,-7.1108225726651781]]],[[[113.69330946459252,-7.1108312402013638],[113.69330941191537,-7.1108222043375156],[113.69330036604451,-7.1108222569562836],[113.69330041872149,-7.1108312928201984],[113.69330946459252,-7.1108312402013638]]],[[[113.69329132017361,-7.110822309574873],[113.69329126749687,-7.1108132737108862],[113.69328222162609,-7.1108133263292324],[113.69328227430265,-7.1108223621932867],[113.69329132017361,-7.110822309574873]]],[[[113.69943345070349,-7.1107865409918087],[113.69943339790699,-7.1107775051737256],[113.69942435208284,-7.1107775579117183],[113.6994244048792,-7.1107865937298698],[113.69943345070349,-7.1107865409918087]]],[[[113.69324609081806,-7.1108225726651781],[113.69324603814221,-7.1108135368008556],[113.69327317575521,-7.1108133789474017],[113.6932731230789,-7.1108043430832932],[113.69324598546642,-7.1108045009365428],[113.69324593279069,-7.1107954650721945],[113.69323688691991,-7.1107955176895246],[113.69323693959545,-7.1108045535539404],[113.69320075611091,-7.1108047640217684],[113.69320086146078,-7.1108228357510788],[113.6932099073324,-7.1108227831342514],[113.69320996000761,-7.1108318189988404],[113.69323709762251,-7.110831661147099],[113.69323704494674,-7.1108226252827107],[113.69324609081806,-7.1108225726651781]]],[[[113.69316441460307,-7.1107778668919286],[113.69316409856054,-7.1107236517021635],[113.69315505269054,-7.1107237043173672],[113.69315536873202,-7.1107779195075382],[113.69316441460307,-7.1107778668919286]]],[[[113.69635728637752,-7.1107050675254309],[113.69633444128306,-7.1107052005607798],[113.69635734332388,-7.1107148248003993],[113.69635728637752,-7.1107050675254309]]],[[[113.69632105025903,-7.1106962423926019],[113.69631323257495,-7.110696287917297],[113.69632106974602,-7.1106995813718115],[113.69632105025903,-7.1106962423926019]]],[[[113.69629385998682,-7.1106873645803725],[113.6962920238673,-7.1106873752725317],[113.69629386456363,-7.1106881487979097],[113.69629385998682,-7.1106873645803725]]],[[[113.69310966532237,-7.1106968597945892],[113.69310961265012,-7.1106878239291822],[113.69310056678042,-7.110687876543059],[113.69310061945249,-7.1106969124085353],[113.69310966532237,-7.1106968597945892]]],[[[113.69312775706192,-7.1106967545661739],[113.69312770438931,-7.110687718700901],[113.69311865851977,-7.1106877713151295],[113.6931187111922,-7.1106968071804708],[113.69312775706192,-7.1106967545661739]]],[[[113.69306422528723,-7.1106609793996078],[113.69306417261613,-7.1106519435338642],[113.6930551267468,-7.110651996146589],[113.69305517941773,-7.1106610320124011],[113.69306422528723,-7.1106609793996078]]],[[[113.69309131022374,-7.110651785694631],[113.69307321848542,-7.1106518909209626],[113.69307327115669,-7.1106609267866387],[113.69308231702605,-7.1106608741734947],[113.69308236969758,-7.1106699100391006],[113.69310950730582,-7.1106697521984037],[113.69310945463377,-7.1106607163330011],[113.69309136289536,-7.1106608215601721],[113.69309131022374,-7.110651785694631]]],[[[113.6930184165704,-7.1105618479346875],[113.69302746243825,-7.1105617953233438],[113.69302740976863,-7.1105527594572857],[113.69301836390095,-7.1105528120685637],[113.6930184165704,-7.1105618479346875]]],[[[113.69305460004141,-7.1105616374882485],[113.69305454737123,-7.1105526016223948],[113.69303645563622,-7.1105527068458318],[113.69303650830604,-7.1105617427118224],[113.69305460004141,-7.1105616374882485]]],[[[113.69307263910596,-7.1105524963982534],[113.69307258643552,-7.1105434605325302],[113.69306354056835,-7.1105435131446209],[113.69306359323862,-7.1105525490104124],[113.69307263910596,-7.1105524963982534]]],[[[113.69312675629416,-7.1105250731256318],[113.69312670362287,-7.1105160372603011],[113.69311765775667,-7.1105160898732471],[113.6931177104278,-7.1105251257386444],[113.69312675629416,-7.1105250731256318]]],[[[113.69581316467817,-7.1104732958819339],[113.69581311195476,-7.1104642600366352],[113.69579502026447,-7.1104643653664752],[113.69579507298754,-7.1104734012119089],[113.69581316467817,-7.1104732958819339]]],[[[113.69569546324195,-7.1104559088218515],[113.69568884967497,-7.1104559473244011],[113.69569547063291,-7.1104571755567365],[113.69569546324195,-7.1104559088218515]]],[[[113.69568636467532,-7.1104469256382652],[113.69566827298382,-7.1104470309629022],[113.69566830276807,-7.1104521357339525],[113.69568641467797,-7.1104554956160166],[113.69568636467532,-7.1104469256382652]]],[[[113.69558670221247,-7.1104203973740665],[113.69557765636654,-7.110420450034332],[113.69557770908501,-7.1104294858814061],[113.69556866323883,-7.1104295385415632],[113.69556870877793,-7.1104373438726149],[113.69560613400007,-7.110440602999919],[113.69565924681311,-7.1104504557926251],[113.69565922713798,-7.1104470836249556],[113.69565018129204,-7.110447136286834],[113.69565012857201,-7.1104381004403239],[113.69565917441777,-7.1104380477785138],[113.69565912169763,-7.1104290119320668],[113.69562293831493,-7.1104292225779799],[113.69562299103436,-7.110438258424697],[113.69560489934226,-7.1104383637467317],[113.69560484662316,-7.1104293278998796],[113.69558675493113,-7.1104294332210731],[113.69558670221247,-7.1104203973740665]]],[[[113.6930184165704,-7.1105618479346875],[113.6930093707025,-7.110561900545858],[113.69300963404993,-7.1106070798767629],[113.69300058818106,-7.1106071324880951],[113.69300048284224,-7.1105890607556086],[113.69299143697364,-7.1105891133666272],[113.69299138430451,-7.1105800775003098],[113.69300043017293,-7.1105800248893596],[113.69300032483451,-7.11056195315685],[113.69298223309833,-7.1105620583783073],[113.69298244377403,-7.1105982018438674],[113.69297339790511,-7.1105982544546027],[113.69297329256749,-7.1105801827216863],[113.69296424669888,-7.1105802353321099],[113.69296393068869,-7.110526020132915],[113.69295488482108,-7.1105260727427568],[113.69295477948523,-7.1105080010095252],[113.69296382535251,-7.1105079483998184],[113.69296377268452,-7.1104989125332647],[113.69294568095026,-7.1104990177523666],[113.6929455756152,-7.1104809460189609],[113.69295462148202,-7.1104808934096306],[113.69295456881441,-7.1104718575430157],[113.69296361468096,-7.1104718049335798],[113.69296350934562,-7.1104537332004369],[113.6929454176131,-7.1104538384188647],[113.69294525961165,-7.1104267308187135],[113.69293621374584,-7.1104267834274602],[113.69293636410326,-7.1104525796652824],[113.69294884600004,-7.1105378089998759],[113.69295104116726,-7.1105441674428969],[113.69295499015718,-7.1105441444759725],[113.69295504282533,-7.110553180342575],[113.69295415453378,-7.1105531855087971],[113.69298217484065,-7.1106343480987606],[113.69298265445083,-7.1106343453093315],[113.69298266270408,-7.1106357612256357],[113.69304429400017,-7.110814279999949],[113.69305605305732,-7.1108109059827731],[113.69305602216176,-7.1108056058648854],[113.69306506803409,-7.1108055532510122],[113.69306485734573,-7.1107694097882401],[113.69305581147411,-7.1107694624018452],[113.69305575880236,-7.1107604265360793],[113.69306480467381,-7.1107603739225436],[113.69306475200196,-7.1107513380568417],[113.69305570613069,-7.1107513906703099],[113.69305544277334,-7.1107062113414035],[113.69304639690289,-7.1107062639543601],[113.69304629156078,-7.1106881922226171],[113.69305533743089,-7.1106881396097981],[113.69305528475977,-7.1106791037440145],[113.69304623888985,-7.110679156356766],[113.69304608087741,-7.1106520487591389],[113.69303703500792,-7.110652101371512],[113.69303698233742,-7.1106430655055437],[113.69301889059862,-7.1106431707296247],[113.6930187325886,-7.1106160631313591],[113.69302777845751,-7.1106160105196086],[113.69302751510797,-7.1105708311893974],[113.69301846923993,-7.1105708838008104],[113.6930184165704,-7.1105618479346875]]],[[[113.69546900077731,-7.1104030102480378],[113.69546905349354,-7.1104120460959157],[113.69547809934015,-7.1104119934378316],[113.69547804662375,-7.1104029575900221],[113.69546900077731,-7.1104030102480378]]],[[[113.69558664949388,-7.1104113615270883],[113.69558654405689,-7.1103932898330866],[113.69557749821149,-7.1103933424931487],[113.69557760364812,-7.1104114141872863],[113.69558664949388,-7.1104113615270883]]],[[[113.69294499627725,-7.1103815514850552],[113.69293595041232,-7.1103816040934635],[113.69293605574552,-7.1103996758270744],[113.6929451016108,-7.1103996232185303],[113.69294515427768,-7.1104086590852633],[113.69296324600842,-7.1104085538675115],[113.69296314067402,-7.1103904821343287],[113.692945048944,-7.1103905873518105],[113.69294499627725,-7.1103815514850552]]],[[[113.69515213256027,-7.1103596739163111],[113.69513794499426,-7.1103597564949235],[113.69515215904491,-7.1103642140923489],[113.69515213256027,-7.1103596739163111]]],[[[113.69546900077731,-7.1104030102480378],[113.69546878991308,-7.1103668668564897],[113.69545974406731,-7.1103669195140577],[113.69545963863597,-7.1103488478181243],[113.69545059279046,-7.1103489004753833],[113.69545064550594,-7.1103579363234184],[113.69541446212256,-7.1103581469509596],[113.6954144094078,-7.1103491111026527],[113.69540536356196,-7.1103491637590288],[113.69540541627656,-7.1103581996074041],[113.69539637043044,-7.1103582522636719],[113.69539631771605,-7.1103492164152309],[113.69538727187008,-7.1103492690712553],[113.69538732458432,-7.1103583049197638],[113.69536018704545,-7.1103584628869827],[113.69536023975921,-7.1103674987356911],[113.6953511939126,-7.1103675513911453],[113.69535124662626,-7.1103765872399336],[113.69534220077942,-7.1103766398952803],[113.69534214806595,-7.1103676040464245],[113.69533310221919,-7.110367656701527],[113.6953331549325,-7.1103766925504504],[113.69532410908553,-7.1103767452054445],[113.69532426722535,-7.1104038527523272],[113.69531937234608,-7.1104038812449764],[113.69543167000019,-7.110425409999845],[113.69545104899761,-7.1104270976013213],[113.69545096180016,-7.1104121514115537],[113.69546000764689,-7.1104120987538231],[113.69545995493084,-7.1104030629058768],[113.69546900077731,-7.1104030102480378]]],[[[113.69311670968817,-7.1103534442954102],[113.69310766382506,-7.1103534969069662],[113.69310771649477,-7.110362532772502],[113.69311676235807,-7.1103624801608802],[113.69311670968817,-7.1103534442954102]]],[[[113.6952424856138,-7.1103410756940884],[113.69523343976682,-7.1103411283470503],[113.69523354518921,-7.1103592000463705],[113.69520640764685,-7.1103593580046036],[113.69520635493615,-7.1103503221547424],[113.69519730908874,-7.1103503748070667],[113.69519736179927,-7.1103594106569945],[113.69518831595158,-7.1103594633092104],[113.69518826324123,-7.1103504274592151],[113.69517017154605,-7.1103505327629835],[113.69517022425606,-7.1103595686131129],[113.69516117840818,-7.1103596212648004],[113.69516122177934,-7.1103670562109214],[113.69517028451382,-7.1103698983292585],[113.69517027696612,-7.1103686044632406],[113.69517932281411,-7.1103685518113098],[113.69517934724836,-7.11037274044741],[113.69521459400016,-7.1103837939999108],[113.69526993517219,-7.1103944035589066],[113.69526988671431,-7.1103860969810659],[113.69530607010419,-7.1103858863639919],[113.69530596467855,-7.1103678146657767],[113.69531501052552,-7.1103677620112036],[113.69531495781263,-7.1103587261621568],[113.69530591196585,-7.1103587788166633],[113.69530585925321,-7.1103497429675464],[113.69528776755983,-7.1103498482758951],[113.69528782027211,-7.1103588841251479],[113.69526068273098,-7.1103590420865519],[113.69526063001921,-7.1103500062370966],[113.69524253832515,-7.1103501115436831],[113.6952424856138,-7.1103410756940884]]],[[[113.69311670968817,-7.1103534442954102],[113.69312575555121,-7.1103533916836801],[113.69312570288122,-7.1103443558182748],[113.69311665701835,-7.1103444084299383],[113.69311670968817,-7.1103534442954102]]],[[[113.69526057730752,-7.1103409703876377],[113.69526052459589,-7.1103319345381735],[113.69525147874924,-7.1103319871914206],[113.69525153146068,-7.1103410230409505],[113.69526057730752,-7.1103409703876377]]],[[[113.69294468027823,-7.1103273362845352],[113.69294473294457,-7.1103363721512967],[113.69295377880857,-7.1103363195430509],[113.69295383147514,-7.1103453554097413],[113.69294478561096,-7.1103454080180581],[113.69294494361057,-7.1103725156183115],[113.69295398947528,-7.1103724630097922],[113.69295388414179,-7.11035439127643],[113.69297197587025,-7.1103542860591356],[113.69297181786946,-7.1103271784594666],[113.69294468027823,-7.1103273362845352]]],[[[113.69305317797107,-7.1103176691087873],[113.69305328330789,-7.1103357408406964],[113.69306232917106,-7.110335688230335],[113.69306222383388,-7.11031761649856],[113.69305317797107,-7.1103176691087873]]],[[[113.69305317797107,-7.1103176691087873],[113.69305312530275,-7.1103086332428269],[113.69303503357729,-7.1103087384626162],[113.69303508624523,-7.1103177743287134],[113.69305317797107,-7.1103176691087873]]],[[[113.69312549220191,-7.1103082123566166],[113.69310740047754,-7.1103083175792268],[113.69310750581634,-7.110326389310333],[113.69311655167893,-7.1103263366989822],[113.69311660434862,-7.110335372564462],[113.69312565021129,-7.1103353199528669],[113.69312549220191,-7.1103082123566166]]],[[[113.694871236905,-7.1102799833543644],[113.69487127003579,-7.1102856635138414],[113.69488032757796,-7.1102876156861168],[113.69488028275349,-7.1102799307089235],[113.694871236905,-7.1102799833543644]]],[[[113.6930349809094,-7.1102997025965173],[113.69303487557382,-7.1102816308643062],[113.69302582971152,-7.1102816834737341],[113.69302593504673,-7.1102997552060812],[113.6930349809094,-7.1102997025965173]]],[[[113.694871236905,-7.1102799833543644],[113.69487113149796,-7.1102619116495518],[113.69483494810476,-7.1102621222290114],[113.69483500080754,-7.110271158081698],[113.69485309250463,-7.1102710527921849],[113.69485314520783,-7.1102800886447168],[113.694871236905,-7.1102799833543644]]],[[[113.69488927589798,-7.1102708422110457],[113.69488922319414,-7.110261806358765],[113.69488017734608,-7.1102618590042459],[113.69488023004975,-7.1102708948565958],[113.69488927589798,-7.1102708422110457]]],[[[113.69466302427271,-7.1102540865890038],[113.69464493257344,-7.1102541918708457],[113.69464495155495,-7.1102574464687462],[113.69466305046568,-7.1102585776450384],[113.69466302427271,-7.1102540865890038]]],[[[113.69469915497041,-7.1102448401695142],[113.69469010912128,-7.1102448928111599],[113.6946901618211,-7.1102539286649193],[113.69468111597169,-7.1102539813064576],[113.69468114937619,-7.1102597088206076],[113.69472957587664,-7.1102627354563097],[113.6947354437678,-7.1102627013079882],[113.6947354461068,-7.1102631023428593],[113.69475354501664,-7.1102642335154433],[113.69475348276491,-7.1102535601692223],[113.69469920767041,-7.1102538760232052],[113.69469915497041,-7.1102448401695142]]],[[[113.69290770684617,-7.1101920087095243],[113.69290472182395,-7.1101920260689688],[113.69290789907129,-7.1102249894551459],[113.69290770684617,-7.1101920087095243]]],[[[113.69296203467943,-7.1102007289347942],[113.69296198201378,-7.1101916930681082],[113.69295293615269,-7.1101917456754515],[113.69295298881818,-7.1102007815422068],[113.69296203467943,-7.1102007289347942]]],[[[113.69294468027823,-7.1103273362845352],[113.69294457494578,-7.1103092645509962],[113.69295362080925,-7.1103092119429521],[113.69295356814295,-7.1103001760762439],[113.69293547641631,-7.1103002812920231],[113.69293531841888,-7.1102731736914562],[113.69292627255597,-7.1102732262988786],[113.69292621989048,-7.1102641904319688],[113.69294431161583,-7.110264085217084],[113.69294425895006,-7.1102550493502896],[113.69295330481248,-7.1102549967426487],[113.69295309414933,-7.1102188532757022],[113.69294404828761,-7.1102189058830723],[113.69294389029152,-7.110191798282619],[113.69293484443028,-7.1101918508896107],[113.69293479176524,-7.1101828150227346],[113.69294383762629,-7.1101827624158096],[113.6929437849611,-7.1101737265489637],[113.69295283082194,-7.1101736739419321],[113.69295272549147,-7.1101556022083958],[113.69296177135185,-7.1101555496013216],[113.69296171868653,-7.110146513734616],[113.69295267282632,-7.1101465663416219],[113.69295262016126,-7.1101375304748435],[113.69305212461791,-7.1101369517888315],[113.69305207195097,-7.1101279159227913],[113.69298875093529,-7.110128284179523],[113.69298869826966,-7.1101192483130076],[113.69293442311175,-7.1101195639543553],[113.69293447577634,-7.1101285998212767],[113.69292542991626,-7.1101286524276173],[113.69292537725185,-7.110119616560632],[113.6929163313919,-7.1101196691667283],[113.69291638405612,-7.1101287050337856],[113.69289862844535,-7.1101288082909608],[113.69290123989271,-7.1101559016244975],[113.69290749618848,-7.1101558652411194],[113.69290754885279,-7.1101649011082264],[113.69290211037537,-7.1101649327356409],[113.692903851341,-7.1101829949578939],[113.69290765418164,-7.1101829728424475],[113.69290760151718,-7.1101739369753298],[113.69291664737827,-7.1101738843690034],[113.69291712136244,-7.1102552071721519],[113.69291081520744,-7.1102552438461171],[113.69291255617505,-7.1102733060679855],[113.69291722669303,-7.1102732789061251],[113.69291738468939,-7.1103003865070979],[113.69292643055287,-7.1103003338996489],[113.69292658855041,-7.1103274415003668],[113.69291804482609,-7.110327491187749],[113.69292465595566,-7.1103726336056665],[113.69293589774583,-7.1103725682266532],[113.69293584507939,-7.1103635323598384],[113.69292679921472,-7.110363584967935],[113.69292669388243,-7.1103455132341589],[113.69293573974674,-7.1103454606261955],[113.69293563441437,-7.1103273888925393],[113.69294468027823,-7.1103273362845352]]],[[[113.69305159795162,-7.1100465931282688],[113.69304255209404,-7.1100466457362925],[113.69304265742639,-7.1100647174685552],[113.69303361156838,-7.110064770076538],[113.69303366423448,-7.1100738059427577],[113.69305175595079,-7.1100737007264785],[113.69305170328433,-7.1100646648603947],[113.69306074914221,-7.1100646122520565],[113.69306069647564,-7.1100555763860731],[113.69305165061795,-7.110055628994342],[113.69305159795162,-7.1100465931282688]]]]},"properties":{"FID":0,"Shape_Leng":18102566.929299999,"Shape_Area":236516885.403}}]
}