{
  "type" : "FeatureCollection",
  "features" : [{"type":"Feature","id":0,"geometry":{"type":"MultiPolygon","coordinates":[[[[114.14584920972968,-7.7159668504951364],[114.14584914291348,-7.7159578185388868],[114.14584008835638,-7.7159578851881658],[114.14584015517238,-7.7159669171444953],[114.14584920972968,-7.7159668504951364]]],[[[114.14584887564952,-7.7159216907137527],[114.14584880883372,-7.7159126587574631],[114.14583975427759,-7.7159127254063478],[114.14583982109319,-7.7159217573627155],[114.14584887564952,-7.7159216907137527]]],[[[114.14561272224408,-7.7158240719826905],[114.14559461313137,-7.7158242052687527],[114.14559561528414,-7.7159596846464691],[114.14560466984341,-7.7159596180023478],[114.14560460303247,-7.7159505860439284],[114.14561365759148,-7.7159505193996951],[114.14561352396946,-7.715932455483034],[114.14560446941083,-7.7159325221271056],[114.14560433578953,-7.7159144582102686],[114.145631499464,-7.7159142582779472],[114.14563143265289,-7.7159052263197587],[114.14564048721068,-7.7159051596753478],[114.14564035358832,-7.7158870957591157],[114.14564940814567,-7.7158870291146711],[114.14564934133442,-7.7158779971566291],[114.14564028677725,-7.7158780638009938],[114.14564021996628,-7.7158690318428658],[114.14563116540924,-7.7158690984869596],[114.14563123222003,-7.715878130445164],[114.14561312310532,-7.7158782637329413],[114.14561305629492,-7.7158692317745761],[114.14560400173764,-7.7158692984180979],[114.14560393492749,-7.7158602664596518],[114.14561298948458,-7.7158601998162082],[114.14561292267435,-7.715851167857835],[114.14562197723117,-7.7158511012142812],[114.14562184361054,-7.7158330372976796],[114.14561278905408,-7.7158331039410761],[114.14561272224408,-7.7158240719826905]]],[[[114.14557630359108,-7.7157972426779038],[114.14557596954732,-7.7157520828842987],[114.14556691499219,-7.7157521495260291],[114.145567249035,-7.7157973093200303],[114.14557630359108,-7.7157972426779038]]],[[[114.14563002963814,-7.7157155551967858],[114.14563016325707,-7.7157336191133403],[114.14563921781122,-7.7157335524704314],[114.14563908419193,-7.7157154885540296],[114.14563002963814,-7.7157155551967858]]],[[[114.14557576912202,-7.715724987008044],[114.14557563550555,-7.7157069230905337],[114.14556658095138,-7.7157069897318689],[114.14556671456747,-7.7157250536495408],[114.14557576912202,-7.715724987008044]]],[[[114.14563002963814,-7.7157155551967858],[114.14562996282881,-7.7157065232384978],[114.14562090827513,-7.7157065898809813],[114.14562084146607,-7.7156975579226135],[114.1456117869125,-7.7156976245648261],[114.14561145286933,-7.7156524647725258],[114.14562050742195,-7.7156523981307048],[114.14562044061337,-7.7156433661723112],[114.14562949516569,-7.715643299530381],[114.145629428357,-7.7156342675720451],[114.14563848290905,-7.7156342009300021],[114.14563841610024,-7.7156251689717736],[114.14564747065204,-7.7156251023296178],[114.14564733703428,-7.715607038413272],[114.14563828248288,-7.715607105055267],[114.14563808205742,-7.7155800091804805],[114.14564713660826,-7.715579942538719],[114.14564680256649,-7.715534782747711],[114.14565585711628,-7.7155347161061547],[114.14565579030798,-7.7155256841480204],[114.14564673575838,-7.7155257507894968],[114.14564653533454,-7.7154986549148266],[114.14563748078541,-7.7154987215558766],[114.14563741397782,-7.7154896895975638],[114.14562835942884,-7.7154897562383447],[114.14562855985129,-7.7155168521135007],[114.14561950530164,-7.7155169187543269],[114.1456191044586,-7.7154627270034997],[114.14561004991,-7.7154627936436597],[114.14560998310331,-7.7154537616850964],[114.14561903765171,-7.7154536950450137],[114.14561890403816,-7.7154356311280274],[114.14560984949014,-7.7154356977679504],[114.14560971587731,-7.7154176338507883],[114.14561877042495,-7.7154175672110235],[114.14561870361847,-7.7154085352525144],[114.14560964907101,-7.7154086018922019],[114.14560924823492,-7.7153544101405842],[114.14560019368855,-7.7153544767796092],[114.14560106216794,-7.7154718922422711],[114.14559200761902,-7.7154719588821292],[114.14559220803869,-7.7154990547582596],[114.14557409893942,-7.7154991880378754],[114.14557436616525,-7.7155353158732867],[114.14556531161472,-7.7155353825131243],[114.14556544522773,-7.7155534464309614],[114.14555639067676,-7.7155535130707653],[114.14555645748321,-7.7155625450297549],[114.14556551203437,-7.715562478389872],[114.14556584606872,-7.7156076381843679],[114.14557490062079,-7.715607571543897],[114.14557483381355,-7.7155985395850868],[114.14558388836534,-7.7155984729445057],[114.14558382155799,-7.715589440985787],[114.14559287610952,-7.7155893743450932],[114.14559307653234,-7.7156164702210361],[114.14560213108433,-7.7156164035799168],[114.14560219789229,-7.7156254355384819],[114.14559314334011,-7.715625502179682],[114.14559327695588,-7.7156435660969569],[114.14560233150844,-7.7156434994555987],[114.14560253193329,-7.7156705953312441],[114.14559347738015,-7.7156706619728395],[114.14559394503959,-7.7157338856830746],[114.14558489048501,-7.7157339523250297],[114.14558509091113,-7.7157610482010153],[114.14559414546629,-7.7157609815588248],[114.14559447951237,-7.7158061413516519],[114.14560353406839,-7.7158060747088744],[114.14560346725881,-7.7157970427503804],[114.14561252181456,-7.71579697610749],[114.14561245500488,-7.7157879441491026],[114.14562150956037,-7.7157878775061004],[114.14562144275058,-7.7157788455477725],[114.14563049730577,-7.7157787789046592],[114.14563036368605,-7.7157607149881438],[114.14562130913123,-7.7157607816311007],[114.14562097508428,-7.7157156218393466],[114.14563002963814,-7.7157155551967858]]],[[[114.14565458777231,-7.7153631089008243],[114.14565385290224,-7.7152637573601561],[114.14564479835822,-7.7152638239993445],[114.14564553322616,-7.7153631755408796],[114.14565458777231,-7.7153631089008243]]],[[[114.14589765745414,-7.7151716384683082],[114.1458975906439,-7.7151626065121119],[114.14587948156428,-7.7151627397988793],[114.14587954837415,-7.7151717717552346],[114.14589765745414,-7.7151716384683082]]],[[[114.14593387561317,-7.715171371892164],[114.1459337419912,-7.7151533079804162],[114.14592468745195,-7.7151533746245811],[114.14592482107354,-7.7151714385364896],[114.14593387561317,-7.715171371892164]]],[[[114.14589739021363,-7.7151355106435453],[114.14587022659582,-7.7151357105726985],[114.14587029340525,-7.7151447425291302],[114.1458793479448,-7.7151446758861919],[114.14587941475449,-7.7151537078425374],[114.14589752383372,-7.7151535745559272],[114.14589739021363,-7.7151355106435453]]],[[[114.14593367518034,-7.7151442760245432],[114.14593360836957,-7.7151352440686658],[114.14592455383071,-7.7151353107126708],[114.1459246206413,-7.7151443426686281],[114.14593367518034,-7.7151442760245432]]],[[[114.14394067312531,-7.7150234535218711],[114.14394060635789,-7.7150144215485845],[114.14393155180417,-7.7150144881493778],[114.14393161857141,-7.7150235201227426],[114.14394067312531,-7.7150234535218711]]],[[[114.14561569740982,-7.7150020971151001],[114.145606642871,-7.7150021637512349],[114.14560684327927,-7.7150292596275758],[114.14559778873981,-7.7150293262637568],[114.14559985966166,-7.7153093169860787],[114.14561796875239,-7.7153091837086309],[114.14561790194686,-7.7153001517500703],[114.14560884740172,-7.715300218388812],[114.14560837976666,-7.7152369946782091],[114.14561743431047,-7.7152369280400208],[114.14561649904951,-7.715110480619277],[114.14562555359055,-7.7151104139820017],[114.14562595441588,-7.7151646057333823],[114.14563500895797,-7.7151645390954435],[114.14563494215336,-7.7151555071369691],[114.1456439966952,-7.7151554404989193],[114.14564426391492,-7.7151915683324699],[114.14565331845742,-7.7151915016939112],[114.14565238319138,-7.7150650542772814],[114.14564332865156,-7.7150651209147352],[114.14564326184764,-7.7150560889562758],[114.14565231638727,-7.7150560223189002],[114.14565218277929,-7.7150379584021769],[114.14564312824004,-7.7150380250393944],[114.14564306143635,-7.7150289930809359],[114.1456340068972,-7.7150290597178852],[114.14563407370068,-7.7150380916764174],[114.14562501916126,-7.7150381583132521],[114.14562521957164,-7.7150652541890681],[114.14561616503157,-7.7150653208259454],[114.14561569740982,-7.7150020971151001]],[[114.14563480854436,-7.7151374432200095],[114.14564386308582,-7.7151373765821152],[114.14564392989047,-7.7151464085405204],[114.14563487534882,-7.7151464751784919],[114.14563480854436,-7.7151374432200095]]],[[[114.14397682457195,-7.7150141551435087],[114.14397675780384,-7.7150051231705161],[114.14396770325064,-7.7150051897719925],[114.14396777001856,-7.715014221745065],[114.14397682457195,-7.7150141551435087]]],[[[114.14401304278472,-7.7150138887353741],[114.14401297601583,-7.7150048567626968],[114.14398581235695,-7.7150050565688506],[114.14398587912525,-7.7150140885417615],[114.14401304278472,-7.7150138887353741]]],[[[114.14404926099621,-7.7150136223241823],[114.14404919422655,-7.7150045903518221],[114.14403108512136,-7.7150047235576427],[114.14403115189063,-7.7150137555301601],[114.14404926099621,-7.7150136223241823]]],[[[114.14419393351136,-7.7149854607355417],[114.14414866075612,-7.7149857937631534],[114.14414872752771,-7.7149948257346557],[114.14416683663043,-7.7149946925240265],[114.14416697017464,-7.7150127564667024],[114.14417602472626,-7.7150126898609424],[114.14417609149868,-7.7150217218321764],[114.14415798239497,-7.7150218550436618],[114.14415804916707,-7.7150308870150823],[114.14414899461489,-7.7150309536206194],[114.1441490613869,-7.7150399855920977],[114.14416717049153,-7.7150398523806798],[114.14416710371916,-7.7150308204093569],[114.14418521282309,-7.7150306871973342],[114.1441850792778,-7.7150126232549914],[114.14419413382926,-7.7150125566488521],[114.14419393351136,-7.7149854607355417]]],[[[114.14423021848744,-7.7149942262808064],[114.14423015171411,-7.714985194310013],[114.14422109716354,-7.7149852609166834],[114.14422116393666,-7.714994292887555],[114.14423021848744,-7.7149942262808064]]],[[[114.14567894557112,-7.7149835667404778],[114.14567887876716,-7.7149745347823115],[114.14566982422947,-7.7149746014195486],[114.14566989103324,-7.7149836333777948],[114.14567894557112,-7.7149835667404778]]],[[[114.14405811523959,-7.7149864598040487],[114.14405804846999,-7.714977427831772],[114.14404899391809,-7.7149774944347325],[114.14404906068749,-7.7149865264070892],[114.14405811523959,-7.7149864598040487]]],[[[114.14394027252193,-7.7149692616820049],[114.14392216341633,-7.7149693948826092],[114.14392243048341,-7.7150055227765115],[114.14394053959053,-7.7150053895752793],[114.14394040605606,-7.7149873256286519],[114.14397662426784,-7.7149870592245202],[114.14397655749995,-7.714978027251532],[114.14394033928896,-7.7149782936553475],[114.14394027252193,-7.7149692616820049]]],[[[114.1525784130386,-7.7149237016703545],[114.15257827913905,-7.7149056378744234],[114.15256922466322,-7.7149057046570784],[114.15256935856239,-7.7149237684531675],[114.1525784130386,-7.7149237016703545]]],[[[114.14384060567231,-7.7149609623016708],[114.14384053890754,-7.7149519303274703],[114.14383148435428,-7.7149519969256088],[114.14383155111886,-7.7149610288998893],[114.14384060567231,-7.7149609623016708]]],[[[114.14385864801383,-7.7149517971306221],[114.14384959346071,-7.7149518637291425],[114.14384972699071,-7.714969927677382],[114.14384067243715,-7.7149699942758696],[114.14384073920206,-7.7149790262500781],[114.14384979375582,-7.7149789596515133],[114.1438499272863,-7.7149970235997092],[114.14390425460945,-7.714996624003355],[114.14390418784302,-7.7149875920297255],[114.14389513328955,-7.7149876586295161],[114.14389499975732,-7.7149695946820822],[114.14387689065093,-7.7149697278807752],[114.14387682388532,-7.7149606959068935],[114.14386776933218,-7.7149607625058749],[114.14386790286309,-7.7149788264538062],[114.14385884830952,-7.7149788930527565],[114.14385864801383,-7.7149517971306221]]],[[[114.14394926030748,-7.7149601631081675],[114.14394919354042,-7.7149511311349128],[114.1439401389881,-7.7149511977353429],[114.14394020575497,-7.7149602297086775],[114.14394926030748,-7.7149601631081675]]],[[[114.14396730264477,-7.714950997933478],[114.14395824809262,-7.7149510645342918],[114.14395831485987,-7.7149600965074665],[114.14396736941221,-7.7149600299065755],[114.14396730264477,-7.714950997933478]]],[[[114.14382236303663,-7.7149430315491916],[114.1438133084834,-7.714943098146871],[114.14381337524753,-7.7149521301213122],[114.14382242980093,-7.7149520635235547],[114.14382236303663,-7.7149430315491916]]],[[[114.14382236303663,-7.7149430315491916],[114.14384047214286,-7.7149428983532644],[114.14384040537826,-7.7149338663790727],[114.14382229627242,-7.7149339995748409],[114.14382236303663,-7.7149430315491916]]],[[[114.14387662358898,-7.7149335999852413],[114.14387669035435,-7.7149426319591177],[114.143885744907,-7.7149425653601051],[114.14388567814144,-7.7149335333863061],[114.14387662358898,-7.7149335999852413]]],[[[114.14396730264477,-7.714950997933478],[114.14397635719682,-7.7149509313324751],[114.1439762236618,-7.7149328673864428],[114.14396716911013,-7.7149329339872894],[114.14396730264477,-7.714950997933478]]],[[[114.14399433276489,-7.7149327341841785],[114.14398527821336,-7.714932800785407],[114.14398541174877,-7.7149508647312803],[114.14400352085249,-7.7149507315283179],[114.14400345408436,-7.7149416995555322],[114.14399439953274,-7.714941766157029],[114.14399433276489,-7.7149327341841785]]],[[[114.14387662358898,-7.7149335999852413],[114.1438765568237,-7.7149245680113268],[114.14385844771888,-7.7149247012084654],[114.14385858124876,-7.7149427651565734],[114.14386763580158,-7.7149426985579401],[114.1438675690364,-7.7149336665839856],[114.14387662358898,-7.7149335999852413]]],[[[114.1439037204803,-7.7149243682141835],[114.14390378724616,-7.7149334001878609],[114.1439128417984,-7.7149333335883536],[114.14391277503233,-7.7149243016147535],[114.1439037204803,-7.7149243682141835]]],[[[114.14402149641893,-7.714932534379348],[114.14402142965058,-7.7149235024066938],[114.14401237509949,-7.714923569008417],[114.14401244186764,-7.7149326009811485],[114.14402149641893,-7.714932534379348]]],[[[114.14408487827556,-7.7149320681613895],[114.14408481150586,-7.7149230361892887],[114.14407575695535,-7.7149231027923477],[114.14407582372485,-7.7149321347645277],[114.14408487827556,-7.7149320681613895]]],[[[114.14411197515693,-7.7149228363789621],[114.14410292060664,-7.7149229029825959],[114.14410298737671,-7.7149319349545387],[114.14409393282618,-7.7149320015580605],[114.14409399959615,-7.7149410335300441],[114.14408494504534,-7.7149411001334514],[114.14408514535513,-7.7149681960496652],[114.14410325445782,-7.7149680628421846],[114.1441033212283,-7.714977094814107],[114.14408521212523,-7.7149772280217466],[114.1440852788954,-7.7149862599937862],[114.14410338799885,-7.7149861267859903],[114.14410345476949,-7.7149951587578878],[114.14411250932132,-7.7149950921536234],[114.14411257609223,-7.7150041241254357],[114.14413068519598,-7.7150039909161769],[114.14413061842468,-7.7149949589445201],[114.14412156387303,-7.7149950255491682],[114.1441213635602,-7.7149679296339384],[114.14411230900906,-7.7149679962381565],[114.14411197515693,-7.7149228363789621]]],[[[114.1441392055781,-7.7149316685385463],[114.14413913880726,-7.7149226365669188],[114.14413008425723,-7.7149227031711236],[114.14413015102788,-7.7149317351428301],[114.1441392055781,-7.7149316685385463]]],[[[114.1438765568237,-7.7149245680113268],[114.14388561137596,-7.7149245014124688],[114.14388554461057,-7.7149154694386448],[114.14387649005849,-7.7149155360374229],[114.1438765568237,-7.7149245680113268]]],[[[114.1439037204803,-7.7149243682141835],[114.14390365371452,-7.714915336240515],[114.14389459916258,-7.7149154028396749],[114.14389466592817,-7.7149244348134225],[114.1439037204803,-7.7149243682141835]]],[[[114.14391277503233,-7.7149243016147535],[114.14392182958431,-7.7149242350151326],[114.14392176281815,-7.714915203041623],[114.14391270826637,-7.7149152696411667],[114.14391277503233,-7.7149243016147535]]],[[[114.14394906000653,-7.7149330671884071],[114.1439489932397,-7.7149240352151223],[114.14395804779134,-7.7149239686147384],[114.14395798102441,-7.714914936641545],[114.14393081736984,-7.7149151364418902],[114.14393095090263,-7.7149332003887618],[114.14394906000653,-7.7149330671884071]]],[[[114.14399419922941,-7.714914670238409],[114.1439941324618,-7.7149056382655283],[114.14398507791086,-7.7149057048665197],[114.14398514467827,-7.7149147368394804],[114.14399419922941,-7.714914670238409]]],[[[114.1440571804725,-7.7148600121915063],[114.14405711370404,-7.7148509802191674],[114.14404805915481,-7.714851046821023],[114.14404812592309,-7.7148600787934409],[114.1440571804725,-7.7148600121915063]]],[[[114.14420191970919,-7.7148408825923998],[114.14420185293783,-7.7148318506212981],[114.14419279839026,-7.7148319172260527],[114.14419286516144,-7.7148409491972334],[114.14420191970919,-7.7148408825923998]]],[[[114.14422002880443,-7.7148407493821605],[114.14421996203266,-7.714831717411216],[114.14421090748529,-7.7148317840163516],[114.14421097425685,-7.7148408159873751],[114.14422002880443,-7.7148407493821605]]],[[[114.14448261064928,-7.7148388177478093],[114.14448254387196,-7.7148297857791519],[114.1444734893269,-7.7148298523898298],[114.14447355610402,-7.7148388843585671],[114.14448261064928,-7.7148388177478093]]],[[[114.14557800962832,-7.7148036605589052],[114.14557814322905,-7.7148217244771526],[114.14556908869375,-7.7148217911109445],[114.14556902189354,-7.7148127591517532],[114.14555996735832,-7.7148128257852751],[114.14556016775863,-7.714839921663077],[114.14558733136572,-7.7148397217612237],[114.14558739816655,-7.7148487537202266],[114.14557834363075,-7.7148488203544465],[114.14557841043148,-7.7148578523135596],[114.14558746496748,-7.7148577856792615],[114.14558753176848,-7.7148668176382733],[114.14557847723229,-7.7148668842726531],[114.14557854403317,-7.7148759162317404],[114.14558759856956,-7.7148758495972816],[114.14558766537071,-7.7148848815562854],[114.1455967199072,-7.7148848149215574],[114.14559678670864,-7.7148938468804777],[114.14562395031818,-7.714893646974911],[114.14562415072469,-7.7149207428509516],[114.14561509618768,-7.7149208094865678],[114.14561496258365,-7.7149027455690478],[114.1455877989733,-7.7149029454742788],[114.14558773217196,-7.7148939135152848],[114.1455786776352,-7.7148939801498999],[114.14557881123754,-7.7149120440680443],[114.14558786577469,-7.7149119774332702],[114.14558799937774,-7.7149300413512378],[114.14560610845253,-7.7149299080808014],[114.14560624205666,-7.714947971998436],[114.14563340566943,-7.7149477720908752],[114.14563333886673,-7.7149387401322969],[114.14564239340399,-7.7149386734961416],[114.14564252700981,-7.7149567374131358],[114.14563347247218,-7.7149568040494501],[114.14563353927502,-7.7149658360080382],[114.14565164835057,-7.7149657027350589],[114.14565171515387,-7.714974734693449],[114.14566076969173,-7.7149746680565938],[114.1456606360848,-7.7149566041399336],[114.14566969062219,-7.7149565375030464],[114.14566949021183,-7.7149294416282581],[114.14566043567504,-7.7149295082649081],[114.14566036887194,-7.7149204763065748],[114.14564225979848,-7.7149206095791456],[114.14564219299585,-7.7149115776206152],[114.14563313845917,-7.7149116442565351],[114.14563293805233,-7.7148845483807351],[114.14562388351618,-7.7148846150162269],[114.14562381671425,-7.7148755830575384],[114.14563287125021,-7.7148755164221257],[114.14563280444818,-7.7148664844635126],[114.1456237499124,-7.7148665510988472],[114.14562361630895,-7.714848487181432],[114.14563267084434,-7.7148484205462555],[114.14563260404255,-7.7148393885876461],[114.14564165857769,-7.7148393219523586],[114.14564172537968,-7.714848353910889],[114.14565983445007,-7.7148482206395803],[114.1456597676477,-7.7148391886812062],[114.14565071311272,-7.7148392553168783],[114.14565051270667,-7.714812159441446],[114.14564145817221,-7.7148122260766874],[114.14564159177577,-7.714830289993805],[114.14562348270582,-7.7148304232640337],[114.14562341590438,-7.7148213913053203],[114.14559625229943,-7.7148215912089899],[114.14559618549863,-7.7148125592500358],[114.14558713096369,-7.7148126258841323],[114.14558706416318,-7.7148035939250788],[114.14557800962832,-7.7148036605589052]]],[[[114.1440663017906,-7.7148689775616708],[114.14407535634004,-7.7148689109592752],[114.14407542310906,-7.7148779429314658],[114.14408447765862,-7.7148778763288002],[114.14408441088941,-7.7148688443566913],[114.14409346543869,-7.7148687777539111],[114.14409333190012,-7.7148507138098363],[114.14411144099769,-7.7148505806040237],[114.14411137422816,-7.7148415486321351],[114.14410231967958,-7.7148416152350583],[114.14410205260299,-7.7148054873471503],[114.14409299805514,-7.7148055539495664],[114.14409306482398,-7.7148145859216131],[114.14408401027585,-7.7148146525239163],[114.1440839435072,-7.7148056205517923],[114.14406583441107,-7.7148057537556696],[114.1440660347161,-7.714832849672554],[114.14405698016733,-7.7148329162744442],[114.14405704693564,-7.714841948246808],[114.1440661014846,-7.7148418816448405],[114.1440663017906,-7.7148689775616708]]],[[[114.14412016169848,-7.7148053541417463],[114.14411110715078,-7.7148054207445425],[114.14411130745869,-7.7148325166602438],[114.14412036200696,-7.7148324500572096],[114.14412029523739,-7.7148234180853938],[114.14412934978539,-7.714823351482246],[114.14412941655516,-7.7148323834539836],[114.14413847110328,-7.7148323168505666],[114.14413840433332,-7.7148232848789071],[114.14414745888115,-7.7148232182753791],[114.14414739211108,-7.7148141863037765],[114.1441202284679,-7.7148143861135541],[114.14412016169848,-7.7148053541417463]]],[[[114.14565044590481,-7.7148031274829423],[114.14565037910303,-7.7147940955244687],[114.14564132456896,-7.7147941621595528],[114.14564139137053,-7.7148031941181072],[114.14565044590481,-7.7148031274829423]]],[[[114.1444370708173,-7.7148030229234461],[114.14443700404128,-7.7147939909543783],[114.1444188949518,-7.7147941241729976],[114.14441896172745,-7.7148031561422261],[114.1444370708173,-7.7148030229234461]]],[[[114.14447328899601,-7.7148027564835955],[114.14447322221922,-7.7147937245148412],[114.14444605858587,-7.7147939243447805],[114.14444612536209,-7.7148029563137701],[114.14447328899601,-7.7148027564835955]]],[[[114.14430118586243,-7.714794990075406],[114.14430111908936,-7.7147859581051499],[114.14429206454365,-7.7147860247116142],[114.14429213131655,-7.7147950566819476],[114.14430118586243,-7.714794990075406]]],[[[114.1445908645095,-7.7147838265975119],[114.14457275542314,-7.7147839598224701],[114.14457302253894,-7.7148200876940036],[114.14456396799487,-7.714820154306512],[114.14456390121599,-7.7148111223385394],[114.14455484667205,-7.7148111889507796],[114.1445549802295,-7.7148292528868616],[114.14457308931809,-7.7148291196618786],[114.14457315609731,-7.7148381516297437],[114.14458221064166,-7.7148380850168872],[114.14458214386225,-7.7148290530490984],[114.14460025295034,-7.7148289198229678],[114.14460018617062,-7.7148198878553336],[114.14460924071436,-7.7148198212420604],[114.1446090403751,-7.7147927253393656],[114.1445909312887,-7.7147928585652457],[114.1445908645095,-7.7147838265975119]],[[114.14458201030365,-7.7148109891134897],[114.14459106484736,-7.7148109225006776],[114.14459113162683,-7.714819954468414],[114.1445820770829,-7.714820021081306],[114.14458201030365,-7.7148109891134897]]],[[[114.14474479173037,-7.7147826941545086],[114.14473573718863,-7.7147827607703325],[114.14473587075325,-7.7148008247032669],[114.14475397983746,-7.7148006914711145],[114.14475391305473,-7.7147916595048072],[114.14474485851284,-7.7147917261209003],[114.14474479173037,-7.7147826941545086]]],[[[114.14479918576288,-7.7147913264214791],[114.14480824030427,-7.7147912598042412],[114.14480817352046,-7.7147822278384037],[114.14479911897928,-7.7147822944555617],[114.14479918576288,-7.7147913264214791]]],[[[114.1448263493868,-7.7147911265691897],[114.14482628260262,-7.7147820946035077],[114.14481722806157,-7.7147821612210512],[114.14481729484557,-7.7147911931868096],[114.1448263493868,-7.7147911265691897]]],[[[114.14422002880443,-7.7148407493821605],[114.14422009557627,-7.7148497813531014],[114.14432875014327,-7.7148489820746686],[114.14432861659508,-7.7148309181346777],[114.14431050750214,-7.7148310513493428],[114.14431057427582,-7.7148400833194994],[114.14428341063525,-7.7148402831403047],[114.14428334386216,-7.7148312511699126],[114.14427428931533,-7.7148313177763841],[114.14427435608823,-7.7148403497468561],[114.14423813789936,-7.7148406161711574],[114.14423800435515,-7.7148225522295784],[114.14424705890211,-7.7148224856239462],[114.14424699212994,-7.714813453653214],[114.14423793758317,-7.7148135202587662],[114.14423787081128,-7.7148044882879816],[114.14422881626463,-7.7148045548932629],[114.14422874949298,-7.7147955229223797],[114.14423780403945,-7.7147954563171766],[114.14423773726772,-7.7147864243463697],[114.14425584636001,-7.7147862911355478],[114.14425577958798,-7.7147772591648911],[114.14422861594998,-7.7147774589805991],[114.14422868272145,-7.7147864909514929],[114.14421057362865,-7.7147866241611682],[114.14421077394239,-7.7148137200742752],[114.1442198284894,-7.7148136534692968],[114.14421989526099,-7.7148226854402671],[114.14422894980812,-7.7148226188350177],[114.14422908335195,-7.7148406827767539],[114.14422002880443,-7.7148407493821605]]],[[[114.15464129067811,-7.7147007369623308],[114.15464135766983,-7.7147097688423489],[114.15463230321623,-7.7147098356669801],[114.15463243719948,-7.7147278994271637],[114.15462338274544,-7.7147279662517594],[114.15462344973699,-7.7147369981319081],[114.15465061309948,-7.7147367976573085],[114.15465054610735,-7.7147277657773978],[114.15465960056115,-7.7147276989522267],[114.15465946657673,-7.7147096351925191],[114.15465041212332,-7.7147097020175295],[114.15465034513143,-7.7147006701375904],[114.15464129067811,-7.7147007369623308]]],[[[114.14458160962978,-7.7147567973066282],[114.14453633691579,-7.714757130365455],[114.14453640369362,-7.7147661623336887],[114.14454545823678,-7.7147660957222275],[114.14454552501486,-7.7147751276903458],[114.14458174318742,-7.7147748612422724],[114.14458160962978,-7.7147567973066282]]],[[[114.14460884003657,-7.7147656294366458],[114.1446087732572,-7.7147565974690409],[114.14459971871482,-7.7147566640817589],[114.14459978549398,-7.7147656960494446],[114.14460884003657,-7.7147656294366458]]],[[[114.14479911897928,-7.7147822944555617],[114.14479905219574,-7.7147732624896399],[114.14478999765464,-7.7147733291065306],[114.1447898640882,-7.7147552651745164],[114.14478080954741,-7.7147553317910562],[114.14478087633042,-7.714764363757161],[114.14477182178935,-7.7147644303735898],[114.14477195535518,-7.7147824943058945],[114.14478100989662,-7.7147824276893076],[114.14478114346316,-7.7148004916214541],[114.14479925254658,-7.7148003583873921],[114.14479918576288,-7.7147913264214791],[114.1447901312214,-7.7147913930385261],[114.14479006443798,-7.7147823610725306],[114.14479911897928,-7.7147822944555617]]],[[[114.14481709449382,-7.7147640972895344],[114.14481702771006,-7.7147550653237458],[114.14480797316953,-7.7147551319408594],[114.14480803995309,-7.7147641639067279],[114.14481709449382,-7.7147640972895344]]],[[[114.15464129067811,-7.7147007369623308],[114.15464115669496,-7.7146826732022813],[114.15460493888241,-7.7146829404987001],[114.15460500587318,-7.7146919723790601],[114.15461406032662,-7.7146919055551626],[114.15461419430879,-7.7147099693156642],[114.15462324876256,-7.7147099024914185],[114.15462318177124,-7.7147008706112388],[114.15464129067811,-7.7147007369623308]]],[[[114.14425564604413,-7.714759195223567],[114.14425551250061,-7.7147411312822243],[114.14423740341022,-7.7147412644922575],[114.14423753695299,-7.7147593284339155],[114.14425564604413,-7.714759195223567]]],[[[114.14427368836277,-7.7147500300419445],[114.14427362159067,-7.7147409980714281],[114.14426456704568,-7.7147410646769234],[114.14426463381758,-7.714750096647518],[114.14427368836277,-7.7147500300419445]]],[[[114.1440663017906,-7.7148689775616708],[114.14404819269146,-7.7148691107658882],[114.14404825945991,-7.7148781427383151],[114.14403920491003,-7.714878209340216],[114.14403907137361,-7.7148601453951837],[114.14403001682402,-7.7148602119967364],[114.1440298832883,-7.7148421480515639],[114.14402082873904,-7.7148422146527666],[114.14402076197149,-7.7148331826800876],[114.14400265287308,-7.7148333158817639],[114.144002519339,-7.7148152519360575],[114.14401157388785,-7.7148151853354712],[114.14401103975321,-7.7147429295531884],[114.14398387611098,-7.7147431293524757],[114.1439838093451,-7.7147340973794307],[114.14397475479772,-7.714734163978731],[114.1439746880321,-7.7147251320056034],[114.14395657893748,-7.7147252652034775],[114.14395677923345,-7.7147523611233186],[114.14394772468545,-7.7147524277222059],[114.14394792498155,-7.7147795236422461],[114.14393887043289,-7.7147795902411769],[114.14393873690246,-7.714761526294331],[114.14391374840208,-7.7147617100908548],[114.14391158896022,-7.7147638504165341],[114.14391164002176,-7.7147707580631852],[114.14390456713103,-7.714770810085783],[114.14390259977918,-7.7147727600218055],[114.14390271900204,-7.7147888886087257],[114.1438862045878,-7.7147890100754655],[114.14387912600012,-7.7147960259998261],[114.14388833000021,-7.7148175029998969],[114.14388526200014,-7.7148205709999829],[114.14387708000015,-7.7148277299999846],[114.14387401200008,-7.7148297749999433],[114.14386992100005,-7.7148318209998523],[114.14385867200008,-7.7148389789999818],[114.14384639900004,-7.7148461379998627],[114.14383310400001,-7.7148563649999398],[114.1437856080322,-7.7148706788112502],[114.14378561071787,-7.7148710421411666],[114.14378437220741,-7.7148710512504284],[114.14377657311465,-7.7148734016545006],[114.14377675645417,-7.7148982046618135],[114.14378581100678,-7.714898138065295],[114.14378594453312,-7.7149162020146917],[114.14379499908601,-7.7149161354178251],[114.14379506584949,-7.7149251673924377],[114.14381317495544,-7.7149250341979725],[114.14381310819158,-7.714916002223517],[114.14383121729681,-7.7149158690284452],[114.14383101700454,-7.7148887731055256],[114.14384007155647,-7.7148887065079403],[114.14384013832066,-7.7148977384821711],[114.14389446563165,-7.7148973388921727],[114.14389439886629,-7.7148883069184135],[114.14390345341766,-7.7148882403194889],[114.14390365371452,-7.714915336240515],[114.14391270826637,-7.7149152696411667],[114.14391250796893,-7.7148881737203761],[114.14393061707125,-7.7148880405215747],[114.14393068383737,-7.7148970724950177],[114.14393973838858,-7.714897005895252],[114.14393967162228,-7.7148879739218872],[114.14395778072411,-7.7148878407219383],[114.1439578474908,-7.714896872695145],[114.1439669020418,-7.7148968060948055],[114.14396683527491,-7.7148877741216797],[114.14397588982561,-7.7148877075212274],[114.14397582305862,-7.7148786755481744],[114.14399393215943,-7.714878542346856],[114.14399386539215,-7.7148695103739575],[114.14400291994222,-7.7148694437730887],[114.14400285317483,-7.7148604118002471],[114.14401190772462,-7.7148603451992681],[114.14401197449223,-7.7148693771720316],[114.14402102904216,-7.7148693105707826],[114.14402116257797,-7.7148873745161044],[114.1440302171282,-7.7148873079145055],[114.14403028389643,-7.7148963398870807],[114.14404839299704,-7.7148962066831546],[114.14404832622843,-7.7148871747107375],[114.14405738077841,-7.7148871081085666],[114.1440573140097,-7.7148780761362223],[114.14406636855942,-7.7148780095339395],[114.1440663017906,-7.7148689775616708]],[[114.14399379862492,-7.7148604784010351],[114.14396663497476,-7.7148606782022542],[114.1439665682082,-7.7148516462291266],[114.14395751365817,-7.7148517128290717],[114.14395744689187,-7.7148426808558419],[114.14394839234197,-7.714842747455517],[114.14394832557595,-7.7148337154822064],[114.14395738012567,-7.7148336488826095],[114.14395731335954,-7.7148246169093717],[114.14396636790902,-7.7148245503096637],[114.14396630114277,-7.7148155183364855],[114.14398441024103,-7.7148153851366521],[114.14398447700766,-7.7148244171096749],[114.14399353155687,-7.7148243505093923],[114.14399366509075,-7.714842414455231],[114.14400271964026,-7.714842347854602],[114.1440027864075,-7.7148513798274339],[114.14399373185779,-7.7148514464281446],[114.14399379862492,-7.7148604784010351]],[[114.14392136222286,-7.7148610112004627],[114.14391230767222,-7.7148610777995312],[114.14391224090681,-7.7148520458259284],[114.14392129545725,-7.7148519792269408],[114.14392136222286,-7.7148610112004627]],[[114.14390325312152,-7.7148611443984079],[114.14389419857073,-7.7148612109970953],[114.14389413180569,-7.7148521790233344],[114.1439031863563,-7.7148521124247287],[114.14390325312152,-7.7148611443984079]]],[[[114.14460850614061,-7.7147204695986478],[114.14460843936168,-7.7147114376310366],[114.14459938482024,-7.7147115042433638],[114.14459945159899,-7.7147205362110514],[114.14460850614061,-7.7147204695986478]]],[[[114.14574897692412,-7.7146578831610642],[114.14573086786338,-7.7146580164328791],[114.14573093466566,-7.7146670483907247],[114.14573998919626,-7.7146669817548359],[114.14574012280148,-7.7146850456703557],[114.14577634092463,-7.7146847791242523],[114.1457762741212,-7.7146757471668099],[114.14576721959072,-7.7146758138035425],[114.14576715278758,-7.7146667818460175],[114.14574904372681,-7.7146669151187517],[114.14574897692412,-7.7146578831610642]]],[[[114.14426416641589,-7.7146868728532665],[114.14427322095975,-7.7146868062482454],[114.14427311551752,-7.7146725434139176],[114.14415320700016,-7.7146692129999774],[114.14408468700002,-7.7146712579999583],[114.14405579936546,-7.7146731834656217],[114.14405591188527,-7.7146884047160089],[114.14406496643099,-7.7146883381153835],[114.14406503319822,-7.7146973700877393],[114.14407408774402,-7.7146973034868429],[114.1440740209766,-7.7146882715145644],[114.14417362097306,-7.7146875388929645],[114.14417375451215,-7.714705602835779],[114.14416469996704,-7.7147056694388549],[114.14416476673652,-7.7147147014103332],[114.14417382128184,-7.7147146348071773],[114.14417388805158,-7.7147236667785739],[114.144182942597,-7.7147236001751507],[114.14418287582706,-7.7147145682038314],[114.14419193037219,-7.7147145016002936],[114.14419179683216,-7.7146964376578042],[114.14420990592143,-7.7146963044504711],[114.1442099726918,-7.7147053364215603],[114.14427335450307,-7.7147048701893244],[114.14427328773137,-7.7146958382187867],[114.14426423318733,-7.714695904823885],[114.14426416641589,-7.7146868728532665]]],[[[114.15276621368432,-7.7146061828139727],[114.1527661467333,-7.7145971509175189],[114.15275709226566,-7.7145972177014954],[114.15275715921648,-7.7146062495980292],[114.15276621368432,-7.7146061828139727]]],[[[114.1455226136417,-7.7146595490038115],[114.14552248004617,-7.7146414850844609],[114.1455134255142,-7.7146415517155296],[114.14551355910936,-7.7146596156350409],[114.1455226136417,-7.7146595490038115]]],[[[114.14570363747004,-7.7146491843810798],[114.14570357066849,-7.7146401524229722],[114.14569451613812,-7.71464021905786],[114.14569458293948,-7.7146492510160494],[114.14570363747004,-7.7146491843810798]]],[[[114.14567714189239,-7.714739703868454],[114.14567720869427,-7.714748735826733],[114.14566815416138,-7.7147488024619957],[114.14566822096313,-7.7147578344203689],[114.14569538456213,-7.7147576345137683],[114.1456951173533,-7.7147215066812542],[114.14568606282116,-7.7147215733166625],[114.14568599601934,-7.7147125413584465],[114.14567694148728,-7.7147126079935866],[114.14567687468573,-7.7147035760352898],[114.14568592921759,-7.7147035094002296],[114.14568572881286,-7.7146764135255479],[114.14569478334406,-7.7146763468905322],[114.14569485014574,-7.714685378848686],[114.14571295920828,-7.7146852455779262],[114.14571282560422,-7.7146671816619321],[114.14570377107339,-7.7146672482972498],[114.14570370427168,-7.7146582163391679],[114.14569464974093,-7.7146582829742156],[114.14569471654245,-7.7146673149323766],[114.14568566201146,-7.7146673815673115],[114.14568559521013,-7.7146583496090706],[114.14567654067922,-7.7146584162437355],[114.14567647387815,-7.714649384285412],[114.14568552840886,-7.7146493176508244],[114.14568545147795,-7.7146389160843922],[114.14568417700002,-7.7146391709998658],[114.14565466197934,-7.7146405123537818],[114.14566735254658,-7.7146404189613831],[114.14566755294921,-7.7146675148366075],[114.14565849841796,-7.7146675814709695],[114.14565843161721,-7.7146585495124933],[114.14563126802354,-7.7146587494141956],[114.14563120122344,-7.7146497174554787],[114.14562214669226,-7.7146497840889188],[114.14562221349216,-7.7146588160477148],[114.14559504989755,-7.7146590159471256],[114.14559525029605,-7.7146861118242001],[114.14554997763388,-7.7146864449872492],[114.14555004443258,-7.7146954769466607],[114.14555909896535,-7.714695410314353],[114.14555949976042,-7.7147496020702562],[114.14555044522649,-7.7147496687030364],[114.14555084602331,-7.7148038604592362],[114.14557800962832,-7.7148036605589052],[114.14557774242782,-7.7147675327224068],[114.14561396056367,-7.7147672661872173],[114.14561402736443,-7.7147762981460355],[114.14562308189838,-7.7147762315116832],[114.14562301509741,-7.7147671995529414],[114.14565017869819,-7.7147669996489698],[114.14565011189673,-7.7147579676904794],[114.14565916642998,-7.7147579010555196],[114.14565896602554,-7.7147308051801886],[114.14566802055812,-7.7147307385452732],[114.14566808735971,-7.7147397705036385],[114.14567714189239,-7.714739703868454],[114.1456770750906,-7.7147306719101687],[114.14568612962304,-7.7147306052748714],[114.14568619642503,-7.7147396372330777],[114.14567714189239,-7.714739703868454]],[[114.14558659656181,-7.7147403702117012],[114.14556848749473,-7.7147405034780574],[114.14556815349808,-7.7146953436818571],[114.14559531709571,-7.714695143783219],[114.14559545069528,-7.7147132077012373],[114.14558639616243,-7.7147132743344651],[114.14558632936281,-7.7147042423753804],[114.14557727483005,-7.7147043090083391],[114.14557740842901,-7.7147223729266665],[114.14558646296214,-7.7147223062935497],[114.14558659656181,-7.7147403702117012]],[[114.14561349296054,-7.7147040424753586],[114.14562254749293,-7.714703975841636],[114.14562261429333,-7.7147130078004063],[114.14561355976073,-7.714713074434207],[114.14561349296054,-7.7147040424753586]],[[114.14558666336177,-7.714749402170769],[114.14559571789538,-7.7147493355372267],[114.1455957846956,-7.7147583674962297],[114.1455867301618,-7.7147584341298518],[114.14558666336177,-7.714749402170769]]],[[[114.14563828191254,-7.7146406328973862],[114.14563109950616,-7.7146359643685898],[114.14563113442341,-7.7146406854967369],[114.14563828191254,-7.7146406328973862]]],[[[114.15279324318419,-7.7145879186682009],[114.15279317623276,-7.7145788867719896],[114.15278412176575,-7.7145789535563836],[114.15278418871698,-7.7145879854526722],[114.15279324318419,-7.7145879186682009]]],[[[114.14561289176231,-7.71462275484551],[114.14560383723153,-7.714622821478331],[114.14560390403082,-7.7146318534373002],[114.14561295856178,-7.7146317868044001],[114.14561289176231,-7.71462275484551]]],[[[114.15329110483161,-7.7145661814443569],[114.15327299590682,-7.7145663150338057],[114.15327306286831,-7.7145753469258436],[114.15328211733095,-7.7145752801311342],[114.15328218429269,-7.7145843120230735],[114.15329123875544,-7.7145842452280968],[114.15329110483161,-7.7145661814443569]]],[[[114.14561289176231,-7.71462275484551],[114.14561815639561,-7.7146227161026788],[114.14561717044617,-7.714613690907921],[114.14561282496291,-7.7146137228866172],[114.14561289176231,-7.71462275484551]]],[[[114.15271155212768,-7.7145614240307525],[114.15271161907721,-7.7145704559277002],[114.15269351014207,-7.7145705894926957],[114.15269357709131,-7.714579621389797],[114.15270263155911,-7.7145795546073153],[114.15270269850862,-7.7145885865043162],[114.15271175297653,-7.7145885197215653],[114.15271181992631,-7.7145975516185157],[114.15270276545822,-7.7145976184013456],[114.15270303325737,-7.7146337459893584],[114.15271208772623,-7.7146336792062078],[114.15271215467642,-7.7146427111031217],[114.15272120914541,-7.7146426443197047],[114.15272114219505,-7.7146336124228707],[114.15273925113239,-7.7146334788556201],[114.1527389163798,-7.7145883193721634],[114.15274797084741,-7.714588252588646],[114.15274790389694,-7.7145792206920412],[114.15273884942953,-7.7145792874754768],[114.15273871552922,-7.714561223682062],[114.15271155212768,-7.7145614240307525]]],[[[114.15294703520483,-7.7145687195132115],[114.15294696825032,-7.71455968761832],[114.15293791378507,-7.7145597544058022],[114.1529379807394,-7.714568786300771],[114.15294703520483,-7.7145687195132115]]],[[[114.15321860217014,-7.7145576839050483],[114.15320049324441,-7.7145578174912819],[114.1532005602043,-7.7145668493839574],[114.15320961466739,-7.7145667825908575],[114.15320968162754,-7.7145758144834504],[114.15322779055388,-7.7145756808965187],[114.15322772359335,-7.714566649004083],[114.15321866913041,-7.7145667157975666],[114.15321860217014,-7.7145576839050483]]],[[[114.14551322512207,-7.7146144558362737],[114.14551315832487,-7.7146054238765078],[114.1455041037936,-7.7146054905070685],[114.14550417059063,-7.7146145224669143],[114.14551322512207,-7.7146144558362737]]],[[[114.15271155212768,-7.7145614240307525],[114.15271148517822,-7.7145523921337995],[114.15270243071107,-7.7145524589162351],[114.15270249766034,-7.7145614908132663],[114.15271155212768,-7.7145614240307525]]],[[[114.15291068343518,-7.7145509228718891],[114.15291075038886,-7.7145599547671013],[114.15291980485433,-7.7145598879801929],[114.15291973790048,-7.7145508560850606],[114.15291068343518,-7.7145509228718891]]],[[[114.15291068343518,-7.7145509228718891],[114.15291054952809,-7.7145328590814524],[114.15290149506311,-7.7145329258679318],[114.15290156201642,-7.7145419577632142],[114.15289250755114,-7.7145420245495826],[114.15289257450435,-7.7145510564449742],[114.15288352003881,-7.7145511232312298],[114.1528835869919,-7.7145601551266791],[114.15290169592329,-7.7145600215538179],[114.15290162896981,-7.7145509896585267],[114.15291068343518,-7.7145509228718891]]],[[[114.15321833432991,-7.7145215563349359],[114.15320022540571,-7.7145216899205353],[114.15320029236527,-7.7145307218132286],[114.15319123790286,-7.7145307886058214],[114.1531913048623,-7.7145398204985733],[114.1532003593249,-7.7145397537059006],[114.15320042628463,-7.7145487855986019],[114.15320948074734,-7.714548718805661],[114.15320934682761,-7.7145306550204449],[114.15321840128985,-7.7145305882274684],[114.15321833432991,-7.7145215563349359]]],[[[114.15321833432991,-7.7145215563349359],[114.15323644325379,-7.714521422748569],[114.15323637629355,-7.7145123908561892],[114.15321826737005,-7.7145125244423962],[114.15321833432991,-7.7145215563349359]]],[[[114.15326367359988,-7.7145302542597296],[114.15329989144647,-7.7145299870820985],[114.15329975752321,-7.7145119232984474],[114.15325448521671,-7.7145122572692175],[114.15325455217733,-7.7145212891614392],[114.15324549771559,-7.7145213559551014],[114.1532455646761,-7.7145303878473994],[114.15325461913804,-7.71453032105366],[114.15325468609882,-7.7145393529458568],[114.15326374056086,-7.7145392861518474],[114.15326367359988,-7.7145302542597296]]],[[[114.15290136115671,-7.7145148620773201],[114.15290129420364,-7.7145058301820066],[114.15289223973913,-7.7145058969680607],[114.152892306692,-7.7145149288634505],[114.15290136115671,-7.7145148620773201]]],[[[114.15269304149969,-7.7145073662128629],[114.15269297455109,-7.7144983343157438],[114.15266581115235,-7.7144985346599073],[114.15266607894488,-7.7145346622493589],[114.15267513341199,-7.7145345954678453],[114.15267506646354,-7.7145255635705645],[114.15268412093036,-7.7145254967889398],[114.1526840539818,-7.7145164648917337],[114.15267499951517,-7.7145165316732784],[114.15267493256688,-7.7145074997759862],[114.15269304149969,-7.7145073662128629]]],[[[114.15270243071107,-7.7145524589162351],[114.15270236376189,-7.7145434270191817],[114.15271141822885,-7.714543360236827],[114.15271135127955,-7.7145343283398828],[114.15272040574625,-7.7145342615574135],[114.15272027184751,-7.7145161977636389],[114.15272932631373,-7.7145161309811385],[114.15272925936429,-7.7145070990843232],[114.15271115043215,-7.714507232648975],[114.15271101653428,-7.7144891688550148],[114.15270196206848,-7.7144892356368953],[114.15270209596595,-7.7145072994310135],[114.15269304149969,-7.7145073662128629],[114.15269337624385,-7.7145525256984806],[114.15270243071107,-7.7145524589162351]]],[[[114.15302792278689,-7.7144868313688031],[114.15302785583137,-7.7144777994745848],[114.1530097469057,-7.7144779330513726],[114.15300981386082,-7.7144869649457481],[114.15302792278689,-7.7144868313688031]]],[[[114.13868548566928,-7.7145833529333023],[114.13868541901719,-7.7145743209140516],[114.13867636442696,-7.7145743873998613],[114.13867643107885,-7.7145834194191849],[114.13868548566928,-7.7145833529333023]]],[[[114.15290109334489,-7.7144787344960433],[114.15290102639214,-7.714469702600713],[114.15287386300068,-7.7144699029573465],[114.15287392995286,-7.714478934852913],[114.15290109334489,-7.7144787344960433]]],[[[114.15300075939768,-7.7144870317339329],[114.15300062548789,-7.7144689679450176],[114.1529825165621,-7.7144691015204998],[114.15298265047115,-7.7144871653097313],[114.15300075939768,-7.7144870317339329]]],[[[114.14553952035108,-7.7144968404689775],[114.14553945355433,-7.7144878085093929],[114.14552134449715,-7.714487941769419],[114.14552141129352,-7.7144969737291627],[114.14553952035108,-7.7144968404689775]]],[[[114.15287366214464,-7.7144428072706157],[114.15287359519277,-7.7144337753750314],[114.15286454072957,-7.7144338421598784],[114.15286460768124,-7.7144428740555417],[114.15287366214464,-7.7144428072706157]]],[[[114.14543079920648,-7.7144886080580912],[114.14543073241212,-7.7144795760975517],[114.14542167788281,-7.7144796427252889],[114.14542174467698,-7.7144886746859074],[114.14543079920648,-7.7144886080580912]]],[[[114.15282859067999,-7.7144702368812457],[114.15282852372884,-7.7144612049852794],[114.15283757819296,-7.7144611382009591],[114.15283744429055,-7.7144430744091697],[114.1528464987542,-7.7144430076248174],[114.15284643180291,-7.7144339757289959],[114.15285548626629,-7.7144339089445326],[114.1528554193149,-7.7144248770487849],[114.15283156172249,-7.7144250530184539],[114.15281596649416,-7.7144703299950654],[114.15282859067999,-7.7144702368812457]]],[[[114.15263541600005,-7.7144203149999315],[114.15261803000023,-7.7144203149999351],[114.15258632700032,-7.7144192919998851],[114.15258372299596,-7.7144184634268154],[114.15258378538435,-7.7144268804972214],[114.15262905771115,-7.7144265466010884],[114.15262919160443,-7.7144446103965345],[114.15263824606993,-7.7144445436165761],[114.15263831301689,-7.7144535755142121],[114.15270169427448,-7.7144531080486045],[114.15270176122287,-7.7144621399456836],[114.15269270675755,-7.7144622067271369],[114.15269284065417,-7.7144802705214408],[114.15271094958548,-7.714480136958028],[114.15271088263675,-7.7144711050610359],[114.15271993710211,-7.7144710382791217],[114.15272000405102,-7.7144800701760339],[114.15274716744716,-7.7144798698289065],[114.15274710049768,-7.7144708379322315],[114.15275615496269,-7.7144707711495508],[114.15275622191237,-7.7144798030461494],[114.15276527637752,-7.7144797362631996],[114.15276541027752,-7.7144978000562361],[114.15277446474295,-7.714497733272939],[114.15277439779273,-7.7144887013764922],[114.15278345225789,-7.7144886345930823],[114.15278392091254,-7.7145518578674395],[114.15279297537899,-7.7145517910832844],[114.15279290842788,-7.7145427591870233],[114.15280196289403,-7.7145426924027571],[114.15280189594282,-7.7145336605066035],[114.15279284147687,-7.7145337272907897],[114.15279264062428,-7.7145066316020179],[114.15280169508966,-7.714506564818068],[114.15280152430246,-7.7144835250365285],[114.15279904700003,-7.7144826989999142],[114.15277961600009,-7.7144734949999405],[114.15276632100017,-7.7144714489999693],[114.15275098000006,-7.7144653129998844],[114.15273666300004,-7.7144601999999045],[114.1527325720001,-7.7144591769999433],[114.15272030000017,-7.7144550859999361],[114.15271211800018,-7.7144520179999718],[114.15269371000011,-7.7144417909999117],[114.15267632400004,-7.7144336099999542],[114.15265996100004,-7.7144284959998775],[114.15263541600005,-7.7144203149999315]]],[[[114.14547587146711,-7.7144611790356983],[114.14546681693857,-7.7144612456642356],[114.14546695052859,-7.7144793095846929],[114.14545789599958,-7.7144793762131938],[114.14545809638464,-7.7145064720940857],[114.1454671509142,-7.7145064054653467],[114.14546728450502,-7.7145244693857604],[114.14545822997508,-7.7145245360146557],[114.14545829677041,-7.7145335679749358],[114.14547640583064,-7.7145334347167935],[114.14547633903491,-7.7145244027566715],[114.1454853935647,-7.7145243361273952],[114.1454854603606,-7.7145333680874364],[114.14549451489053,-7.7145333014578883],[114.14549471527933,-7.7145603973377517],[114.14550376980971,-7.7145603307077781],[114.14550370301316,-7.7145512987479217],[114.14551275754329,-7.7145512321178327],[114.14551269074664,-7.7145422001580206],[114.14550363621672,-7.7145422667880297],[114.14550350262404,-7.7145242028682626],[114.14551255715359,-7.7145241362384134],[114.14551228996845,-7.7144880083991438],[114.14550323543968,-7.7144880750286822],[114.14550316864377,-7.7144790430687751],[114.1454941141151,-7.7144791096980416],[114.14549404731949,-7.7144700777380493],[114.14547593826228,-7.7144702109958532],[114.14547587146711,-7.7144611790356983]]],[[[114.14802937899645,-7.7144604460417483],[114.14802924529805,-7.7144423821659771],[114.14802019079224,-7.7144424488483843],[114.14802032449028,-7.7144605127243127],[114.14802937899645,-7.7144604460417483]]],[[[114.14802911159997,-7.7144243182901899],[114.14802871050766,-7.7143701266627032],[114.1480196560034,-7.7143701933444779],[114.14801972285173,-7.714379225282495],[114.14801066834715,-7.7143792919641605],[114.14801100258903,-7.7144244516544962],[114.14802911159997,-7.7144243182901899]]],[[[114.14791905376747,-7.7142354477478303],[114.14791898692253,-7.7142264158088905],[114.14790993242036,-7.714226482487109],[114.14790999926511,-7.7142355144261279],[114.14791905376747,-7.7142354477478303]]],[[[114.14779222388474,-7.7142273492865669],[114.14779215704256,-7.7142183173465186],[114.14778310253945,-7.714218384021982],[114.14778316938143,-7.7142274159621111],[114.14779222388474,-7.7142273492865669]]],[[[114.14792790773465,-7.7142082852527265],[114.14792784088978,-7.7141992533138692],[114.14791878638823,-7.7141993199920424],[114.14791885323292,-7.7142083519309788],[114.14792790773465,-7.7142082852527265]]],[[[114.14786445937742,-7.714199720057068],[114.14786439253398,-7.714190688117637],[114.14785533803207,-7.7141907547943935],[114.14785540487534,-7.7141997867339045],[114.14786445937742,-7.714199720057068]]],[[[114.14806365840293,-7.7141982531183535],[114.14806359155527,-7.7141892211806589],[114.14805453705513,-7.7141892878616192],[114.14805460390261,-7.714198319799392],[114.14806365840293,-7.7141982531183535]]],[[[114.14786432569059,-7.7141816561781988],[114.14786425884729,-7.7141726242387598],[114.14785520434579,-7.7141726909153592],[114.14785527118889,-7.7141817228548781],[114.14786432569059,-7.7141816561781988]]],[[[114.14793676170132,-7.7141811227579016],[114.14793669485648,-7.7141720908190941],[114.14791858585467,-7.7141722241751554],[114.14791865269912,-7.7141812561141245],[114.14793676170132,-7.7141811227579016]]],[[[114.1480361606671,-7.7141532934711963],[114.1480360269738,-7.7141352295952883],[114.14802697247457,-7.7141352962752006],[114.14802710616748,-7.7141533601512675],[114.1480361606671,-7.7141532934711963]]],[[[114.13079624762862,-7.7142799062417913],[114.13079618114655,-7.7142708741538604],[114.13080523579897,-7.7142708078374076],[114.13080510283467,-7.7142527436616888],[114.13078699353053,-7.7142528762940925],[114.13078719297593,-7.714279972558133],[114.13079624762862,-7.7142799062417913]]],[[[114.15064365248945,-7.7141069859156683],[114.15064361793112,-7.7141023204391495],[114.15064321200009,-7.7141022579999605],[114.15063453392722,-7.7140984007643585],[114.15063459801367,-7.7141070526505171],[114.15064365248945,-7.7141069859156683]]],[[[114.15063356281154,-7.7140980278719615],[114.15062552200006,-7.7140955149999213],[114.15062545743231,-7.7140954948214766],[114.15062547663656,-7.7140980874698251],[114.15063356281154,-7.7140980278719615]]],[[[114.13084132144205,-7.7142524783945916],[114.13084118847654,-7.7142344142194856],[114.13083213382521,-7.7142344805363905],[114.13083226679034,-7.7142525447116537],[114.13084132144205,-7.7142524783945916]]],[[[114.14771898577375,-7.7141194993971149],[114.14771891893407,-7.7141104674563632],[114.1477098644326,-7.714110534129353],[114.14770993127208,-7.714119566070182],[114.14771898577375,-7.7141194993971149]]],[[[114.14797257863241,-7.7141266644121469],[114.14798163313191,-7.7141265977334603],[114.14798149944139,-7.7141085338565745],[114.14796339044305,-7.7141086672134422],[114.14796345728789,-7.7141176991520615],[114.14794534828887,-7.7141178325083217],[114.14794541513341,-7.7141268644470617],[114.14792730613367,-7.7141269978027163],[114.14792737297789,-7.7141360297416259],[114.14791831847771,-7.7141360964192449],[114.14791845216602,-7.7141541602972108],[114.1479456156675,-7.7141539602633022],[114.14794554882272,-7.7141449283245596],[114.14795460332284,-7.7141448616462887],[114.14795453647795,-7.7141358297076188],[114.14796359097781,-7.7141357630292369],[114.14796365782288,-7.7141447949678232],[114.14798176682274,-7.7141446616103275],[114.14798169997728,-7.7141356296718948],[114.14797264547758,-7.7141356963506604],[114.14797257863241,-7.7141266644121469]]],[[[114.13080463746219,-7.7141895190465446],[114.13078652816073,-7.7141896516778479],[114.13078659464189,-7.7141986837658951],[114.13079564929285,-7.7141986174502613],[114.13079571577427,-7.7142076495382259],[114.13078666112312,-7.7142077158539406],[114.13078672760444,-7.714216747941979],[114.13079578225579,-7.7142166816261879],[114.13079598170081,-7.7142437778900614],[114.13081409100444,-7.7142436452574321],[114.13081402452229,-7.7142346131696247],[114.13080496987071,-7.7142346794859549],[114.13080490338885,-7.7142256473980826],[114.13081395804024,-7.7142255810818305],[114.13081382507637,-7.7142075169062272],[114.13080477042536,-7.7142075832223238],[114.13080463746219,-7.7141895190465446]]],[[[114.14815313381797,-7.7140530753064729],[114.14815306696968,-7.7140440433694968],[114.14814401247341,-7.7140441100511046],[114.14814407932151,-7.7140531419881553],[114.14815313381797,-7.7140530753064729]]],[[[114.14809867314388,-7.7140354115188137],[114.14809873999094,-7.7140444434562667],[114.14811684898417,-7.7140443100947742],[114.14811691583171,-7.7140533420320647],[114.14812597032838,-7.7140532753509534],[114.14812590348066,-7.714044243413742],[114.14813495797709,-7.7140441767325179],[114.14813489112926,-7.7140351447953828],[114.14809867314388,-7.7140354115188137]]],[[[114.13079531688687,-7.7141534570103705],[114.13078626223688,-7.71415352332561],[114.13078639519864,-7.7141715875017383],[114.13080450449934,-7.7141714548707485],[114.13080443801803,-7.7141624227828443],[114.13079538336791,-7.7141624890983556],[114.13079531688687,-7.7141534570103705]]],[[[114.13269685813411,-7.7141485586486302],[114.13269679161286,-7.7141395265771457],[114.13268773697969,-7.7141395929325025],[114.13268780350076,-7.7141486250040687],[114.13269685813411,-7.7141485586486302]]],[[[114.13075024307648,-7.714180884849795],[114.13074997715601,-7.7141447564962844],[114.13074305298632,-7.7141448072073517],[114.13074367572518,-7.7141809329478308],[114.13075024307648,-7.714180884849795]]],[[[114.14815293327334,-7.7140259794955375],[114.1481527995773,-7.7140079156215569],[114.1481256360906,-7.7140081156648526],[114.14812576978547,-7.7140261795393048],[114.14815293327334,-7.7140259794955375]]],[[[114.13076795349572,-7.7141265596908095],[114.13076788701557,-7.7141175276025864],[114.13075883236607,-7.7141175939169404],[114.13075889884601,-7.7141266260052426],[114.13076795349572,-7.7141265596908095]]],[[[114.14817989621481,-7.7139986836397663],[114.1481797978097,-7.713985388047595],[114.14817074999621,-7.7139863574449423],[114.14817084171973,-7.713998750321549],[114.14817989621481,-7.7139986836397663]]],[[[114.14809867314388,-7.7140354115188137],[114.14809847260317,-7.7140083157064305],[114.1480894181072,-7.7140083823865737],[114.14808935126067,-7.7139993504490061],[114.14809840575643,-7.7139992837689428],[114.14809837686056,-7.7139953795260494],[114.14809568600015,-7.7139948749999743],[114.148074209,-7.7139928289999506],[114.14805273200011,-7.7139897609998771],[114.14804397042931,-7.7139850437886821],[114.14804401193506,-7.7139906519085351],[114.14805306643103,-7.7139905852295056],[114.14805340066036,-7.7140357449188075],[114.14804434616342,-7.7140358115982313],[114.14804441300933,-7.7140448435361586],[114.14805346750646,-7.7140447768566549],[114.14805366804526,-7.7140718726701696],[114.1480627225429,-7.7140718059902369],[114.14806258884991,-7.7140537421147233],[114.14808069784415,-7.7140536087546012],[114.1480805641507,-7.7140355448793851],[114.14809867314388,-7.7140354115188137]]],[[[114.14904906049755,-7.7139832493699574],[114.14904899439645,-7.7139743208527314],[114.14904864156875,-7.713974220034248],[114.14903088465694,-7.7139743508405116],[114.14903095152324,-7.7139833827698538],[114.14904906049755,-7.7139832493699574]]],[[[114.14790239700005,-7.7139304449999564],[114.14788705600006,-7.7139283999998689],[114.14786353400007,-7.7139273769999663],[114.14784819400006,-7.7139253319999792],[114.14782671700004,-7.7139253319999712],[114.14781955900013,-7.7139253319999748],[114.14780115000008,-7.7139110139999483],[114.14779399100031,-7.7138987419999108],[114.147789936232,-7.7138931661361987],[114.14776020951196,-7.7138933850276681],[114.14775410600011,-7.7138956739998994],[114.14774694700031,-7.7139028329999713],[114.1477387660001,-7.7139110139999545],[114.14772751600003,-7.7139283999998653],[114.14772649400015,-7.7139345359999574],[114.14772649400015,-7.713939648999963],[114.14772649400015,-7.7139549899999382],[114.14773045000015,-7.7139767509999615],[114.1477305840001,-7.7139774889999435],[114.1477305840001,-7.7139846479998955],[114.1477305840001,-7.7139918069999487],[114.14773160700008,-7.7140112379999035],[114.14773160700008,-7.7140153289999427],[114.14773160700008,-7.7140183969999576],[114.14773978900007,-7.7140378279999586],[114.14774899300018,-7.7140500999998931],[114.147746822993,-7.7140560673869878],[114.1477547358982,-7.7140560091198891],[114.14775480273815,-7.7140650410603335],[114.14774574823798,-7.7140651077336937],[114.147745704106,-7.7140591442578303],[114.14774490200013,-7.7140613499999571],[114.14774081100016,-7.7140695309998151],[114.14773808951742,-7.7140741965617581],[114.14774581507781,-7.7140741396742127],[114.14774588191773,-7.7140831716147282],[114.14775493641828,-7.7140831049412126],[114.14775520377954,-7.7141192327029309],[114.1477642582808,-7.7141191660289072],[114.1477643251215,-7.7141281979692273],[114.14775527062005,-7.7141282646433291],[114.14775547114206,-7.7141553604645452],[114.14776452564409,-7.7141552937902054],[114.14776472616742,-7.7141823896111488],[114.14778283517236,-7.7141822562614211],[114.14778290201401,-7.714191288201568],[114.14779195651654,-7.7141912215263391],[114.14779202335848,-7.7142002534664051],[114.14780107786112,-7.7142001867909054],[114.147801011019,-7.7141911548509192],[114.14781006552138,-7.7141910881753102],[114.14780999867916,-7.7141820562354022],[114.1478281076833,-7.714181922883764],[114.14782790715596,-7.7141548270644833],[114.14783696165732,-7.7141547603886131],[114.14783689481484,-7.7141457284489245],[114.14784594931594,-7.7141456617729434],[114.14784601615861,-7.7141546937125556],[114.14785507065983,-7.7141546270363044],[114.14785500381696,-7.7141455950967748],[114.14786405831789,-7.7141455284204117],[114.14786392463203,-7.7141274645414919],[114.14788203363291,-7.7141273311885108],[114.1478818999466,-7.7141092673098894],[114.14789095444652,-7.7141092006332697],[114.1478908876033,-7.7141001686940323],[114.14789994210297,-7.7141001020172988],[114.14789980841637,-7.714082038138967],[114.14795413541032,-7.7140816380755188],[114.14795393487759,-7.7140545422594089],[114.14789055338838,-7.7140550089977724],[114.14789048654565,-7.7140459770585066],[114.14788143204706,-7.7140460437345739],[114.14788136520458,-7.7140370117952246],[114.14786325620756,-7.7140371451466274],[114.14786318936554,-7.7140281132071147],[114.14784508036855,-7.7140282465575947],[114.14784501352703,-7.7140192146179203],[114.14788123151989,-7.7140189479165153],[114.14788129836221,-7.7140279798558735],[114.1478903528604,-7.7140279131799652],[114.14789028601791,-7.7140188812406869],[114.14790839501369,-7.7140187478884554],[114.14790846185659,-7.7140277798275756],[114.14793562535023,-7.7140275797975599],[114.14793575903738,-7.7140456436753126],[114.14797197702933,-7.7140453769653181],[114.14797237809732,-7.714099568596577],[114.14798143259624,-7.7140995019181249],[114.14798136575118,-7.7140904699796708],[114.14800852924691,-7.7140902699434122],[114.14800839555591,-7.7140722060669686],[114.14799934105778,-7.7140722727457538],[114.14799927421259,-7.7140632408074445],[114.14799021971459,-7.7140633074859606],[114.14799008602482,-7.7140452436091724],[114.14801724951744,-7.7140450435735275],[114.14801718267209,-7.7140360116353612],[114.14799001918006,-7.7140362116707726],[114.14798995233537,-7.7140271797323692],[114.14798089783802,-7.7140272464103772],[114.14798083099362,-7.7140182144718894],[114.14797177649642,-7.714018281149631],[114.14797170965228,-7.7140092492110579],[114.147953600658,-7.7140093825658065],[114.14795353381432,-7.714000350627054],[114.14792637032288,-7.7140005506575058],[114.14792630347985,-7.7139915187185464],[114.14793535797689,-7.7139914520420012],[114.14793522429069,-7.7139733881641943],[114.14794427878728,-7.7139733214876154],[114.14794421194412,-7.7139642895487839],[114.14795326644041,-7.7139642228720913],[114.14795313299194,-7.7139461911546636],[114.14790239700005,-7.7139304449999564]],[[114.14779015181507,-7.7139473591429688],[114.1478173153067,-7.7139471591225339],[114.14781751582791,-7.7139742549423573],[114.14780846133021,-7.713974321616262],[114.14780859501104,-7.7139923854962804],[114.14782670400713,-7.7139922521479578],[114.14782677084806,-7.7140012840877867],[114.14781771634983,-7.7140013507621195],[114.14781778319065,-7.7140103827020559],[114.14780872869218,-7.7140104493762784],[114.14780886237365,-7.7140285132562605],[114.1478179168725,-7.7140284465818807],[114.14781798371355,-7.7140374785217878],[114.14779987471537,-7.7140376118705136],[114.14779994155613,-7.7140466438105726],[114.14778183255726,-7.7140467771586909],[114.14778163203641,-7.7140196813380264],[114.14777257753742,-7.7140197480115651],[114.1477723101782,-7.7139836202503016],[114.14776325567991,-7.7139836869233305],[114.14776318884049,-7.713974654982926],[114.14774507984403,-7.7139747883282554],[114.14774494616621,-7.7139567244471303],[114.1477630551619,-7.7139565911021171],[114.14776312200117,-7.7139656230425153],[114.14777217649906,-7.7139655563696437],[114.14777210965961,-7.7139565244293262],[114.14778116415727,-7.7139564577563426],[114.14778123099691,-7.7139654896965801],[114.14779933999232,-7.713965356349882],[114.14779927315229,-7.7139563244097999],[114.14779021865482,-7.7139563910831672],[114.14779015181507,-7.7139473591429688]],[[114.14791704845472,-7.7139644895777142],[114.14792610295127,-7.7139644229015953],[114.14792616979405,-7.7139734548405841],[114.1479171152973,-7.7139735215167811],[114.14791704845472,-7.7139644895777142]],[[114.14782710505384,-7.714046443786958],[114.14784521405188,-7.7140463104369266],[114.14784534773554,-7.7140643743162443],[114.14783629323617,-7.7140644409915113],[114.14783622639449,-7.7140554090517766],[114.14782717189523,-7.7140554757267745],[114.14782710505384,-7.714046443786958]],[[114.14781818423718,-7.7140645743414762],[114.14780912973755,-7.7140646410161704],[114.14780933026134,-7.7140917368360595],[114.1477912212607,-7.7140918701853511],[114.14779115441975,-7.7140828382452362],[114.1478002089199,-7.7140827715707632],[114.14780014207884,-7.7140737396307211],[114.14777297857869,-7.7140739396533284],[114.14777291173827,-7.7140649077130448],[114.14778196623823,-7.7140648410391126],[114.1477818993977,-7.7140558090989053],[114.14779095389737,-7.7140557424248621],[114.14779102073808,-7.7140647743649904],[114.14780007523785,-7.7140647076906772],[114.14780000839694,-7.7140556757506262],[114.14781811739589,-7.7140555424015833],[114.14781818423718,-7.7140645743414762]],[[114.14779128810174,-7.7141009021254634],[114.14780939710276,-7.7141007687760119],[114.1478095976275,-7.7141278645958469],[114.14780054312645,-7.7141279312709061],[114.14780047628498,-7.7141188993309022],[114.14779142178406,-7.7141189660056906],[114.14779128810174,-7.7141009021254634]]],[[[114.13370871415607,-7.71383403549705],[114.1337086476161,-7.7138250034342208],[114.13369959299843,-7.7138250698083022],[114.13369965953819,-7.7138341018712104],[114.13370871415607,-7.71383403549705]]],[[[114.1339978629733,-7.7137506228800516],[114.13399779642792,-7.7137415908196987],[114.13397968720109,-7.7137417235784831],[114.13397975374609,-7.7137507556389933],[114.1339978629733,-7.7137506228800516]]],[[[114.1339613783406,-7.7137147601544749],[114.13396131179631,-7.7137057280937897],[114.13395225718337,-7.7137057944722001],[114.13395232372747,-7.7137148265329634],[114.1339613783406,-7.7137147601544749]]],[[[114.1310274135608,-7.7137001284442199],[114.13100930428401,-7.713700261076589],[114.13100943724731,-7.7137183252492258],[114.13101849188614,-7.7137182589329782],[114.13101855836813,-7.7137272910192127],[114.13102761300705,-7.713727224702696],[114.1310274135608,-7.7137001284442199]]],[[[114.1310804782246,-7.7135281209135451],[114.13107142359038,-7.7135281872294792],[114.13107162303493,-7.7135552834870262],[114.13108067766973,-7.7135552171708586],[114.13108081063353,-7.7135732813423745],[114.13107175599835,-7.7135733476587038],[114.1310716895166,-7.7135643155728664],[114.13105358024636,-7.7135644482047914],[114.13105377969072,-7.7135915444627585],[114.13109905286859,-7.7135912128803374],[114.13109891990369,-7.7135731487091501],[114.13110797453865,-7.713573082392247],[114.13110804102126,-7.7135821144777656],[114.13112615029128,-7.7135819818432365],[114.1311260173254,-7.7135639176725102],[114.13111696269081,-7.7135639839897143],[114.13111689620817,-7.7135549519042668],[114.13110784157368,-7.7135550182211992],[114.13110790805614,-7.7135640503067266],[114.13109885342135,-7.713564116623548],[114.13109872045695,-7.7135460524523181],[114.13108966582249,-7.7135461187687913],[114.1310895993406,-7.7135370866831146],[114.13108054470624,-7.7135371529993195],[114.1310804782246,-7.7135281209135451]]],[[[114.13110750916269,-7.7135098577935031],[114.13108939989539,-7.7135099904260125],[114.13108953285878,-7.7135280545974183],[114.13111669676076,-7.7135278556478957],[114.13111663027844,-7.7135188235624312],[114.13110757564472,-7.713518889879051],[114.13110750916269,-7.7135098577935031]]],[[[114.13117974677844,-7.7134822310010405],[114.13117968029519,-7.7134731989161036],[114.1311615710307,-7.7134733315510395],[114.13116163751357,-7.7134823636361336],[114.13117974677844,-7.7134822310010405]]],[[[114.13213947085389,-7.7134661681710197],[114.13212136160641,-7.7134663008464539],[114.13212149461282,-7.7134843649999807],[114.13213054923699,-7.7134842986622028],[114.13213061574051,-7.7134933307388618],[114.13212156111614,-7.7134933970767197],[114.13212176062662,-7.7135204933069801],[114.13211270600161,-7.7135205596448824],[114.1321128390086,-7.7135386237984953],[114.13210378438313,-7.7135386901363647],[114.13210391739007,-7.7135567542901526],[114.13213108126739,-7.7135565552755025],[114.13213088175539,-7.7135294590455459],[114.13213993638043,-7.7135293927071844],[114.13213947085389,-7.7134661681710197]]],[[[114.13122488697088,-7.7134638352408667],[114.13119772307581,-7.713464034195618],[114.13119805549438,-7.7135091946194958],[114.13118900086157,-7.7135092609377551],[114.13118906734532,-7.7135182930225969],[114.13117095807908,-7.7135184256587017],[114.13117082511241,-7.713500361488685],[114.13116177047955,-7.7135004278062942],[114.13116170399653,-7.7134913957212232],[114.13115264936378,-7.7134914620385633],[114.13115298177877,-7.71353662246434],[114.13118014567964,-7.7135364235105719],[114.13118027864735,-7.713554487680379],[114.13118933328118,-7.7135544213619163],[114.13118920031309,-7.7135363571922655],[114.13120730957978,-7.7135362245550834],[114.13120717661126,-7.7135181603857266],[114.13122528587687,-7.7135180277480933],[114.13122515290789,-7.7134999635790189],[114.13120704364303,-7.7135000962163378],[114.13120697715905,-7.7134910641316621],[114.1312341410556,-7.7134908651756326],[114.13123400808674,-7.7134728010067066],[114.131224953455,-7.7134728673254154],[114.13122488697088,-7.7134638352408667]]],[[[114.1329360778647,-7.713433233486394],[114.13293601134463,-7.7134242014166858],[114.13292695672874,-7.7134242677709937],[114.13292702324863,-7.71343329984078],[114.1329360778647,-7.713433233486394]]],[[[114.13118853547746,-7.713446036343746],[114.1311884025113,-7.7134279721739878],[114.13117934788015,-7.7134280384913518],[114.13117948084592,-7.7134461026612637],[114.13118853547746,-7.713446036343746]]],[[[114.13122488697088,-7.7134638352408667],[114.1312339416024,-7.7134637689222352],[114.13123367566592,-7.7134276405843121],[114.13122462103517,-7.71342770690263],[114.13122468751897,-7.7134367389871965],[114.13120657825682,-7.7134368716234141],[114.1312065117734,-7.7134278395386904],[114.13119745714239,-7.7134279058564363],[114.13119759010894,-7.7134459700260347],[114.13120664474032,-7.7134459037081333],[114.13120671122391,-7.7134549357928632],[114.1312157658554,-7.7134548694746954],[114.13121569937162,-7.713445837390041],[114.13122475400287,-7.7134457710717568],[114.13122488697088,-7.7134638352408667]]],[[[114.13250132318132,-7.7134183541345003],[114.13250125667058,-7.7134093220610085],[114.13245598357307,-7.7134096537840069],[114.13245605008284,-7.7134186858578895],[114.13250132318132,-7.7134183541345003]]],[[[114.13126083955773,-7.7134274416282143],[114.13126077307324,-7.7134184095439577],[114.13126982770351,-7.7134183432249541],[114.1312697612189,-7.7134093111407882],[114.13125165195869,-7.7134094437784455],[114.13125178492722,-7.7134275079471051],[114.13126083955773,-7.7134274416282143]]],[[[114.1324288197136,-7.7134098528155146],[114.13242875320449,-7.7134008207414073],[114.13241064396482,-7.7134009534279651],[114.13241071047355,-7.7134099855022296],[114.1324288197136,-7.7134098528155146]]],[[[114.13120637880678,-7.7134097753692492],[114.1312063123236,-7.7134007432844953],[114.13119725769317,-7.7134008096020041],[114.13119732417617,-7.7134098416868344],[114.13120637880678,-7.7134097753692492]]],[[[114.13135105342732,-7.7133816180114056],[114.13134199879856,-7.7133816843318117],[114.13134213177044,-7.7133997484989409],[114.13133307714121,-7.713399814819315],[114.13133327659904,-7.7134269110702123],[114.13132422196917,-7.7134269773906317],[114.13132428845508,-7.7134360094743322],[114.13134239771514,-7.7134358768331461],[114.13134233122885,-7.7134268447496028],[114.13135138585857,-7.7134267784288015],[114.13135131937216,-7.7134177463453311],[114.13136037400162,-7.7134176800244179],[114.13136030751511,-7.713408647941038],[114.13135125288582,-7.713408714261873],[114.13135105342732,-7.7133816180114056]]],[[[114.13288135105471,-7.7133794391886976],[114.13288128453627,-7.7133704071184903],[114.13287222992106,-7.7133704734711808],[114.13287229643932,-7.7133795055414662],[114.13288135105471,-7.7133794391886976]]],[[[114.13236517134141,-7.713374188916954],[114.13239233520025,-7.7133739898904023],[114.13239226869221,-7.7133649578159469],[114.1324013233115,-7.7133648914734598],[114.13240125680336,-7.713355859399079],[114.13235598370717,-7.7133561911092121],[114.13235605021436,-7.7133652231839855],[114.1323288863551,-7.7133654222080112],[114.13232901936856,-7.7133834863580191],[114.13230185550744,-7.7133836853807942],[114.13230192201371,-7.7133927174560268],[114.13231097663437,-7.7133926511152158],[114.13231104314092,-7.7134016831903809],[114.13229293389917,-7.7134018158719737],[114.13229306691173,-7.713419880022558],[114.13232023077538,-7.7134196809994124],[114.13232016426849,-7.7134106489243477],[114.13239260123316,-7.7134101181881825],[114.13239253472481,-7.7134010861137607],[114.13237442548451,-7.7134012187987908],[114.13237429246881,-7.7133831546495699],[114.13236523784893,-7.7133832209916431],[114.13236517134141,-7.713374188916954]]],[[[114.13139626008298,-7.7133722543234011],[114.13139612710928,-7.7133541901571885],[114.1313870724815,-7.7133542564783166],[114.13138720545481,-7.7133723206446847],[114.13139626008298,-7.7133722543234011]]],[[[114.13247359440862,-7.7133418375640295],[114.13246452976567,-7.7133405425246666],[114.13246457262524,-7.7133463629230326],[114.13241024491411,-7.7133467609821702],[114.13241044443909,-7.7133738572050801],[114.13242855367761,-7.7133737245189922],[114.13242848716882,-7.713364692444852],[114.13243754178777,-7.7133646261015993],[114.13243747527886,-7.713355594027532],[114.13244652989755,-7.7133555276841683],[114.13244659640665,-7.7133645597581566],[114.13246470564411,-7.7133644270707],[114.13246463913465,-7.7133553949968681],[114.1324918029897,-7.7133551959644846],[114.13249173647972,-7.7133461638908845],[114.13247362724348,-7.7133462965791741],[114.13247359440862,-7.7133418375640295]]],[[[114.13132369008473,-7.7133547207208579],[114.13132362359954,-7.7133456886371148],[114.13130551434297,-7.7133458212759667],[114.13130558082779,-7.7133548533598661],[114.13132369008473,-7.7133547207208579]]],[[[114.13271810190572,-7.7133445052227954],[114.13271803539105,-7.7133354731511545],[114.13270898077518,-7.7133355395000907],[114.13270904728965,-7.713344571571807],[114.13271810190572,-7.7133445052227954]]],[[[114.13273621113765,-7.7133443725241877],[114.13273614462258,-7.7133353404527059],[114.13272709000687,-7.7133354068020266],[114.13272715652174,-7.7133444388735857],[114.13273621113765,-7.7133443725241877]]],[[[114.13307123187015,-7.7133419174621825],[114.133071165348,-7.7133328853936076],[114.13306211073524,-7.7133329517499956],[114.1330621772572,-7.7133419838186459],[114.13307123187015,-7.7133419174621825]]],[[[114.13260039189046,-7.7133453677451014],[114.13260029491546,-7.7133321989493728],[114.13259125772765,-7.7133346320905858],[114.13259133727335,-7.7133454340916323],[114.13260039189046,-7.7133453677451014]]],[[[114.1326366768712,-7.7133541344294017],[114.13263661035815,-7.7133451023570592],[114.13264566497486,-7.7133450360095726],[114.13264561824217,-7.7133386899999534],[114.13264280600005,-7.7133386899999374],[114.13263667000001,-7.7133356219999323],[114.13262133000002,-7.7133284629998684],[114.13261837761442,-7.7133284629998906],[114.1326184346119,-7.7133362029789572],[114.13260937999515,-7.7133362693257919],[114.13260951301999,-7.7133543334709547],[114.1326366768712,-7.7133541344294017]]],[[[114.1330985287542,-7.7133597825283022],[114.13309826266315,-7.7133236542549426],[114.13308920805082,-7.7133237206118235],[114.13308947414112,-7.7133598488854975],[114.1330985287542,-7.7133597825283022]]],[[[114.1325641069101,-7.7133366010571098],[114.13258221614434,-7.7133364683651555],[114.13258220640806,-7.7133351462110706],[114.13257837700007,-7.7133345989999569],[114.13257224100018,-7.7133335769999576],[114.13256815000022,-7.713331530999886],[114.13256405900016,-7.7133264179998973],[114.13255485500008,-7.7133182359999024],[114.13254871900017,-7.7133161909999393],[114.13254585167637,-7.713316907305181],[114.13254593116456,-7.7133277016751443],[114.1325166534952,-7.7133279161985611],[114.13251190200002,-7.7133305079999381],[114.13250974050176,-7.7133317431849591],[114.13250977920538,-7.7133369991283836],[114.13250072458766,-7.7133370654729276],[114.13250085760791,-7.7133551296199725],[114.13250991222601,-7.7133550632752721],[114.13250984571566,-7.7133460312018292],[114.13252795495127,-7.7133458985120127],[114.13252788844061,-7.7133368664387225],[114.13253694305808,-7.7133368000936056],[114.13253707607987,-7.7133548642400243],[114.13256423993303,-7.713354665203056],[114.1325641069101,-7.7133366010571098]]],[[[114.13290798275048,-7.713306983569356],[114.13290797722583,-7.71330623341498],[114.13290749759852,-7.7133069871245796],[114.13290798275048,-7.713306983569356]]],[[[114.13219266802682,-7.7133122248451436],[114.13219260152357,-7.7133031927689295],[114.13217449228395,-7.7133033254438246],[114.13217455878682,-7.7133123575201976],[114.13219266802682,-7.7133122248451436]]],[[[114.13221976538242,-7.7133029937551507],[114.13221071076286,-7.7133030600932679],[114.13221077726651,-7.7133120921693266],[114.1322017226467,-7.7133121585073301],[114.13220178915023,-7.7133211905834633],[114.13222895300997,-7.7133209915686418],[114.13222888650587,-7.7133119594927448],[114.13221983188623,-7.7133120258311312],[114.13221976538242,-7.7133029937551507]]],[[[114.13227415960289,-7.7133116277979452],[114.13227409309791,-7.713302595722439],[114.13226503847886,-7.7133026620617011],[114.13226510498366,-7.7133116941372872],[114.13227415960289,-7.7133116277979452]]],[[[114.1330075169746,-7.7132972216077667],[114.13299846236204,-7.7132972879624999],[114.13299852888234,-7.7133063200317205],[114.13298947426952,-7.7133063863863445],[114.13298954078969,-7.7133154184556396],[114.13300765001566,-7.7133152857460443],[114.1330077165363,-7.71332431781516],[114.13301677114934,-7.7133242514599978],[114.13301690419125,-7.7133423155981111],[114.13303501341788,-7.7133421828868984],[114.1330349468965,-7.7133331508180092],[114.13302589228343,-7.7133332171736315],[114.13302569272034,-7.7133061209667062],[114.13300758349509,-7.7133062536769073],[114.1330075169746,-7.7132972216077667]]],[[[114.13133241228695,-7.7133094939827114],[114.13133234580198,-7.713300461899026],[114.13132329117478,-7.7133005282183431],[114.13132335765957,-7.7133095603021085],[114.13133241228695,-7.7133094939827114]]],[[[114.13292595894005,-7.7132887867236537],[114.13292592423053,-7.7132840737769328],[114.13292167947832,-7.713288818083921],[114.13292595894005,-7.7132887867236537]]],[[[114.13125098712089,-7.7133191229347977],[114.13125078767111,-7.7132920266816054],[114.13124173304337,-7.7132920929991258],[114.13124193249259,-7.7133191892525543],[114.13125098712089,-7.7133191229347977]]],[[[114.13216537116141,-7.7132943597045314],[114.13216530465888,-7.7132853276280553],[114.13214719541955,-7.713285460301492],[114.13214726192169,-7.7132944923781244],[114.13216537116141,-7.7132943597045314]]],[[[114.13271749416343,-7.7132619790979255],[114.13271746300006,-7.7132619879998874],[114.13270621300001,-7.713268123999959],[114.13269291800009,-7.7132783509999356],[114.13268678200006,-7.7132875549999662],[114.13268678200005,-7.7133008499999347],[114.13268678200008,-7.7133110769999771],[114.13268612596424,-7.713317641852381],[114.13269979313084,-7.7133175417052326],[114.13269985964497,-7.71332657377702],[114.13271796887645,-7.7133264410794915],[114.13271790236193,-7.7133174090078622],[114.13272695697736,-7.7133173426588915],[114.13272702349208,-7.7133263747304444],[114.1327360781076,-7.7133263083812036],[114.13273594507788,-7.7133082442382337],[114.13274499969293,-7.7133081778889601],[114.132744933178,-7.7132991458175386],[114.13276304240753,-7.713299013118573],[114.13276284286205,-7.7132719169047563],[114.13275378824791,-7.7132719832540975],[114.13275385476281,-7.7132810153254381],[114.13274480014837,-7.7132810816746664],[114.13274473363367,-7.7132720496032485],[114.13273567901938,-7.7132721159522095],[114.13273561250496,-7.713263083880693],[114.13271750327648,-7.7132632165778823],[114.13271749416343,-7.7132619790979255]]],[[[114.13213787479278,-7.7132493983311159],[114.13213807429788,-7.7132764945612386],[114.1321471289175,-7.713276428224888],[114.13214692941182,-7.7132493319949971],[114.13213787479278,-7.7132493983311159]]],[[[114.13126889692633,-7.71329189404599],[114.13127795155381,-7.7132918277278959],[114.13127768561959,-7.7132556993912278],[114.13129579487281,-7.7132555667550955],[114.13129572838908,-7.7132465346710868],[114.13128667376269,-7.7132466009891703],[114.13128666570526,-7.7132455063509884],[114.13126865406116,-7.7132588996529057],[114.13126889692633,-7.71329189404599]]],[[[114.13213787479278,-7.7132493983311159],[114.13213775685171,-7.7132333798565034],[114.13211963574956,-7.7132319011039367],[114.13211969905332,-7.7132404989259173],[114.13212875367232,-7.7132404325902604],[114.13212882017368,-7.7132494646670411],[114.13213787479278,-7.7132493983311159]]],[[[114.13211475238053,-7.7132315026018556],[114.13211057519842,-7.7132311617273457],[114.13211057793336,-7.7132315331844099],[114.13211475238053,-7.7132315026018556]]],[[[114.13126889692633,-7.71329189404599],[114.13125984229875,-7.7132919603638932],[114.13125997526556,-7.7133100245325412],[114.13126902989355,-7.7133099582144808],[114.13126916286106,-7.7133280223829352],[114.13129632674558,-7.7133278234271385],[114.13129626026121,-7.7133187913431476],[114.13130531488903,-7.7133187250242461],[114.13130518192014,-7.7133006608564072],[114.13131423654751,-7.7133005945374729],[114.13131410357855,-7.7132825303697761],[114.13133221283225,-7.7132823977316445],[114.1313321463475,-7.7132733656479449],[114.13134120097406,-7.7132732993286712],[114.13134126745899,-7.7132823314122909],[114.13135032208564,-7.7132822650927482],[114.13134998966082,-7.7132371046750006],[114.13134093503513,-7.7132371709941525],[114.13134087601281,-7.7132291526717607],[114.13133183969651,-7.7132317063643923],[114.13133207986284,-7.7132643335642452],[114.13132302523641,-7.7132643998832471],[114.13132289226772,-7.7132463357156906],[114.13130478301537,-7.7132464683528124],[114.13130511543581,-7.713291628772466],[114.13128700618121,-7.7132917614096117],[114.13128707266516,-7.7133007934937101],[114.13126896340989,-7.7133009261302448],[114.13126889692633,-7.71329189404599]]],[[[114.13137708705214,-7.7132278736330759],[114.13138614167734,-7.7132278073132383],[114.13138607519193,-7.7132187752299872],[114.13139512981684,-7.7132187089100377],[114.13139509390676,-7.7132138305128297],[114.13134455888003,-7.7132281118813406],[114.13135897780154,-7.7132280062721756],[114.13135904428646,-7.7132370383556603],[114.13137715353744,-7.7132369057164034],[114.13137708705214,-7.7132278736330759]]],[[[114.13295352189557,-7.7133427800813346],[114.13295345537591,-7.7133337480117383],[114.13296250998964,-7.7133336816576437],[114.13296244346986,-7.713324649588106],[114.13294433424272,-7.7133247822959472],[114.13294413468505,-7.7132976860869009],[114.13295318929808,-7.7132976197333134],[114.1329531227788,-7.7132885876636958],[114.13297123200425,-7.7132884549560998],[114.1329712985239,-7.7132974870255602],[114.13298940774941,-7.7132973543170467],[114.13298934122938,-7.7132883222477435],[114.13299839584182,-7.7132882558932767],[114.13299832932169,-7.7132792238240313],[114.13301643854595,-7.7132790911146847],[114.13301637202549,-7.7132700590456249],[114.13302542663735,-7.7132699926907415],[114.13302529359632,-7.7132519285527366],[114.13303434820766,-7.7132518621978203],[114.13303428168709,-7.7132428301288876],[114.13304333629816,-7.7132427637738612],[114.13304326977747,-7.7132337317050208],[114.13305232438829,-7.7132336653498799],[114.13305245743014,-7.7132517294874159],[114.13306151204124,-7.7132516631319294],[114.13306171160518,-7.7132787593379728],[114.13307982082833,-7.7132786266259528],[114.13307995387213,-7.7132966907630056],[114.13312522693046,-7.7132963589788233],[114.13312502736203,-7.7132692627744399],[114.13311597275107,-7.7132693291314229],[114.13311603927362,-7.7132783611996167],[114.13310698466242,-7.7132784275564887],[114.1331068516178,-7.7132603634199199],[114.13312496083937,-7.713260230706303],[114.13312489431678,-7.7132511986381589],[114.13313394892725,-7.7132511322811448],[114.13313388240456,-7.7132421002130789],[114.13312482779429,-7.7132421665700157],[114.13312476127187,-7.7132331345018832],[114.13313381588196,-7.7132330681450236],[114.13313354979233,-7.7131969398726765],[114.13310638596413,-7.7131971389417382],[114.1331063194425,-7.7131881068734103],[114.13309726483314,-7.7131881732293035],[114.1330973978761,-7.7132062373661121],[114.13308834326624,-7.7132063037219734],[114.13308827674491,-7.71319727165349],[114.13307922213521,-7.7131973380090821],[114.13307928865633,-7.713206370077641],[114.13307023404633,-7.7132064364331194],[114.13307016752539,-7.7131974043644798],[114.13306111291551,-7.7131974707196873],[114.13306104847526,-7.7131887211265804],[114.13305699700005,-7.7131914219999027],[114.1330520341555,-7.7131942580101818],[114.13305205830555,-7.7131975370747021],[114.13304674371993,-7.713197576021563],[114.13304302176967,-7.7132000575239887],[114.13304307021586,-7.7132066354984037],[114.13303282652991,-7.7132067105669826],[114.13302631600014,-7.7132108529998895],[114.13301097600025,-7.7132210799998759],[114.13299563500016,-7.7132313069999459],[114.13298895412356,-7.7132357609176383],[114.13298900863047,-7.713243161901163],[114.13297995401891,-7.7132432282550445],[114.13298002053834,-7.7132522603244471],[114.13298907515009,-7.7132521939704866],[114.1329891416698,-7.7132612260398083],[114.13297103244582,-7.7132613587476948],[114.13297092483627,-7.7132467473949982],[114.13296597700004,-7.7132497159999422],[114.13295575000016,-7.713255851999925],[114.1329383640001,-7.7132701699999258],[114.13293490540389,-7.7132740356303318],[114.13293494703427,-7.7132796883007302],[114.13294400164699,-7.7132796219474891],[114.13294406816598,-7.7132886540172052],[114.13292595894005,-7.7132887867236537],[114.1329260919775,-7.713306850863356],[114.13293514659088,-7.7133067845100713],[114.13293521310993,-7.7133158165798372],[114.13290094284227,-7.7133160677157235],[114.13289438900017,-7.7133233499998246],[114.13288313900011,-7.7133305079999603],[114.13287189000015,-7.713337666999962],[114.13286677600001,-7.7133397129999315],[114.13286295497717,-7.7133406227080501],[114.13286310878779,-7.7133615077533113],[114.13288121801789,-7.7133613750482795],[114.13288108498139,-7.7133433109078426],[114.13289013959596,-7.7133432445551984],[114.13289027263284,-7.7133613086954762],[114.13289932724769,-7.7133612423424847],[114.13289939376644,-7.7133702744125383],[114.1328903391514,-7.7133703407656107],[114.13289060522644,-7.7134064690460979],[114.1329268236892,-7.7134062036314033],[114.13292689020892,-7.713415235701202],[114.13296310867119,-7.7134149702831394],[114.13296277606952,-7.7133698099356875],[114.13298088529827,-7.7133696772262939],[114.13298101833945,-7.7133877413649747],[114.13299007295406,-7.7133876750098347],[114.13299000643325,-7.7133786429405751],[114.13300811566187,-7.7133785102298811],[114.13300804914076,-7.713369478160776],[114.13299899452664,-7.713369544516139],[114.13299892800579,-7.7133605124469495],[114.13298987339182,-7.7133605788020425],[114.13298980687124,-7.7133515467327713],[114.1329807522574,-7.7133516130875961],[114.13298068573708,-7.7133425810182423],[114.13297163112331,-7.7133426473727953],[114.13297169764344,-7.7133516794422317],[114.13296264302943,-7.7133517457966727],[114.13296257650948,-7.71334271372716],[114.13295352189557,-7.7133427800813346],[114.1329535884153,-7.7133518121509264],[114.13293547918687,-7.7133519448588546],[114.13293541266752,-7.7133429127891064],[114.13295352189557,-7.7133427800813346]],[[114.13308854283072,-7.7132333999274092],[114.1331157066617,-7.7132332008585509],[114.13311583970624,-7.7132512649949865],[114.13310678509561,-7.7132513313516204],[114.13310671857349,-7.7132422992833192],[114.13308860935237,-7.7132424319958561],[114.13308854283072,-7.7132333999274092]],[[114.1329083153436,-7.7133521439193196],[114.13289926072902,-7.7133522102724248],[114.13289919421042,-7.7133431782023623],[114.13290824882482,-7.7133431118493343],[114.1329083153436,-7.7133521439193196],[114.13292642457253,-7.7133520112125344],[114.1329266241305,-7.7133791074219902],[114.13291756951551,-7.7133791737757127],[114.13291763603482,-7.7133882058456011],[114.13290858141953,-7.7133882721992135],[114.1329083153436,-7.7133521439193196]]],[[[114.13318794397003,-7.7132055737970147],[114.13318781092325,-7.7131875096617755],[114.13317875631458,-7.7131875760193882],[114.13317888936098,-7.7132056401547828],[114.13318794397003,-7.7132055737970147]]],[[[114.13165754758344,-7.7131941926364291],[114.13165758092246,-7.7131987213866289],[114.13170285403231,-7.7131983897571086],[114.13170292052426,-7.7132074218376214],[114.13172102976802,-7.7132072891843189],[114.13172109626043,-7.7132163212646674],[114.13173015088239,-7.7132162549376506],[114.13173021737508,-7.7132252870179165],[114.13177549048457,-7.7132249553795802],[114.13177542399093,-7.7132159232997033],[114.13180258785511,-7.7132157243146429],[114.13180265434931,-7.7132247563942826],[114.13181170897073,-7.7132246900654673],[114.13181184195979,-7.7132427542245905],[114.13185711506759,-7.7132424225768714],[114.13185704857207,-7.7132333904976944],[114.13188421243522,-7.7132331915070083],[114.13188427893132,-7.7132422235859464],[114.13192049741517,-7.7132419582620395],[114.1319205639121,-7.7132509903406241],[114.13195678239542,-7.7132507250133457],[114.13195691539109,-7.7132687891699119],[114.13199313387466,-7.7132685238389493],[114.13199320037339,-7.7132775559169113],[114.13200225499426,-7.7132774895836143],[114.13200232149326,-7.7132865216614777],[114.13202043073517,-7.7132863889941534],[114.13202049723462,-7.7132954210718863],[114.13204766109745,-7.7132952220692319],[114.13204759459742,-7.7132861899917344],[114.13205664921803,-7.7132861236572108],[114.13205651621783,-7.7132680595024112],[114.13204746159761,-7.7132681258367741],[114.13204739509781,-7.7132590937592811],[114.13208361357742,-7.7132588284209911],[114.13208341407623,-7.7132317321894242],[114.13209246869535,-7.7132316658546101],[114.132092454096,-7.7132296829735623],[114.13206527244203,-7.7132274648413137],[114.13206530483774,-7.7132318648584803],[114.13205625021838,-7.7132319311927215],[114.13205621189063,-7.7132267254634916],[114.13204715133915,-7.7132259860854822],[114.13204719559893,-7.7132319975267691],[114.13202003174013,-7.713232196527775],[114.13201996968451,-7.7132237679501721],[114.13201318308595,-7.7132232141354145],[114.13201091062166,-7.7132232307832345],[114.13201090913287,-7.713223028571341],[114.13165754758344,-7.7131941926364291]],[[114.13198374676246,-7.7132234297817099],[114.13199280138227,-7.7132233634490763],[114.13199286788058,-7.7132323955270587],[114.13200192250051,-7.7132323291941542],[114.13200198899909,-7.7132413612720718],[114.13198387975879,-7.7132414939378471],[114.13198374676246,-7.7132234297817099]],[[114.13195664940007,-7.7132326608567636],[114.13192948553885,-7.7132328598520363],[114.13192941904188,-7.7132238277735041],[114.13195658290252,-7.713223628778465],[114.13195664940007,-7.7132326608567636]],[[114.13196563752258,-7.7132235624464052],[114.13197469214256,-7.7132234961141526],[114.13197475864048,-7.7132325281922931],[114.13196570402033,-7.713232594524623],[114.13196563752258,-7.7132235624464052]]]]},"properties":{"FID":0,"Shape_Leng":18102566.929299999,"Shape_Area":236516885.403}}]
}