{
  "type" : "FeatureCollection",
  "features" : [{"type":"Feature","id":0,"geometry":{"type":"MultiPolygon","coordinates":[[[[114.09249765741956,-7.6925635885411561],[114.09248860289686,-7.6925636538638074],[114.09248866837926,-7.6925726862912756],[114.09249772290212,-7.6925726209685461],[114.09249765741956,-7.6925635885411561]]],[[[114.09249765741956,-7.6925635885411561],[114.09250671194214,-7.6925635232183112],[114.09250658097685,-7.6925454583636723],[114.092515635499,-7.6925453930407945],[114.09251557001627,-7.6925363606135457],[114.09247029740574,-7.6925366872256413],[114.09247023192405,-7.6925276547980008],[114.09245212287966,-7.6925277854413485],[114.09245225384237,-7.6925458502969368],[114.09249752645464,-7.6925455236863591],[114.09249765741956,-7.6925635885411561]]],[[[114.09253361357688,-7.6925271975402776],[114.09253354809393,-7.6925181651131753],[114.09252449357253,-7.6925182304361988],[114.09252455905529,-7.6925272628633792],[114.09253361357688,-7.6925271975402776]]],[[[114.09248775163302,-7.6924462323063176],[114.09246058807196,-7.6924464282701033],[114.09246071903361,-7.6924644931256152],[114.09245166451272,-7.6924645584466518],[114.09245172999348,-7.6924735908744806],[114.09247889355649,-7.6924733949105644],[114.09247895903789,-7.6924824273381551],[114.09249706807991,-7.6924822966944388],[114.09249700259811,-7.6924732642670053],[114.0925060571188,-7.6924731989449384],[114.0925059916369,-7.6924641665175768],[114.09249693711641,-7.6924642318395655],[114.09249687163478,-7.6924551994121231],[114.09248781711437,-7.6924552647338444],[114.09248775163302,-7.6924462323063176]]],[[[114.09248775163302,-7.6924462323063176],[114.09250586067333,-7.6924461016628412],[114.09250579519167,-7.6924370692354662],[114.09248768615174,-7.6924371998787882],[114.09248775163302,-7.6924462323063176]]],[[[114.09264010685877,-7.6922283435822072],[114.09264004137613,-7.692219311155907],[114.09263098686201,-7.6922193764786595],[114.09263105234443,-7.692228408905037],[114.09264010685877,-7.6922283435822072]]],[[[114.09296541443095,-7.692135667598099],[114.09296528345361,-7.6921176027509484],[114.09295622894443,-7.6921176680797041],[114.09295635992137,-7.6921357329270101],[114.09296541443095,-7.692135667598099]]],[[[114.092974272474,-7.6921085049985054],[114.09297420698533,-7.6920994725750065],[114.09296515247658,-7.6920995379037969],[114.09296521796506,-7.6921085703273748],[114.092974272474,-7.6921085049985054]]],[[[114.09298313051653,-7.692081342399165],[114.09298306502791,-7.69207230997573],[114.09297401051982,-7.6920723753044786],[114.09297407600825,-7.6920814077279926],[114.09298313051653,-7.692081342399165]]],[[[114.09280184388174,-7.6920555516645344],[114.09280177839719,-7.6920465192395326],[114.0927927238881,-7.6920465845642401],[114.09279278937247,-7.6920556169893182],[114.09280184388174,-7.6920555516645344]]],[[[114.09301908659181,-7.692044951389426],[114.09301902110276,-7.6920359189662832],[114.09300996659573,-7.692035984295484],[114.09301003208461,-7.6920450167187049],[114.09301908659181,-7.692044951389426]]],[[[114.09224794734214,-7.6918427578129096],[114.09224788187115,-7.6918337253830735],[114.09223882736181,-7.6918337906942966],[114.09223889283263,-7.6918428231242117],[114.09224794734214,-7.6918427578129096]]],[[[114.09311717988903,-7.6918364870410416],[114.0931171143997,-7.6918274546186529],[114.09308995089424,-7.6918276506066157],[114.093090016383,-7.6918366830292388],[114.09311717988903,-7.6918364870410416]]],[[[114.09308988540555,-7.6918186181839916],[114.09308981991694,-7.6918095857613453],[114.09310792891988,-7.6918094551032032],[114.09310786343096,-7.691800422680739],[114.09308069992697,-7.6918006186674335],[114.09308083090374,-7.6918186835128539],[114.09308988540555,-7.6918186181839916]]],[[[114.09311685244313,-7.6917913249290528],[114.09311678695418,-7.6917822925066428],[114.09312584145488,-7.6917822271773275],[114.09312577596582,-7.691773194754993],[114.0931076669647,-7.6917733254132763],[114.09310779794214,-7.6917913902582562],[114.09311685244313,-7.6917913249290528]]],[[[114.09228377255006,-7.69178830198857],[114.09228364160755,-7.6917702371294414],[114.09227458709985,-7.6917703024408848],[114.09227471804198,-7.6917883673001679],[114.09228377255006,-7.69178830198857]]],[[[114.09323442996588,-7.6917724107892935],[114.0932343644746,-7.6917633783678667],[114.09322530997524,-7.6917634436993128],[114.09322537546632,-7.6917724761208168],[114.09323442996588,-7.6917724107892935]]],[[[114.09229256517257,-7.6917521069588517],[114.0922924997014,-7.6917430745293576],[114.09228344519437,-7.6917431398407565],[114.09228351066535,-7.6917521722703288],[114.09229256517257,-7.6917521069588517]]],[[[114.09315228457494,-7.6916826745448548],[114.09314323007659,-7.6916827398738885],[114.09314329556524,-7.6916917722961138],[114.09313424106661,-7.6916918376250312],[114.09313430655514,-7.6917008700473311],[114.09312525205621,-7.6917009353761392],[114.09312538303315,-7.6917190002208944],[114.09310727403431,-7.6917191308782451],[114.09310760147611,-7.6917642929907606],[114.09311665597652,-7.6917642276617917],[114.09311639402218,-7.6917280979720886],[114.09313450302122,-7.6917279673142023],[114.09313443753244,-7.6917189348919326],[114.09314349203166,-7.6917188695627807],[114.09314342654278,-7.691709837140551],[114.0931524810417,-7.6917097718112872],[114.09315228457494,-7.6916826745448548]]],[[[114.09232832489883,-7.6916886187066611],[114.09232825942745,-7.6916795862774645],[114.09231920492205,-7.6916796515890828],[114.09231927039323,-7.6916886840183594],[114.09232832489883,-7.6916886187066611]]],[[[114.09298038006287,-7.6917019806111284],[114.09298018360722,-7.6916748833402773],[114.09297112910755,-7.6916749486656117],[114.09297132556262,-7.6917020459366956],[114.09298038006287,-7.6917019806111284]]],[[[114.09315228457494,-7.6916826745448548],[114.09316133907325,-7.6916826092156354],[114.09316127358431,-7.6916735767935753],[114.09317032808232,-7.6916735114642396],[114.09317039357146,-7.6916825438862197],[114.09318850256766,-7.6916824132268227],[114.09318843707813,-7.6916733808049988],[114.09317938258027,-7.6916734461347147],[114.09317931709103,-7.6916644137127719],[114.09315215359752,-7.6916646097005472],[114.09315228457494,-7.6916826745448548]]],[[[114.09323364407587,-7.6916640217320822],[114.09323357858555,-7.691654989310619],[114.09322452408847,-7.6916550546411342],[114.0932245895786,-7.6916640870626729],[114.09323364407587,-7.6916640217320822]]],[[[114.09233711751851,-7.691652423678204],[114.09233705204726,-7.6916433912490518],[114.09232799754271,-7.6916434565605476],[114.09232806301378,-7.6916524889897815],[114.09233711751851,-7.691652423678204]]],[[[114.09324256759211,-7.6916458915585268],[114.09324250210176,-7.6916368591371329],[114.09323344760514,-7.6916369244676819],[114.09323351309531,-7.691645956889154],[114.09324256759211,-7.6916458915585268]]],[[[114.09240036810434,-7.69163390163461],[114.0924003026319,-7.6916248692059899],[114.09239124812831,-7.691624934518666],[114.09239131360054,-7.6916339669473635],[114.09240036810434,-7.69163390163461]]],[[[114.09293458368832,-7.6916300478448916],[114.09293451820461,-7.69162101542085],[114.09292546370568,-7.6916210807447678],[114.0929255291892,-7.6916301131688876],[114.09293458368832,-7.6916300478448916]]],[[[114.09324243661149,-7.6916278267157345],[114.09324237112131,-7.6916187942943335],[114.09323331662507,-7.691618859624727],[114.09323338211507,-7.691627892046208],[114.09324243661149,-7.6916278267157345]]],[[[114.09327865459645,-7.6916275653919444],[114.09327858910548,-7.6916185329708515],[114.09326953460953,-7.6916185983020098],[114.09326960010031,-7.6916276307231772],[114.09327865459645,-7.6916275653919444]]],[[[114.09266622267964,-7.6920836287947578],[114.09267527719062,-7.6920835634724076],[114.0926752117085,-7.6920745310463357],[114.09270237524036,-7.6920743350783756],[114.09270257168869,-7.6921014323558872],[114.09276595326429,-7.6921009750890175],[114.09276588778009,-7.6920919426637422],[114.09277494229038,-7.6920918773392204],[114.09277487680608,-7.6920828449139895],[114.09276582229599,-7.692082910238434],[114.09276575681194,-7.6920738778131366],[114.09277481132186,-7.6920738124887666],[114.09277448390192,-7.6920286503625999],[114.0927835384108,-7.6920285850384316],[114.09278347292685,-7.6920195526132451],[114.09279252743546,-7.6920194872889613],[114.09279233098356,-7.6919923900136791],[114.0928013854915,-7.6919923246894388],[114.09280145097559,-7.6920013571144645],[114.09281050548367,-7.6920012917899552],[114.09281024354704,-7.6919651620901321],[114.09282835256138,-7.6919650314411649],[114.09282815610861,-7.6919379341667176],[114.0928372106151,-7.6919378688421816],[114.09283707964661,-7.6919198039926817],[114.09285518865856,-7.6919196733433468],[114.09285512317405,-7.6919106409187474],[114.09286417767974,-7.6919105755938704],[114.09286411219512,-7.6919015431693429],[114.0928550576896,-7.691901608494141],[114.09285499220525,-7.6918925760695327],[114.09286404671057,-7.6918925107448128],[114.09286378477316,-7.6918563810466445],[114.0928728392776,-7.6918563157220428],[114.092872708309,-7.6918382508730874],[114.09288176281301,-7.691838185548451],[114.09288169732864,-7.6918291531240435],[114.09289980633598,-7.6918290224743568],[114.09289974085129,-7.6918199900500994],[114.09290879535469,-7.6918199247250465],[114.09290866438519,-7.6918018598766791],[114.09291771888809,-7.6918017945515906],[114.09291758791852,-7.6917837297033591],[114.09292664242098,-7.691783664378236],[114.0929263149975,-7.6917385022579703],[114.0929353694989,-7.6917384369330444],[114.09293530401425,-7.6917294045090543],[114.0929443585154,-7.6917293391840156],[114.09294429303064,-7.691720306760117],[114.09291712952752,-7.6917205027344311],[114.09291693307544,-7.6916934054619412],[114.09294409657682,-7.6916932094883279],[114.09294376915538,-7.6916480473686208],[114.09295282365474,-7.6916479820440902],[114.09295256171825,-7.691611852348557],[114.092934452721,-7.6916119829968039],[114.09293451820461,-7.69162101542085],[114.09294357270348,-7.6916209500967447],[114.09294363818736,-7.6916299825207064],[114.09293458368832,-7.6916300478448916],[114.09293484562392,-7.6916661775410136],[114.09292579112403,-7.691666242865316],[114.09292585660795,-7.6916752752894286],[114.0928986931072,-7.6916754712614352],[114.09289875859062,-7.6916845036857433],[114.09290781309114,-7.6916844383618548],[114.09290787857482,-7.691693470786098],[114.09289882407411,-7.6916935361100647],[114.09289888955769,-7.6917025685343798],[114.09287172605454,-7.6917027645053677],[114.09287166057153,-7.691693732080819],[114.09285355156941,-7.6916938627270373],[114.0928537480175,-7.6917209600011534],[114.09286280251918,-7.6917208946779088],[114.09286286800221,-7.6917299271025046],[114.092871922504,-7.69172986177899],[114.09287231540507,-7.6917840563261173],[114.09288136990793,-7.6917839910019445],[114.09288143539192,-7.6917930234263743],[114.09286332638574,-7.6917931540746816],[114.09286326090215,-7.6917841216500973],[114.09284515189606,-7.6917842522974871],[114.09284495544688,-7.6917571550232431],[114.09285400994939,-7.6917570896998777],[114.09285387898328,-7.6917390248505164],[114.09282671547666,-7.6917392208195769],[114.09282678095909,-7.6917482532444934],[114.09281772645654,-7.6917483185672104],[114.09281779193887,-7.6917573509921997],[114.09282684644161,-7.6917572856694063],[114.09282697740689,-7.6917753505192143],[114.09281792290376,-7.691775415842165],[114.09281798838633,-7.6917844482671391],[114.09280893388294,-7.6917845135899778],[114.09280899936537,-7.6917935460150266],[114.09279089035795,-7.691793676660283],[114.09279115228702,-7.6918298063610564],[114.09278209778242,-7.6918298716837104],[114.092782359712,-7.6918660013847271],[114.09276425070107,-7.6918661320300821],[114.09276431618328,-7.6918751644554799],[114.09275526167748,-7.69187522977795],[114.09275519619545,-7.691866197352474],[114.09274614168979,-7.6918662626746759],[114.09274607620804,-7.6918572302491182],[114.09273702170246,-7.6918572955710527],[114.09273721814738,-7.6918843928479612],[114.09274627265353,-7.6918843275257949],[114.09274640361757,-7.6919023923768624],[114.09273734911105,-7.691902457699185],[114.092737414593,-7.6919114901247969],[114.09272836008621,-7.6919115554470068],[114.09272842556805,-7.6919205878726942],[114.09271031655386,-7.6919207185166956],[114.09271051299872,-7.6919478157941956],[114.09270145849095,-7.6919478811161435],[114.09270158945419,-7.6919659459679428],[114.0926834804376,-7.6919660766115747],[114.09268380784522,-7.6920112387417756],[114.09265664431689,-7.6920114347069628],[114.09265670979808,-7.6920204671332053],[114.09264765528826,-7.6920205324546309],[114.09264772076935,-7.69202956488098],[114.09267488429907,-7.6920293689158994],[114.0926749497808,-7.6920384013419953],[114.09268400429073,-7.6920383360198441],[114.09268406977272,-7.6920473684458575],[114.09269312428277,-7.692047303123438],[114.09269318976503,-7.6920563355493679],[114.09268413525481,-7.6920564008718655],[114.09268420073695,-7.6920654332978726],[114.09267514622645,-7.6920654986202557],[114.0926750807445,-7.692056466194173],[114.09266602623407,-7.6920565315162905],[114.09266596075238,-7.6920474990901262],[114.09264785173173,-7.6920476297336329],[114.09264798269443,-7.6920656945862698],[114.09262987367271,-7.6920658252293235],[114.09262993915381,-7.6920748576557898],[114.09263899366489,-7.6920747923342816],[114.0926392555908,-7.6921109220397907],[114.0926573646143,-7.6921107913955797],[114.09265743009635,-7.6921198238217903],[114.0926755391199,-7.6921196931766609],[114.09267534267282,-7.6920925958984956],[114.09266628816165,-7.6920926612209222],[114.09266622267964,-7.6920836287947578],[114.0926571681686,-7.6920836941169179],[114.09265710268686,-7.6920746616906888],[114.0926661571977,-7.6920745963686077],[114.09266622267964,-7.6920836287947578]],[[114.09272022232969,-7.6920380747293287],[114.09271116782007,-7.6920381400522428],[114.09271110233757,-7.6920291076264578],[114.09272015684701,-7.6920290423036208],[114.09272022232969,-7.6920380747293287]],[[114.09274732037483,-7.6920288463339688],[114.09272921135636,-7.6920289769805938],[114.09272894942566,-7.6919928472780308],[114.09273800393416,-7.6919927819551228],[114.09273806941691,-7.692001814380693],[114.09274712392553,-7.6920017490575177],[114.09274732037483,-7.6920288463339688]],[[114.09279220001601,-7.6919743251634385],[114.09275598198492,-7.691974586457877],[114.09275591650203,-7.6919655540324667],[114.09276497100974,-7.6919654887092204],[114.09276490552674,-7.6919564562838669],[114.0927830145415,-7.6919563256369567],[114.09278308002489,-7.6919653580621556],[114.09279213453235,-7.69196529273834],[114.09279220001601,-7.6919743251634385]],[[114.09277369810218,-7.6919202612593569],[114.09276464359552,-7.6919203265824043],[114.09276457811291,-7.6919112941570296],[114.09275552360634,-7.6919113594798088],[114.092755458124,-7.6919023270543505],[114.09277356713665,-7.6919021964087557],[114.09277369810218,-7.6919202612593569]],[[114.09278262164285,-7.691902131085671],[114.09279167614899,-7.6919020657623953],[114.09279174163208,-7.6919110981875436],[114.09278268712576,-7.6919111635108957],[114.09278262164285,-7.691902131085671]],[[114.0928273703046,-7.6918295450685372],[114.09280926129598,-7.6918296757151792],[114.09280919581322,-7.6918206432901481],[114.09280014130896,-7.6918207086131041],[114.09280001034405,-7.6918026437628733],[114.09280906484791,-7.6918025784400719],[114.09280913033054,-7.691811610865094],[114.0928181848345,-7.6918115455420253],[114.09281811935169,-7.6918025131170777],[114.09282717385538,-7.6918024477938962],[114.0928273703046,-7.6918295450685372]]],[[[114.09324224014115,-7.6916007294514985],[114.0932331856453,-7.6916007947817375],[114.09323325113515,-7.6916098272032425],[114.09324230563119,-7.6916097618729253],[114.09324224014115,-7.6916007294514985]]],[[[114.09324224014115,-7.6916007294514985],[114.09325129463694,-7.6916006641210704],[114.0932512291468,-7.6915916316997484],[114.09326028364231,-7.6915915663692074],[114.09326034913263,-7.6916005987904494],[114.09326940362826,-7.6916005334596393],[114.09326927264728,-7.6915824686172867],[114.09324210916131,-7.6915826646086805],[114.09324224014115,-7.6916007294514985]]],[[[114.09327826165189,-7.6915733708653287],[114.093278130671,-7.691555306023071],[114.0932690761764,-7.6915553713536839],[114.09326920715691,-7.691573436196097],[114.09327826165189,-7.6915733708653287]]],[[[114.09298825583652,-7.6915393316609775],[114.09298819035246,-7.6915302992373586],[114.09297913585591,-7.6915303645616424],[114.09297920133977,-7.6915393969853385],[114.09298825583652,-7.6915393316609775]]],[[[114.09300610289249,-7.6915030713178023],[114.09300603740837,-7.691494038894322],[114.09298792841703,-7.6914941695428398],[114.09298799390078,-7.6915032019664755],[114.09300610289249,-7.6915030713178023]]],[[[114.09332281372411,-7.6914736875803653],[114.09332274823355,-7.6914646551595869],[114.09331369374125,-7.6914647204903765],[114.09331375923163,-7.6914737529112323],[114.09332281372411,-7.6914736875803653]]],[[[114.09332268274306,-7.6914556227388058],[114.09332261725265,-7.6914465903180185],[114.09331356276074,-7.6914466556486518],[114.09331362825095,-7.6914556880695173],[114.09332268274306,-7.6914556227388058]]],[[[114.09302375349405,-7.6914397137049955],[114.09301469899974,-7.6914397790292659],[114.09301476448357,-7.6914488114526929],[114.09302381897808,-7.6914487461283478],[114.09302375349405,-7.6914397137049955]]],[[[114.09302375349405,-7.6914397137049955],[114.09303280798829,-7.691439648380535],[114.09303274250415,-7.6914306159572554],[114.09302368801011,-7.6914306812816395],[114.09302375349405,-7.6914397137049955]]],[[[114.09306922241967,-7.6914664843496681],[114.09307827691408,-7.6914664190240227],[114.09307794948822,-7.6914212569095923],[114.09306889499476,-7.6914213222348495],[114.09306909144946,-7.6914484195037529],[114.09306003695534,-7.6914484848290527],[114.09306016792516,-7.6914665496751233],[114.09305111343058,-7.6914666150003868],[114.09305137537041,-7.6915027446927837],[114.09304232087499,-7.6915028100181679],[114.09304245184498,-7.6915208748644979],[114.09306056083651,-7.6915207442132294],[114.09306049535108,-7.6915117117902394],[114.09306954984656,-7.691511646464396],[114.09306961533217,-7.6915206788873078],[114.09307866982772,-7.6915206135611953],[114.0930787353136,-7.6915296459840441],[114.0930877898093,-7.6915295806576633],[114.09308759335131,-7.6915024833893444],[114.09309664784634,-7.6915024180630045],[114.09309651687435,-7.6914843532175912],[114.09310557136891,-7.6914842878912193],[114.09310550588285,-7.6914752554685855],[114.09308739689403,-7.6914753861209837],[114.09308746237971,-7.691484418543773],[114.09307840788497,-7.6914844838697647],[114.09307847337055,-7.6914935162926295],[114.09306941887556,-7.6914935816185075],[114.09306922241967,-7.6914664843496681]]],[[[114.09336775872849,-7.6914281988211828],[114.09336762774632,-7.6914101339803569],[114.09335857325556,-7.6914101993116315],[114.09335870423735,-7.6914282641526146],[114.09336775872849,-7.6914281988211828]]],[[[114.09304153506162,-7.6913944209398206],[114.0930324805684,-7.6913944862640822],[114.09303261153612,-7.6914125511106866],[114.09305072052322,-7.6914124204616616],[114.09305065503894,-7.691403388038526],[114.09304160054563,-7.6914034533630558],[114.09304153506162,-7.6913944209398206]]],[[[114.09298714261837,-7.6913857804588659],[114.09298707713566,-7.6913767480351733],[114.09297802264236,-7.6913768133581399],[114.09297808812487,-7.6913858457819089],[114.09298714261837,-7.6913857804588659]]],[[[114.09334052976433,-7.6914193623942602],[114.09334020231277,-7.6913742002909737],[114.09333114782254,-7.6913742656213691],[114.09333134429266,-7.6914013628835853],[114.09331323531086,-7.6914014935442676],[114.09331330080066,-7.6914105259651535],[114.09330424630946,-7.6914105912952859],[114.09330431179916,-7.6914196237162455],[114.09334052976433,-7.6914193623942602]]],[[[114.09327675539085,-7.6913656251785172],[114.09326770090026,-7.6913656905075003],[114.09326776638881,-7.6913747229287903],[114.09325871189796,-7.6913747882576606],[114.09325884287492,-7.6913928531003677],[114.09324978838362,-7.6913929184292025],[114.09324985387201,-7.6914019508506533],[114.09324079938042,-7.6914020161793735],[114.09324093035708,-7.6914200810223834],[114.09322282137295,-7.6914202116795645],[114.09322295234915,-7.6914382765228684],[114.09321389785656,-7.6914383418513284],[114.0932139633446,-7.6914473742730509],[114.09322301783739,-7.6914473089445119],[114.0932230833257,-7.6914563413661527],[114.09321402883272,-7.6914564066947682],[114.09321415980918,-7.6914744715381911],[114.09320510531576,-7.6914745368667718],[114.09320523629218,-7.6914926017103316],[114.09317807281028,-7.6914927976953953],[114.09317820378585,-7.6915108625394213],[114.09316914929133,-7.69151092786755],[114.09316934575472,-7.6915380251337453],[114.0931784002498,-7.6915379598053839],[114.09317872769131,-7.6915831219152633],[114.09318778218727,-7.6915830565863237],[114.09318784767599,-7.6915920890082079],[114.09320595666806,-7.6915919583496022],[114.09320589117894,-7.6915829259278716],[114.09321494567465,-7.6915828605983592],[114.09321481469628,-7.691564795755041],[114.09322386919155,-7.6915647304254939],[114.09322380370229,-7.6915556980038886],[114.09323285819727,-7.6915556326742296],[114.09323259624026,-7.6915195029881618],[114.09322354174606,-7.6915195683175117],[114.0932234107684,-7.6915015034742877],[114.09323246526225,-7.6915014381450932],[114.09323239977336,-7.6914924057235519],[114.09325050876041,-7.6914922750647463],[114.09325057424968,-7.6915013074861323],[114.09324151975599,-7.6915013728157078],[114.0932416507344,-7.6915194376586209],[114.09326881421634,-7.6915192416688578],[114.09326868323679,-7.691501176826411],[114.09325962874328,-7.6915012421563658],[114.09325949776442,-7.6914831773137466],[114.09326855225756,-7.6914831119839455],[114.09326835578929,-7.6914560147202167],[114.0932774102818,-7.6914559493904564],[114.09327734479236,-7.6914469169692818],[114.09328639928457,-7.6914468516394106],[114.09328626830552,-7.6914287867972035],[114.09327721381368,-7.6914288521269203],[114.09327708283534,-7.6914107872845419],[114.09328613732679,-7.6914107219549797],[114.09328607183754,-7.6914016895338619],[114.09330418081983,-7.6914015588743219],[114.09330411533028,-7.6913925264533374],[114.09328600634836,-7.6913926571127211],[114.09328587537027,-7.6913745922704795],[114.09327682087959,-7.6913746575997299],[114.09327675539085,-7.6913656251785172]],[[114.09324119231137,-7.6914562107083482],[114.0932502468041,-7.6914561453791617],[114.09325031229307,-7.6914651778005645],[114.09325936678589,-7.6914651124711098],[114.09325943227513,-7.69147414489243],[114.09324132328898,-7.6914742755513066],[114.09324119231137,-7.6914562107083482]]],[[[114.09341257274004,-7.6913646452209186],[114.0934125072485,-7.6913556128008658],[114.09340345275929,-7.6913556781326271],[114.09340351825062,-7.6913647105527581],[114.09341257274004,-7.6913646452209186]]],[[[114.09339439827002,-7.6913557434641984],[114.09339433277896,-7.6913467110439679],[114.0933852782898,-7.6913467763752728],[114.09338534378067,-7.6913558087955796],[114.09339439827002,-7.6913557434641984]]],[[[114.09339413630624,-7.6913196137833211],[114.09339420179707,-7.6913286462035453],[114.09341231077441,-7.6913285155406772],[114.0934122452832,-7.6913194831206049],[114.09339413630624,-7.6913196137833211]]],[[[114.09306856757183,-7.6913761601199226],[114.09306850208749,-7.6913671276969229],[114.09307755657981,-7.6913670623721311],[114.09307742561097,-7.6913489975262586],[114.09308648010284,-7.691348932201433],[114.0930862836496,-7.6913218349328663],[114.09309533814081,-7.6913217696080824],[114.093095207172,-7.691303704762511],[114.09307709819025,-7.6913038354115786],[114.09307722915831,-7.69132190025746],[114.09306817466695,-7.6913219655818663],[114.09306837111903,-7.6913490628508949],[114.09305931662701,-7.691349128175343],[114.09305951307923,-7.6913762254446008],[114.09306856757183,-7.6913761601199226]]],[[[114.09339413630624,-7.6913196137833211],[114.09339400532483,-7.69130154894287],[114.09337589634832,-7.6913016796045124],[114.09337596183862,-7.6913107120248849],[114.0933850163271,-7.691310646694081],[114.09338508181766,-7.6913196791143905],[114.09339413630624,-7.6913196137833211]]],[[[114.0934392777647,-7.6913012222854347],[114.09343921227317,-7.6912921898655657],[114.09343015778555,-7.6912922551973555],[114.0934302232769,-7.6913012876173035],[114.0934392777647,-7.6913012222854347]]],[[[114.09338481985591,-7.6912835494331304],[114.09338468887552,-7.6912654845924751],[114.09337563438798,-7.691265549922889],[114.09337576536799,-7.6912836147637007],[114.09338481985591,-7.6912835494331304]]],[[[114.09275094003404,-7.6912790896872369],[114.09275080908054,-7.6912610248357058],[114.09274175458766,-7.6912610901527083],[114.09274188554079,-7.6912791550043949],[114.09275094003404,-7.6912790896872369]]],[[[114.0927237110778,-7.6912702532121449],[114.09272358012559,-7.6912521883601386],[114.09270547113965,-7.6912523189926549],[114.0927056020911,-7.6912703838449694],[114.0927237110778,-7.6912702532121449]]],[[[114.09342996131197,-7.6912651579375453],[114.09342983032998,-7.6912470930976484],[114.09342077584323,-7.6912471584288591],[114.09342090682483,-7.6912652232689123],[114.09342996131197,-7.6912651579375453]]],[[[114.09345686280693,-7.6912288322634206],[114.09343875383459,-7.6912289629264858],[114.09343888481665,-7.691247027766245],[114.09344793930323,-7.6912469624346524],[114.09344813577748,-7.6912740596940257],[114.09343002680308,-7.6912741903574853],[114.09343009229428,-7.6912832227774226],[114.09345725575633,-7.6912830267817132],[114.09345686280693,-7.6912288322634206]]],[[[114.09342969934831,-7.6912290282577329],[114.09342963385758,-7.6912199958377698],[114.09341152488514,-7.6912201264995375],[114.0934115903755,-7.6912291589196551],[114.09342969934831,-7.6912290282577329]]],[[[114.09337517596042,-7.6912023229799154],[114.09337504498184,-7.6911842581390086],[114.09336599049594,-7.6911843234685353],[114.09336612147416,-7.6912023883095966],[114.09337517596042,-7.6912023229799154]]],[[[114.09313037738322,-7.6911589247017069],[114.09311226840822,-7.691159055349817],[114.09311233389171,-7.6911680877725273],[114.09310327940389,-7.691168153096374],[114.09310334488725,-7.6911771855191571],[114.09311239937527,-7.6911771201952348],[114.09311259582641,-7.6912042174633255],[114.0931216503149,-7.6912041521389778],[114.09312158483091,-7.6911951197163635],[114.09313063931914,-7.691195054391903],[114.09313057383505,-7.6911860219693429],[114.09313962832299,-7.6911859566447713],[114.09313956283877,-7.6911769242223187],[114.09313050835102,-7.6911769895468138],[114.09313037738322,-7.6911589247017069]]],[[[114.09316607145809,-7.6910864040250893],[114.09316594049034,-7.6910683391805161],[114.09315688600512,-7.6910684045046516],[114.09315695148875,-7.6910774369270172],[114.09313884251767,-7.6910775675748733],[114.09313890800101,-7.6910865999973907],[114.09316607145809,-7.6910864040250893]]],[[[114.09355528328022,-7.6910655300624855],[114.09355521778825,-7.6910564976435305],[114.09354616330663,-7.6910565629757777],[114.0935462287984,-7.6910655953948108],[114.09355528328022,-7.6910655300624855]]],[[[114.09317492949155,-7.6910592414339751],[114.09317473304019,-7.6910321441673029],[114.09316567855579,-7.6910322094913193],[114.09316574403931,-7.6910412419136263],[114.09315668955466,-7.6910413072375281],[114.09315682052154,-7.6910593720822833],[114.09317492949155,-7.6910592414339751]]],[[[114.09362732617217,-7.6910108128869439],[114.09362726067916,-7.6910017804685831],[114.09361820619931,-7.6910018458018916],[114.09361827169214,-7.6910108782203297],[114.09362732617217,-7.6910108128869439]]],[[[114.09325596145517,-7.6909954265564302],[114.09325589597013,-7.6909863941348791],[114.09324684148743,-7.6909864594602189],[114.09324690697228,-7.6909954918818482],[114.09325596145517,-7.6909954265564302]]],[[[114.09321055807176,-7.690977688337723],[114.09320150358884,-7.6909777536620334],[114.09320156907265,-7.6909867860840739],[114.09318346010618,-7.6909869167322791],[114.09318365655693,-7.6910140139987844],[114.09319271104076,-7.6910139486745424],[114.09319284200872,-7.6910320135187016],[114.09320189649287,-7.6910319481941123],[114.09320183100866,-7.6910229157721144],[114.09321088549254,-7.6910228504474141],[114.09321075452399,-7.6910047856035577],[114.09321980900742,-7.6910047202788219],[114.09321967803881,-7.6909866554351014],[114.09321062355576,-7.6909867207596827],[114.09321055807176,-7.690977688337723]]],[[[114.09366321662345,-7.6909653894612084],[114.09366315113007,-7.6909563570431372],[114.09365409665146,-7.6909564223768188],[114.09365416214466,-7.6909654547949664],[114.09366321662345,-7.6909653894612084]]],[[[114.09321948158647,-7.6909595581694914],[114.09321941610254,-7.6909505257476134],[114.0932013071379,-7.6909506563959606],[114.09320137262146,-7.690959688817995],[114.09321948158647,-7.6909595581694914]]],[[[114.09345476712494,-7.6909397948298777],[114.09343665816482,-7.6909399254879753],[114.09343678914179,-7.6909579903280143],[114.09344584362226,-7.6909579249989024],[114.09344590911107,-7.6909669574188397],[114.09345496359167,-7.6909668920894623],[114.09345476712494,-7.6909397948298777]]],[[[114.09363611867978,-7.6909746178801974],[114.09363585670869,-7.690938488206986],[114.09362680223025,-7.6909385535399393],[114.09362706420058,-7.6909746832134607],[114.09363611867978,-7.6909746178801974]]],[[[114.09365403115837,-7.6909473899586631],[114.09365396566533,-7.6909383575405048],[114.09364491118706,-7.6909384228738418],[114.0936449766799,-7.6909474552920765],[114.09365403115837,-7.6909473899586631]]],[[[114.09366288915732,-7.6909202273708068],[114.09366282366433,-7.6909111949527134],[114.09365376918669,-7.6909112602860041],[114.09365383467949,-7.6909202927041775],[114.09366288915732,-7.6909202273708068]]],[[[114.0936809981127,-7.6909200967034934],[114.09368093261932,-7.6909110642855563],[114.09367187814188,-7.690911129619229],[114.09367194363504,-7.690920162037246],[114.0936809981127,-7.6909200967034934]]],[[[114.0935903878411,-7.6909117176137221],[114.09359032234973,-7.6909026851950024],[114.0935722133935,-7.6909028158581947],[114.09357227888451,-7.6909118482770689],[114.0935903878411,-7.6909117176137221]]],[[[114.09367181264876,-7.6909020972012092],[114.09367174715574,-7.6908930647831859],[114.09365363820133,-7.690893195449652],[114.09365370369397,-7.6909022278678307],[114.09367181264876,-7.6909020972012092]]],[[[114.09350863557574,-7.6908761759150917],[114.09348147214088,-7.690876371903749],[114.09348160311866,-7.6908944367430729],[114.09350876655468,-7.6908942407539458],[114.09350863557574,-7.6908761759150917]]],[[[114.09349945011931,-7.6908581764058033],[114.09349938463031,-7.6908491439862852],[114.09349033015258,-7.6908492093156031],[114.0934903956414,-7.6908582417352029],[114.09349945011931,-7.6908581764058033]]],[[[114.0936170928334,-7.6908482946877799],[114.09359898387994,-7.6908484253511835],[114.09359911486222,-7.6908664901885126],[114.093590060385,-7.6908665555200866],[114.09359012587606,-7.6908755879388195],[114.09359918035346,-7.6908755226071728],[114.09359931133621,-7.6908935874444779],[114.09360836581394,-7.6908935221124812],[114.09360830032232,-7.690884489693925],[114.09361735479978,-7.6908844243618173],[114.09361722381642,-7.6908663595247999],[114.09362627829341,-7.6908662941926558],[114.09362621280167,-7.6908572617742266],[114.09361715832488,-7.6908573271062917],[114.0936170928334,-7.6908482946877799]]],[[[114.09350863557574,-7.6908761759150917],[114.09352674453193,-7.6908760452550302],[114.09352667904218,-7.6908670128357519],[114.09353573351996,-7.690866947505512],[114.09353566803013,-7.6908579150863057],[114.09354472250764,-7.6908578497559548],[114.09354446054832,-7.6908217200793985],[114.09353540607155,-7.6908217854094367],[114.09353547156108,-7.6908308178286608],[114.09352641708408,-7.6908308831585899],[114.09352661355254,-7.6908579804164665],[114.09351755907487,-7.6908580457464373],[114.09351762456431,-7.6908670781657982],[114.09350857008639,-7.6908671434956553],[114.09350863557574,-7.6908761759150917]]],[[[114.09374372451057,-7.6908293151877585],[114.09374365901667,-7.6908202827703196],[114.09373460454168,-7.6908203481045518],[114.0937346700354,-7.6908293805220671],[114.09374372451057,-7.6908293151877585]]],[[[114.09347189375598,-7.6908041778748393],[114.09345378480192,-7.690804308531372],[114.09345385028956,-7.690813340951304],[114.09346290476682,-7.6908132756230563],[114.09346297025475,-7.6908223080429039],[114.09347202473211,-7.6908222427143871],[114.09347189375598,-7.6908041778748393]]],[[[114.09356237303174,-7.6907944921617482],[114.09356230754196,-7.6907854597427399],[114.09355325306615,-7.6907855250728501],[114.09355331855573,-7.6907945574919365],[114.09356237303174,-7.6907944921617482]]],[[[114.09353501313608,-7.690767590893989],[114.09352595866041,-7.6907676562233727],[114.0935260896382,-7.6907857210620394],[114.09354419859025,-7.6907855904027711],[114.09354413310092,-7.6907765579836029],[114.09353507862512,-7.6907766233132548],[114.09353501313608,-7.690767590893989]]],[[[114.09345345736487,-7.6907591464316534],[114.0934533918777,-7.6907501140116956],[114.09344433740168,-7.6907501793392106],[114.09344440288866,-7.6907592117592447],[114.09345345736487,-7.6907591464316534]]],[[[114.09362529592548,-7.6907308079157506],[114.09362523043492,-7.6907217754972725],[114.09360712148697,-7.6907219061588847],[114.09360718697715,-7.6907309385775182],[114.09362529592548,-7.6907308079157506]]],[[[114.09366151382119,-7.6907305465899327],[114.09366144832987,-7.6907215141717646],[114.09365239385625,-7.6907215795034265],[114.09365245934737,-7.6907306119216736],[114.09366151382119,-7.6907305465899327]]],[[[114.09327197492686,-7.690706258418186],[114.0932629204502,-7.6907063237415043],[114.09326298593297,-7.6907153561631123],[114.09327204040983,-7.6907152908397158],[114.09327197492686,-7.690706258418186]]],[[[114.09353462020346,-7.6907133963784178],[114.09353448922656,-7.6906953315398514],[114.09352543475241,-7.690695396868616],[114.09352556572894,-7.6907134617073352],[114.09353462020346,-7.6907133963784178]]],[[[114.09328102940341,-7.6907061930946785],[114.09328089843736,-7.6906881282517574],[114.09327184396119,-7.6906881935751095],[114.09327197492686,-7.690706258418186],[114.09328102940341,-7.6907061930946785]]],[[[114.09338968311597,-7.6907054091977329],[114.09338961763062,-7.6906963767772059],[114.09342583553151,-7.6906961154724405],[114.09342577004546,-7.6906870830522189],[114.0933714431948,-7.6906874750077607],[114.09337157416466,-7.6907055398491266],[114.09338968311597,-7.6907054091977329]]],[[[114.09360685952706,-7.6906857764842211],[114.09359780505373,-7.6906858418144317],[114.09359787054341,-7.690694874233178],[114.09358881606981,-7.6906949395632731],[114.09358888155937,-7.6907039719820922],[114.09357982708549,-7.6907040373120754],[114.09357995806447,-7.6907221021498717],[114.09358901253873,-7.6907220368197331],[114.09358894704901,-7.690713004400906],[114.09359800152298,-7.6907129390706563],[114.09359793603315,-7.6907039066519181],[114.09362509945403,-7.6907037106602516],[114.09362503396372,-7.6906946782417442],[114.09360692501691,-7.690694808902891],[114.09360685952706,-7.6906857764842211]]],[[[114.09357969610684,-7.69068597247428],[114.09357963061763,-7.6906769400553916],[114.09357057614426,-7.690677005384952],[114.09357064163328,-7.6906860378039186],[114.09357969610684,-7.69068597247428]]],[[[114.09347084595831,-7.6906596591578404],[114.09347078047161,-7.6906506267379902],[114.09345267152405,-7.6906507573918832],[114.09345273701034,-7.690659789811888],[114.09347084595831,-7.6906596591578404]]],[[[114.09346166051147,-7.6906416596451006],[114.09346159502512,-7.6906326272251651],[114.09343443160455,-7.6906328232046821],[114.09343449709031,-7.6906418556248495],[114.09346166051147,-7.6906416596451006]]],[[[114.09347038755318,-7.6905964322188023],[114.09347032206706,-7.6905873997989227],[114.09346126759465,-7.6905874651254216],[114.0934613330806,-7.6905964975453784],[114.09347038755318,-7.6905964322188023]]],[[[114.09362424808602,-7.6905862892193069],[114.09362431357538,-7.6905953216378675],[114.09361525910414,-7.690595386967682],[114.0936153245934,-7.6906044193862977],[114.09360627012185,-7.6906044847160002],[114.09360633561101,-7.6906135171347243],[114.09361539008273,-7.6906134518049445],[114.09361545557215,-7.6906224842235691],[114.09363356451573,-7.6906223535632865],[114.09363349902593,-7.6906133211448147],[114.09364255349742,-7.6906132558144655],[114.0936424880075,-7.6906042233960505],[114.0936334335362,-7.6906042887263233],[114.093633302557,-7.6905862238893805],[114.09362424808602,-7.6905862892193069]]],[[[114.09328102940341,-7.6907061930946785],[114.09328135681994,-7.6907513552019013],[114.09327230234243,-7.690751420525797],[114.09327236782579,-7.6907604529473046],[114.09326331334799,-7.6907605182710874],[114.09326350979795,-7.6907876155358226],[114.09325445531952,-7.6907876808596471],[114.0932545208028,-7.6907967132812951],[114.09324546632411,-7.6907967786050078],[114.09324559729053,-7.6908148434484449],[114.0932274883321,-7.6908149740956055],[114.0932276192981,-7.6908330389393358],[114.0932185648184,-7.6908331042627855],[114.09321863030131,-7.6908421366847231],[114.09322768478121,-7.6908420713611951],[114.0932277502644,-7.6908511037830483],[114.09323680474441,-7.6908510384592494],[114.09323700119502,-7.690878135724553],[114.09322794671444,-7.6908782010485837],[114.09322801219795,-7.6908872334704368],[114.09320990323616,-7.6908873641180797],[114.09321003420266,-7.6909054289620338],[114.09323719764635,-7.6909052329898175],[114.09323726313029,-7.6909142654115623],[114.09324631761156,-7.6909142000870325],[114.09324638309577,-7.6909232325086947],[114.09325543757714,-7.6909231671838958],[114.09325537209276,-7.69091413476231],[114.09326442657385,-7.6909140694373983],[114.09326409915211,-7.69086890732979],[114.0932731536322,-7.6908688420050764],[114.09327289169546,-7.6908327123192226],[114.09329100065386,-7.6908325816698442],[114.09329093516948,-7.6908235492485257],[114.09329998964836,-7.6908234839236282],[114.09329946577475,-7.6907512245535381],[114.09330852025201,-7.6907511592290714],[114.09330838928402,-7.6907330943866619],[114.09331744376085,-7.6907330290621605],[114.09331731279278,-7.6907149642198869],[114.09332636726913,-7.6907148988953491],[114.09332643275332,-7.6907239313164277],[114.09333548722981,-7.6907238659916208],[114.09333555271424,-7.6907328984125849],[114.09334460719082,-7.6907328330875115],[114.0933442797684,-7.6906876709829595],[114.09335333424393,-7.6906876056580833],[114.0933532687595,-7.690678573237256],[114.09336232323479,-7.6906785079122661],[114.09336219226576,-7.6906604430707004],[114.09337124674057,-7.6906603777456777],[114.09337118125599,-7.690651345324973],[114.09338929020501,-7.6906512146745101],[114.09338922472013,-7.6906421822539581],[114.0933982791943,-7.6906421169285171],[114.0933981482244,-7.6906240520875535],[114.09340720269815,-7.6906239867620778],[114.09340707172818,-7.6906059219212368],[114.0933980172548,-7.690605987246558],[114.09339795177011,-7.6905969548260789],[114.0934070062433,-7.6905968895008341],[114.0934069407585,-7.6905878570804109],[114.09339788628553,-7.6905879224055775],[114.0933976898322,-7.6905608251440318],[114.09335241746903,-7.6905611517658361],[114.09335248295243,-7.690570184186754],[114.09337059189833,-7.6905700535384494],[114.0933706573822,-7.6905790859591923],[114.09337971185522,-7.6905790206346749],[114.09337990830787,-7.6906061178966274],[114.09337085383427,-7.6906061832213757],[114.09337091931846,-7.6906152156421168],[114.09335281037066,-7.6906153462911986],[114.09335287585455,-7.6906243787120738],[114.09334382138034,-7.6906244440364082],[114.09334401783188,-7.69065154129924],[114.09333496335704,-7.6906516066236161],[114.09333502884085,-7.6906606390446308],[114.09331691989051,-7.6906607696929639],[114.09331705085762,-7.6906788345353059],[114.0933261053332,-7.6906787692110798],[114.09332623630101,-7.690696834053214],[114.09331718182504,-7.6906968993775964],[114.09331724730887,-7.6907059317987434],[114.09328102940341,-7.6907061930946785]]],[[[114.09342498421913,-7.6905786940092371],[114.09342491873412,-7.6905696615889614],[114.09343397320644,-7.6905695962633791],[114.09343390772132,-7.6905605638431593],[114.09341579877693,-7.6905606944939766],[114.0934159297465,-7.6905787593347075],[114.09342498421913,-7.6905786940092371]]],[[[114.09375061772205,-7.6905311800780645],[114.09374156325323,-7.6905312454099999],[114.0937416287446,-7.6905402778275764],[114.09375068321363,-7.6905402124955629],[114.09375061772205,-7.6905311800780645]]],[[[114.09375061772205,-7.6905311800780645],[114.09375967219079,-7.6905311147459354],[114.09375960669911,-7.6905220823285081],[114.09375055223056,-7.690522147660559],[114.09375061772205,-7.6905311800780645]]],[[[114.09362424808602,-7.6905862892193069],[114.09362418259671,-7.6905772568007418],[114.09363323706751,-7.6905771914708927],[114.09363304059953,-7.6905500942154061],[114.0936420950697,-7.6905500288855979],[114.09364196409105,-7.6905319640487395],[114.09363290962128,-7.6905320293783923],[114.09363284413226,-7.6905229969598787],[114.09362378966262,-7.6905230622892642],[114.09362372417388,-7.6905140298706849],[114.09361466970435,-7.6905140951997986],[114.09361480068152,-7.6905321600371241],[114.09360574621151,-7.6905322253662058],[114.09360587718862,-7.6905502902036842],[114.09358776824763,-7.6905504208615829],[114.09358770275942,-7.690541388442691],[114.09357864828898,-7.690541453771278],[114.09357871377699,-7.6905504861902481],[114.09356965930631,-7.6905505515187214],[114.09356972479421,-7.6905595839377474],[114.09355161585219,-7.6905597145942783],[114.09355174682747,-7.6905777794326795],[114.09353363788438,-7.6905779100887601],[114.09353370337176,-7.6905869425081006],[114.0935246488999,-7.6905870078359317],[114.09352477987453,-7.6906050726747397],[114.0935066709298,-7.6906052033301417],[114.09350673641684,-7.6906142357497194],[114.09352484536196,-7.6906141050941628],[114.09352491084947,-7.6906231375135636],[114.09351585637675,-7.6906232028415165],[114.09351592186415,-7.6906322352609884],[114.09349781291814,-7.6906323659164766],[114.09349787840523,-7.6906413983361013],[114.09350693287848,-7.6906413330083767],[114.09350699836584,-7.6906503654279188],[114.09352510731249,-7.6906502347717414],[114.09352523828821,-7.6906682996105031],[114.09350712934081,-7.6906684302669923],[114.09350706385328,-7.6906593978474582],[114.09349800937966,-7.6906594631753391],[114.09349794389242,-7.6906504307557233],[114.09348888941889,-7.6906504960833351],[114.09348882393191,-7.6906414636636375],[114.09347976945851,-7.690641528990982],[114.09348003140616,-7.6906776586700767],[114.09347097693191,-7.6906777239975446],[114.09347104241881,-7.690686756417362],[114.09346198794431,-7.6906868217447144],[114.09346205343111,-7.690695854164626],[114.09343489000653,-7.6906960501457711],[114.09343495549284,-7.69070508256591],[114.09344400996797,-7.6907050172389742],[114.09344427191479,-7.6907411469191711],[114.09346238086634,-7.6907410162641092],[114.093462511841,-7.6907590811038711],[114.093480620793,-7.6907589504477327],[114.0934808172567,-7.6907860477068803],[114.09350798068584,-7.6907858517205474],[114.09350791519728,-7.6907768193010684],[114.09349886072118,-7.6907768846299591],[114.09349879523289,-7.6907678522103833],[114.09348974075689,-7.6907679175390067],[114.09348934782999,-7.690713723021104],[114.09350745677962,-7.6907135923646015],[114.09350739129169,-7.6907045599450869],[114.0935164457662,-7.6907044946166279],[114.09351638027816,-7.690695462197187],[114.09350732580386,-7.6906955275255706],[114.09350719482842,-7.6906774626865397],[114.0935253037762,-7.690677332029896],[114.09352536926427,-7.6906863644492489],[114.09353442373822,-7.6906862991205633],[114.09353435824997,-7.6906772667012868],[114.09355246719726,-7.6906771360435009],[114.09355240170871,-7.6906681036243416],[114.09353429276179,-7.690668234281973],[114.09353409629772,-7.6906411370240555],[114.09355220524351,-7.6906410063668886],[114.09355213975526,-7.6906319739477276],[114.09356119422783,-7.6906319086189372],[114.0935610632512,-7.6906138437807607],[114.09355200877901,-7.6906139091093966],[114.09355194329102,-7.6906048766902071],[114.09357910670678,-7.6906046807039603],[114.09357897572988,-7.6905866158660858],[114.09362424808602,-7.6905862892193069]]],[[[114.09365974558322,-7.6904866712974211],[114.09365968009404,-7.6904776388791198],[114.09365062562557,-7.6904777042086856],[114.09365069111456,-7.6904867366270659],[114.09365974558322,-7.6904866712974211]]],[[[114.09368671251966,-7.6904593780531227],[114.09368658154071,-7.6904413132169562],[114.09366847260571,-7.6904414438764199],[114.09366860358389,-7.6904595087129017],[114.09368671251966,-7.6904593780531227]]],[[[114.09369550502905,-7.6904231830509069],[114.09369543953966,-7.6904141506328836],[114.09367733060596,-7.6904142812922629],[114.09367739609496,-7.6904233137104407],[114.09369550502905,-7.6904231830509069]]],[[[114.09349611028145,-7.6903975230046777],[114.09349604479651,-7.6903884905849491],[114.09347793586046,-7.6903886212354848],[114.09347800134503,-7.6903976536553662],[114.09349611028145,-7.6903975230046777]]],[[[114.09363192729445,-7.6903965431002215],[114.09363186180664,-7.6903875106816599],[114.093613752873,-7.6903876413379084],[114.09361381836044,-7.6903966737566254],[114.09363192729445,-7.6903965431002215]]],[[[114.09360443645784,-7.6903515769904418],[114.09360430548421,-7.6903335121527867],[114.09359525101834,-7.6903335774799695],[114.09359538199158,-7.6903516423177773],[114.09360443645784,-7.6903515769904418]]],[[[114.0937579694328,-7.6902962718914347],[114.09374891496903,-7.6902963372215449],[114.09374898045853,-7.6903053696391739],[114.09373992599448,-7.6903054349691713],[114.09373986050517,-7.6902964025514624],[114.09373080604125,-7.6902964678811916],[114.09373113348768,-7.6903416299699883],[114.09372207902271,-7.6903416952999155],[114.09372247195989,-7.6903958898067755],[114.09373152642601,-7.6903958244763837],[114.09373126446681,-7.6903596948054771],[114.09374937339726,-7.6903595641447415],[114.09374943888733,-7.6903685965623243],[114.09375849335262,-7.6903685312315924],[114.09375836237218,-7.6903504663965645],[114.09376741683703,-7.6903504010657988],[114.09376735134673,-7.6903413686483795],[114.09374924241737,-7.6903414993095653],[114.0937491114378,-7.6903234344743687],[114.09377627483059,-7.6903232384827707],[114.09377634032091,-7.6903322709001394],[114.0937853947852,-7.6903322055691463],[114.09378526380425,-7.6903141407345617],[114.09376715487635,-7.6903142713960451],[114.09376708938638,-7.6903052389786097],[114.09375803492249,-7.6903053043089873],[114.0937579694328,-7.6902962718914347]]],[[[114.09381183778002,-7.690232652987171],[114.09381177228983,-7.6902236205700651],[114.09380271782805,-7.6902236859006967],[114.09380278331808,-7.6902327183178789],[114.09381183778002,-7.690232652987171]]],[[[114.09470816361264,-7.6902171518947497],[114.09469910915871,-7.6902172172442373],[114.09469917466765,-7.6902262496537341],[114.09468106575918,-7.6902263803522919],[114.09468113126779,-7.6902354127619388],[114.09467207681324,-7.6902354781110107],[114.09467214232174,-7.6902445105207313],[114.09466308786693,-7.6902445758696878],[114.09466328439237,-7.6902716730990557],[114.09465422993691,-7.6902717384480566],[114.09465429544535,-7.690280770857914],[114.0946361865338,-7.6902809015555018],[114.09463631755017,-7.6902989663755301],[114.09465442646248,-7.6902988356776341],[114.09465436095388,-7.6902898032677687],[114.09467246986549,-7.6902896725692651],[114.09467233884774,-7.690271607749863],[114.09469950221344,-7.690271411701147],[114.09469943670413,-7.6902623792916742],[114.094708491159,-7.6902623139417967],[114.09470816361264,-7.6902171518947497]]],[[[114.09368500981786,-7.6902245351815726],[114.09368494433041,-7.690215502763377],[114.09367588986771,-7.6902155680912658],[114.09367595535498,-7.6902246005095387],[114.09368500981786,-7.6902245351815726]]],[[[114.09470816361264,-7.6902171518947497],[114.09471721806648,-7.690217086545073],[114.09471715255724,-7.6902080541357272],[114.0947080981036,-7.6902081194853276],[114.09470816361264,-7.6902171518947497]]],[[[114.09371164930397,-7.6901520798527159],[114.09371158381657,-7.6901430474347015],[114.09370252935565,-7.6901431127625388],[114.09370259484287,-7.6901521451806296],[114.09371164930397,-7.6901520798527159]]],[[[114.09372975822596,-7.6901519491963128],[114.09372969273818,-7.690142916778453],[114.0937206382774,-7.6901429821066731],[114.093720703765,-7.6901520145246085],[114.09372975822596,-7.6901519491963128]]],[[[114.09372962725048,-7.6901338843606251],[114.09372956176286,-7.690124851942775],[114.09372050730245,-7.690124917270837],[114.09372057278989,-7.6901339496887653],[114.09372962725048,-7.6901338843606251]]],[[[114.09494285873718,-7.6901160962595467],[114.09494279322406,-7.6901070638520936],[114.0949337387745,-7.690107129205602],[114.09493380428744,-7.6901161616131315],[114.09494285873718,-7.6901160962595467]]],[[[114.0949156298751,-7.6901072599120459],[114.09492468432482,-7.6901071945589194],[114.09492461881217,-7.6900981621513091],[114.09485218321363,-7.6900986849703692],[114.09485224872478,-7.6901077173786012],[114.09488846652545,-7.6901074559702831],[114.09488853203743,-7.6901164883782007],[114.09491569538767,-7.6901162923197308],[114.0949156298751,-7.6901072599120459]]],[[[114.0949877379015,-7.6900615750463173],[114.09497868345331,-7.6900616404003896],[114.09497887999402,-7.6900887376218803],[114.09499698889154,-7.6900886069130818],[114.09499692337749,-7.6900795745060675],[114.09498786892897,-7.6900796398604818],[114.0949877379015,-7.6900615750463173]]],[[[114.09316726841675,-7.6900024480048002],[114.09314010502864,-7.690002643949736],[114.09314017050274,-7.6900116763726913],[114.09315827942861,-7.690011545742772],[114.09315841037781,-7.6900296105883621],[114.09317651930412,-7.6900294799573699],[114.09317638835415,-7.6900114151120889],[114.09316733389143,-7.6900114804275246],[114.09316726841675,-7.6900024480048002]]],[[[114.09397298428949,-7.6899785693603864],[114.09396392983432,-7.6899786346923493],[114.09396406081704,-7.6899966995241664],[114.0939550063614,-7.6899967648560938],[114.0939552028355,-7.6900238621039936],[114.0939642572917,-7.6900237967718317],[114.09396432278342,-7.6900328291877136],[114.09397337723975,-7.6900327638552826],[114.09397318076427,-7.6900056666078624],[114.09398223521997,-7.6900056012754767],[114.09398216972811,-7.689996568859736],[114.0939731152726,-7.6899966341920472],[114.09397298428949,-7.6899785693603864]]],[[[114.09405427790342,-7.6899508841187556],[114.09402711454148,-7.6899510801185196],[114.09402718003389,-7.6899601125338908],[114.09405434339641,-7.6899599165338941],[114.09405427790342,-7.6899508841187556]]],[[[114.09382791653212,-7.6899525173977423],[114.09382785104397,-7.6899434849806587],[114.09381879658828,-7.6899435503092644],[114.09381886207623,-7.6899525827264279],[114.09382791653212,-7.6899525173977423]]],[[[114.09389110125288,-7.6899249628419906],[114.09387299234329,-7.6899250935013672],[114.09387312332125,-7.6899431583347733],[114.09390028668665,-7.689942962344956],[114.09390022119706,-7.6899339299284719],[114.0938911667422,-7.6899339952585226],[114.09389110125288,-7.6899249628419906]]],[[[114.09394523150884,-7.6898974736110128],[114.09394516601868,-7.6898884411949293],[114.09392705711157,-7.6898885718559722],[114.09392712260133,-7.6898976042722103],[114.09394523150884,-7.6898974736110128]]],[[[114.09405427790342,-7.6899508841187556],[114.09406333235724,-7.6899508187851193],[114.09406326686413,-7.6899417863700537],[114.0940723213177,-7.6899417210363064],[114.09407219033135,-7.689923656206318],[114.09408124478442,-7.6899235908725343],[114.09408117929118,-7.6899145584576116],[114.09407212483829,-7.6899146237913154],[114.09407199385241,-7.6898965589613022],[114.09409010275735,-7.689896428294011],[114.09409003726415,-7.6898873958791683],[114.09409909171633,-7.6898873305453161],[114.09409902622302,-7.6898782981305125],[114.09413524403013,-7.6898780367935036],[114.09413517853612,-7.689869004379025],[114.09414423298753,-7.6898689390443726],[114.09414429848172,-7.6898779714587757],[114.0941533529332,-7.6898779061238542],[114.09415322194454,-7.6898598412952035],[114.09416227639559,-7.6898597759602509],[114.09416214540686,-7.6898417111317352],[114.09417119985743,-7.6898416457967462],[114.09417106886862,-7.6898235809683699],[114.09418012331874,-7.6898235156333463],[114.09417979584714,-7.6897783535627182],[114.09418885029623,-7.6897782882278891],[114.09418865381367,-7.6897511909856933],[114.09415243601914,-7.6897514523229278],[114.09415250151248,-7.6897604847373078],[114.09408912036767,-7.6897609420706763],[114.09408918585976,-7.6897699744855794],[114.09408013141,-7.6897700398182343],[114.09408019690198,-7.6897790722332431],[114.09409830580182,-7.6897789415675897],[114.09409837129427,-7.68978797398242],[114.09408026239404,-7.6897881046482306],[114.09408019690198,-7.6897790722332431],[114.09406208800183,-7.6897792028981353],[114.0940621534935,-7.6897882353132792],[114.09404404459265,-7.6897883659775648],[114.09404411008403,-7.6897973983928578],[114.0940350556333,-7.6897974637247941],[114.09403512112456,-7.68980649614016],[114.09401701222247,-7.6898066268036134],[114.09401707771343,-7.6898156592191338],[114.09402613216471,-7.689815593887424],[114.09402619765595,-7.6898246263028618],[114.09401714320447,-7.6898246916346498],[114.09401720869559,-7.6898337240501577],[114.09399909979206,-7.6898338547133136],[114.09399916528287,-7.6898428871289779],[114.09399011083077,-7.6898429524603475],[114.09399004534015,-7.6898339200446086],[114.09397193643611,-7.6898340507066232],[114.09397219839755,-7.6898701803701721],[114.0939903073031,-7.6898700497075358],[114.09399024181225,-7.6898610172918112],[114.09399929626474,-7.6898609519602843],[114.09399923077376,-7.6898519195446315],[114.0940263941301,-7.6898517235491468],[114.09402632863863,-7.6898426911337214],[114.09404443754208,-7.6898425604692644],[114.09404456852586,-7.6898606252997981],[114.09406267742978,-7.6898604946342699],[114.09406280841463,-7.6898785594644758],[114.09405375396234,-7.6898786247974895],[114.0940538194547,-7.6898876572126795],[114.09404476500212,-7.6898877225455822],[114.09404483049437,-7.6898967549608122],[114.09406293939981,-7.6898966242946631],[114.0940632013711,-7.6899327539549684],[114.09405414691767,-7.6899328192884484],[114.09405427790342,-7.6899508841187556]],[[114.09406261193746,-7.6898514622191625],[114.09405355748574,-7.6898515275519426],[114.09405349199371,-7.6898424951367534],[114.09406254644523,-7.6898424298040489],[114.09406261193746,-7.6898514622191625]],[[114.09413485106734,-7.6898238423065637],[114.09412579661682,-7.6898239076406369],[114.09412573112351,-7.6898148752260544],[114.09413478557383,-7.6898148098920593],[114.09413485106734,-7.6898238423065637]]],[[[114.09493092179322,-7.6897187356777268],[114.09488564958522,-7.6897190624257128],[114.09488584611117,-7.6897461596500278],[114.0948949005535,-7.6897460943005784],[114.09489503157158,-7.6897641591165868],[114.09491314045677,-7.6897640284168043],[114.09491307494731,-7.6897549960089666],[114.0949311838318,-7.6897548653085819],[114.09493092179322,-7.6897187356777268]]],[[[114.09432361907838,-7.6896327895757679],[114.09432368457433,-7.6896418219887295],[114.09433273901928,-7.689641756652021],[114.09433267352314,-7.6896327242391376],[114.09432361907838,-7.6896327895757679]]],[[[114.09503891997051,-7.689627627395069],[114.09503885445956,-7.6896185949882394],[114.09502980002117,-7.6896186603396472],[114.09502986553191,-7.6896276927465577],[114.09503891997051,-7.689627627395069]]],[[[114.09432361907838,-7.6896327895757679],[114.09432348808673,-7.6896147247498314],[114.09433254253111,-7.6896146594133548],[114.09433247703521,-7.6896056270004589],[114.09430531370241,-7.6896058230090842],[114.09430537919772,-7.6896148554222146],[114.0942963247531,-7.6896149207581193],[114.09429639024832,-7.6896239531713233],[114.09428733580344,-7.6896240185071134],[114.09428740129854,-7.6896330509203903],[114.09427834685339,-7.6896331162560703],[114.09427841234837,-7.6896421486694209],[114.09426935790293,-7.6896422140049898],[114.09426942339782,-7.6896512464184106],[114.09425131450632,-7.6896513770891284],[114.09425138000091,-7.6896604095027028],[114.09424232555486,-7.6896604748378543],[114.09424239104933,-7.6896695072515016],[114.09423333660303,-7.6896695725865385],[114.09423346759179,-7.689687637413976],[114.094224413145,-7.6896877027489783],[114.09422447863933,-7.6896967351627685],[114.09421542419229,-7.6896968004976571],[114.09421548968649,-7.6897058329115211],[114.09420643523919,-7.6897058982462987],[114.09420656622746,-7.6897239630741483],[114.09419751177967,-7.6897240284088904],[114.09419764276787,-7.6897420932369123],[114.09418858831964,-7.6897421585716215],[114.09418865381367,-7.6897511909856933],[114.09419770826209,-7.6897511256509103],[114.09419777375641,-7.6897601580649013],[114.09420682820496,-7.6897600927298502],[114.0942066317217,-7.689732995488094],[114.09425190396037,-7.6897326688111374],[114.09425177297003,-7.6897146039840569],[114.09427893631114,-7.6897144079760622],[114.09427887081553,-7.689705375562748],[114.09426981636874,-7.6897054408988579],[114.09426961988294,-7.6896783436586702],[114.09428772877523,-7.6896782129867258],[114.09428766327973,-7.6896691805734543],[114.09429671772557,-7.6896691152372751],[114.09429658673443,-7.6896510504109061],[114.09430564117983,-7.6896509850746897],[114.09430557568419,-7.6896419526615771],[114.09431463012929,-7.6896418873252497],[114.09431456463354,-7.689632854912209],[114.09432361907838,-7.6896327895757679]]],[[[114.09502074558269,-7.6896187256908668],[114.09502068007221,-7.6896096932838764],[114.0950387889487,-7.6896095625814018],[114.09503872343791,-7.6896005301745625],[114.09501156012362,-7.689600726227753],[114.09501169114414,-7.6896187910418954],[114.09502074558269,-7.6896187256908668]]],[[[114.0943595093746,-7.6895873661647771],[114.09435957487092,-7.6895963985774491],[114.09437768375821,-7.6895962679030934],[114.0943776182615,-7.689587235490575],[114.0943595093746,-7.6895873661647771]]],[[[114.09451330390431,-7.689568190587063],[114.09451323840499,-7.6895591581756806],[114.09450418396332,-7.6895592235154995],[114.09450424946246,-7.6895682559269618],[114.09451330390431,-7.689568190587063]]],[[[114.09503852690602,-7.6895734329540133],[114.09503839588515,-7.689555368140276],[114.09502934144808,-7.6895554334911429],[114.09502947246857,-7.6895734983050339],[114.09503852690602,-7.6895734329540133]]],[[[114.09448600958113,-7.6895503217829813],[114.09447695513943,-7.6895503871221536],[114.0944770206379,-7.6895594195338157],[114.09444985731176,-7.6895596155504213],[114.09444992280974,-7.6895686479623464],[114.09443181392487,-7.6895687786392841],[114.0944319449203,-7.6895868434634007],[114.09445005380596,-7.6895867127861512],[114.09445011930417,-7.6895957451980497],[114.09447728263261,-7.6895955491805141],[114.09447715163509,-7.6895774843571827],[114.09448620607738,-7.6895774190177786],[114.09448600958113,-7.6895503217829813]]],[[[114.09443155193493,-7.6895326489909985],[114.09443148643764,-7.6895236165789163],[114.09442243199605,-7.689523681916711],[114.09442249749316,-7.6895327143288714],[114.09443155193493,-7.6895326489909985]]],[[[114.09448600958113,-7.6895503217829813],[114.09449506402275,-7.6895502564436207],[114.09449493302527,-7.6895321916205566],[114.09450398746641,-7.6895321262811587],[114.09450385646886,-7.6895140614582171],[114.09449480202811,-7.6895141267974587],[114.09449486752663,-7.6895231592090179],[114.0944858130856,-7.6895232245481449],[114.09448600958113,-7.6895503217829813]]],[[[114.0945219653502,-7.6895139307791629],[114.09452183435219,-7.6894958659565473],[114.09451277991197,-7.6894959312960127],[114.09451291090959,-7.6895139961187846],[114.0945219653502,-7.6895139307791629]]],[[[114.09452176885333,-7.6894868335452244],[114.09452170335452,-7.6894778011338962],[114.09451264891467,-7.689477866473208],[114.09451271441328,-7.6894868988846126],[114.09452176885333,-7.6894868335452244]]],[[[114.09451251791769,-7.6894598016503837],[114.09451245241932,-7.6894507692389658],[114.09450339797995,-7.6894508345778529],[114.09450346347813,-7.6894598669893517],[114.09451251791769,-7.6894598016503837]]],[[[114.09501956640608,-7.6894561423643522],[114.09501950089702,-7.6894471099572845],[114.09501044646208,-7.689447175306837],[114.09501051197095,-7.6894562077139854],[114.09501956640608,-7.6894561423643522]]],[[[114.09455759361653,-7.689432377719597],[114.09454853917794,-7.6894324430592818],[114.09454867017597,-7.6894505078815101],[114.09453056129782,-7.6894506385606194],[114.09453062679657,-7.689459670971881],[114.09456684455333,-7.6894594096125912],[114.09456677905382,-7.6894503772016378],[114.09455772461494,-7.6894504425416672],[114.09455759361653,-7.689432377719597]]],[[[114.09456618956175,-7.6893690855028725],[114.09457524399885,-7.6893690201633493],[114.09457517849994,-7.6893599877524315],[114.09456612406304,-7.6893600530918746],[114.09456618956175,-7.6893690855028725]]],[[[114.09534480534646,-7.6893544332035608],[114.09534473983139,-7.6893454007992226],[114.09533568540142,-7.6893454661547773],[114.09533575091629,-7.6893544985591928],[114.09534480534646,-7.6893544332035608]]],[[[114.09464735199128,-7.6893233353887851],[114.0946474174914,-7.6893323677991017],[114.09465647192701,-7.6893323024581761],[114.09465640642669,-7.6893232700479386],[114.09464735199128,-7.6893233353887851]]],[[[114.09539906640954,-7.6893450086618946],[114.0953988698614,-7.6893179114503178],[114.0953898154325,-7.6893179768067821],[114.09539001198006,-7.6893450740185934],[114.09539906640954,-7.6893450086618946]]],[[[114.09465640642669,-7.6893232700479386],[114.09467451529731,-7.68932313936567],[114.09467444979668,-7.6893141069555853],[114.09465634092646,-7.6893142376376975],[114.09465640642669,-7.6893232700479386]]],[[[114.094194433648,-7.6892995049457618],[114.09419436815774,-7.6892904725315496],[114.09418531371905,-7.6892905378623739],[114.09418537920912,-7.6892995702766669],[114.094194433648,-7.6892995049457618]]],[[[114.09489149419458,-7.6892764090778876],[114.09489155969948,-7.6892854414861267],[114.09488250526688,-7.6892855068316148],[114.09488257077165,-7.6892945392399294],[114.09490973406976,-7.6892943432026586],[114.09490960305916,-7.6892762783864947],[114.09489149419458,-7.6892764090778876]]],[[[114.0940403117153,-7.6892735182985961],[114.09403125727565,-7.6892735836260284],[114.09403138824906,-7.6892916484572629],[114.09404044268909,-7.6892915831296769],[114.0940403117153,-7.6892735182985961]]],[[[114.09489149419458,-7.6892764090778876],[114.09489142868979,-7.689267376669644],[114.09488237425758,-7.6892674420149767],[114.0948824397622,-7.6892764744232993],[114.09489149419458,-7.6892764090778876]]],[[[114.09490960305916,-7.6892762783864947],[114.09491865749132,-7.6892762130405101],[114.09491859198594,-7.6892671806325001],[114.09490953755397,-7.6892672459784039],[114.09490960305916,-7.6892762783864947]]],[[[114.09477352455835,-7.6892411289163416],[114.09477345905634,-7.6892320965070704],[114.09476440462386,-7.6892321618496187],[114.09476447012568,-7.6892411942589654],[114.09477352455835,-7.6892411289163416]]],[[[114.0948006223533,-7.689231900478287],[114.09480068785588,-7.6892409328873237],[114.09480974228823,-7.6892408675439361],[114.09480967678549,-7.6892318351349775],[114.0948006223533,-7.689231900478287]]],[[[114.09424830184147,-7.6892358860600218],[114.09424823635062,-7.6892268536462423],[114.09423918191375,-7.6892269189776661],[114.09423924740442,-7.6892359513915229],[114.09424830184147,-7.6892358860600218]]],[[[114.0948006223533,-7.689231900478287],[114.09480055685081,-7.689222868069244],[114.09479150241876,-7.6892229334122844],[114.09479156792106,-7.6892319658214046],[114.0948006223533,-7.689231900478287]]],[[[114.09485488344146,-7.6892224760069992],[114.09484582900988,-7.6892225413511817],[114.09484589451333,-7.6892315737598373],[114.09485494894511,-7.6892315084155731],[114.09485488344146,-7.6892224760069992]]],[[[114.09486393787294,-7.6892224106626239],[114.0948640688807,-7.6892404754796182],[114.0948731233125,-7.6892404101348983],[114.09487299230436,-7.6892223453180595],[114.09486393787294,-7.6892224106626239]]],[[[114.09478244798665,-7.6892229987551364],[114.09478238248461,-7.6892139663459336],[114.09476427362048,-7.6892140970309084],[114.09476433912214,-7.6892231294402649],[114.09478244798665,-7.6892229987551364]]],[[[114.09486393787294,-7.6892224106626239],[114.0948638723692,-7.689213378254121],[114.0948548179379,-7.6892134435984172],[114.09485488344146,-7.6892224760069992],[114.09486393787294,-7.6892224106626239]]],[[[114.09535287705609,-7.6892188817836207],[114.09535281154203,-7.6892098493793082],[114.095343757115,-7.6892099147338886],[114.09534382262889,-7.6892189471382766],[114.09535287705609,-7.6892188817836207]]],[[[114.09412140873891,-7.6892187358539816],[114.0941213432509,-7.6892097034391087],[114.09409417993783,-7.6892098994243456],[114.09409424542528,-7.6892189318394522],[114.09412140873891,-7.6892187358539816]]],[[[114.09485475243441,-7.6892044111898317],[114.09485468693101,-7.6891953787812435],[114.0948456325,-7.6891954441251933],[114.09484569800321,-7.6892044765338596],[114.09485475243441,-7.6892044111898317]]],[[[114.09478225148078,-7.6891959015275182],[114.09478218597897,-7.689186869118303],[114.09477313154751,-7.6891869344606514],[114.09477319704912,-7.6891959668699466],[114.09478225148078,-7.6891959015275182]]],[[[114.09483657806894,-7.689195509468953],[114.09483651256598,-7.6891864770602059],[114.09482745813503,-7.6891865424036983],[114.09482752363778,-7.6891955748125236],[114.09483657806894,-7.689195509468953]]],[[[114.0940403117153,-7.6892735182985961],[114.09404936615491,-7.689273452970971],[114.09404923518105,-7.6892553881400287],[114.09405828962015,-7.6892553228123726],[114.09405809315939,-7.6892282255661586],[114.09406714759788,-7.6892281602385433],[114.09406721308491,-7.6892371926538736],[114.09407626752349,-7.689237127325991],[114.09407633301079,-7.6892461597412396],[114.09408538744948,-7.6892460944130887],[114.09408506001279,-7.6892009323371875],[114.09406695113725,-7.6892010629925229],[114.09406688565053,-7.6891920305771757],[114.09405783121281,-7.6891920959044802],[114.09405776572636,-7.6891830634890503],[114.09404871128878,-7.6891831288160866],[114.09404877677503,-7.6891921612315963],[114.09403972233716,-7.689192226558518],[114.09403978782329,-7.6892012589740988],[114.09403073338517,-7.6892013243009112],[114.09403060241335,-7.6891832594695897],[114.09401249353759,-7.6891833901223299],[114.09401295193771,-7.6892466170329694],[114.09402200637696,-7.6892465517061499],[114.09402207186321,-7.6892555841218613],[114.09403112630255,-7.6892555187947735],[114.09403119178906,-7.6892645512104201],[114.09404024622853,-7.6892644858830641],[114.0940403117153,-7.6892735182985961]],[[114.0940399842822,-7.6892283562208181],[114.09403092984351,-7.6892284215478623],[114.09403086435732,-7.6892193891322158],[114.09403991879583,-7.6892193238052498],[114.0940399842822,-7.6892283562208181]]],[[[114.09485462142769,-7.68918634637265],[114.09485455592444,-7.6891773139640529],[114.09484550149382,-7.6891773793078482],[114.09484556699687,-7.6891864117165243],[114.09485462142769,-7.68918634637265]]],[[[114.09436509261683,-7.6891085829540051],[114.0943650271246,-7.689099550541191],[114.0943559726914,-7.6890996158740048],[114.09435603818343,-7.6891086482868953],[114.09436509261683,-7.6891085829540051]]],[[[114.09486230030289,-7.6889966004487471],[114.09486223480111,-7.6889875680401367],[114.09485318037459,-7.6889876333824905],[114.09485324587617,-7.688996665791179],[114.09486230030289,-7.6889966004487471]]],[[[114.09497994233884,-7.6889867185721901],[114.09497987683467,-7.6889776861645664],[114.09497082240937,-7.6889777515093183],[114.09497088791335,-7.6889867839170201],[114.09497994233884,-7.6889867185721901]]],[[[114.09491643035305,-7.6889691111656999],[114.09490737592738,-7.6889691765090431],[114.09490744142995,-7.6889782089172583],[114.09489838700402,-7.6889782742604886],[114.09489845250647,-7.6889873066688113],[114.09491656135864,-7.6889871759820059],[114.09491643035305,-7.6889691111656999]]],[[[114.09491643035305,-7.6889691111656999],[114.09492548477867,-7.6889690458221693],[114.09492561578465,-7.6889871106383181],[114.09494372463637,-7.6889869799503696],[114.09494359362962,-7.6889689151345308],[114.09497075690545,-7.6889687191016458],[114.09497056039423,-7.6889416218785556],[114.09496150596958,-7.6889416872228082],[114.09496157147305,-7.6889507196305873],[114.09495251704817,-7.6889507849747272],[114.09495258255153,-7.6889598173825791],[114.09494352812638,-7.6889598827266061],[114.09494346262319,-7.6889508503186752],[114.09493440819813,-7.688950915662434],[114.0949344737011,-7.6889599480704414],[114.09491636485038,-7.6889600787575425],[114.09491643035305,-7.6889691111656999]]],[[[114.09470994702622,-7.6892144890812606],[114.0947190014588,-7.6892144237400126],[114.09471893595818,-7.6892053913302627],[114.09472799039048,-7.6892053259889002],[114.09472805589128,-7.6892143583985728],[114.09474616475605,-7.6892142277151212],[114.09474609925485,-7.689205195305604],[114.0947551536869,-7.6892051299636703],[114.09475508818561,-7.689196097554226],[114.09476414261742,-7.6891960322121813],[114.09476381511112,-7.6891508701652862],[114.09477286954188,-7.6891508048234378],[114.09477280404066,-7.6891417724141071],[114.09476374961011,-7.6891418377558791],[114.09476368410917,-7.6891328053464987],[114.09477273853955,-7.6891327400048057],[114.09477267303849,-7.689123707595483],[114.0947817274686,-7.6891236422536773],[114.09478166196745,-7.6891146098444274],[114.09477260753751,-7.689114675186155],[114.09477254203662,-7.6891056427768234],[114.09480875975507,-7.68910538140908],[114.09480869425349,-7.6890963490000717],[114.09479963982417,-7.6890964143422149],[114.09479957432286,-7.6890873819330912],[114.09480862875199,-7.6890873165910234],[114.09480843224797,-7.6890602193639088],[114.09481748667642,-7.6890601540218846],[114.09481742117505,-7.6890511216129314],[114.09480836674679,-7.6890511869548783],[114.09480830124568,-7.6890421545458096],[114.09481735567375,-7.6890420892039408],[114.09481729017254,-7.6890330567949645],[114.09482634460035,-7.6890329914529794],[114.09482641010176,-7.6890420238618828],[114.09483546452967,-7.6890419585196303],[114.09483553003135,-7.6890509909284672],[114.09484458445937,-7.68905092558595],[114.094844387954,-7.6890238283596979],[114.09485344238139,-7.6890237630172216],[114.09485331137783,-7.6890056981998649],[114.09482614809662,-7.6890058942262529],[114.09482621359778,-7.6890149266351662],[114.09481715917035,-7.6890149919769932],[114.09481696266765,-7.6889878947500065],[114.09483507152129,-7.6889877640666313],[114.09483500602016,-7.6889787316577651],[114.09484406044665,-7.6889786663158679],[114.09484399494544,-7.6889696339071092],[114.09480777723972,-7.6889698952732415],[114.09480771173934,-7.6889608628641506],[114.09481676616568,-7.6889607975229817],[114.09481663516476,-7.6889427327049411],[114.09480758073879,-7.6889427980459573],[114.09480751523864,-7.6889337656368362],[114.09479846081275,-7.6889338309775841],[114.09479839531288,-7.688924798568415],[114.0947712320354,-7.6889249945892777],[114.09477116653616,-7.6889159621798573],[114.09474400325853,-7.6889161581987748],[114.09474413425592,-7.6889342230180651],[114.09473507982952,-7.6889342883574789],[114.09473527632562,-7.6889613855866559],[114.09469905861685,-7.6889616469433371],[114.09469918961312,-7.6889797117633627],[114.09469013518536,-7.6889797771022117],[114.0946903316798,-7.6890068743324891],[114.09467222282288,-7.6890070050100832],[114.09467235381879,-7.6890250698305458],[114.09466329938982,-7.6890251351692136],[114.09466336488771,-7.6890341675795142],[114.0946452560292,-7.6890342982564315],[114.09464545252219,-7.6890613954877791],[114.09462734366218,-7.6890615261643998],[114.09462754015475,-7.6890886233961773],[114.09461848572406,-7.689088688734433],[114.09461855122156,-7.689097721145111],[114.09460949679057,-7.6890977864832566],[114.09460956228796,-7.6891068188939729],[114.09460050785673,-7.6891068842320047],[114.09460070434876,-7.6891339814644111],[114.09459164991686,-7.6891340468024874],[114.09459171541417,-7.6891430792133431],[114.09458266098204,-7.6891431445513048],[114.09458272647923,-7.6891521769622662],[114.09455556318171,-7.6891523729752436],[114.09455589066606,-7.6891975350310648],[114.09454683623242,-7.6891976003687317],[114.09454690172933,-7.6892066327799622],[114.09455595616315,-7.6892065674422181],[114.0945560871576,-7.6892246322645086],[114.09454703272341,-7.6892246976024063],[114.09454696722634,-7.6892156651911874],[114.0945288583581,-7.6892157958662581],[114.09452872736496,-7.6891977310434942],[114.09448345519489,-7.6891980577270642],[114.09448352069047,-7.6892070901388365],[114.0944654118215,-7.6892072208110873],[114.09446547731676,-7.6892162532230106],[114.09444736844709,-7.6892163838946548],[114.09444743394207,-7.6892254163067291],[114.09443837950693,-7.6892254816423433],[114.0944384450018,-7.6892345140544904],[114.09442033613088,-7.6892346447253024],[114.09442040162544,-7.6892436771376014],[114.09441134718969,-7.6892437424728008],[114.09441154367326,-7.689270839709903],[114.09440248923684,-7.6892709050451433],[114.09440242374242,-7.6892618726327173],[114.09439336930615,-7.6892619379676912],[114.09439343480037,-7.6892709703801936],[114.09438438036378,-7.689271035715052],[114.09438451135209,-7.6892891005402335],[114.09437545691505,-7.6892891658750555],[114.09437591537528,-7.6893523927635758],[114.09438496981363,-7.6893523274282085],[114.09438510080336,-7.689370392253327],[114.09439415524204,-7.6893703269176124],[114.09439448271871,-7.6894154889799022],[114.09440353715824,-7.6894154236436112],[114.09440366814985,-7.6894334884683406],[114.09439461370992,-7.689433553804788],[114.09439467920565,-7.6894425862172247],[114.09437657032517,-7.6894427168897019],[114.09437670131611,-7.6894607817148728],[114.09438575575676,-7.6894607163785729],[114.09438582125253,-7.6894697487910912],[114.09437676681169,-7.6894698141274693],[114.09437709429081,-7.6895149761902619],[114.09436803984892,-7.6895150415268363],[114.0943681053448,-7.6895240739394835],[114.09435905090264,-7.689524139275945],[114.09435924739014,-7.6895512365140419],[114.09435019294735,-7.6895513018505461],[114.09435025844314,-7.6895603342632963],[114.09434120400006,-7.6895603995996886],[114.09434126949576,-7.6895694320125489],[114.0943322150524,-7.6895694973488258],[114.0943324115394,-7.689596594587556],[114.09434146598331,-7.6895965292510446],[114.09434140048737,-7.6895874968382181],[114.0943595093746,-7.6895873661647771],[114.09435944387836,-7.6895783337521015],[114.094413770537,-7.6895779417276753],[114.09441363954247,-7.689559876903223],[114.09440458509994,-7.6895599422409475],[114.09440438860933,-7.6895328450040452],[114.09441344305128,-7.6895327796665525],[114.09441337755439,-7.6895237472543165],[114.09440432311261,-7.6895238125917302],[114.09440425761598,-7.6895147801793939],[114.09443142094045,-7.6895145841668118],[114.09443128994627,-7.6894965193426437],[114.09442223550526,-7.6894965846802048],[114.0944223010021,-7.6895056170923795],[114.09440419211943,-7.6895057477670852],[114.09440406112655,-7.6894876829424277],[114.09441311556756,-7.689487617605324],[114.09441305007105,-7.6894785851930632],[114.09442210451178,-7.6894785198558475],[114.09442203901516,-7.6894694874436791],[114.09444920233628,-7.6894692914311182],[114.09444907134214,-7.6894512266071837],[114.094485289101,-7.6894509652550598],[114.09448502711062,-7.6894148356084111],[114.09449408154937,-7.6894147702702123],[114.09449414704704,-7.6894238026818069],[114.0945213103634,-7.6894236066658408],[114.09452124486516,-7.6894145742544833],[114.0945302993036,-7.689414508915525],[114.09453023380524,-7.6894054765042394],[114.09453928824341,-7.6894054111651693],[114.09453922274494,-7.6893963787539565],[114.09450300499255,-7.6893966401087877],[114.09450287399738,-7.6893785752857315],[114.09454814618576,-7.689378248592492],[114.09454821168426,-7.6893872810036346],[114.09453915724656,-7.6893873463427393],[114.09453922274494,-7.6893963787539565],[114.09454827718282,-7.6893963134147727],[114.09454840818023,-7.6894143782370366],[114.09455746261844,-7.6894143128975054],[114.09455752811745,-7.689423345308553],[114.09456658255576,-7.6894232799687545],[114.09456651705655,-7.6894142475577851],[114.09458462593255,-7.6894141168777734],[114.09458475693179,-7.6894321816993969],[114.09459381137005,-7.6894321163589519],[114.0945937458702,-7.6894230839482178],[114.09460280030821,-7.6894230186076591],[114.09460266930837,-7.6894049537863385],[114.09458456043306,-7.6894050844669559],[114.09458449493364,-7.6893960520561331],[114.09457544049607,-7.6893961173960772],[114.09457537499691,-7.6893870849851718],[114.09458442943431,-7.6893870196453031],[114.09458449493364,-7.6893960520561331],[114.09461165824591,-7.6893958560351523],[114.09461159274598,-7.6893868236245568],[114.09462970162005,-7.6893866929431089],[114.09462963611983,-7.6893776605326654],[114.09463869055655,-7.68937759519173],[114.09463855955599,-7.6893595303709859],[114.09462045068324,-7.6893596610523502],[114.09462031968373,-7.6893415962312792],[114.09461126524761,-7.6893416615715209],[114.09461119974816,-7.6893326291608997],[114.09462025418411,-7.6893325638207362],[114.09462031968373,-7.6893415962312792],[114.09462937411976,-7.6893415308908457],[114.09462930861994,-7.6893324984803808],[114.09463836305571,-7.6893324331398372],[114.09463829755578,-7.6893234007294433],[114.09464735199128,-7.6893233353887851],[114.09464728649124,-7.6893143029784676],[114.09465634092646,-7.6893142376376975],[114.0946562754263,-7.6893052052274697],[114.09466532986126,-7.689305139886585],[114.09466519886081,-7.6892870750662201],[114.09461992668714,-7.6892874017679542],[114.09461986118799,-7.6892783693573854],[114.0946108067532,-7.6892784346970835],[114.0946106757555,-7.689260369875794],[114.09461973018992,-7.6892603045362522],[114.09461979568891,-7.6892693369468121],[114.09463790455784,-7.6892692062670012],[114.09463783905846,-7.6892601738565949],[114.09465594792673,-7.6892600431761764],[114.09465588242705,-7.6892510107658891],[114.09467399129458,-7.6892508800848614],[114.09467386029471,-7.6892328152646172],[114.09468291472797,-7.6892327499239741],[114.09468304572825,-7.6892508147440646],[114.09470115459531,-7.6892506840618982],[114.09470108909476,-7.6892416516520088],[114.09471014352798,-7.6892415863107173],[114.09470994702622,-7.6892144890812606],[114.09470089259358,-7.689214554422322],[114.09470082709333,-7.6892055220124149],[114.09468271822817,-7.6892056526938068],[114.09468265272838,-7.6891966202837425],[114.09470076159316,-7.6891964896025078],[114.09470082709333,-7.6892055220124149],[114.09470988152579,-7.6892054566714334],[114.09470994702622,-7.6892144890812606]],[[114.09464643499788,-7.6891968816439276],[114.09465548943062,-7.6891968163041682],[114.09465555492983,-7.6892058487144661],[114.09463744606387,-7.6892059793939529],[114.09463738056505,-7.6891969469834986],[114.09462832613215,-7.6891970123228806],[114.0946282606336,-7.6891879799123455],[114.09464636949896,-7.6891878492335506],[114.09464643499788,-7.6891968816439276]],[[114.09460122833102,-7.6892062407506412],[114.0945831194641,-7.6892063714278445],[114.09458305396643,-7.6891973390169239],[114.09460116283296,-7.689197208339877],[114.09460122833102,-7.6892062407506412]],[[114.09472674589011,-7.6890337102043063],[114.09472681138944,-7.6890427426140606],[114.09473586581824,-7.689042677273906],[114.09473599681746,-7.6890607420932477],[114.09472694238828,-7.6890608074335578],[114.09472700788781,-7.6890698398432988],[114.09471795345839,-7.6890699051834952],[114.09471814995692,-7.6890970024129439],[114.09472720438693,-7.689096937072514],[114.09472733538672,-7.6891150018919401],[114.09471828095634,-7.6891150672325264],[114.09471834645618,-7.6891240996423189],[114.09470929202548,-7.6891241649827915],[114.0947093575252,-7.6891331973926604],[114.094673139801,-7.6891334587529583],[114.09467340179759,-7.6891695883936215],[114.09465529293348,-7.6891697190732495],[114.09465509643707,-7.689142621842274],[114.09464604200546,-7.6891426871815698],[114.09464617300262,-7.6891607520023841],[114.09463711857055,-7.6891608173416435],[114.09463692207551,-7.6891337201102079],[114.09466408536973,-7.6891335240925551],[114.09466395437229,-7.6891154592720419],[114.09467300880317,-7.6891153939325996],[114.09467287780566,-7.68909732911224],[114.09468193223607,-7.6890972637727613],[114.09468173573983,-7.6890701665423808],[114.09467268131,-7.6890702318816277],[114.09467241931689,-7.6890341022407709],[114.09468147374595,-7.6890340369018375],[114.09468167024124,-7.6890611341322534],[114.09469072467081,-7.689061068792892],[114.09469065917212,-7.6890520363828552],[114.0946997136014,-7.6890519710433827],[114.09469964810259,-7.6890429386333832],[114.09471775696056,-7.6890428079540243],[114.09471769146145,-7.6890337755441918],[114.09472674589011,-7.6890337102043063],[114.09472668039089,-7.6890246777945483],[114.09473573481932,-7.6890246124545474],[114.09473580031873,-7.689033644864228],[114.09472674589011,-7.6890337102043063]],[[114.09477201803232,-7.689033383502017],[114.09479012688864,-7.6890332528197645],[114.0947901923893,-7.6890422852289761],[114.09478113796098,-7.689042350570273],[114.09478120346152,-7.6890513829795752],[114.09479025789003,-7.6890513176382012],[114.09479032339081,-7.6890603500473844],[114.09477221453334,-7.6890604807301006],[114.09477201803232,-7.689033383502017]],[[114.0947086370327,-7.6890338408838899],[114.09469958260387,-7.6890339062233952],[114.09469945160663,-7.6890158414034069],[114.09470850603508,-7.689015776064057],[114.0947086370327,-7.6890338408838899]],[[114.09472661489175,-7.6890156453847833],[114.09471756046347,-7.6890157107245152],[114.09471749496458,-7.6890066783146684],[114.09470844053639,-7.6890067436541329],[114.0947083750378,-7.6889977112442072],[114.09473553832154,-7.688997515225477],[114.09473560382072,-7.6890065476351719],[114.09472654939269,-7.6890066129750165],[114.09472661489175,-7.6890156453847833]],[[114.09478979938663,-7.6889880907736456],[114.09478074495948,-7.6889881561144762],[114.0947806794595,-7.6889791237051455],[114.09478973388646,-7.6889790583643913],[114.09478979938663,-7.6889880907736456]],[[114.09460181781712,-7.6892875324473184],[114.09461087225216,-7.6892874671077314],[114.0946109377512,-7.689296499518373],[114.09461999218638,-7.6892964341785195],[114.09462012318508,-7.6893144989996376],[114.09461106874953,-7.6893145643396457],[114.09461100325032,-7.689305531929028],[114.09459289437937,-7.6893056626083185],[114.09459282888064,-7.689296630197509],[114.09460188331597,-7.6892965648580365],[114.09460181781712,-7.6892875324473184]],[[114.09456573107236,-7.6893058586258274],[114.09454762220062,-7.6893059893032136],[114.09454749120512,-7.6892879244808299],[114.09455654564067,-7.6892878591423868],[114.09455661113857,-7.6892968915534938],[114.09456566557419,-7.6892968262147834],[114.09456573107236,-7.6893058586258274]],[[114.09440294769998,-7.6893341319321102],[114.09441200213773,-7.6893340665963263],[114.09441187114749,-7.6893160017716555],[114.09442092558477,-7.6893159364358361],[114.09442118756633,-7.689352066084834],[114.09443024200429,-7.6893520007485137],[114.09443050398788,-7.6893881303971625],[114.09441239511035,-7.6893882610702322],[114.09441226411916,-7.6893701962456147],[114.09440320968064,-7.6893702615817103],[114.09440294769998,-7.6893341319321102]],[[114.09456612406304,-7.6893600530918746],[114.09456605856438,-7.6893510206808591],[114.09458416743773,-7.6893508900019336],[114.09458397094113,-7.6893237927693905],[114.094602079813,-7.6893236620901693],[114.09460214531217,-7.6893326945008749],[114.09459309087607,-7.6893327598406573],[114.09459328737348,-7.6893598570729695],[114.09458423293675,-7.6893599224127964],[114.09458436393503,-7.6893779872344741],[114.09456625506056,-7.6893781179138623],[114.09456618956175,-7.6893690855028725],[114.09454808068733,-7.6893692161813467],[114.09454794969074,-7.6893511513590216],[114.09455700412761,-7.6893510860200358],[114.09455706962606,-7.6893601184311304],[114.09456612406304,-7.6893600530918746]],[[114.09452984081679,-7.6893512820364238],[114.09453889525379,-7.6893512166978182],[114.09453896075186,-7.6893602491090682],[114.09452085187736,-7.6893603797862431],[114.09452072088207,-7.6893423149634632],[114.09452977531899,-7.6893422496251249],[114.09452984081679,-7.6893512820364238]],[[114.09444828538392,-7.689342837663304],[114.09443923094631,-7.6893429029999281],[114.09443916545051,-7.6893338705878307],[114.09444821988792,-7.6893338052512865],[114.09444828538392,-7.689342837663304]],[[114.09447564518652,-7.6893697388876223],[114.09446659074857,-7.6893698042250493],[114.09446652525195,-7.689360771813198],[114.0944755796897,-7.68936070647585],[114.09447564518652,-7.6893697388876223]],[[114.0944488093548,-7.6894150969592934],[114.09445786379386,-7.6894150316218592],[114.09445792929077,-7.6894240640337603],[114.09444887485152,-7.6894241293712717],[114.0944488093548,-7.6894150969592934]]],[[[114.09438845746521,-7.6885845070163779],[114.09438839197702,-7.6885754746035291],[114.09437933755514,-7.6885755399324101],[114.09437940304315,-7.688584572345337],[114.09438845746521,-7.6885845070163779]]],[[[114.09434975130957,-7.688241536627948],[114.09434968582514,-7.6882325042146222],[114.0943406314102,-7.6882325695397897],[114.09434069689443,-7.6882416019531936],[114.09434975130957,-7.688241536627948]]],[[[114.09432758261831,-7.6876816576342639],[114.09432751713916,-7.6876726252205145],[114.09431846273591,-7.6876726905404906],[114.09431852821486,-7.6876817229543173],[114.09432758261831,-7.6876816576342639]]],[[[114.09436347283264,-7.6876362342849127],[114.09436353831222,-7.687645266698385],[114.09437259271452,-7.6876452013776921],[114.09437252723474,-7.6876361689642962],[114.09436347283264,-7.6876362342849127]]],[[[114.09436347283264,-7.6876362342849127],[114.09436340735316,-7.687627201871452],[114.09435435295117,-7.6876272671917993],[114.09435441843047,-7.6876362996053382],[114.09436347283264,-7.6876362342849127]]],[[[114.09434529854909,-7.6876273325119557],[114.09434523307004,-7.6876183000983369],[114.09433617866809,-7.6876183654182269],[114.09433624414694,-7.6876273978319247],[114.09434529854909,-7.6876273325119557]]],[[[114.09440854840125,-7.6876088104406959],[114.09439949400004,-7.6876088757618417],[114.09439955948014,-7.6876179081750005],[114.09439050507865,-7.6876179734960317],[114.09439057055864,-7.6876270059092642],[114.09439962496033,-7.6876269405881548],[114.09439969044058,-7.6876359730013055],[114.09439063603872,-7.6876360383224931],[114.0943907669991,-7.6876541031489367],[114.09439982140135,-7.6876540378275919],[114.09439995236244,-7.6876721026538624],[114.09440900676498,-7.6876720373321739],[114.09440854840125,-7.6876088104406959]]],[[[114.09424556916727,-7.6876099861921734],[114.0942454382138,-7.6875919213632029],[114.09423638381153,-7.6875919866807658],[114.09423651476463,-7.6876100515098909],[114.09424556916727,-7.6876099861921734]]],[[[114.09408245896103,-7.687593097050196],[114.09408239348784,-7.687584064634307],[114.09407333908435,-7.6875841299483652],[114.09407340455734,-7.6875931623643323],[114.09408245896103,-7.687593097050196]]],[[[114.09408232801474,-7.6875750322184144],[114.0940822625417,-7.6875659998025165],[114.09407320813858,-7.6875660651164157],[114.09407327361141,-7.6875750975323927],[114.09408232801474,-7.6875750322184144]]],[[[114.09429018640552,-7.6875193354595837],[114.09428113200516,-7.6875194007774752],[114.09428119748199,-7.6875284331916731],[114.09425403427994,-7.6875286291444427],[114.09425409975628,-7.6875376615588999],[114.09424504535527,-7.6875377268761875],[114.09424517630778,-7.6875557917052104],[114.0942542307092,-7.6875557263877665],[114.09425436166242,-7.687573791216618],[114.09426341606415,-7.6875737258988295],[114.09426348154108,-7.6875827583131704],[114.09427253594291,-7.6875826929951137],[114.09427266689737,-7.6876007578236267],[114.0942817212995,-7.6876006925052254],[114.09428178677703,-7.6876097249193975],[114.09429084117929,-7.687609659600728],[114.09429077570155,-7.687600627186634],[114.09429983010352,-7.6876005618678507],[114.09429989558146,-7.6876095942818683],[114.09430894998356,-7.6876095289628186],[114.09430862259376,-7.6875643668930769],[114.09433578579667,-7.6875641709359472],[114.09433585127505,-7.6875732033496709],[114.0943177424728,-7.6875733339881016],[114.09431787342901,-7.6875913988158482],[114.09433598223202,-7.6875912681771075],[114.09433604771063,-7.687600300590816],[114.09435415651372,-7.6876001699511578],[114.09435422199279,-7.6876092023647118],[114.09437233079592,-7.6876090717241343],[114.09437226531647,-7.6876000393107367],[114.0943903741189,-7.6875999086695543],[114.09439030863915,-7.6875908762563085],[114.09438125423817,-7.6875909415769179],[114.09438099232071,-7.6875548119235821],[114.09437193792039,-7.6875548772436897],[114.09437187244141,-7.6875458448302689],[114.09438092684154,-7.6875457795102387],[114.09438086136245,-7.6875367470968907],[114.09437180696251,-7.6875368124168428],[114.0943717414837,-7.6875277800033937],[114.09434457828402,-7.6875279759618778],[114.09434464376227,-7.6875370083755588],[114.09433558936203,-7.6875370736947497],[114.09433565484017,-7.6875461061084867],[114.09431754603906,-7.6875462367464529],[114.09431748056132,-7.6875372043325605],[114.09429937176027,-7.6875373349696074],[114.09429930628298,-7.6875283025555392],[114.09429025188253,-7.6875283678737016],[114.09429018640552,-7.6875193354595837]]],[[[114.09435350172737,-7.6875098458154048],[114.09435356720564,-7.6875188782289996],[114.09436262160534,-7.6875188129095839],[114.09436255612688,-7.6875097804960655],[114.09435350172737,-7.6875098458154048]]],[[[114.09435350172737,-7.6875098458154048],[114.09435343624916,-7.6875008134018072],[114.09434438184977,-7.6875008787208774],[114.09434444732777,-7.6875099111345531],[114.09435350172737,-7.6875098458154048]]],[[[114.09401776871161,-7.6874129059156653],[114.09401763777117,-7.6873948410826234],[114.09402669217111,-7.6873947757713372],[114.09402662670081,-7.6873857433548878],[114.09400851790122,-7.6873858739771102],[114.0940087143112,-7.687412971226915],[114.09401776871161,-7.6874129059156653]]],[[[114.09424340847536,-7.6873119165119377],[114.09422529968261,-7.6873120471420586],[114.09422536515648,-7.6873210795568188],[114.09420725636301,-7.6873212101863331],[114.09420719088952,-7.6873121777714184],[114.09419813649286,-7.6873122430858123],[114.09419826743954,-7.6873303079158291],[114.09418921304241,-7.6873303732301874],[114.09418934398902,-7.6873484380603427],[114.09419839838651,-7.6873483727458254],[114.09419846386012,-7.6873574051608209],[114.09423468145009,-7.6873571439005497],[114.09423461597571,-7.6873481114858651],[114.09424367037282,-7.6873480461704],[114.09424340847536,-7.6873119165119377]]]]},"properties":{"FID":0,"Shape_Leng":18102566.929299999,"Shape_Area":236516885.403}}]
}