{
  "type" : "FeatureCollection",
  "features" : [{"type":"Feature","id":0,"geometry":{"type":"MultiPolygon","coordinates":[[[[115.92946481537057,-6.9602332264662392],[115.92941971878084,-6.9602336974522458],[115.929419813051,-6.9602427097542758],[115.92939275509514,-6.9602429923442015],[115.92939284936492,-6.9602520046465637],[115.9293387334488,-6.9602525698225461],[115.9293388277177,-6.9602615821256579],[115.92923059586992,-6.9602627124606684],[115.92923069013688,-6.9602717247652528],[115.92922167081525,-6.9602718189588524],[115.92922176508216,-6.960280831263554],[115.92918568779371,-6.9602812080367329],[115.92918578206005,-6.960290220341907],[115.92917676273746,-6.9602903145348973],[115.92917666847129,-6.9602813022296006],[115.92914961050326,-6.9602815848071797],[115.92914970476892,-6.9602905971128468],[115.92913166612259,-6.9602907854972935],[115.92913157185725,-6.9602817731913786],[115.92910451388737,-6.9602820557663989],[115.92910460815216,-6.9602910680726815],[115.92908656950459,-6.9602912564554211],[115.9290866637692,-6.9603002687619782],[115.92912274106453,-6.9602998919953247],[115.92912283532995,-6.9603089043013684],[115.92907773870962,-6.9603093752598753],[115.9290778329743,-6.9603183875665291],[115.92905979432494,-6.9603185759489818],[115.92905970006061,-6.9603095636420811],[115.92905068073593,-6.96030965783293],[115.92905058647189,-6.9603006455258996],[115.92903254782246,-6.960300833906838],[115.92903264208616,-6.9603098462141135],[115.9290055841106,-6.9603101287846094],[115.92900539558434,-6.9602921041692989],[115.92899637625922,-6.9602921983588759],[115.92899656478515,-6.9603102229744334],[115.92898754545958,-6.960310317164085],[115.92898763972258,-6.9603193294719707],[115.92895156241836,-6.9603197062293702],[115.92895165668077,-6.9603287185377445],[115.92891557937391,-6.960329095292904],[115.92891576789775,-6.9603471199106215],[115.92890674857036,-6.9603472140992313],[115.92890684283229,-6.9603562264082059],[115.92888880417684,-6.96035641478516],[115.92888870991521,-6.9603474024759384],[115.92887067125963,-6.9603475908519625],[115.92887085978225,-6.9603656154708924],[115.92887987911047,-6.9603655212827205],[115.92888006763393,-6.9603835459013865],[115.92887104830538,-6.9603836400898054],[115.92887114256715,-6.9603926523992543],[115.92884408458021,-6.960392934963858],[115.92884417884157,-6.9604019472736702],[115.92883515951216,-6.9604020414616521],[115.9288352537735,-6.960411053771602],[115.9288262344438,-6.9604111479595367],[115.92882632870506,-6.960420160269571],[115.92881730937506,-6.9604202544574596],[115.92881738720558,-6.9604276958278408],[115.92887800000015,-6.9604379999999528],[115.92892578419477,-6.9604423442590697],[115.92892572985339,-6.9604371488089196],[115.92893474918222,-6.9604370546187369],[115.92893465491865,-6.9604280423101734],[115.92894367424719,-6.9604279481199445],[115.92894384199428,-6.960443985967057],[115.92895287089388,-6.9604448068207647],[115.92895259931181,-6.9604188416212223],[115.92898867662352,-6.9604184648584075],[115.92898858235918,-6.9604094525505884],[115.9290246596682,-6.9604090757855355],[115.92902456540328,-6.9604000634781711],[115.92906064270963,-6.9603996867108791],[115.92906054844417,-6.96039067440402],[115.92906956777028,-6.9603905802118939],[115.92906947350477,-6.9603815679051548],[115.92907849283057,-6.9603814737129799],[115.92907839856504,-6.9603724614063589],[115.92908741789053,-6.960372367214136],[115.92908732362491,-6.9603633549076322],[115.92910536227524,-6.9603631665229244],[115.92910526800939,-6.9603541542166623],[115.92912330665888,-6.9603539658315174],[115.92912321239284,-6.9603449535254969],[115.92915928968958,-6.9603445767536511],[115.92915919542297,-6.9603355644481164],[115.92919527271705,-6.9603351876740316],[115.92919517844989,-6.960326175368988],[115.92920419777292,-6.9603260811751646],[115.92920410350573,-6.9603170688702374],[115.92924018079592,-6.9603166920937243],[115.92924008652817,-6.9603076797892847],[115.92930322177997,-6.9603070204246782],[115.92930312751116,-6.9602980081210983],[115.92933018547386,-6.9602977255340752],[115.92933009120463,-6.9602887132308426],[115.92942028440373,-6.9602877712642393],[115.92942037867466,-6.9602967835662417],[115.92951959118109,-6.9602957473819123],[115.92951949690828,-6.9602867350812643],[115.92954655486145,-6.9602864524823236],[115.92954664913478,-6.9602954647826021],[115.92955566845241,-6.9602953705824913],[115.92955557417891,-6.9602863582823353],[115.92957361281348,-6.9602861698818472],[115.92957370708731,-6.9602951821817562],[115.92959174572172,-6.9602949937803391],[115.92959146289961,-6.9602679568813874],[115.92958244358297,-6.9602680510818118],[115.92958234930937,-6.9602590387820289],[115.92957332999275,-6.9602591329821593],[115.92957314144624,-6.9602411083823483],[115.92952804486315,-6.960241579379213],[115.9295281391355,-6.9602505916797277],[115.92950108118363,-6.9602508742761673],[115.92950098691179,-6.9602418619752831],[115.9294649096416,-6.9602422387676537],[115.92946481537057,-6.9602332264662392]]],[[[115.92856175194424,-6.9601344976108219],[115.92856165769192,-6.9601254852970662],[115.92857067701978,-6.9601253911180212],[115.92857058276742,-6.9601163788043685],[115.92860666007689,-6.960116002086969],[115.92860618881352,-6.9600709405210992],[115.92861520813973,-6.9600708463419378],[115.92861511388728,-6.9600618340288714],[115.92862413321318,-6.9600617398496647],[115.92862394470826,-6.9600437152237831],[115.92863296403371,-6.9600436210446492],[115.92863277552897,-6.960025596418963],[115.92864179485393,-6.9600255022399047],[115.92864160634934,-6.9600074776144627],[115.92865062567385,-6.9600073834354799],[115.92865053142157,-6.9599983711228921],[115.92865955074579,-6.9599982769438631],[115.92865945649346,-6.9599892646313588],[115.92866847581737,-6.9599891704522818],[115.928668381565,-6.9599801581399134],[115.92865936224126,-6.9599802523188661],[115.92865926798919,-6.9599712400063689],[115.92865024866548,-6.9599713341850302],[115.9286501544137,-6.9599623218724069],[115.92864113509005,-6.9599624160507716],[115.92864085233599,-6.959935379112502],[115.92863183301272,-6.9599354732903285],[115.92863173876178,-6.9599264609774218],[115.92862271943855,-6.9599265551549561],[115.92862253093737,-6.9599085305289341],[115.92861351161439,-6.9599086247060491],[115.92861341736416,-6.9598996123928982],[115.92860439804119,-6.959899706569721],[115.92860402104223,-6.9598636573165846],[115.92861304036455,-6.9598635631402548],[115.92861294611494,-6.9598545508270826],[115.92862196543692,-6.9598544566507039],[115.92862168268836,-6.9598274197115266],[115.92863070200973,-6.9598273255353469],[115.9286306077603,-6.9598183132224021],[115.92865766572307,-6.9598180306932136],[115.92865728872451,-6.9597819814428616],[115.92866630804451,-6.9597818872666162],[115.92866621379501,-6.9597728749541385],[115.92865719447519,-6.9597729691302614],[115.92865710022599,-6.9597639568176559],[115.9286480809062,-6.9597640509934857],[115.92864798665731,-6.9597550386807541],[115.92863896733759,-6.9597551328562881],[115.92863887308897,-6.9597461205434286],[115.92862985376931,-6.9597462147186677],[115.928629759521,-6.9597372024056821],[115.92863877884049,-6.9597371082305628],[115.92863859034389,-6.9597190836048028],[115.92862957102474,-6.9597191777796743],[115.92862947677681,-6.9597101654666904],[115.92862045745768,-6.9597102596412688],[115.92862026896252,-6.9596922350150043],[115.92861124964361,-6.9596923291891661],[115.9286111553964,-6.9596833168759016],[115.92857507812018,-6.9596836935703488],[115.92857488962748,-6.9596656689428267],[115.92856587030847,-6.9596657631157637],[115.92856577606248,-6.9596567508018721],[115.92857479538131,-6.9596566566290567],[115.92857460688937,-6.9596386320015045],[115.92858362620777,-6.9596385378287646],[115.92858343771599,-6.9596205132014415],[115.92856539907976,-6.9596207015462586],[115.92856530483439,-6.9596116892323439],[115.92853824687965,-6.9596119717479192],[115.92853834112452,-6.9596209840622025],[115.92851128316812,-6.9596212665766126],[115.92851137741259,-6.9596302788912787],[115.92850235809338,-6.95963037306253],[115.9285024523378,-6.9596393853772804],[115.92848441369864,-6.9596395737195182],[115.92848431945455,-6.9596305614045209],[115.92847530013499,-6.9596306555752614],[115.92847511164753,-6.9596126309449566],[115.92844805368904,-6.9596129134554134],[115.92844795944603,-6.959603901139892],[115.92843894012644,-6.9596039953095801],[115.9284390343693,-6.9596130076252232],[115.92843001504943,-6.9596131017948633],[115.92843010929222,-6.9596221141106254],[115.92841207065176,-6.9596223024496409],[115.92841197640931,-6.9596132901336318],[115.92839393776867,-6.9596134784717174],[115.92839374928481,-6.9595954538391958],[115.92836669132396,-6.9595957363443057],[115.92836678556532,-6.9596047486609391],[115.9283487469238,-6.9596049369970725],[115.92834855844188,-6.9595869123633074],[115.92833051980054,-6.9595871006982666],[115.92833042556012,-6.9595780883811313],[115.92832140623942,-6.9595781825482312],[115.9283213119993,-6.959569170230969],[115.92830327335788,-6.9595693585644112],[115.92830346183757,-6.9595873831994224],[115.92825836523016,-6.9595878540312714],[115.92825855370866,-6.9596058786674968],[115.92826757303072,-6.9596057845012229],[115.92826776151006,-6.9596238091371836],[115.92828580015453,-6.9596236208036286],[115.92828589439472,-6.9596326331213723],[115.92829491371694,-6.9596325389542155],[115.92829481947656,-6.9596235266365962],[115.92831285812028,-6.9596233383020198],[115.928312952361,-6.9596323506193931],[115.92830393303902,-6.9596324447868918],[115.92830412152047,-6.9596504694218204],[115.92828608287549,-6.9596506577567956],[115.92828627135677,-6.9596686823922171],[115.92824117474039,-6.9596691532278987],[115.92824089202124,-6.9596421162729136],[115.92822285337483,-6.9596423046052536],[115.92822294761409,-6.9596513169238321],[115.92820490896683,-6.9596515052557351],[115.92820500320589,-6.9596605175745561],[115.9281869645578,-6.9596607059060238],[115.92818687031911,-6.9596516935869559],[115.92817785099504,-6.9596517877523105],[115.92817803947221,-6.9596698123906853],[115.92816902014769,-6.9596699065561136],[115.92816873743264,-6.9596428695981754],[115.9281597181085,-6.9596429637630663],[115.9281591526828,-6.9595888898463238],[115.92814111403618,-6.9595890781741137],[115.92814101979936,-6.9595800658543947],[115.92815003912256,-6.9595799716907063],[115.92814994488567,-6.9595709593711055],[115.92814092556264,-6.9595710535346678],[115.92814083132605,-6.9595620412149408],[115.92813181200309,-6.95956213537821],[115.92813171776679,-6.9595531230583534],[115.92814073708959,-6.959553028895205],[115.92814054861702,-6.9595350042557245],[115.92812250997198,-6.9595351925813551],[115.92812232150064,-6.9595171679413443],[115.92811330217825,-6.9595172621036578],[115.92811320794291,-6.9595082497835472],[115.92810418862061,-6.9595083439455676],[115.92810409438557,-6.9594993316253131],[115.92809507506327,-6.9594994257870395],[115.92809516929815,-6.9595084381074157],[115.92807713065288,-6.9595086264306012],[115.92807722488752,-6.9595176387512048],[115.92805016691817,-6.9595179212350722],[115.92805007268403,-6.9595089089141009],[115.92804105336083,-6.9595090030749267],[115.92804095912697,-6.9594999907538098],[115.92802292048054,-6.959500179074702],[115.92802310894764,-6.9595182037174048],[115.92798703165194,-6.9595185803581261],[115.92798693741899,-6.9595095680362924],[115.9279779180949,-6.9595096621959236],[115.92797810656057,-6.9595276868398646],[115.92796908723602,-6.9595277809995713],[115.92796927570186,-6.9595458056437396],[115.9279512370517,-6.9595459939631308],[115.92795151975032,-6.9595730309300894],[115.927960539076,-6.9595729367701082],[115.92796044484282,-6.9595639244479184],[115.92796946416816,-6.9595638302878902],[115.92796955840151,-6.9595728426099575],[115.9279785777269,-6.959572748449637],[115.9279787661943,-6.9595907730935123],[115.92796974686856,-6.9595908672540805],[115.92796984110228,-6.9595998795761345],[115.92796082177627,-6.9595999737366538],[115.92796091600994,-6.9596089860588268],[115.92796993533615,-6.959608891898184],[115.9279700295701,-6.9596179042202282],[115.92798806822249,-6.9596177158981831],[115.92798816245693,-6.9596267282199777],[115.92799718178308,-6.9596266340585764],[115.92799737025268,-6.9596446587019027],[115.92798835092617,-6.9596447528635501],[115.92798825669148,-6.959635740541783],[115.92797021803842,-6.9596359288643201],[115.92797031227276,-6.9596449411863333],[115.92796129294589,-6.959645035347469],[115.92796138718019,-6.9596540476696171],[115.92794334852569,-6.9596542359916223],[115.92794344275977,-6.9596632483140128],[115.92795246208725,-6.9596631541529739],[115.92795255632161,-6.9596721664752357],[115.92797961430382,-6.9596718839907217],[115.92797970853881,-6.9596808963125936],[115.92798872786616,-6.9596808021506238],[115.92798882210147,-6.9596898144724015],[115.92799784142882,-6.9596897203101387],[115.92799793566444,-6.9596987326317716],[115.92801597431914,-6.9596985443064883],[115.92801606855521,-6.959707556627869],[115.92805214586379,-6.9597071799747621],[115.92805224010068,-6.9597161922956472],[115.9280792980813,-6.959715909803653],[115.92807948655647,-6.95973393444467],[115.92809752521028,-6.9597337461153295],[115.92809724249668,-6.9597067091545357],[115.9281062618229,-6.9597066149899796],[115.92810635606081,-6.9597156273101257],[115.92811537538707,-6.9597155331452747],[115.92811565810204,-6.9597425701053162],[115.92815173540785,-6.9597421934427297],[115.92815182964713,-6.9597512057622417],[115.92814281032068,-6.9597512999282678],[115.92814290455989,-6.9597603122478997],[115.92812486590631,-6.9597605005796854],[115.92812496014531,-6.9597695128995571],[115.92811594081815,-6.9597696070653168],[115.92811603505712,-6.9597786193853075],[115.92812505438444,-6.9597785252194235],[115.92812533710257,-6.9598055621789987],[115.92813435643028,-6.9598054680125756],[115.92813445067006,-6.9598144803323025],[115.92812543134217,-6.9598145744988464],[115.92812580830193,-6.9598506237781956],[115.92813482763049,-6.959850529611157],[115.92813520459292,-6.9598865788899209],[115.92814422392202,-6.9598864847222188],[115.92814431816311,-6.9598954970417957],[115.92816235682133,-6.9598953087056348],[115.92816245106287,-6.9599043210249434],[115.92817147039199,-6.9599042268564846],[115.92817165887583,-6.9599222514948424],[115.92818067820511,-6.9599221573259662],[115.92818077244739,-6.9599311696449995],[115.92818979177673,-6.9599310754758283],[115.92818988601931,-6.9599400877947657],[115.92822596333613,-6.9599397111158856],[115.92822605757951,-6.9599487234343105],[115.92824409623755,-6.9599485350935986],[115.92824428472535,-6.9599665597299412],[115.92826232338355,-6.9599663713880568],[115.92826241762799,-6.9599753837059737],[115.92828045628599,-6.9599751953631595],[115.92828055053089,-6.9599842076808267],[115.92829858918877,-6.9599840193370834],[115.92829868343415,-6.9599930316544993],[115.9283437800775,-6.9599925607915383],[115.92834387432384,-6.960001573108352],[115.92835289365232,-6.9600014789351246],[115.92835298789895,-6.9600104912517748],[115.92836200722749,-6.9600103970782552],[115.92836219572149,-6.9600284217113311],[115.92838023437881,-6.9600282333632846],[115.92838032862636,-6.9600372456795689],[115.92839836728349,-6.9600370573305952],[115.9283984615315,-6.960046069646646],[115.9284074808601,-6.9600459754717789],[115.92840766935679,-6.9600640001035678],[115.92841668868559,-6.9600639059282852],[115.92841678293431,-6.9600729182440588],[115.92842580226313,-6.9600728240684813],[115.92842589651215,-6.960081836384127],[115.9284529544984,-6.9600815538560026],[115.92845314299782,-6.9600995784865409],[115.928480200984,-6.9600992959561401],[115.92848029523438,-6.9601083082710344],[115.92848931456304,-6.9601082140937702],[115.92848959731552,-6.9601352510380332],[115.92848057798636,-6.9601353452156687],[115.92848086073947,-6.9601623821602931],[115.92847184140969,-6.9601624763381249],[115.92847212416341,-6.9601895132830602],[115.92846310483296,-6.9601896074610892],[115.92846329333572,-6.9602076320912865],[115.9284452546738,-6.9602078204473301],[115.92844534892504,-6.9602168327626419],[115.92842731026229,-6.9602170211182477],[115.92842749876444,-6.960235045749382],[115.9284094601005,-6.9602352341047977],[115.92840955435143,-6.9602442464206042],[115.92840053501909,-6.9602443405981793],[115.92840044076834,-6.9602353282822493],[115.92838240210367,-6.9602355166366419],[115.92838249635406,-6.9602445289528179],[115.92834641902249,-6.9602449056600451],[115.92834632477276,-6.9602358933433761],[115.92832828610659,-6.9602360816957205],[115.92832838035596,-6.9602450940126346],[115.92831936102253,-6.9602451881886749],[115.92831945527186,-6.9602542005057249],[115.92833749393897,-6.9602540121532286],[115.92833758818878,-6.9602630244699952],[115.92835562685572,-6.9602628361165717],[115.92835600385756,-6.9602988853826551],[115.92836502319155,-6.9602987912051937],[115.92836511744248,-6.9603078035216015],[115.9283741367765,-6.9603077093438479],[115.92837441953058,-6.9603347462926202],[115.928383438865,-6.9603346521143257],[115.92838447564148,-6.9604337875914419],[115.92837545630518,-6.9604338817710891],[115.92837555055816,-6.9604428940872864],[115.9283665312216,-6.9604429882668866],[115.92836662547454,-6.960452000583202],[115.92835760613765,-6.9604520947627533],[115.92835779464355,-6.960470119395616],[115.92834877530623,-6.9604702135752454],[115.92834886955919,-6.9604792258917909],[115.92833985022156,-6.9604793200713715],[115.928340227234,-6.9605153693380055],[115.92833120789557,-6.9605154635179067],[115.92833130214881,-6.9605244758346778],[115.92832228281009,-6.9605245700145328],[115.92832256826399,-6.9605518645508173],[115.92832275407737,-6.9605696315989247],[115.92831373473766,-6.9605697257792247],[115.92831392324511,-6.9605877504131959],[115.92832294258518,-6.9605876562326499],[115.92832322534782,-6.960614693183202],[115.92833224468828,-6.960614599002116],[115.92833243319767,-6.9606326236355471],[115.92832341385687,-6.9606327178168792],[115.92832397938703,-6.9606867917177997],[115.92831496004504,-6.9606868858996993],[115.92831561983473,-6.9607499721180881],[115.92830660049148,-6.9607500663006778],[115.92830707177271,-6.9607951278857154],[115.92829805242847,-6.9607952220687519],[115.92829842945501,-6.9608312713372067],[115.92828941010995,-6.9608313655205647],[115.92828997565249,-6.9608854394238024],[115.92828095630631,-6.9608855336077271],[115.92828105056368,-6.9608945459250426],[115.92827203121718,-6.9608946401089211],[115.928272502505,-6.960939701696045],[115.92826348315749,-6.9609397958803685],[115.92826404870598,-6.9609938697855007],[115.92825502935737,-6.9609939639703917],[115.92825606620606,-6.9610930994640485],[115.92824704685543,-6.9610931936501235],[115.92824732963444,-6.9611202306032096],[115.92823831028318,-6.9611203247894826],[115.92823840454294,-6.9611293371072751],[115.92822938519139,-6.9611294312934993],[115.9282298564912,-6.9611744928831083],[115.92822083713862,-6.9611745870697783],[115.92822102565908,-6.9611926117058278],[115.92821200630608,-6.9611927058925733],[115.9282121948267,-6.9612107305288502],[115.9282031754732,-6.9612108247156721],[115.92820345825456,-6.9612378616704218],[115.92818541954621,-6.9612380500442894],[115.92818551380655,-6.9612470623627933],[115.928176494452,-6.9612471565495948],[115.92817658871233,-6.9612561688681831],[115.9281675693575,-6.9612562630549366],[115.92816766361777,-6.961265275373659],[115.92815864426262,-6.9612653695603655],[115.92815883278318,-6.9612833941980465],[115.92814981342759,-6.9612834883848285],[115.92814990768791,-6.9612925007037667],[115.92814088833201,-6.9612925948905007],[115.92814107685265,-6.9613106195286596],[115.9281320574963,-6.9613107137154708],[115.92813234027766,-6.9613377506730032],[115.92812332092066,-6.9613378448600116],[115.9281234151812,-6.9613468571793247],[115.92811439582391,-6.961346951366286],[115.9281148671276,-6.961392012963314],[115.92810584776934,-6.9613921071507203],[115.92810622481387,-6.9614281564287515],[115.92809720545479,-6.9614282506164766],[115.92809729971609,-6.961437262936097],[115.92808828035669,-6.9614373571237769],[115.92808856314075,-6.9614643940829755],[115.92807954378073,-6.9614644882708534],[115.92807982656542,-6.9614915252303788],[115.92807080720476,-6.9614916194184557],[115.92807127851422,-6.9615366810181865],[115.92806225915257,-6.9615367752067074],[115.92806263620167,-6.9615728244869004],[115.92805361683926,-6.961572918675742],[115.92805380536423,-6.9615909433160574],[115.92804478600131,-6.9615910375049754],[115.92804535157818,-6.9616451114265452],[115.92803633221413,-6.9616452056160307],[115.92803652074042,-6.9616632302567796],[115.92802750137592,-6.9616633244463415],[115.92802816122064,-6.9617264106895975],[115.92801914185479,-6.9617265048798522],[115.92801970743986,-6.9617805788032134],[115.92801068807286,-6.9617806729940348],[115.92801087660187,-6.9617986976353636],[115.92800185723439,-6.9617987918262605],[115.92800204576358,-6.9618168164678167],[115.92799302639564,-6.9618169106587882],[115.92799340345481,-6.9618529599423367],[115.92798438408607,-6.9618530541336296],[115.92798485541199,-6.9618981157385766],[115.92797583604225,-6.9618982099303155],[115.92797593030764,-6.9619072222514138],[115.92796691093764,-6.9619073164431038],[115.92796719373403,-6.9619343534067406],[115.92795817436338,-6.9619344475986287],[115.92795845716039,-6.9619614845625932],[115.9279494377891,-6.9619615787546802],[115.92794990911908,-6.9620066403618068],[115.92794088974685,-6.9620067345543397],[115.92794098401305,-6.9620157468758741],[115.92793196464048,-6.962015841068359],[115.92793253023929,-6.962069914998203],[115.92792351086557,-6.9620700091912573],[115.92792379366617,-6.9620970461564848],[115.92791477429179,-6.9620971403497371],[115.92791496282582,-6.9621151649934454],[115.92790594345101,-6.9621152591867723],[115.92790632051981,-6.9621513084746249],[115.92789730114423,-6.9621514026682743],[115.92789748967903,-6.9621694273124186],[115.92788847030293,-6.9621695215061417],[115.92788913017755,-6.9622326077613623],[115.92788011080015,-6.9622327019557764],[115.92788077067969,-6.9622957882116276],[115.92787175130097,-6.9622958824067336],[115.92787193983877,-6.9623139070514668],[115.92786292045956,-6.9623140012466491],[115.92786348607493,-6.9623680751814723],[115.9278544666946,-6.9623681693772204],[115.92785484377329,-6.962404218667503],[115.92784582439214,-6.9624043128635735],[115.9278462957425,-6.962449374476952],[115.92783727636039,-6.9624494686734675],[115.92783774771303,-6.9624945302872927],[115.92782872832993,-6.9624946244842532],[115.92782882260065,-6.96250363680715],[115.92781980321722,-6.9625037310040643],[115.92782008602967,-6.962530767973047],[115.92781106664563,-6.9625308621701585],[115.92781134945866,-6.9625578991394699],[115.92780233007397,-6.9625579933367794],[115.92780242434507,-6.9625670056599951],[115.9277934049601,-6.9625670998572584],[115.92779349923114,-6.962576112180594],[115.92780251861629,-6.9625760179832081],[115.9278027071591,-6.96259404262962],[115.92779368777362,-6.962594136827251],[115.92779406486005,-6.96263018612051],[115.92778504547377,-6.9626302803184617],[115.92778513974551,-6.9626392926418896],[115.92776710097222,-6.9626394810375283],[115.9277672895154,-6.9626575056848754],[115.92775827012819,-6.962657599882685],[115.92775845867156,-6.9626756245302266],[115.9277494392839,-6.9626757187281116],[115.92774953355563,-6.9626847310520059],[115.92774051416767,-6.9626848252498439],[115.92774060843934,-6.9626938375738572],[115.92773158905106,-6.9626939317716472],[115.92773168332266,-6.9627029440957626],[115.92771364454546,-6.9627031324910762],[115.92771373881685,-6.9627121448154661],[115.92770471942788,-6.9627122390129905],[115.92770481369924,-6.9627212513374825],[115.92769579430998,-6.9627213455349581],[115.9276959828527,-6.962739370184174],[115.92767794407312,-6.9627395585791065],[115.92767803834433,-6.962748570903937],[115.92766901895418,-6.9627486651012696],[115.92766920749662,-6.9627666897512119],[115.92766018810599,-6.9627667839486209],[115.92766047092007,-6.9627938209238431],[115.92765145152883,-6.9627939151214511],[115.92765173434353,-6.9628209520969984],[115.92763369555962,-6.9628211404924416],[115.92763416691825,-6.9628662021195078],[115.92762514752526,-6.96286629631759],[115.9276258074314,-6.9629293825961103],[115.92763482682557,-6.9629292883971692],[115.92763520391821,-6.9629653376985923],[115.92765324270759,-6.9629651492992135],[115.92765333698139,-6.962974161624313],[115.92766235637605,-6.9629740674242431],[115.92766226210206,-6.9629650550992679],[115.92767128149646,-6.9629649608991508],[115.92767071585412,-6.9629108869499214],[115.92767973524735,-6.9629107927503728],[115.92767964097389,-6.9629017804256286],[115.9276886603668,-6.9629016862260311],[115.92768875464041,-6.9629106985506519],[115.92769777403342,-6.9629106043507623],[115.92769786830732,-6.9629196166752907],[115.92773394587863,-6.9629192398735285],[115.92773404015337,-6.9629282521975417],[115.92774305954606,-6.9629281579965516],[115.92774315382108,-6.9629371703204388],[115.9277521732138,-6.9629370761191547],[115.92775198466354,-6.9629190514716219],[115.92776100405581,-6.9629189572704133],[115.92776081550571,-6.9629009326231106],[115.92778787368073,-6.9629006500191988],[115.92778777940535,-6.9628916376959076],[115.92776974062248,-6.9628918260984412],[115.92776955207276,-6.9628738014513551],[115.92777857146393,-6.9628737072504201],[115.9277782886398,-6.9628466702801255],[115.92779632742072,-6.9628464818784819],[115.92779623314593,-6.9628374695552875],[115.92780525253603,-6.9628373753543329],[115.92780478116306,-6.9627923137389036],[115.92779576177381,-6.9627924079392427],[115.92779566749978,-6.9627833956160199],[115.92777762872123,-6.9627835840159396],[115.92777772299493,-6.9627925963394093],[115.92776870360532,-6.9627926905392368],[115.92776860933178,-6.9627836782156436],[115.92773253177272,-6.9627840550127527],[115.92773243749998,-6.9627750426886621],[115.92775047627943,-6.9627748542906964],[115.92775028773366,-6.9627568296429958],[115.92779538467836,-6.962756358646323],[115.9277951961314,-6.962738333999833],[115.92778617674306,-6.9627384281992644],[115.9277862710163,-6.9627474405226168],[115.92776823223888,-6.9627476289212114],[115.92776813796598,-6.9627386165976111],[115.92777715735456,-6.9627385223985234],[115.92777706308162,-6.9627295100750271],[115.92780412124614,-6.962729227477106],[115.92780402697279,-6.962720215153972],[115.9278220657482,-6.9627200267547504],[115.92782197147463,-6.9627110144318598],[115.9278400102492,-6.9627108260322021],[115.92783982170174,-6.9626928013868969],[115.9278308023149,-6.9626928955865655],[115.92783061376831,-6.9626748709409956],[115.92782159438163,-6.9626749651402475],[115.92782121729063,-6.9626389158485615],[115.92783023667663,-6.9626388216498016],[115.92783014240402,-6.9626298093269909],[115.92783916178966,-6.9626297151281848],[115.9278389732445,-6.9626116904827962],[115.92784799262969,-6.9626115962840647],[115.92784761554014,-6.9625755469937225],[115.92785663492457,-6.9625754527953143],[115.92785635210819,-6.9625484158278779],[115.92784733272431,-6.9625485100259183],[115.92784695563826,-6.9625124607354438],[115.92785597502149,-6.9625123665378972],[115.92785588075013,-6.9625033542153902],[115.92784686136707,-6.9625034484128143],[115.92784667282504,-6.9624854237675393],[115.92785569220776,-6.9624853295703621],[115.92785578647886,-6.9624943418928611],[115.9278648058616,-6.962494247695389],[115.92786452304811,-6.9624672107282128],[115.92787354243022,-6.962467116530938],[115.92787325961733,-6.9624400795640708],[115.92788227899878,-6.9624399853669958],[115.92788209045715,-6.9624219607226401],[115.92789110983813,-6.9624218665256405],[115.92789007286619,-6.9623227309827067],[115.9278990922452,-6.9623226367868893],[115.92789899797559,-6.9623136244648984],[115.92790801735428,-6.962313530269034],[115.92790792308463,-6.9623045179471639],[115.92791694246303,-6.9623044237512515],[115.92791684819335,-6.9622954114294986],[115.92790782881512,-6.9622955056252875],[115.92790745173828,-6.9622594563377351],[115.92791647111584,-6.9622593621424373],[115.92791628257783,-6.9622413374988961],[115.92792530195491,-6.9622412433036764],[115.92792483061125,-6.9621961816952966],[115.92793384998731,-6.9621960875005193],[115.92793309584259,-6.9621239889278641],[115.92795113459169,-6.9621238005397696],[115.92795094605607,-6.9621057758970721],[115.92795996543005,-6.9621056817030151],[115.92795968262706,-6.9620786447392593],[115.92797772137369,-6.9620784563513727],[115.92797649590257,-6.961961296177904],[115.92798551527348,-6.9619612019853054],[115.92798542100718,-6.9619521896643581],[115.92799444037779,-6.9619520954717098],[115.92799415757911,-6.9619250585092098],[115.92800317694908,-6.9619249643167604],[115.92800298841691,-6.9619069396753179],[115.92801200778642,-6.9619068454829449],[115.92801181925441,-6.961888820841728],[115.92802083862344,-6.9618887266494305],[115.92802046156027,-6.9618526773674319],[115.9280294809285,-6.9618525831754567],[115.92802891533641,-6.9617985092530583],[115.92803793470348,-6.9617984150616499],[115.92803765190864,-6.9617713781007575],[115.92804667127507,-6.961771283909548],[115.92804648274543,-6.9617532592691571],[115.92805550211142,-6.961753165078024],[115.92805521931741,-6.9617261281178138],[115.92806423868274,-6.9617260339268796],[115.92806405015368,-6.9617080092869346],[115.92807306951858,-6.9617079150960759],[115.92807297525407,-6.9616989027762441],[115.92806395588934,-6.961698996966982],[115.92806386162512,-6.9616899846470073],[115.92807288098967,-6.9616898904563911],[115.92807146703885,-6.9615547056580453],[115.9280804864007,-6.9615546114691069],[115.92808058066339,-6.9615636237889049],[115.92808960002527,-6.9615635295996752],[115.92808931723708,-6.9615364926406311],[115.92809833659832,-6.9615363984515977],[115.92809795954848,-6.9615003491732832],[115.92810697890894,-6.9615002549845713],[115.92810669612233,-6.9614732180261827],[115.92811571548215,-6.9614731238376706],[115.92811543269616,-6.9614460868795947],[115.92812445205534,-6.9614459926912797],[115.92812435779345,-6.9614369803720333],[115.92813337715229,-6.9614368861836722],[115.92813290584375,-6.9613918245879907],[115.92814192520167,-6.9613917304000745],[115.92814164241753,-6.9613646934429791],[115.92815066177478,-6.9613645992552593],[115.9281505675135,-6.9613555869363415],[115.92815958687044,-6.9613554927485746],[115.92815920982581,-6.9613194434733483],[115.92816822918199,-6.961319349285902],[115.92816804066008,-6.9613013246485078],[115.92817706001576,-6.9613012304611388],[115.92817687149402,-6.9612832058239711],[115.92818589084924,-6.9612831116366758],[115.92818579658838,-6.9612740993182083],[115.92819481594329,-6.9612740051308677],[115.9281947216824,-6.9612649928125192],[115.92820374103701,-6.9612648986251289],[115.92820364677605,-6.9612558863068976],[115.92821266613041,-6.9612557921194611],[115.92821247760854,-6.9612377674832295],[115.92822149696241,-6.9612376732958694],[115.92822140270148,-6.9612286609778709],[115.92823042205507,-6.9612285667904619],[115.92823032779411,-6.9612195544725814],[115.92823934714738,-6.9612194602851254],[115.92823915862547,-6.9612014356495964],[115.9282481779783,-6.961201341462214],[115.92824798945657,-6.9611833168269133],[115.92825700880891,-6.9611832226396082],[115.92825672602676,-6.9611561856869901],[115.92826574537843,-6.9611560914998822],[115.92826555685728,-6.9611380668650273],[115.92827457620852,-6.9611379726779967],[115.92827438768751,-6.9611199480433656],[115.92828340703829,-6.9611198538564105],[115.9282830299971,-6.9610838045875729],[115.92829204934705,-6.9610837104009393],[115.92829167230717,-6.9610476611325511],[115.92830069165633,-6.9610475669462391],[115.92829927777207,-6.9609123821908998],[115.92830829711853,-6.9609122880062637],[115.92830820286039,-6.9609032756893257],[115.92831722220657,-6.9609031815046434],[115.92831712794839,-6.9608941691878243],[115.9283261472943,-6.9608940750030914],[115.92832595877799,-6.9608760503696701],[115.92834399746869,-6.9608758620001892],[115.92834390321038,-6.9608668496837414],[115.92833488386525,-6.9608669438684458],[115.92833478960725,-6.9608579315518542],[115.92834380895221,-6.9608578373672731],[115.9283429606342,-6.9607767265188487],[115.92835197997748,-6.9607766323352047],[115.92835188572039,-6.9607676200188138],[115.92836992440624,-6.960767431651262],[115.92836926460765,-6.9607043454381099],[115.92836024526595,-6.9607044396211082],[115.9283601510097,-6.9606954273048034],[115.9283691703512,-6.9606953331219259],[115.92836888758261,-6.9606682961733304],[115.92837790692347,-6.9606682019906536],[115.92837734138867,-6.9606141280941261],[115.92838636072838,-6.9606140339120151],[115.92838617221743,-6.9605960092800432],[115.92839519155667,-6.9605959150980086],[115.92839500304588,-6.9605778904662623],[115.928385983707,-6.9605779846480509],[115.92838588945197,-6.9605689723320472],[115.9283768701131,-6.9605690665135427],[115.92837668429769,-6.9605512994668919],[115.92837668160377,-6.9605510418812759],[115.92838570094229,-6.9605509477000282],[115.92838513541621,-6.9604968738038551],[115.92839415475355,-6.9604967796231758],[115.9283938719917,-6.9604697426753956],[115.92840289132842,-6.9604696484949145],[115.92840279707454,-6.9604606361791186],[115.92842083574727,-6.9604604478178889],[115.92842093000149,-6.9604694601334387],[115.92843896867406,-6.9604692717712799],[115.92843906292875,-6.9604782840865953],[115.92849317894448,-6.9604777189952864],[115.92849308468877,-6.9604687066807092],[115.92850210402413,-6.9604686124983486],[115.92850200976837,-6.960459600183909],[115.9285110291034,-6.9604595060015022],[115.92851093484761,-6.9604504936871452],[115.92850191551273,-6.9604505878694285],[115.92850163274662,-6.9604235509260093],[115.92851065208096,-6.9604234567440937],[115.9285104635705,-6.9604054321153725],[115.92851948290439,-6.9604053379335324],[115.92851929439408,-6.9603873133050378],[115.92852831372751,-6.9603872191232741],[115.92852821947238,-6.9603782068091418],[115.92853723880552,-6.9603781126273319],[115.92853676753084,-6.9603330510572183],[115.92852774819856,-6.9603331452384127],[115.92852765394417,-6.960324132924252],[115.92851863461193,-6.9603242271051533],[115.92851891737494,-6.9603512640479899],[115.92850989804208,-6.9603513582290901],[115.92850961527957,-6.9603243212858841],[115.92850059594709,-6.9603244154664443],[115.92850050169332,-6.9603154031519114],[115.92850952102565,-6.9603153089714747],[115.92850942677184,-6.960306296657059],[115.92851844610387,-6.9603062024765743],[115.92851854035783,-6.9603152147908673],[115.92853657902184,-6.9603150264291394],[115.92853648476752,-6.9603060141150932],[115.92855452343071,-6.9603058257529291],[115.9285543349218,-6.9602878011253146],[115.9285453155906,-6.9602878953062355],[115.92854522133649,-6.9602788829922995],[115.92855424066751,-6.9602787888115003],[115.92855414641335,-6.9602697764976824],[115.92853610775154,-6.9602699648588615],[115.92853620200535,-6.9602789771729263],[115.9285271826741,-6.9602790713533835],[115.92852727692785,-6.9602880836675673],[115.92851825759631,-6.9602881778479748],[115.92851835185002,-6.9602971901622608],[115.92850031318621,-6.9602973785228128],[115.9285004074397,-6.9603063908373723],[115.92847334944251,-6.96030667337729],[115.92847344369562,-6.9603156856921986],[115.92848246302832,-6.9603155915122716],[115.92848255728173,-6.9603246038270532],[115.92847353794888,-6.9603246980071019],[115.92847363220224,-6.9603337103220007],[115.92845559353579,-6.9603338986818306],[115.92845568778893,-6.9603429109969692],[115.92846470712239,-6.9603428168170174],[115.92846480137584,-6.960351829132029],[115.9284828400427,-6.9603516407713659],[115.92848302855066,-6.9603696654008829],[115.92847400921696,-6.960369759581547],[115.92847410347093,-6.9603787718964227],[115.92843802613413,-6.9603791486178634],[115.92843764912163,-6.960343099356364],[115.92844666845535,-6.9603430051767523],[115.92844638569679,-6.960315968230951],[115.92845540502987,-6.9603158740515374],[115.9284553107771,-6.960306861736381],[115.92844629144417,-6.9603069559156729],[115.92844619719169,-6.9602979436003736],[115.92846423585704,-6.9602977552418679],[115.92846414160435,-6.9602887429268456],[115.92848218026884,-6.9602885545679047],[115.92848161475324,-6.9602344806790413],[115.92849063408428,-6.9602343865000531],[115.92849053983196,-6.9602253741853488],[115.92849955916269,-6.9602252800063136],[115.92849937065806,-6.9602072553771555],[115.92850838998834,-6.9602071611981948],[115.92850820148385,-6.9601891365692303],[115.92852624014334,-6.9601889482112913],[115.92852614589096,-6.9601799358970551],[115.92853516522032,-6.9601798417179541],[115.92853497671558,-6.9601618170897162],[115.92854399604451,-6.960161722910688],[115.92854418454958,-6.96017974753868],[115.92858026186535,-6.9601793708198807],[115.92857988485295,-6.960143321565849],[115.92857086552489,-6.9601434157453115],[115.92857077127228,-6.9601344034316526],[115.92856175194424,-6.9601344976108219],[115.92856184619667,-6.9601435099246052],[115.92855282686835,-6.9601436041037266],[115.92855273261608,-6.9601345917898207],[115.92856175194424,-6.9601344976108219]],[[115.92856662428089,-6.9597378616267296],[115.9286027015617,-6.9597374849300122],[115.92860279580947,-6.9597464972433691],[115.92861181512954,-6.9597464030686398],[115.92861190937765,-6.9597554153818697],[115.92862092869774,-6.9597553212068464],[115.92862121144329,-6.9597823581461364],[115.92861219212267,-6.9597824523215293],[115.92861228637129,-6.9597914646347565],[115.92860326705035,-6.9597915588101005],[115.92860317280194,-6.9597825464967507],[115.92859415348107,-6.9597826406718015],[115.92859405923295,-6.9597736283583407],[115.92858503991214,-6.9597737225330976],[115.92858485141659,-6.9597556979059139],[115.92857583209597,-6.9597557920802542],[115.92857573784856,-6.9597467797665331],[115.928566718528,-6.9597468739405786],[115.92856662428089,-6.9597378616267296],[115.92855760496036,-6.9597379558004828],[115.92855751071356,-6.9597289434865042],[115.9285665300339,-6.9597288493128753],[115.92856662428089,-6.9597378616267296]],[[115.92854877413342,-6.959756074602252],[115.92853975481231,-6.9597561687759093],[115.92853966056558,-6.9597471564616953],[115.92853064124451,-6.9597472506350586],[115.92853054699808,-6.9597382383207176],[115.92854858563973,-6.9597380499740655],[115.92854877413342,-6.959756074602252]],[[115.92843988256057,-6.9596941184658023],[115.92844890188186,-6.9596940242948842],[115.92844880763772,-6.9596850119794054],[115.92845782695869,-6.9596849178084401],[115.92845773271451,-6.9596759054930644],[115.92847577135576,-6.9596757171508647],[115.92847567711135,-6.9596667048357652],[115.92849371575178,-6.9596665164931286],[115.92849380999652,-6.9596755288079848],[115.92851184863677,-6.9596753404644192],[115.928511942882,-6.9596843527790586],[115.92852096220213,-6.959684258606897],[115.92852105644764,-6.9596932709213917],[115.92853007576778,-6.9596931767489361],[115.92853035850558,-6.9597202136920018],[115.92852133918493,-6.9597203078648251],[115.92852143343094,-6.9597293201793171],[115.92851241410996,-6.9597294143520942],[115.92851213137281,-6.9597023774082869],[115.92849409273153,-6.9597025657525879],[115.92849418697678,-6.9597115780674423],[115.92848516765577,-6.9597116722394601],[115.9284853561463,-6.959729696869398],[115.92846731750325,-6.9597298852134166],[115.92846722325828,-6.9597208728981848],[115.92844918461506,-6.9597210612412734],[115.92844909037053,-6.9597120489258266],[115.92844007104888,-6.9597121430969908],[115.92843988256057,-6.9596941184658023],[115.92842184391765,-6.9596943068071289],[115.92842174967399,-6.9596852944912815],[115.92839469170914,-6.9596855770016193],[115.92839450322326,-6.9596675523691731],[115.92842156118709,-6.9596672698595725],[115.92842146694385,-6.95965825754371],[115.92843048626469,-6.9596581633736259],[115.92843067475168,-6.9596761880050808],[115.92843969407272,-6.9596760938345801],[115.92843988256057,-6.9596941184658023]],[[115.92822332457233,-6.9596873661981027],[115.92819626659926,-6.9596876486971775],[115.92819617236002,-6.9596786363782321],[115.92822323033261,-6.9596783538795242],[115.92822332457233,-6.9596873661981027]],[[115.9283494066144,-6.9596680232150945],[115.92834038729227,-6.9596681173837656],[115.92834048153411,-6.9596771297007152],[115.92833146221167,-6.9596772238693392],[115.9283308967635,-6.9596231499667578],[115.92833991608492,-6.9596230557988727],[115.92834001032612,-6.9596320681158783],[115.92834902964758,-6.9596319739476984],[115.92834912388912,-6.9596409862645414],[115.9283401045675,-6.959641080432843],[115.92834029305055,-6.9596591050667973],[115.92834931237253,-6.9596590108982479],[115.9283494066144,-6.9596680232150945]],[[115.92814186793539,-6.9596611767317036],[115.92813284861057,-6.9596612708963272],[115.9281327543729,-6.9596522585765221],[115.92814177369758,-6.9596521644120219],[115.92814186793539,-6.9596611767317036]],[[115.92809582894566,-6.9595715243499283],[115.9280868096219,-6.9595716185124683],[115.92808671538634,-6.9595626061920006],[115.92809573470993,-6.9595625120295832],[115.92809582894566,-6.9595715243499283]],[[115.92805965741479,-6.9595628886782261],[115.92805063809071,-6.9595629828399606],[115.92805054385593,-6.9595539705189964],[115.92804152453186,-6.9595540646804368],[115.92804143029743,-6.959545052359343],[115.9280324109734,-6.9595451465204912],[115.92803222250521,-6.959527121878045],[115.92804124182888,-6.9595270277171437],[115.92804133606309,-6.9595360400382464],[115.9280503553868,-6.959535945877052],[115.92805044962131,-6.959544958198026],[115.92805946894505,-6.9595448640365376],[115.92805965741479,-6.9595628886782261]],[[115.92843812038755,-6.960388160933225],[115.92847419772504,-6.9603877842112913],[115.92847429197928,-6.9603967965261591],[115.9284833113135,-6.9603967023451263],[115.92848340556804,-6.9604057146598635],[115.92847438623365,-6.9604058088410206],[115.9284746689975,-6.9604328457855749],[115.928447610992,-6.9604331283291261],[115.92844770524636,-6.9604421406443393],[115.92843868591076,-6.9604422348253046],[115.92843812038755,-6.960388160933225]],[[115.92784639001297,-6.9624583867995939],[115.92785540939515,-6.9624582926027845],[115.92785559793676,-6.9624763172478401],[115.92784657855424,-6.9624764114448965],[115.92784639001297,-6.9624583867995939]]],[[[115.92493564858302,-6.9523686883249862],[115.92493581691564,-6.9523848141777789],[115.92495385537487,-6.9523846261659905],[115.92495376129727,-6.9523756138000321],[115.92496278052653,-6.9523755197940034],[115.92496287460429,-6.9523845321598401],[115.92498091306275,-6.9523843441470268],[115.9249808231823,-6.9523757338995393],[115.92493564858302,-6.9523686883249862]]],[[[115.9248030000001,-6.95234799999991],[115.92478208903194,-6.9523480000031599],[115.9247821136953,-6.9523503627773025],[115.92480015215745,-6.9523501747722936],[115.92480024623175,-6.9523591871403392],[115.92480926546278,-6.9523590931374555],[115.92480935953741,-6.952368105505375],[115.92482739799947,-6.95236791749885],[115.92482749207454,-6.9523769298665181],[115.92484553053643,-6.9523767418590667],[115.92484562461198,-6.9523857542265004],[115.92485464384289,-6.9523856602223963],[115.92485473791874,-6.9523946725896684],[115.92488179561127,-6.9523943905759626],[115.92488188968775,-6.9524034029428785],[115.92489090891854,-6.9524033089378454],[115.92489062668898,-6.9523762718374522],[115.92488160745869,-6.9523763658421149],[115.92488151338259,-6.9523673534751858],[115.92484543646101,-6.9523677294916446],[115.92484529937964,-6.9523545971600207],[115.9248030000001,-6.95234799999991]]],[[[115.92432325162379,-6.9515980898579421],[115.92432343903828,-6.951616047960635],[115.92433245826166,-6.9516159539768259],[115.92433255231703,-6.951624966351531],[115.92432353309349,-6.9516250603354628],[115.92432362714882,-6.9516340727102843],[115.92431460792496,-6.9516341666941708],[115.9243145138698,-6.9516251543192258],[115.92430549464601,-6.9516252483028174],[115.92430587086672,-6.9516612978030645],[115.92432390931558,-6.951661109834725],[115.92432381525985,-6.9516520974599008],[115.92433283448391,-6.9516520034755986],[115.92433321070816,-6.9516880529743306],[115.9243512491573,-6.9516878650042306],[115.92435115510068,-6.9516788526298061],[115.92436017432487,-6.9516787586446238],[115.92436036243853,-6.9516967833932091],[115.924351343214,-6.9516968773786356],[115.9243516253849,-6.9517239145018879],[115.92436064460993,-6.9517238205160901],[115.92436083272484,-6.9517418452646442],[115.9243698519501,-6.9517417512784316],[115.9243702281821,-6.9517778007749911],[115.92437924740791,-6.9517777067881141],[115.92437934146641,-6.9517867191621185],[115.92438836069226,-6.9517866251749494],[115.92438864286896,-6.9518136622965843],[115.92437962364258,-6.9518137562841238],[115.92437981176066,-6.9518317810320749],[115.92438883098737,-6.9518316870442902],[115.92438873692812,-6.9518226746704315],[115.92440677538085,-6.9518224866945975],[115.92440696350019,-6.9518405114418176],[115.92441598272671,-6.9518404174533988],[115.92441607678676,-6.9518494298268791],[115.92440705756006,-6.9518495238154205],[115.92440724568017,-6.9518675485626122],[115.92441626490719,-6.9518674545738257],[115.92441645302813,-6.9518854793207536],[115.9244344914825,-6.9518852913421743],[115.92443496178876,-6.95193035320818],[115.92444398101662,-6.9519302592180203],[115.92444426320237,-6.9519572963372003],[115.92445328243059,-6.9519572023465006],[115.92445337649296,-6.9519662147194277],[115.92446239572122,-6.951966120728434],[115.92446286603565,-6.9520111825923845],[115.92447188526468,-6.9520110886006075],[115.92447207339167,-6.9520291133459091],[115.92448109262088,-6.9520290193537129],[115.92448118668474,-6.9520380317262349],[115.92449020591403,-6.9520379377337456],[115.92449039404244,-6.9520559624785276],[115.92449941327193,-6.9520558684856226],[115.92449950733651,-6.9520648808578649],[115.92451240048332,-6.9520647464928862],[115.92450300000019,-6.9519629999999699],[115.92447000000016,-6.9518129999999001],[115.92432325162379,-6.9515980898579421]]],[[[115.92428700000005,-6.9515449999999479],[115.92427756258738,-6.9515417452647554],[115.92427768454255,-6.9515534312488985],[115.92428670376535,-6.9515533372668026],[115.92428707998069,-6.9515893867681822],[115.92429609920404,-6.9515892927854246],[115.92429628731281,-6.9516073175358581],[115.92431432575987,-6.9516071295693358],[115.92431423170508,-6.9515981171943597],[115.9243232064315,-6.951598023674638],[115.92428700000005,-6.9515449999999479]]],[[[115.92375250104513,-6.9513606637971028],[115.92375259451943,-6.9513696218829653],[115.92376161374588,-6.9513695279133385],[115.92376180182826,-6.9513875526785034],[115.92377082105496,-6.9513874587084583],[115.92377100913821,-6.9514054834733754],[115.9237800283651,-6.9514053895029155],[115.92378012240708,-6.9514144018852182],[115.92378914163403,-6.9514143079144652],[115.92378923567628,-6.9514233202966569],[115.92379825490329,-6.9514232263256091],[115.92379834894588,-6.9514322387076737],[115.92383442585327,-6.9514318628212886],[115.92383470798377,-6.9514588999659788],[115.92384372721082,-6.951458805993588],[115.92384382125474,-6.9514678183750176],[115.92385284048183,-6.9514677244023337],[115.92385274643775,-6.9514587120210258],[115.92386176566455,-6.9514586180482931],[115.92386204779773,-6.9514856551918331],[115.9238710670249,-6.9514855612185622],[115.9238713491597,-6.9515125983616901],[115.92388938761474,-6.9515124104138986],[115.92388948166024,-6.9515214227946842],[115.92389850088773,-6.9515213288204114],[115.92389859493355,-6.9515303412010709],[115.92388957570589,-6.9515304351754681],[115.92388966975166,-6.9515394475562466],[115.92388065052367,-6.9515395415305976],[115.92388083861526,-6.9515575662923847],[115.92388985784356,-6.9515574723177886],[115.92388995188971,-6.9515664846985521],[115.92390799034629,-6.9515662967486023],[115.92390789629982,-6.9515572843680848],[115.92389887707175,-6.9515573783430229],[115.92389868897949,-6.951539353581726],[115.92390770820721,-6.9515392596070349],[115.92390761416111,-6.9515302472265024],[115.92391663338852,-6.9515301532517642],[115.92391653934236,-6.9515211408713506],[115.92394359702335,-6.9515208589464805],[115.9239437851168,-6.9515388837065659],[115.92392574666225,-6.951539071657141],[115.92392584070883,-6.9515480840374222],[115.92396191761812,-6.9515477081350987],[115.92396201166552,-6.9515567205148825],[115.92398005011977,-6.9515565325624502],[115.92397995607203,-6.9515475201829124],[115.92399799452542,-6.951547332230045],[115.92399808857348,-6.9515563446093376],[115.92400710780018,-6.9515562506325264],[115.92400701375193,-6.9515472382533572],[115.92402505220458,-6.9515470502994665],[115.92402495815614,-6.951538037920538],[115.92406103505924,-6.951537662011205],[115.92406094101021,-6.9515286496327624],[115.92404290255925,-6.9515288375875253],[115.92404280851071,-6.951519825208833],[115.92408790463632,-6.951519355321266],[115.92408799868574,-6.9515283676993427],[115.92406996023554,-6.9515285556551278],[115.92407005428471,-6.9515375680334452],[115.92409711196036,-6.9515372860991453],[115.92409701791068,-6.9515282737211956],[115.92410603713546,-6.9515281797428772],[115.92410594308572,-6.9515191673650456],[115.92411496231023,-6.951519073386681],[115.92411486826043,-6.9515100610089684],[115.92413290670871,-6.9515098730519709],[115.92413300075884,-6.9515188854294365],[115.92415103920696,-6.9515186974715135],[115.92415094515651,-6.9515096850942921],[115.92417800282725,-6.9515094031564963],[115.92417798194676,-6.9515074022946921],[115.92375250104513,-6.9513606637971028]]],[[[115.9236028370002,-6.9513090479999278],[115.92359400000011,-6.9513059999998932],[115.92334601267135,-6.9513051761357314],[115.92334607096936,-6.9513107636219464],[115.92333705173834,-6.9513108575828717],[115.92333714577057,-6.951319869971269],[115.9232830303808,-6.9513204337339811],[115.92328312441215,-6.9513294461231112],[115.92321097055073,-6.9513301977981641],[115.92321093279884,-6.9513265794372172],[115.92304200000014,-6.9513709999999387],[115.92277682100007,-6.9514703179999877],[115.92277500000023,-6.951470999999855],[115.92265992500018,-6.9514706379999387],[115.92259003834396,-6.9514704182849005],[115.9225900534524,-6.951471866521115],[115.92258103420799,-6.9514719604698136],[115.92258112822805,-6.9514809728684606],[115.92257210898335,-6.9514810668171103],[115.92257229702346,-6.9514990916146369],[115.92258131626849,-6.9514989976657402],[115.92258197441402,-6.9515620844560706],[115.92259099366012,-6.9515619905061445],[115.92259080561757,-6.9515439657091758],[115.92259982486325,-6.9515438717593234],[115.92259944877897,-6.951507822165806],[115.92259042953398,-6.9515079161151663],[115.92259024149295,-6.9514898913181593],[115.92266239544651,-6.9514891397204712],[115.92266248946834,-6.9514981521180026],[115.92267150871213,-6.9514980581674024],[115.92267160273425,-6.9515070705647899],[115.92266258349029,-6.9515071645155126],[115.92266277153456,-6.9515251893105665],[115.92268081002305,-6.9515250014084566],[115.92268071600051,-6.9515159890111873],[115.9226897352444,-6.9515158950599991],[115.92268945317704,-6.9514888578685268],[115.92272553014931,-6.9514884820635485],[115.92272562417233,-6.9514974944602175],[115.92274366265805,-6.9514973065564591],[115.9227435686347,-6.9514882941600344],[115.92277964560398,-6.9514879183509652],[115.92277955158008,-6.9514789059550282],[115.92280660930521,-6.9514786240968043],[115.9228065152809,-6.9514696117012313],[115.92291474616816,-6.9514684842544705],[115.92291465214193,-6.9514594718603524],[115.92293269062104,-6.9514592839504186],[115.92293259659461,-6.9514502715565731],[115.92298671202796,-6.9514497078234196],[115.92298661800062,-6.9514406954302919],[115.92299563723891,-6.9514406014742924],[115.92299573126641,-6.9514496138672968],[115.92302278898102,-6.9514493319979076],[115.92302288300915,-6.951458344390522],[115.92301386377092,-6.9514584383472782],[115.92301395779903,-6.9514674507400436],[115.92302297703745,-6.9514673567831631],[115.92302307106584,-6.9514763691757846],[115.92305914801894,-6.9514759933460697],[115.92305924204815,-6.9514850057381956],[115.92306826128629,-6.9514849117802173],[115.92306835531578,-6.9514939241722153],[115.92307737455397,-6.9514938302139431],[115.92307709246533,-6.9514667930383052],[115.92308611170289,-6.9514666990802336],[115.9230860176734,-6.9514576866884523],[115.92311307538478,-6.9514574048135787],[115.92311288732522,-6.9514393800307888],[115.92312190656176,-6.9514392860724037],[115.92312181253199,-6.9514302736811144],[115.9230947548225,-6.9514305555553921],[115.92309456676435,-6.9514125307720818],[115.92311260523678,-6.9514123428565586],[115.92311269926611,-6.9514213552479625],[115.92312171850233,-6.9514212612898234],[115.92312162447281,-6.9514122488985421],[115.92313966294446,-6.9514120609819976],[115.92313956891473,-6.9514030485909242],[115.92315760738556,-6.9514028606739426],[115.9231575133556,-6.9513938482831295],[115.92319359029509,-6.9513934724476121],[115.92319368432572,-6.9514024848379368],[115.92322074202954,-6.9514022029591409],[115.92322083606081,-6.951411215349105],[115.92323887452973,-6.9514110274288115],[115.92323906259334,-6.9514290522081863],[115.92325710106242,-6.9514288642867186],[115.92325728912722,-6.9514468890655987],[115.92328434683098,-6.9514466071813805],[115.92328397069986,-6.9514105576250911],[115.92330200916702,-6.9514103697024101],[115.92330191513422,-6.95140135731355],[115.92331995360055,-6.951401169390433],[115.92331985956753,-6.9513921570018313],[115.92333789803303,-6.9513919690782782],[115.92333780399977,-6.951382956689919],[115.92335584246443,-6.9513827687659306],[115.92335593649801,-6.9513917811540429],[115.92340103265832,-6.9513913113404726],[115.92340112669287,-6.9514003237279667],[115.92341916515646,-6.9514001358011006],[115.92341907112154,-6.9513911234138526],[115.9234371095843,-6.9513909354865486],[115.92343720361953,-6.9513999478735515],[115.92345524208213,-6.9513997599453194],[115.92345514804654,-6.9513907475585643],[115.92346416727747,-6.9513906535943164],[115.9234643553491,-6.9514086783675948],[115.92348239381128,-6.9514084904380953],[115.92348229977506,-6.9513994780516954],[115.92349131900582,-6.9513993840868125],[115.9234914130422,-6.9514083964730897],[115.92350043227296,-6.9514083025079136],[115.92350015016366,-6.9513812653494726],[115.9235091693938,-6.9513811713844955],[115.92350907535744,-6.9513721589984669],[115.923527113817,-6.9513719710682471],[115.92352701978042,-6.9513629586824601],[115.92353603900986,-6.9513628647172174],[115.92353622708349,-6.95138088948854],[115.92355426554262,-6.9513807015570501],[115.9235541715054,-6.9513716891716388],[115.92356319073464,-6.9513715952057593],[115.92356309669739,-6.9513625828204662],[115.9235811351551,-6.9513623948884469],[115.92358122919271,-6.9513714072734958],[115.92360828687886,-6.951371125373818],[115.9236083809171,-6.9513801377584921],[115.92363543860264,-6.9513798558569135],[115.92363534456391,-6.9513708434726071],[115.92367142147553,-6.9513704676019401],[115.92367151551497,-6.9513794799857536],[115.92368955397039,-6.9513792920491522],[115.92368945993061,-6.951370279665583],[115.92371651761228,-6.9513699977597687],[115.92371661165255,-6.9513790101429693],[115.9237256308797,-6.9513789161739004],[115.92372553683924,-6.9513699037908241],[115.92373455606609,-6.951369809821708],[115.92373446202559,-6.9513607974387508],[115.92375234820724,-6.9513606110867361],[115.9236028370002,-6.9513090479999278]]]]},"properties":{"FID":0,"Shape_Leng":18102566.929299999,"Shape_Area":236516885.403}}]
}