{
  "type" : "FeatureCollection",
  "features" : [{"type":"Feature","id":0,"geometry":{"type":"MultiPolygon","coordinates":[[[[113.76184601949957,-7.120673946536197],[113.76184544860192,-7.1206739499463039],[113.76184603447933,-7.1206764486925795],[113.76184601949957,-7.120673946536197]]],[[[113.76182706294921,-7.1205294891278665],[113.76181079142465,-7.1205295863186633],[113.76181221600019,-7.120532213999927],[113.76184121736983,-7.1206559038906914],[113.76184591131532,-7.1206558758527345],[113.76184585722329,-7.1206468405109984],[113.76185490276755,-7.1206467864799281],[113.76185484867543,-7.1206377511382568],[113.76187293976336,-7.120637643075729],[113.76187272339412,-7.1206015017095572],[113.7618636778509,-7.1206015557406319],[113.76186362375894,-7.1205925203990104],[113.76185457821582,-7.1205925744298399],[113.76185447003247,-7.120574503746445],[113.76184542448962,-7.1205745577769601],[113.7618453163069,-7.1205564870934115],[113.76183627076433,-7.1205565411236114],[113.76183621667327,-7.1205475057817615],[113.7618271711308,-7.1205475598117163],[113.76182706294921,-7.1205294891278665]]],[[[113.76180891777447,-7.1205205618449163],[113.76180590862577,-7.1205205798186464],[113.76180895148242,-7.1205261924784153],[113.76180891777447,-7.1205205618449163]]],[[[113.76212524122333,-7.1204734940128835],[113.76212518712725,-7.1204644586731982],[113.76211614158863,-7.1204645127081747],[113.76211619568456,-7.1204735480479293],[113.76212524122333,-7.1204734940128835]]]]},"properties":{"FID":0,"Shape_Leng":18102566.929299999,"Shape_Area":236516885.403}}]
}