{
  "type" : "FeatureCollection",
  "features" : [{"type":"Feature","id":0,"geometry":{"type":"MultiPolygon","coordinates":[[[[113.90958671801836,-7.0201709529552243],[113.90958666184736,-7.0201619187361963],[113.90957761942012,-7.0201619748560899],[113.90957767559095,-7.0201710090751925],[113.90958671801836,-7.0201709529552243]]],[[[113.90978553905279,-7.0201516498371239],[113.90978548287811,-7.0201426156196929],[113.9097945253033,-7.0201425594959463],[113.90979441295379,-7.0201244910612175],[113.90978537052897,-7.0201245471848166],[113.90978542670349,-7.0201335814022565],[113.90977638427843,-7.0201336375257553],[113.90977649662739,-7.0201517059607683],[113.90978553905279,-7.0201516498371239]]],[[[113.90974723479115,-7.0198085740544292],[113.90974712244888,-7.0197905056186638],[113.90973808003011,-7.0197905617386969],[113.90973813620104,-7.0197995959566466],[113.90972909378203,-7.0197996520765784],[113.90972914995285,-7.0198086862946134],[113.90974723479115,-7.0198085740544292]]],[[[113.90980137695986,-7.0197901688948177],[113.90979233454156,-7.0197902250158926],[113.90979244688558,-7.0198082934509287],[113.90978340446684,-7.0198083495719761],[113.90978346063878,-7.0198173837895368],[113.9097744182198,-7.0198174399104838],[113.90977464290761,-7.0198535767810268],[113.90980177016642,-7.0198534084167896],[113.90980160164889,-7.019826305764548],[113.90981064406782,-7.0198262496430068],[113.90981053172281,-7.0198081812083117],[113.90980148930423,-7.0198082373297082],[113.90980137695986,-7.0197901688948177]]],[[[113.90990988597387,-7.0197894954283511],[113.90990977362563,-7.0197714269952112],[113.90990073120854,-7.0197714831182294],[113.90990084355643,-7.0197895515515132],[113.90990988597387,-7.0197894954283511]]],[[[113.90980109610025,-7.0197449978075639],[113.90980103992855,-7.0197359635901018],[113.90979199751129,-7.0197360197107397],[113.90979205368284,-7.0197450539282764],[113.90980109610025,-7.0197449978075639]]],[[[113.90988242168068,-7.0197354584965366],[113.90987337926406,-7.0197355146187403],[113.90987349161031,-7.0197535830524931],[113.90988253402728,-7.0197535269301463],[113.9098825902007,-7.0197625611469423],[113.90987354778355,-7.0197626172693646],[113.90987388482455,-7.0198168225705082],[113.90986484240631,-7.0198168786931934],[113.90986506710109,-7.0198530155608188],[113.90984698226298,-7.0198531278062504],[113.90984703843651,-7.0198621620233155],[113.90983799601719,-7.0198622181458425],[113.90983805219062,-7.0198712523629583],[113.90982900977102,-7.0198713084853868],[113.90982923446479,-7.019907445354101],[113.90982019204445,-7.0199075014766459],[113.90982041673871,-7.0199436383455911],[113.90981137431757,-7.0199436944682549],[113.90981143049116,-7.0199527286855528],[113.90979334564835,-7.0199528409305039],[113.90979345799504,-7.0199709093653819],[113.90980250041683,-7.0199708532428478],[113.90980261276414,-7.0199889216775659],[113.90981165518622,-7.0199888655547111],[113.90981176753418,-7.0200069339892677],[113.90980272511176,-7.0200069901122655],[113.90980289363377,-7.0200340927642886],[113.90979385121076,-7.0200341488873326],[113.90979396355877,-7.0200522173221422],[113.90978492113533,-7.0200522734451587],[113.90978514583155,-7.0200884103150187],[113.90979418825569,-7.0200883541917101],[113.9097942444301,-7.0200973884090931],[113.90981232927847,-7.0200972761618088],[113.909811992231,-7.020043070858331],[113.90982103465406,-7.0200430147348651],[113.9098208661308,-7.0200159120833092],[113.90983895097561,-7.0200157998362958],[113.909838894801,-7.0200067656192244],[113.90984793722311,-7.0200067094955294],[113.90984771252468,-7.0199705726275701],[113.90985675494602,-7.0199705165039941],[113.90985664259691,-7.0199524480701365],[113.90986568501785,-7.0199523919465312],[113.90986562884324,-7.0199433577296686],[113.90985658642245,-7.0199434138532002],[113.90985641789956,-7.0199163112023735],[113.90986546031981,-7.0199162550790595],[113.90986540414548,-7.0199072208621836],[113.90988348898539,-7.0199071086151816],[113.90988337663626,-7.019889040181706],[113.90985624937733,-7.0198892085515103],[113.90985619320341,-7.0198801743345483],[113.9098833204618,-7.0198800059649624],[113.90988309576474,-7.0198438690979499],[113.90987405334604,-7.0198439252210276],[113.90987399717213,-7.0198348910041926],[113.90988303959067,-7.0198348348811876],[113.90988298341667,-7.0198258006644201],[113.90989202583491,-7.0198257445413139],[113.9098919696608,-7.0198167103246174],[113.90991005449678,-7.0198165980780312],[113.90990999832241,-7.0198075638614919],[113.90989191348677,-7.0198076761079315],[113.90989152027063,-7.0197444365908952],[113.90988247785394,-7.0197444927133441],[113.90988242168068,-7.0197354584965366]]],[[[113.90971971434058,-7.0197455028877078],[113.90971960200038,-7.0197274344514664],[113.90971055958263,-7.0197274905704683],[113.90971067192248,-7.0197455590068545],[113.90971971434058,-7.0197455028877078]]],[[[113.90988236550747,-7.019726424279729],[113.90988219698836,-7.0196993216292745],[113.90987315457244,-7.0196993777511842],[113.90987332309105,-7.0197264804018564],[113.90988236550747,-7.019726424279729]]],[[[113.90980014119145,-7.0195914161101722],[113.90979109877698,-7.019591472229644],[113.90979126728821,-7.0196185748824256],[113.90978222487311,-7.0196186310019426],[113.90978244955511,-7.0196547678725549],[113.9098005343866,-7.019654655632765],[113.90980047821564,-7.0196456214152461],[113.9098095206311,-7.019645565295165],[113.90980940828905,-7.0196274968603127],[113.90980036587395,-7.019627552980249],[113.90980014119145,-7.0195914161101722]]],[[[113.90985433950533,-7.0195820451726032],[113.90984529709146,-7.0195821012930448],[113.90984563412044,-7.019636306595971],[113.90983659170546,-7.0196363627166756],[113.90983681639221,-7.019672499585508],[113.9098458588079,-7.0196724434645104],[113.90984591497994,-7.0196814776816359],[113.90985495739572,-7.0196814215603922],[113.90985478887927,-7.0196543189092235],[113.90987287370957,-7.0196542066666527],[113.90987270519275,-7.0196271040158873],[113.90986366277816,-7.0196271601370412],[113.90986371895019,-7.0196361943540406],[113.90985467653533,-7.0196362504750924],[113.90985433950533,-7.0195820451726032]]],[[[113.90985433950533,-7.0195820451726032],[113.90986338191914,-7.0195819890519875],[113.9098634380908,-7.0195910232690064],[113.90987248050467,-7.0195909671481456],[113.90987236816109,-7.0195728987142498],[113.90988141057457,-7.0195728425933597],[113.9098811858876,-7.0195367057258151],[113.90986310106196,-7.0195368179668369],[113.90986321340462,-7.0195548864009085],[113.90985417099132,-7.0195549425213049],[113.90985422716258,-7.019563976738409],[113.90986326957605,-7.0195639206179399],[113.90986332574755,-7.0195729548349668],[113.90985428333391,-7.0195730109555079],[113.90985433950533,-7.0195820451726032]]],[[[113.909800085021,-7.0195823818926435],[113.90979974799993,-7.0195281765873885],[113.90979070558666,-7.0195282327063486],[113.90979104260671,-7.0195824380120415],[113.909800085021,-7.0195823818926435]]],[[[113.90987197496086,-7.019509659195494],[113.90986293254855,-7.0195097153156993],[113.90986298871961,-7.0195187495327493],[113.90987203113211,-7.0195186934124711],[113.90987197496086,-7.019509659195494]]],[[[113.90980856573317,-7.0194919835982956],[113.90979952332069,-7.0194920397171385],[113.90979957949038,-7.0195010739347072],[113.90980862190305,-7.0195010178157915],[113.90980856573317,-7.0194919835982956]]],[[[113.90981760814562,-7.0194919274792795],[113.90981766431567,-7.0195009616967017],[113.90982670672818,-7.0195009055774378],[113.90982665055797,-7.0194918713600885],[113.90981760814562,-7.0194919274792795]]],[[[113.9097362825996,-7.019501466762252],[113.9097361702627,-7.0194833983260745],[113.90972712784981,-7.0194834544434537],[113.90972724018633,-7.0195015228797777],[113.9097362825996,-7.019501466762252]]],[[[113.90987197496086,-7.019509659195494],[113.90988101737312,-7.0195096030751145],[113.90988096120179,-7.0195005688582075],[113.9098900036138,-7.0195005127377268],[113.90988989127099,-7.0194824443040291],[113.9098718064476,-7.0194825565445234],[113.90987197496086,-7.019509659195494]]],[[[113.90981760814562,-7.0194919274792795],[113.90981749580575,-7.0194738590444237],[113.90980845339365,-7.0194739151632941],[113.90980856573317,-7.0194919835982956],[113.90981760814562,-7.0194919274792795]]],[[[113.9098445668712,-7.0194646564695526],[113.90984451070092,-7.0194556222523339],[113.90983546828942,-7.01945567837158],[113.90983552445952,-7.0194647125888716],[113.9098445668712,-7.0194646564695526]]],[[[113.909871637935,-7.019455453893551],[113.90986259552372,-7.0194555100133185],[113.90986270786503,-7.019473578447462],[113.9098898350997,-7.0194734100871985],[113.90988977892849,-7.0194643758703483],[113.90987169410579,-7.0194644881105512],[113.909871637935,-7.019455453893551]]],[[[113.90988955424437,-7.0194282390029077],[113.90988949807353,-7.0194192047860371],[113.90987141325256,-7.0194193170255099],[113.90987146942305,-7.0194283512425262],[113.90988955424437,-7.0194282390029077]]],[[[113.90979845611049,-7.0193203895825853],[113.90979834377413,-7.0193023211473049],[113.90978930136522,-7.0193023772644425],[113.90978941370123,-7.0193204456998686],[113.90979845611049,-7.0193203895825853]]],[[[113.90980733001473,-7.0192932308124121],[113.90980721767848,-7.0192751623772205],[113.90979817527015,-7.0192752184943137],[113.90979823143807,-7.0192842527119925],[113.90978918902951,-7.0192843088289845],[113.90978924519732,-7.0192933430467157],[113.90980733001473,-7.0192932308124121]]],[[[113.90976155630096,-7.0192031692171923],[113.90976138780152,-7.0191760665632135],[113.90975234539475,-7.0191761226786351],[113.90975251389368,-7.0192032253328325],[113.90976155630096,-7.0192031692171923]]],[[[113.91004136534578,-7.0191201216044421],[113.91004130917449,-7.0191110873886613],[113.91003226677121,-7.0191111435089617],[113.91003232294233,-7.0191201777248136],[113.91004136534578,-7.0191201216044421]]],[[[113.91007736644308,-7.0190927944747914],[113.91007731027132,-7.0190837602593081],[113.91005922546634,-7.0190838725006826],[113.91005928163776,-7.0190929067163141],[113.91007736644308,-7.0190927944747914]]],[[[113.90979671493022,-7.0190403288337411],[113.90979665876432,-7.0190312946159734],[113.90978761636062,-7.0190313507309234],[113.90978767252636,-7.0190403849487648],[113.90979671493022,-7.0190403288337411]]],[[[113.90979660259846,-7.0190222603982191],[113.909796490267,-7.0190041919626465],[113.90977840546056,-7.0190043041919354],[113.90977851779132,-7.0190223726277994],[113.90979660259846,-7.0190222603982191]]],[[[113.9097602644889,-7.0189953822024531],[113.90976020832403,-7.0189863479843755],[113.90975116592092,-7.0189864040982641],[113.90975122208559,-7.0189954383164164],[113.9097602644889,-7.0189953822024531]]],[[[113.90990477442899,-7.0189673817046589],[113.90990471826159,-7.0189583474877342],[113.90991376066292,-7.018958291371109],[113.90991364832797,-7.0189402229373945],[113.90989556352588,-7.0189403351701802],[113.90989573202738,-7.0189674378211837],[113.90990477442899,-7.0189673817046589]]],[[[113.90996779039565,-7.0189218178020107],[113.90996773422739,-7.0189127835855789],[113.90995869182737,-7.0189128397028817],[113.90995874799546,-7.0189218739193882],[113.90996779039565,-7.0189218178020107]]],[[[113.91012145501664,-7.0189118295648232],[113.91011241261788,-7.0189118856850801],[113.91011258113123,-7.0189389883308664],[113.91010353873185,-7.0189390444511703],[113.91010365107411,-7.0189571128818207],[113.91012173587347,-7.0189570006407482],[113.91012145501664,-7.0189118295648232]]],[[[113.90990449359266,-7.0189222106199995],[113.90990438125866,-7.0189041421860905],[113.90989533885826,-7.0189041983021063],[113.90989545119193,-7.0189222667361593],[113.90990449359266,-7.0189222106199995]]],[[[113.90994049469182,-7.018894883503652],[113.90992240989193,-7.0188949957367521],[113.90992246605917,-7.018904029953541],[113.90993150845934,-7.0189039738370047],[113.90993156462683,-7.0189130080537518],[113.90994060702708,-7.0189129519369677],[113.90994049469182,-7.018894883503652]]],[[[113.91012145501664,-7.0189118295648232],[113.91013049741534,-7.0189117734443904],[113.91013027273051,-7.0188756365838687],[113.91012123033251,-7.0188756927040092],[113.91012145501664,-7.0189118295648232]]],[[[113.90993117145595,-7.0188497685365672],[113.90993111528897,-7.0188407343198103],[113.90992207289003,-7.0188407904358359],[113.90992212905681,-7.0188498246526647],[113.90993117145595,-7.0188497685365672]]],[[[113.91005686633409,-7.0187044354407107],[113.91005681016588,-7.0186954012248952],[113.91004776777076,-7.0186954573421874],[113.91004782393881,-7.0187044915580747],[113.91005686633409,-7.0187044354407107]]],[[[113.90984872273118,-7.0186786234436873],[113.90984866656719,-7.0186695892261994],[113.90983962417089,-7.0186696453392763],[113.90983968033471,-7.0186786795568352],[113.90984872273118,-7.0186786234436873]]],[[[113.90976750964801,-7.0187062311101753],[113.90976734116026,-7.0186791284557684],[113.90977638355731,-7.0186790723440096],[113.90977627123218,-7.018661003907865],[113.90975818643865,-7.0186611161309171],[113.90975829876311,-7.0186791845673531],[113.9097492563659,-7.0186792406787646],[113.90974942485261,-7.0187063433336077],[113.90976750964801,-7.0187062311101753]]],[[[113.91000244345993,-7.0186776694935711],[113.91000233112609,-7.0186596010610733],[113.90999328873123,-7.0186596571770314],[113.90999334489793,-7.018668691393354],[113.90998430250281,-7.01866874750921],[113.90998435866942,-7.0186777817256036],[113.91000244345993,-7.0186776694935711]]],[[[113.9099215112261,-7.0187504482673289],[113.90993055362331,-7.0187503921520333],[113.90993049745717,-7.0187413579352338],[113.909948582251,-7.0187412457042662],[113.90994830141958,-7.018696074620923],[113.90993925902356,-7.0186961307361306],[113.90993920285767,-7.0186870965193968],[113.90993016046177,-7.0186871526343548],[113.90993004813058,-7.018669084200698],[113.90992100573493,-7.0186691403153398],[113.90992089340436,-7.0186510718815018],[113.90989376621806,-7.0186512402239414],[113.90989404704241,-7.0186964113095529],[113.90987596224946,-7.0186965235377068],[113.90987579375566,-7.0186694208859297],[113.90986675135957,-7.018669476999527],[113.90986680752393,-7.0186785112168684],[113.9098577651276,-7.0186785673303644],[113.90985782129184,-7.0186876015477742],[113.90983973649861,-7.0186877137743915],[113.90983984882664,-7.0187057822094916],[113.90985793362056,-7.0187056699825829],[113.90985804594959,-7.0187237384173757],[113.90981283396249,-7.0187240189840736],[113.90981289012623,-7.0187330532018288],[113.90980384772841,-7.0187331093147201],[113.90980379156483,-7.018724075096892],[113.90979474916712,-7.0187241312095363],[113.90979469300379,-7.018715096991631],[113.90977660820849,-7.0187152092162526],[113.90977655204559,-7.018706174998198],[113.90976750964801,-7.0187062311101753],[113.90976762197354,-7.0187242995464274],[113.90977666437146,-7.0187242434343036],[113.90977677669765,-7.018742311870394],[113.90978581909587,-7.0187422557579495],[113.90978587525925,-7.0187512899759161],[113.90979491765755,-7.0187512338632265],[113.90979502998488,-7.0187693022990016],[113.90981311478197,-7.0187691900728106],[113.90981322711028,-7.0187872585082776],[113.90982226950905,-7.0187872023947753],[113.9098223256735,-7.0187962366124301],[113.90983136807239,-7.0187961804986809],[113.90983142423708,-7.0188052147162585],[113.90987663623127,-7.0188049341445415],[113.90987669239689,-7.0188139683617683],[113.90985860759909,-7.0188140805911221],[113.90985866376445,-7.0188231148084563],[113.90990387575926,-7.0188228342334034],[113.90990381959304,-7.0188138000164342],[113.90989477719438,-7.018813856131719],[113.90989472102839,-7.0188048219146388],[113.90992184822358,-7.0188046535684805],[113.90992190439006,-7.0188136877853422],[113.90991286199159,-7.0188137439009752],[113.90991291815799,-7.0188227781178716],[113.90995813015057,-7.018822497537605],[113.90995801781611,-7.0188044291045024],[113.90994897541809,-7.0188044852207572],[113.90994875075073,-7.0187683483542145],[113.90993970835333,-7.0187684044700047],[113.90993976451988,-7.0187774386867181],[113.90993072212223,-7.0187774948024071],[113.9099307782887,-7.0187865290191915],[113.90991269349281,-7.0187866412501929],[113.90991252499472,-7.0187595385993928],[113.90992156739217,-7.0187594824841968],[113.9099215112261,-7.0187504482673289],[113.90991246882885,-7.0187505043824512],[113.90991241266303,-7.0187414701655069],[113.90992145506013,-7.0187414140504574],[113.9099215112261,-7.0187504482673289]],[[113.90988522930608,-7.0187326042924436],[113.90987618690886,-7.0187326604067248],[113.90987607457902,-7.0187145919722322],[113.90986703218205,-7.0187146480861937],[113.9098669760174,-7.0187056138688684],[113.90990314560406,-7.0187053894122702],[113.90990320176941,-7.0187144236293033],[113.90989415937267,-7.018714479743787],[113.9098942155379,-7.0187235139608894],[113.90988517314094,-7.0187235700752719],[113.90988522930608,-7.0187326042924436]],[[113.90991218800053,-7.0187053332976861],[113.90992123039693,-7.0187052771829297],[113.90992128656262,-7.0187143113998172],[113.90991224416605,-7.0187143675146482],[113.90991218800053,-7.0187053332976861]],[[113.90992134272838,-7.0187233456167002],[113.90993038512508,-7.0187232895016241],[113.90993044129108,-7.0187323237184307],[113.90992139889421,-7.0187323798335814],[113.90992134272838,-7.0187233456167002]]],[[[113.90987551293416,-7.0186242497995304],[113.9098754567701,-7.0186152155822379],[113.90986641437505,-7.0186152716953982],[113.90986647053894,-7.0186243059127627],[113.90987551293416,-7.0186242497995304]]],[[[113.90967652406219,-7.0186164500316046],[113.90967646790203,-7.0186074158127223],[113.90966742550553,-7.0186074719219853],[113.90966748166555,-7.0186165061409413],[113.90967652406219,-7.0186164500316046]]],[[[113.90998396550472,-7.01861454221077],[113.90998390933862,-7.0186055079943674],[113.90997486694467,-7.0186055641095395],[113.90997492311058,-7.0186145983260149],[113.90998396550472,-7.01861454221077]]],[[[113.9096946088553,-7.0186163378124107],[113.90969449653434,-7.0185982693748992],[113.90968545413816,-7.0185983254844375],[113.90968556645879,-7.0186163939220947],[113.9096946088553,-7.0186163378124107]]],[[[113.90999272706821,-7.0185693150135746],[113.90999267090233,-7.0185602807972076],[113.90998362850929,-7.0185603369121887],[113.90998368467501,-7.0185693711286303],[113.90999272706821,-7.0185693150135746]]],[[[113.9098840498537,-7.0185428857310148],[113.90986596506649,-7.0185429979563407],[113.9098660212298,-7.0185520321737371],[113.90987506362363,-7.0185519760610866],[113.90987511978719,-7.0185610102784057],[113.9098841621811,-7.018560954165511],[113.90988438683677,-7.0185970910344562],[113.90990247162577,-7.0185969788075599],[113.90990258395475,-7.0186150472417177],[113.90989354155992,-7.0186151033553985],[113.90989371005342,-7.0186422060068248],[113.90992987963432,-7.018641981550183],[113.90992982346906,-7.0186329473333364],[113.90993886586391,-7.0186328912188163],[113.90993875353324,-7.0186148227852563],[113.90992971113873,-7.0186148788996325],[113.90992976730385,-7.0186239131164854],[113.90992072490909,-7.0186239692307613],[113.90992066874414,-7.0186149350138347],[113.90991162634947,-7.0186149911278619],[113.90991145785561,-7.0185878884768398],[113.9099024154614,-7.0185879445904753],[113.90990235929709,-7.0185789103733862],[113.90989331690297,-7.0185789664867757],[113.90989314841103,-7.0185518638352677],[113.90988410601736,-7.0185519199482638],[113.9098840498537,-7.0185428857310148]]],[[[113.90987483897014,-7.018515839191771],[113.90987472664384,-7.0184977707570901],[113.90986568425105,-7.018497826869301],[113.90986579657701,-7.0185158953041284],[113.90987483897014,-7.018515839191771]]],[[[113.90969382261471,-7.0184898587494802],[113.90969376645522,-7.0184808245306884],[113.90968472406131,-7.0184808806392782],[113.90968478022062,-7.0184899148581437],[113.90969382261471,-7.0184898587494802]]],[[[113.91012123033251,-7.0188756927040092],[113.91012094947901,-7.0188305216279057],[113.91012999187615,-7.0188304655081302],[113.91012948634294,-7.0187491575715519],[113.91012044394738,-7.018749213690672],[113.91012016309908,-7.0187040426142939],[113.91012920549377,-7.0187039864955398],[113.91012898081576,-7.0186678496346575],[113.91011993842176,-7.018667905753122],[113.91011971374563,-7.0186317688918853],[113.91011067135226,-7.0186318250098827],[113.91011061518358,-7.0186227907944927],[113.91011965757677,-7.0186227346765682],[113.91011909589238,-7.0185323925231637],[113.91012813828378,-7.0185323364057952],[113.91012808211556,-7.0185233021905074],[113.91011903972436,-7.0185233583078031],[113.91011880206337,-7.0184851321510449],[113.91011632711317,-7.018478202322445],[113.9101097164949,-7.0184782433476922],[113.91010966032749,-7.0184692091322338],[113.91010061793715,-7.0184692652487461],[113.91010073027169,-7.0184873336797873],[113.91009168788095,-7.0184873897962703],[113.91009163171383,-7.0184783555806867],[113.91008258932317,-7.0184784116969219],[113.91008253315627,-7.0184693774812468],[113.91007349076573,-7.0184694335972351],[113.91007343459908,-7.0184603993814818],[113.9100282226461,-7.0184606799584577],[113.91002833497772,-7.0184787483906907],[113.91003737736882,-7.0184786922754965],[113.91003765820004,-7.0185238633556466],[113.91002861580807,-7.0185239194712041],[113.91002867197437,-7.0185329536872958],[113.91003771436652,-7.0185328975716645],[113.91003788286636,-7.0185600002196953],[113.9100288404737,-7.018560056335545],[113.91002895280694,-7.0185781247676937],[113.91003799519996,-7.0185780686516956],[113.91003810753385,-7.0185961370836818],[113.91004714992712,-7.0185960809673666],[113.91004720609436,-7.0186051151832967],[113.91002912130737,-7.0186052274159003],[113.91002928980848,-7.0186323300640394],[113.91003833220253,-7.0186322739476061],[113.91003861304006,-7.0186774450274223],[113.91006574022435,-7.0186772766759855],[113.91006590872934,-7.0187043793231725],[113.91008399351954,-7.0187042670875739],[113.91008410585724,-7.0187223355187225],[113.91007506346183,-7.0187223916367527],[113.91007511963062,-7.0187314258523923],[113.91005703483921,-7.0187315380880797],[113.91005697867077,-7.0187225038722945],[113.91003889387943,-7.0187226161071408],[113.9100390062157,-7.0187406845390008],[113.91004804861174,-7.0187406284215195],[113.91004810478016,-7.0187496626373695],[113.91005714717632,-7.0187496065196404],[113.91005709100773,-7.0187405723038623],[113.91006613340365,-7.0187405161860328],[113.91006624574126,-7.018758584617439],[113.91007528813745,-7.0187585284992906],[113.91007534430653,-7.0187675627149151],[113.91008438670281,-7.0187675065965189],[113.91008444287215,-7.0187765408120653],[113.91010252766486,-7.0187764285746059],[113.91010264000444,-7.0187944970053984],[113.91011168240104,-7.0187944408862615],[113.91011218793443,-7.0188757488239748],[113.91012123033251,-7.0188756927040092]],[[113.9101009549417,-7.0185234705418731],[113.91009191255026,-7.0185235266586483],[113.91009174404816,-7.0184964240118832],[113.91010078643909,-7.0184963678953265],[113.9101009549417,-7.0185234705418731]]],[[[113.90971173892336,-7.0184626438756492],[113.90971168276374,-7.0184536096569738],[113.90968455558382,-7.0184537779826099],[113.9096846117429,-7.0184628122015029],[113.90971173892336,-7.0184626438756492]]],[[[113.90974796465666,-7.0184714536571224],[113.90974790849627,-7.0184624194387437],[113.90975695088932,-7.0184623633290828],[113.90975689472883,-7.0184533291107734],[113.90972976755002,-7.0184534974390145],[113.90972987987,-7.0184715658760686],[113.90974796465666,-7.0184714536571224]]],[[[113.90969342949985,-7.0184266192177516],[113.9096933733409,-7.0184175849989163],[113.9096843309482,-7.0184176411069963],[113.90968438710699,-7.0184266753259053],[113.90969342949985,-7.0184266192177516]]],[[[113.90997194641915,-7.0181357848464669],[113.90996863044009,-7.0181358054233138],[113.90992019615504,-7.0182354861943912],[113.90994543704495,-7.0182353295654059],[113.9099454932073,-7.0182443637822942],[113.90995453559454,-7.0182443076705612],[113.909954479432,-7.0182352734537448],[113.90999064897952,-7.0182350490053649],[113.9099905366533,-7.0182169805723547],[113.90998149426686,-7.0182170366845629],[113.9099813257786,-7.0181899340347895],[113.90997228339265,-7.0181899901466078],[113.90997194641915,-7.0181357848464669]]],[[[113.91002614456457,-7.0181264139593189],[113.91002612540925,-7.018123332690509],[113.91002534644154,-7.0181173843472573],[113.91000800363311,-7.0181174919670841],[113.91000805979571,-7.0181265261834964],[113.91002614456457,-7.0181264139593189]]]]},"properties":{"FID":0,"Shape_Leng":18102566.929299999,"Shape_Area":236516885.403}}]
}