{
  "type" : "FeatureCollection",
  "features" : [{"type":"Feature","id":0,"geometry":{"type":"MultiPolygon","coordinates":[[[[115.70642888898814,-7.0097637848732051],[115.70642870766403,-7.0097457543540429],[115.70641968441795,-7.0097458449356491],[115.70641986574174,-7.0097638754550475],[115.70642888898814,-7.0097637848732051]]],[[[115.70559639305353,-7.0095377206503482],[115.70559630241036,-7.0095287053798456],[115.70558727915763,-7.0095287959426784],[115.70558736980061,-7.0095378112132991],[115.70559639305353,-7.0095377206503482]]],[[[115.70569546753791,-7.0095186939080953],[115.70569537689309,-7.0095096786388593],[115.70568635364195,-7.0095097692033512],[115.70568644428661,-7.0095187844727027],[115.70569546753791,-7.0095186939080953]]],[[[115.7051614641029,-7.0093617619536728],[115.70516128283803,-7.0093437314011524],[115.70515225958313,-7.0093438219532551],[115.70515244084767,-7.0093618525060091],[115.7051614641029,-7.0093617619536728]]],[[[115.70689075366728,-7.0090288388347393],[115.7068908443288,-7.0090378540885707],[115.70689986755507,-7.0090377635070169],[115.70689977689338,-7.0090287482533018],[115.70689075366728,-7.0090288388347393]]],[[[115.70689075366728,-7.0090288388347393],[115.70689066300588,-7.0090198235809194],[115.70688163977981,-7.0090199141620673],[115.70688173044101,-7.0090289294160044],[115.70689075366728,-7.0090288388347393]]],[[[115.70690870945766,-7.0090196424181093],[115.70690861879604,-7.0090106271644856],[115.70689959557039,-7.0090107177458583],[115.70689968623182,-7.0090197329996],[115.70690870945766,-7.0090196424181093]]],[[[115.7068814584577,-7.0090018836541264],[115.70688136779684,-7.0089928684001581],[115.70687234457117,-7.0089929589807802],[115.70687243523186,-7.0090019742348666],[115.7068814584577,-7.0090018836541264]]],[[[115.70691755135992,-7.0090015213294468],[115.70691746069838,-7.0089925060759484],[115.70690843747317,-7.0089925966572588],[115.70690852813455,-7.0090016119108736],[115.70691755135992,-7.0090015213294468]]],[[[115.70691718871444,-7.0089654603154274],[115.70691700739242,-7.0089474298083738],[115.70690798416805,-7.0089475203890954],[115.70690807482885,-7.0089565356427501],[115.70689905160422,-7.0089566262234184],[115.70689914226494,-7.0089656414771699],[115.70691718871444,-7.0089654603154274]]],[[[115.70578792512202,-7.0088415525775929],[115.70578783448425,-7.0088325373093046],[115.70577881124741,-7.0088326278668687],[115.70577890188498,-7.0088416431352742],[115.70578792512202,-7.0088415525775929]]],[[[115.70682505264092,-7.008777045767741],[115.7068249619841,-7.0087680305129529],[115.70681593876199,-7.0087681210895996],[115.70681602941866,-7.0087771363445075],[115.70682505264092,-7.008777045767741]]],[[[115.70674579609218,-7.008074580416209],[115.70674570544604,-7.0080655651601012],[115.70673668223641,-7.0080656557261971],[115.70673677288239,-7.0080746709824231],[115.70674579609218,-7.008074580416209]]],[[[115.70516600763551,-7.0080183046703537],[115.70516591702047,-7.0080092893936454],[115.70515689379134,-7.0080093799286871],[115.70515698440622,-7.0080183952055144],[115.70516600763551,-7.0080183046703537]]],[[[115.70601074675508,-7.0076672134988458],[115.70601065612838,-7.0076581982329991],[115.70600163291701,-7.0076582887797478],[115.70600172354354,-7.0076673040457127],[115.70601074675508,-7.0076672134988458]]],[[[115.7055774512294,-7.0076535290113604],[115.7055773606112,-7.0076445137398764],[115.70556833739447,-7.0076446042781306],[115.70556842801247,-7.0076536195497319],[115.7055774512294,-7.0076535290113604]]],[[[115.70417785467866,-7.0075683922182899],[115.70417767349839,-7.0075503616387786],[115.70416865026516,-7.0075504521489522],[115.70416883144507,-7.0075684827286979],[115.70417785467866,-7.0075683922182899]]],[[[115.70684863591931,-7.0075325783192675],[115.70684854527828,-7.0075235630643133],[115.70683952208041,-7.0075236536254151],[115.70683961272128,-7.0075326688804891],[115.70684863591931,-7.0075325783192675]]],[[[115.70710985538093,-7.0074848757112269],[115.70710976473552,-7.0074758604596603],[115.70710074154198,-7.0074759510251647],[115.70710083218724,-7.0074849662768512],[115.70710985538093,-7.0074848757112269]]],[[[115.70950992996718,-7.0074517639252019],[115.70950974858506,-7.0074337334846515],[115.70950072542369,-7.0074338240956893],[115.70950090680546,-7.0074518545364741],[115.70950992996718,-7.0074517639252019]]],[[[115.70686577590654,-7.0074422446488907],[115.70686568526635,-7.0074332293941239],[115.70685666207048,-7.0074333199543952],[115.70685675271049,-7.0074423352092809],[115.70686577590654,-7.0074422446488907]]],[[[115.70720874791508,-7.0074478184769111],[115.70720847597489,-7.0074207727260029],[115.70719945278374,-7.0074208632926975],[115.7071997247234,-7.0074479090439556],[115.70720874791508,-7.0074478184769111]]],[[[115.70724465938569,-7.0074294257073459],[115.70724456873839,-7.0074204104575131],[115.70723554554768,-7.0074205010248933],[115.70723563619481,-7.0074295162748443],[115.70724465938569,-7.0074294257073459]]],[[[115.70710922086542,-7.007421768950155],[115.70710913022081,-7.0074127536985555],[115.7071001070285,-7.0074128442632366],[115.70710019767291,-7.0074218595149542],[115.70710922086542,-7.007421768950155]]],[[[115.70706392361441,-7.0074041912680674],[115.70706401425804,-7.007413206520245],[115.70707303745084,-7.0074131159562496],[115.70707294680703,-7.007404100704191],[115.70706392361441,-7.0074041912680674]]],[[[115.70706392361441,-7.0074041912680674],[115.70706383297093,-7.0073951760158533],[115.70704578658567,-7.0073953571428556],[115.70704587722881,-7.0074043723953041],[115.70706392361441,-7.0074041912680674]]],[[[115.70704578658567,-7.0073953571428556],[115.70704551465693,-7.0073683113855267],[115.70702746827223,-7.0073684925111337],[115.70702719634559,-7.0073414467530606],[115.70700914996145,-7.0073416278772749],[115.70700951252917,-7.0073776888889707],[115.70702755891467,-7.0073775077638158],[115.70702764955723,-7.0073865230164953],[115.70703667274999,-7.0073864324535409],[115.70703676339288,-7.007395447706096],[115.70704578658567,-7.0073953571428556]]],[[[115.70706328911247,-7.0073410845025714],[115.70706310782725,-7.0073230539981068],[115.70705408463607,-7.0073231445607513],[115.70705426592092,-7.0073411750654504],[115.70706328911247,-7.0073410845025714]]],[[[115.70506870785617,-7.0073160183252936],[115.70506861725217,-7.0073070030470319],[115.70505959403526,-7.0073070935711819],[115.70505968463908,-7.0073161088495608],[115.70506870785617,-7.0073160183252936]]],[[[115.70729725752297,-7.0072756230629869],[115.70729716687669,-7.007266607813782],[115.70728814368964,-7.007266698380195],[115.70728823433575,-7.0072757136295163],[115.70729725752297,-7.0072756230629869]]],[[[115.70728769046077,-7.0072216221335202],[115.70728759981537,-7.0072126068841705],[115.70726955344297,-7.0072127880150692],[115.70726964408804,-7.0072218032646534],[115.70728769046077,-7.0072216221335202]]],[[[115.70693578610614,-7.0072251540664823],[115.70693560482886,-7.0072071235586044],[115.70692658163824,-7.0072072141173107],[115.70692676291519,-7.0072252446254248],[115.70693578610614,-7.0072251540664823]]],[[[115.70737765037627,-7.007193670722998],[115.70737746908281,-7.0071756402266203],[115.70736844589855,-7.0071757307934073],[115.70736862719164,-7.0071937612900186],[115.70737765037627,-7.007193670722998]]],[[[115.70778314963407,-7.0071355035715879],[115.70778305898027,-7.0071264883286686],[115.70777403580226,-7.007126578902608],[115.7077741264559,-7.0071355941456455],[115.70778314963407,-7.0071355035715879]]],[[[115.70857727951537,-7.0071365476134035],[115.70857709817733,-7.0071185171482782],[115.70856807500984,-7.0071186077373584],[115.70856816567861,-7.0071276229700423],[115.70855914251084,-7.0071277135590657],[115.70855923317957,-7.0071367287918616],[115.70857727951537,-7.0071365476134035]]],[[[115.7086041676791,-7.0071182453800072],[115.70860407700972,-7.0071092301477744],[115.70859505384276,-7.0071093207372517],[115.70859514451193,-7.0071183359696034],[115.7086041676791,-7.0071182453800072]]],[[[115.70778296832657,-7.0071174730857271],[115.70778287767301,-7.0071084578428149],[115.70777385449536,-7.007108548416519],[115.70777394514874,-7.0071175636595493],[115.70778296832657,-7.0071174730857271]]],[[[115.7085770075085,-7.0071095019156919],[115.70857691683976,-7.0071004866831332],[115.70856789367262,-7.0071005772719781],[115.70856798434114,-7.0071095925046532],[115.7085770075085,-7.0071095019156919]]],[[[115.70830613110986,-7.0070941890375087],[115.70830604044654,-7.0070851738013946],[115.70829701727615,-7.0070852643848411],[115.7082971079393,-7.0070942796210742],[115.70830613110986,-7.0070941890375087]]],[[[115.70860398634049,-7.0071002149155692],[115.70860371433349,-7.0070731692188764],[115.70858566800084,-7.0070733503967189],[115.70858594000678,-7.0071003960941169],[115.70860398634049,-7.0071002149155692]]],[[[115.70825144811279,-7.0070406411153288],[115.70825126678979,-7.0070226106416449],[115.70824224361988,-7.0070227012232378],[115.70824242494254,-7.0070407316971561],[115.70825144811279,-7.0070406411153288]]],[[[115.70832336148202,-7.007012870746788],[115.70832318015695,-7.0069948402749427],[115.70831415698852,-7.0069949308575588],[115.70831433831322,-7.0070129613296386],[115.70832336148202,-7.007012870746788]]],[[[115.7082961106513,-7.0069951120222704],[115.70829601998949,-7.0069860967859885],[115.70828699682085,-7.0069861873679695],[115.7082870874825,-7.0069952026043705],[115.7082961106513,-7.0069951120222704]]],[[[115.70724924099088,-7.0069875878982888],[115.70724915034924,-7.0069785726483502],[115.70723110398484,-7.0069787537717536],[115.70723119462612,-7.0069877690219284],[115.70724924099088,-7.0069875878982888]]],[[[115.70834104516818,-7.0069766286378039],[115.70834086384342,-7.0069585981663938],[115.70832281750829,-7.0069587793311969],[115.70832299883239,-7.0069768098030796],[115.70834104516818,-7.0069766286378039]]],[[[115.70901651297177,-7.0068436212665004],[115.70901660364559,-7.0068526364934218],[115.7090256268021,-7.0068525458991529],[115.70902553612812,-7.0068435306723487],[115.70901651297177,-7.0068436212665004]]],[[[115.70901651297177,-7.0068436212665004],[115.70901624095107,-7.0068165755856588],[115.70900721779512,-7.0068166661792857],[115.70900730846837,-7.0068256814063545],[115.70899828531215,-7.0068257719999272],[115.70899837598536,-7.0068347872271088],[115.7090073991418,-7.006834696633419],[115.70900748981529,-7.0068437118604789],[115.70901651297177,-7.0068436212665004]]],[[[115.70888982608591,-7.0068088286521872],[115.70888973541511,-7.0067998134235623],[115.70888071225784,-7.0067999040145423],[115.70888080292846,-7.0068089192432863],[115.70888982608591,-7.0068088286521872]]],[[[115.70892591871454,-7.0068084662860644],[115.70892582804306,-7.0067994510579119],[115.70891680488624,-7.0067995416495821],[115.70891689555755,-7.0068085568778544],[115.70892591871454,-7.0068084662860644]]],[[[115.70823970515278,-7.0067702745861862],[115.70823961449496,-7.0067612593490827],[115.70823059132995,-7.0067613499270891],[115.70823068198756,-7.0067703651643107],[115.70823970515278,-7.0067702745861862]]],[[[115.70878100417796,-7.0067558243538244],[115.70878082284206,-7.0067377938937234],[115.70877179968453,-7.0067378844818187],[115.70877198102011,-7.0067559149421532],[115.70878100417796,-7.0067558243538244]]],[[[115.70432318731143,-7.0067644928861306],[115.70431416409524,-7.0067645833889998],[115.70431461700859,-7.0068096598303855],[115.7042965705741,-7.0068098408367829],[115.70429693290556,-7.0068459019907463],[115.70428790968745,-7.0068459924941582],[115.70428809085355,-7.0068640230713468],[115.70430613729033,-7.0068638420638836],[115.70430595612355,-7.006845811487163],[115.70432400255915,-7.0068456304794804],[115.70432436489457,-7.0068816916319596],[115.70433338811291,-7.0068816011273896],[115.7043330257768,-7.0068455399753793],[115.70434204899431,-7.0068454494711077],[115.7043416866594,-7.0068093883194953],[115.7043326634426,-7.0068094788232971],[115.70433257285936,-7.0068004635352654],[115.70432354964257,-7.0068005540387768],[115.70432318731143,-7.0067644928861306]],[[115.70431479817476,-7.0068276904069053],[115.70432382139217,-7.0068275999032137],[115.70432391197561,-7.0068366151913484],[115.70431488875803,-7.0068367056951582],[115.70431479817476,-7.0068276904069053]]],[[[115.70473807394691,-7.0067422990026129],[115.7047381645372,-7.006751314285383],[115.70474718774763,-7.0067512237745442],[115.70474709715718,-7.0067422084918922],[115.70473807394691,-7.0067422990026129]]],[[[115.70473807394691,-7.0067422990026129],[115.70473798335675,-7.0067332837198233],[115.70471993693629,-7.0067334647405133],[115.70472002752609,-7.0067424800235383],[115.70473807394691,-7.0067422990026129]]],[[[115.70733675355928,-7.0067162248048662],[115.70733666291953,-7.0067072095559464],[115.70732763974375,-7.0067073001159272],[115.70732773038333,-7.0067163153649634],[115.70733675355928,-7.0067162248048662]]],[[[115.70469268612636,-7.0067157057035381],[115.70469259553742,-7.0067066904201614],[115.70468357232714,-7.0067067809293784],[115.70468366291594,-7.0067157962128732],[115.70469268612636,-7.0067157057035381]]],[[[115.70472877896694,-7.0067153436644736],[115.70472868837732,-7.0067063283815703],[115.7047106419576,-7.0067065094012086],[115.70471073254689,-7.00671552468435],[115.70472877896694,-7.0067153436644736]]],[[[115.70479194143336,-7.0067147100894909],[115.70479185084254,-7.0067056948074082],[115.70478282763357,-7.0067057853185188],[115.70478291822424,-7.0067148006007187],[115.70479194143336,-7.0067147100894909]]],[[[115.70482785308573,-7.00669631747963],[115.70481882987745,-7.0066964079913117],[115.70481873928634,-7.006687392709555],[115.70480971607807,-7.0066874832209463],[115.70480998785129,-7.0067145290665183],[115.70481901106004,-7.0067144385547744],[115.70481892046868,-7.0067054232730444],[115.70482794367717,-7.0067053327612463],[115.70482785308573,-7.00669631747963]]],[[[115.70482785308573,-7.00669631747963],[115.70483687629395,-7.0066962269677759],[115.70483678570248,-7.0066872116862555],[115.70482776249446,-7.0066873021979923],[115.70482785308573,-7.00669631747963]]],[[[115.70483678570248,-7.0066872116862555],[115.70484580891036,-7.00668712117435],[115.70484562772748,-7.0066690906115792],[115.70483660451993,-7.006669181123252],[115.70483678570248,-7.0066872116862555]]],[[[115.70757044965511,-7.006623717723321],[115.70757035901207,-7.0066147024774494],[115.70755231267007,-7.0066148836038282],[115.70755240331275,-7.0066238988499361],[115.70757044965511,-7.006623717723321]]],[[[115.70474573831466,-7.0066069792515657],[115.70474564772613,-7.00659796396884],[115.70473662451863,-7.0065980544776796],[115.70473671510699,-7.0066070697605225],[115.70474573831466,-7.0066069792515657]]],[[[115.7047454665494,-7.0065799334033754],[115.70473644334223,-7.0065800239119804],[115.70473653393037,-7.0065890391948322],[115.7047455571377,-7.0065889486861099],[115.7047454665494,-7.0065799334033754]]],[[[115.70528694935808,-7.0065835178479716],[115.70528685875945,-7.006574502572291],[115.70527783555947,-7.0065745930912176],[115.70527792615793,-7.0065836083670163],[115.70528694935808,-7.0065835178479716]]],[[[115.7047454665494,-7.0065799334033754],[115.70475448975641,-7.0065798428945998],[115.70475439916805,-7.006570827611978],[115.7047453759612,-7.0065709181206364],[115.7047454665494,-7.0065799334033754]]],[[[115.70475439916805,-7.006570827611978],[115.7047634223748,-7.0065707371031465],[115.70476333178638,-7.0065617218206375],[115.70475430857981,-7.0065618123293527],[115.70475439916805,-7.006570827611978]]],[[[115.70477217381601,-7.0065436007469568],[115.70476315060993,-7.0065436912556072],[115.70476324119808,-7.006552706538125],[115.70477226440435,-7.0065526160293574],[115.70477217381601,-7.0065436007469568]]],[[[115.70477217381601,-7.0065436007469568],[115.70478119702197,-7.006543510238135],[115.70478110643357,-7.0065344949558481],[115.70477208322778,-7.0065345854645527],[115.70477217381601,-7.0065436007469568]]],[[[115.70525942676788,-7.0065387130243799],[115.70525924557295,-7.0065206824722486],[115.70523217597467,-7.0065209540248459],[115.70523235716858,-7.0065389845776851],[115.70525942676788,-7.0065387130243799]]],[[[115.7055292166802,-7.0064458446806972],[115.70552912607872,-7.0064368294081225],[115.70552010288453,-7.0064369199299312],[115.70552019348587,-7.0064459352026223],[115.7055292166802,-7.0064458446806972]]],[[[115.7054651483198,-7.0063563255963688],[115.70546505772072,-7.0063473103229423],[115.70545603452744,-7.006347400842369],[115.70545612512635,-7.0063564161159135],[115.7054651483198,-7.0063563255963688]]],[[[115.70874640970837,-7.0060078319792902],[115.70874631905079,-7.0059988167485052],[115.70873729590704,-7.0059989073264344],[115.70873738656445,-7.0060079225573357],[115.70874640970837,-7.0060078319792902]]],[[[115.70872564375543,-7.0057375562026118],[115.70872555310179,-7.0057285409714529],[115.70871652996297,-7.005728631545507],[115.70871662061643,-7.0057376467767822],[115.70872564375543,-7.0057375562026118]]],[[[115.70485407209534,-7.005713289758595],[115.70485398151638,-7.0057042744769422],[115.70483593513848,-7.00570445547564],[115.70483602571709,-7.0057134707575299],[115.70485407209534,-7.005713289758595]]],[[[115.70452670122168,-7.0054641196275593],[115.70452661065227,-7.0054551043415421],[115.70451758746387,-7.0054551948314927],[115.70451767803311,-7.0054642101176272],[115.70452670122168,-7.0054641196275593]]],[[[115.70453554327105,-7.0054459985655342],[115.70453545270171,-7.0054369832796111],[115.70452642951379,-7.0054370737694978],[115.70452652008296,-7.0054460890555399],[115.70453554327105,-7.0054459985655342]]],[[[115.70462523172066,-7.0053910019475483],[115.70462514115029,-7.0053819866627896],[115.70461611796462,-7.0053820771536914],[115.7046162085348,-7.0053910924385692],[115.70462523172066,-7.0053910019475483]]],[[[115.70457100203441,-7.0053825296056225],[115.70457091146523,-7.0053735143201514],[115.70457993465132,-7.0053734238302283],[115.70457984408208,-7.0053644085448701],[115.70456179771008,-7.005364589524314],[115.70456197884802,-7.0053826200954914],[115.70457100203441,-7.0053825296056225]]],[[[115.71101261970207,-7.0052277239176055],[115.71101252901116,-7.0052187087160798],[115.71100350591203,-7.0052187993274666],[115.71100359660277,-7.0052278145291114],[115.71101261970207,-7.0052277239176055]]],[[[115.70720386436795,-7.0051667789306924],[115.707203773751,-7.0051577636794677],[115.70719475060329,-7.0051578542169768],[115.70719484122007,-7.0051668694683196],[115.70720386436795,-7.0051667789306924]]],[[[115.70720368313418,-7.0051487484282386],[115.70720359251744,-7.0051397331770042],[115.70719456937007,-7.0051398237142788],[115.70719465998663,-7.0051488389656296],[115.70720368313418,-7.0051487484282386]]],[[[115.70929695947802,-7.0051187238807229],[115.70930598259754,-7.0051186333033728],[115.70930580128427,-7.0051006028557241],[115.70933287064108,-7.005100331123348],[115.70933277998409,-7.00509131589987],[115.7092966875088,-7.0050916782088883],[115.70929677816508,-7.0051006934328379],[115.70928775504578,-7.0051007840097803],[115.70928811767145,-7.0051368449060041],[115.70930616391132,-7.0051366637510055],[115.70930607325437,-7.0051276485271927],[115.70929705013467,-7.0051277391046574],[115.70929695947802,-7.0051187238807229]]],[[[115.70942246721428,-7.0050363187813769],[115.7094223765564,-7.005027303559026],[115.70941335344018,-7.0050273941374339],[115.70941344409786,-7.0050364093599029],[115.70942246721428,-7.0050363187813769]]],[[[115.70938601211992,-7.0050006202032034],[115.70938583080662,-7.0049825897575682],[115.70937680769075,-7.0049826803347006],[115.70937689834716,-7.0049916955576297],[115.70936787523101,-7.004991786134708],[115.70936796588735,-7.0050008013577658],[115.70938601211992,-7.0050006202032034]]],[[[115.71102758246477,-7.0049210258481498],[115.71102767315207,-7.0049300410495769],[115.71103669624536,-7.0049299504414408],[115.71103660555789,-7.0049209352401318],[115.71102758246477,-7.0049210258481498]]],[[[115.70958397668512,-7.0049445361361267],[115.70958379536569,-7.0049265056956003],[115.7095747722535,-7.0049265962758085],[115.70957495357258,-7.0049446267165738],[115.70958397668512,-7.0049445361361267]]],[[[115.71102758246477,-7.0049210258481498],[115.71102749177759,-7.0049120106467182],[115.71101846868451,-7.0049121012544475],[115.71101855937151,-7.0049211164559964],[115.71102758246477,-7.0049210258481498]]],[[[115.70684076375031,-7.004954034157981],[115.70684067314311,-7.0049450189019407],[115.70683164999474,-7.0049451094297446],[115.70683174060177,-7.0049541246859048],[115.70684076375031,-7.004954034157981]]],[[[115.70693081401141,-7.0049350983595566],[115.70693072340273,-7.0049260831046833],[115.70693974654948,-7.0049259925752212],[115.70693965594074,-7.0049169773204598],[115.70692160964754,-7.0049171583789756],[115.70692170025592,-7.0049261736339732],[115.70691267710895,-7.0049262641630916],[115.70691276771731,-7.0049352794182012],[115.70693081401141,-7.0049350983595566]]],[[[115.71164033623859,-7.0048337273700838],[115.71164024554078,-7.0048247121766165],[115.7116312224574,-7.0048248027949818],[115.71163131315504,-7.0048338179885663],[115.71164033623859,-7.0048337273700838]]],[[[115.7100430672517,-7.0048317337339379],[115.71004288591759,-7.0048137033053219],[115.71002483970938,-7.0048138844802885],[115.71002493037602,-7.0048228996948261],[115.71000688416703,-7.0048230808693397],[115.71000697483348,-7.004832096084125],[115.7100430672517,-7.0048317337339379]]],[[[115.71023228040424,-7.0048027857147721],[115.71023218973389,-7.004793770502916],[115.71021414353142,-7.0047939516846345],[115.71021423420144,-7.0048029668967269],[115.71023228040424,-7.0048027857147721]]],[[[115.70935722032387,-7.0048296026936487],[115.70935703901617,-7.0048115722471165],[115.70936606212902,-7.0048114816725633],[115.70936588082145,-7.0047934512262486],[115.70935685770894,-7.0047935418005656],[115.7093569483625,-7.0048025570238428],[115.70932987902381,-7.004802828746115],[115.70932996967694,-7.0048118439697395],[115.70932094656364,-7.0048119345436053],[115.70932139983037,-7.0048570106622572],[115.70933042294453,-7.0048569200878035],[115.70933051359842,-7.0048659353113862],[115.70933953671263,-7.0048658447366448],[115.70933962736682,-7.0048748599601369],[115.70934865048109,-7.0048747693851041],[115.70934846917253,-7.0048567389383818],[115.70936651540002,-7.0048565577882735],[115.70936633409126,-7.0048385273420033],[115.70937535720448,-7.004838436766927],[115.7093752665501,-7.0048294215439029],[115.70935722032387,-7.0048296026936487],[115.70935740163205,-7.0048476331401632],[115.70933935540465,-7.0048478142896942],[115.70933926475085,-7.0048387990662029],[115.70934828786444,-7.0048387084916435],[115.70934819721059,-7.0048296932682641],[115.70935722032387,-7.0048296026936487]]],[[[115.70691149921142,-7.004809065846251],[115.70689345292165,-7.0048092469009138],[115.70689354352807,-7.0048182621563182],[115.70690256667321,-7.0048181716289548],[115.70690274788679,-7.0048362021395159],[115.70691177103213,-7.0048361116117448],[115.70691149921142,-7.004809065846251]]],[[[115.70720917231147,-7.0047970630937311],[115.70720908169925,-7.0047880478424176],[115.70720005855871,-7.0047881383752753],[115.70720014917076,-7.004797153626706],[115.70720917231147,-7.0047970630937311]]],[[[115.70702834704005,-7.0047628127059109],[115.70702825643174,-7.0047537974522429],[115.70701923328949,-7.0047538879811908],[115.70701932389761,-7.0047629032349752],[115.70702834704005,-7.0047628127059109]]],[[[115.7075238041333,-7.0046766961175271],[115.70752371351661,-7.0046676808703054],[115.7075146903825,-7.0046677714076537],[115.70751478099901,-7.0046767866549926],[115.7075238041333,-7.0046766961175271]]],[[[115.71126658080581,-7.0044588042545],[115.71126649012007,-7.0044497890560109],[115.71124844395786,-7.0044499702685759],[115.71124853464325,-7.0044589854673003],[115.71126658080581,-7.0044588042545]]],[[[115.70981377252917,-7.0044643744661412],[115.70981368187125,-7.004455359248694],[115.70980465877113,-7.0044554498272547],[115.70980474942887,-7.00446446504482],[115.70981377252917,-7.0044643744661412]]],[[[115.71111164681713,-7.0043070861324166],[115.71110262373678,-7.0043071767339775],[115.71110271441749,-7.0043161919346577],[115.71111173749803,-7.0043161013329787],[115.71111164681713,-7.0043070861324166]]],[[[115.71111164681713,-7.0043070861324166],[115.71112066989734,-7.0043069955306834],[115.71112057921638,-7.0042979803302323],[115.71111155613636,-7.0042980709318474],[115.71111164681713,-7.0043070861324166]]],[[[115.70657256934037,-7.0043075607055583],[115.70657247874674,-7.0042985454457742],[115.70656345560731,-7.0042986359601231],[115.70656354620075,-7.0043076512200253],[115.70657256934037,-7.0043075607055583]]],[[[115.70632885393984,-7.004300989272819],[115.706328763351,-7.0042919740098544],[115.70631974020851,-7.0042920645194391],[115.70631983079717,-7.0043010797825227],[115.70632885393984,-7.004300989272819]]],[[[115.70648206616353,-7.0042814200595851],[115.70648188498059,-7.0042633895376305],[115.70647286184065,-7.00426348004979],[115.70647304302324,-7.0042815105719773],[115.70648206616353,-7.0042814200595851]]],[[[115.70629221784132,-7.0042472597299241],[115.70628319469922,-7.0042473502382361],[115.70628328528657,-7.0042563655018117],[115.70627426214419,-7.0042564560100695],[115.70627435273153,-7.004265471273758],[115.70628337587409,-7.004265380765383],[115.70628346646171,-7.0042743960289329],[115.70629248960435,-7.0042743055202692],[115.70629258019225,-7.0042833207837303],[115.70630160333495,-7.0042832302747762],[115.70630169392315,-7.0042922455380987],[115.70631071706589,-7.004292155028855],[115.70631053588926,-7.0042741245024249],[115.70630151274688,-7.0042742150114332],[115.7063014221589,-7.0042651997481187],[115.70629239901656,-7.0042652902568365],[115.70629221784132,-7.0042472597299241]]],[[[115.70625612527216,-7.0042476217621381],[115.70625603468541,-7.0042386064982045],[115.706247011543,-7.00423869700571],[115.70624710212957,-7.0042477122697617],[115.70625612527216,-7.0042476217621381]]],[[[115.709919420633,-7.0042018462417293],[115.70991932997647,-7.0041928310255797],[115.70991030688276,-7.0041929216027894],[115.7099103975391,-7.004201936819058],[115.709919420633,-7.0042018462417293]]],[[[115.70626469548124,-7.004202454935216],[115.7062645143087,-7.0041844244075353],[115.70625549116744,-7.0041845149145061],[115.70625567233962,-7.0042025454424248],[115.70626469548124,-7.004202454935216]]],[[[115.7110168822021,-7.0038572320473342],[115.71098981298297,-7.0038575038286792],[115.71098990365566,-7.0038665190310212],[115.71099892672899,-7.0038664284372931],[115.71099901740195,-7.0038754436394957],[115.71101706354861,-7.003875262451289],[115.7110168822021,-7.0038572320473342]]],[[[115.70471874821456,-7.0039204247951847],[115.70471856710878,-7.003902394226996],[115.70470954395273,-7.0039024847006788],[115.70470972505817,-7.003920515269102],[115.70471874821456,-7.0039204247951847]]],[[[115.70829154625847,-7.0038485226552503],[115.70829136501733,-7.0038304921801648],[115.70828234190932,-7.0038305827214788],[115.7082825231501,-7.0038486131967987],[115.70829154625847,-7.0038485226552503]]],[[[115.71096147436501,-7.0037315627705166],[115.71096129302441,-7.0037135323650181],[115.71095226995352,-7.0037136229560559],[115.71095245129379,-7.0037316533617906],[115.71096147436501,-7.0037315627705166]]],[[[115.70762238620563,-7.0037109783248725],[115.70762229559965,-7.0037019630785506],[115.70761327248537,-7.0037020536053749],[115.70761336309116,-7.0037110688518123],[115.70762238620563,-7.0037109783248725]]],[[[115.70865092984319,-7.0036916418934823],[115.70865083921773,-7.0036826266605718],[115.70864181611725,-7.0036827172068792],[115.70864190674256,-7.0036917324399086],[115.70865092984319,-7.0036916418934823]]],[[[115.7079466745748,-7.0036536277878945],[115.70793765146567,-7.0036537183203196],[115.70793774207708,-7.0036627335625479],[115.70794676518639,-7.0036626430300029],[115.7079466745748,-7.0036536277878945]]],[[[115.7079466745748,-7.0036536277878945],[115.70796472079266,-7.0036534467225282],[115.70796463018087,-7.003644431480649],[115.70794658396335,-7.0036446125457825],[115.7079466745748,-7.0036536277878945]]],[[[115.70798276701004,-7.0036532656564727],[115.70798267639789,-7.0036442504148306],[115.70797365328944,-7.003644340947826],[115.70797374390141,-7.0036533561895853],[115.70798276701004,-7.0036532656564727]]],[[[115.70913754265965,-7.0036236455450336],[115.70913763329368,-7.0036326607716344],[115.70914665638672,-7.0036325702164541],[115.70914656575252,-7.0036235549899715],[115.70913754265965,-7.0036236455450336]]],[[[115.70913754265965,-7.0036236455450336],[115.7091374520257,-7.0036146303184603],[115.70911940583997,-7.0036148114278314],[115.70911949647358,-7.0036238266546409],[115.70913754265965,-7.0036236455450336]]],[[[115.70911940583997,-7.0036148114278314],[115.70911922457317,-7.0035967809741679],[115.70911020148044,-7.0035968715283605],[115.70911038274693,-7.0036149019822602],[115.70911940583997,-7.0036148114278314]]],[[[115.71092402204673,-7.003596697085821],[115.71092384071108,-7.0035786666792417],[115.71091481764226,-7.0035787572678263],[115.71091499897757,-7.003596787674641],[115.71092402204673,-7.003596697085821]]],[[[115.70907401847604,-7.0035882185159828],[115.70907410910843,-7.0035972337434105],[115.70909215529468,-7.0035970526362297],[115.70909206466195,-7.0035880374090382],[115.70907401847604,-7.0035882185159828]]],[[[115.70820780099011,-7.0035969108404741],[115.70820771037438,-7.0035878956017612],[115.70818966416537,-7.0035880766747676],[115.70818975478076,-7.0035970919137149],[115.70820780099011,-7.0035969108404741]]],[[[115.70907401847604,-7.0035882185159828],[115.70907392784383,-7.0035792032885684],[115.70905588165778,-7.0035793843945919],[115.70905597228966,-7.0035883996222417],[115.70907401847604,-7.0035882185159828]]],[[[115.70911002021445,-7.0035788410744599],[115.70910992958164,-7.0035698258474772],[115.70910090648934,-7.0035699164011449],[115.70910099712199,-7.0035789316282466],[115.70911002021445,-7.0035788410744599]]],[[[115.70802697642675,-7.0035626605775771],[115.70802688581497,-7.0035536453364777],[115.70801786270881,-7.0035537358691577],[115.70801795332045,-7.0035627511103735],[115.70802697642675,-7.0035626605775771]]],[[[115.70910965768391,-7.0035427801665531],[115.70910956705157,-7.0035337649395695],[115.70909152086818,-7.003533946045791],[115.70909161150018,-7.00354296127301],[115.70910965768391,-7.0035427801665531]]],[[[115.70803581830913,-7.0035445395626379],[115.70803572769739,-7.0035355243216468],[115.7080267045917,-7.0035356148542629],[115.70802679520328,-7.0035446300953721],[115.70803581830913,-7.0035445395626379]]],[[[115.70744922557977,-7.003541408583982],[115.70744913497933,-7.0035323933353402],[115.70744011186606,-7.0035324838566586],[115.70744020246633,-7.0035414991054221],[115.70744922557977,-7.003541408583982]]],[[[115.70842353989048,-7.003513600784621],[115.70841451679028,-7.0035136913243941],[115.70841478864682,-7.0035407370325586],[115.708405765546,-7.0035408275725137],[115.70840567492722,-7.0035318123363481],[115.70839665182643,-7.0035319028760137],[115.7083968330638,-7.0035499333485784],[115.70838780996256,-7.0035500238883088],[115.70838790058124,-7.0035590391247018],[115.70839692368264,-7.0035589485848559],[115.70839701430162,-7.0035679638211272],[115.70840603740311,-7.0035678732809892],[115.70840594678396,-7.0035588580448351],[115.70841496988513,-7.0035587675046447],[115.7084151511239,-7.003576797976713],[115.70843319732656,-7.0035766168953435],[115.70843310670678,-7.0035676016595483],[115.70842408360569,-7.0035676922001988],[115.70842381174755,-7.0035406464924304],[115.70843283484814,-7.0035405559521307],[115.70843274422882,-7.0035315407163168],[115.70842372112841,-7.0035316312564984],[115.70842353989048,-7.003513600784621]]],[[[115.70802643275773,-7.003508569130906],[115.70802634214662,-7.0034995538897782],[115.70801731904155,-7.0034996444217521],[115.70801740965244,-7.0035086596629972],[115.70802643275773,-7.003508569130906]]],[[[115.71066992547104,-7.003454990201889],[115.71066983480988,-7.0034459749952136],[115.71066081174034,-7.0034460655772177],[115.71066090240132,-7.0034550807840095],[115.71066992547104,-7.003454990201889]]],[[[115.70484993011499,-7.0035043646735087],[115.70484983956496,-7.0034953493909775],[115.70484909133232,-7.003495356893171],[115.70484676918598,-7.003504396366762],[115.70484993011499,-7.0035043646735087]]],[[[115.7077100803732,-7.0034576461802205],[115.70770998976884,-7.0034486309349475],[115.70770096666058,-7.0034487214601944],[115.70770105726476,-7.0034577367055855],[115.7077100803732,-7.0034576461802205]]],[[[115.70485868161124,-7.0034772283549565],[115.70485859106141,-7.0034682130725132],[115.70485605777138,-7.0034682384726237],[115.70485373562501,-7.0034772779460921],[115.70485868161124,-7.0034772283549565]]],[[[115.71087588074295,-7.0034078420097083],[115.71086797965134,-7.0034079213313216],[115.71086825164508,-7.0034349669435665],[115.71087727471172,-7.0034348763577237],[115.71087736537672,-7.0034438915616626],[115.71089541150997,-7.00344371038923],[115.71089550217542,-7.0034527255929602],[115.71090452524203,-7.0034526350063686],[115.71090461590779,-7.0034616502099594],[115.710895592841,-7.0034617407966708],[115.71089568350668,-7.0034707560003771],[115.71090470657364,-7.0034706654135475],[115.71090497857196,-7.0034977110242815],[115.71088693243688,-7.0034978921984745],[115.71088702310288,-7.0035069074022775],[115.71089604617067,-7.0035068168151504],[115.71089613683696,-7.0035158320188335],[115.71090515990477,-7.0035157414314169],[115.71090525057137,-7.0035247566349774],[115.71089622750335,-7.0035248472225113],[115.7108963181699,-7.0035338624261838],[115.71090534123806,-7.0035337718385309],[115.71090561323889,-7.0035608174491877],[115.71093268244424,-7.003560545684139],[115.71093304511574,-7.0035966064968296],[115.71094206818464,-7.0035965159076641],[115.71094215885299,-7.0036055311106944],[115.71095118192193,-7.0036054405212411],[115.71095127259058,-7.0036144557241835],[115.71094224952147,-7.003614546313754],[115.71094234019006,-7.0036235615167932],[115.71095136325934,-7.0036234709271055],[115.7109514539282,-7.0036324861300194],[115.71094243085876,-7.0036325767198262],[115.71094261219653,-7.0036506071258628],[115.71095163526633,-7.0036505165358216],[115.71095190727442,-7.0036775621445306],[115.71094288420409,-7.0036776527349263],[115.7109429748735,-7.0036866679379326],[115.71095199794401,-7.0036865773474188],[115.71095217928357,-7.0037046077531819],[115.71096120235428,-7.0037045171622605],[115.71096111168427,-7.0036955019594993],[115.71098818089521,-7.0036952301860573],[115.71098827156572,-7.0037042453884659],[115.71099729463597,-7.0037041547968579],[115.7109973853068,-7.003713169999144],[115.71100640837707,-7.0037130794072455],[115.71100668039075,-7.0037401250137226],[115.71101570346147,-7.0037400344212974],[115.7110157941331,-7.0037490496233286],[115.71100677106223,-7.0037491402158691],[115.71100695240553,-7.0037671706201721],[115.71099792933421,-7.0037672612127766],[115.71099820134953,-7.0037943068195068],[115.71101624749311,-7.0037941256334184],[115.71101642883792,-7.0038121560374043],[115.71102545190986,-7.0038120654438671],[115.71102536123723,-7.003803050242003],[115.71105243045183,-7.0038027784607122],[115.71105288381887,-7.0038478544683089],[115.71103483767418,-7.0038480356571853],[115.71103456565464,-7.0038209900519339],[115.71101651951052,-7.0038211712394167],[115.71101670085609,-7.0038392016433937],[115.71102572392853,-7.0038391110495022],[115.71102590527489,-7.0038571414532065],[115.71103492834762,-7.0038570508589091],[115.71103547239063,-7.0039111420692741],[115.71101742624307,-7.0039113232591115],[115.71101751691698,-7.0039203384610538],[115.711026539991,-7.0039202478661045],[115.7110266306652,-7.0039292630679268],[115.71103565373927,-7.0039291724726871],[115.71103601643797,-7.0039652332794562],[115.7110450395126,-7.0039651426835743],[115.71104522086303,-7.0039831730866959],[115.71105424393785,-7.0039830824904064],[115.71105487866927,-7.0040461889003627],[115.71106390174525,-7.0040460983030748],[115.71106408309849,-7.0040641287056253],[115.71107310617465,-7.0040640381079324],[115.71107319685163,-7.0040730533091073],[115.71108221992786,-7.0040729627111249],[115.71108240128252,-7.0040909931131932],[115.71107337820594,-7.0040910837114145],[115.7110734688833,-7.0041000989125566],[115.71108249196004,-7.0041000083142224],[115.71108258263764,-7.0041090235152437],[115.71109160571444,-7.0041089329166182],[115.71109169639236,-7.0041179481175186],[115.71108267331542,-7.0041180387162623],[115.71108285467128,-7.0041360691182852],[115.71107383159382,-7.0041361597170928],[115.71107410362799,-7.004163205320447],[115.71109214978377,-7.0041630241219535],[115.71109224046239,-7.0041720393228246],[115.71110126354029,-7.0041719487232035],[115.71110144489826,-7.0041899791246998],[115.71111046797637,-7.0041898885246701],[115.71111055865572,-7.0041989037252934],[115.71112860481188,-7.0041987225244817],[115.71112869549167,-7.0042077377248653],[115.71117381088092,-7.0042072847192376],[115.71117390156169,-7.0042162999190278],[115.71118292463937,-7.0042162093172697],[115.71118301532044,-7.0042252245169196],[115.71117399224262,-7.0042253151187985],[115.71117408292363,-7.0042343303185941],[115.71116505984553,-7.004234420920417],[115.71116496916466,-7.0042254057205025],[115.7111469230084,-7.004225586923396],[115.71114710436953,-7.0042436173236755],[115.71111101205422,-7.0042439797283427],[115.71111110273428,-7.0042529949289367],[115.71108403349599,-7.0042532667309843],[115.71108421485543,-7.0042712971328509],[115.71107519177542,-7.0042713877334259],[115.71107528245514,-7.0042804029344952],[115.71110235169533,-7.004280131131905],[115.71110226101507,-7.0042711159311875],[115.7110932379353,-7.0042712065321062],[115.71109314725535,-7.0042621913313008],[115.71111119341444,-7.0042620101295281],[115.71111137477516,-7.0042800405306966],[115.7111384440139,-7.0042797687260432],[115.71113835333298,-7.0042707535257973],[115.71114737641214,-7.0042706629240197],[115.71114746709324,-7.0042796781241492],[115.71115649017247,-7.0042795875220802],[115.71115658085388,-7.0042886027220694],[115.71114755777447,-7.0042886933242547],[115.71114773913727,-7.0043067237244534],[115.71113871605743,-7.0043068143267018],[115.71113880673884,-7.0043158295269121],[115.71114782981886,-7.0043157389245456],[115.71114792050057,-7.0043247541246343],[115.71116596666062,-7.0043245729191508],[115.71116623870748,-7.0043516185186805],[115.7112113541081,-7.0043511655001947],[115.71121126342481,-7.0043421503009613],[115.71123833266323,-7.0043418784881597],[115.71123842334703,-7.0043508936870404],[115.71124744642644,-7.0043508030823105],[115.71124780916347,-7.0043868638773965],[115.71125683224344,-7.0043867732720253],[115.71125692292814,-7.0043957884706476],[115.71126594600817,-7.0043956978649868],[115.71126621806359,-7.0044227434605197],[115.71127524114401,-7.0044226528543323],[115.71127515045859,-7.0044136376559436],[115.71128417353871,-7.0044135470497038],[115.71128408285324,-7.004404531851427],[115.71129310593308,-7.0044044412451321],[115.71129319661874,-7.0044134564432889],[115.71130221969861,-7.0044133658367045],[115.71130231038457,-7.0044223810347406],[115.71131133346451,-7.0044222904278657],[115.71131169621016,-7.0044583512194922],[115.7113477885315,-7.0044579887883884],[115.71134769784422,-7.0044489735909607],[115.71135672092409,-7.0044488829828726],[115.71135644886242,-7.004421837390912],[115.71136547194168,-7.004421746783005],[115.71136556262893,-7.0044307619801955],[115.71137458570819,-7.004430671371999],[115.71137467639575,-7.0044396865690999],[115.71138369947509,-7.0044395959606156],[115.71138379016293,-7.004448611157577],[115.71139281324234,-7.0044485205488014],[115.71139290393049,-7.004457535745642],[115.7114019270099,-7.0044574451365742],[115.71140201769836,-7.0044664603332931],[115.71141104077785,-7.0044663697239375],[115.71141113146658,-7.004475384920517],[115.71144722378401,-7.0044750224809045],[115.71144713309461,-7.0044660072847966],[115.71148322540947,-7.004465644842905],[115.71148331609956,-7.0044746600385404],[115.71150136225658,-7.004474478816328],[115.71150145294715,-7.0044834940117573],[115.71151047602569,-7.0044834034002736],[115.71151056671654,-7.0044924185955644],[115.71152861287356,-7.0044922373718492],[115.71152870356489,-7.0045012525668984],[115.71153772664339,-7.004501161954666],[115.71153781733503,-7.0045101771495926],[115.71155586349201,-7.0045099959243728],[115.71155595418408,-7.0045190111190614],[115.71156497726258,-7.0045189205060758],[115.71156515864742,-7.0045369508952033],[115.71157418172615,-7.0045368602818092],[115.71157445380487,-7.0045639058651137],[115.71160152304184,-7.0045636340228414],[115.7116016137355,-7.0045726492169127],[115.71159259065645,-7.0045727398312927],[115.7115928627376,-7.0045997854138333],[115.7116018858172,-7.0045996947991007],[115.71160206720558,-7.0046177251872024],[115.71161109028534,-7.0046176345720621],[115.7116111809799,-7.0046266497659877],[115.71162922713947,-7.0046264685349557],[115.71162931783449,-7.0046354837286247],[115.7116202947546,-7.0046355743443458],[115.71162047614463,-7.0046536047319554],[115.71162949922486,-7.0046535141159989],[115.71162958992024,-7.0046625293096731],[115.71162056683985,-7.0046626199257442],[115.71162065753515,-7.0046716351195304],[115.71161163445444,-7.0046717257355491],[115.71161172514971,-7.0046807409294303],[115.71160270206875,-7.0046808315453957],[115.71160279276394,-7.0046898467394252],[115.7116118158451,-7.0046897561233417],[115.71161190654061,-7.00469877131723],[115.71162995270292,-7.0046985900843142],[115.71162986200706,-7.0046895748906612],[115.71163888508785,-7.0046894842740617],[115.71163897578388,-7.0046984994675974],[115.71164799886475,-7.00469840885071],[115.71164808956107,-7.0047074240441223],[115.71163906648002,-7.0047075146611286],[115.71163915717629,-7.0047165298546563],[115.71164818025751,-7.0047164392375318],[115.71164827095406,-7.004725454430937],[115.71163924787268,-7.0047255450481778],[115.71163933856917,-7.0047345602416957],[115.71163031548753,-7.0047346508588832],[115.71163040618397,-7.004743666052514],[115.71162138310203,-7.0047437566696473],[115.71162156449495,-7.0047617870571299],[115.71163058757723,-7.0047616964397603],[115.71163085966801,-7.0047887420205965],[115.71164890583327,-7.0047885607846387],[115.7116487244386,-7.0047705303978898],[115.71165774752072,-7.0047704397798869],[115.71165783821816,-7.0047794549731464],[115.71167588438237,-7.0047792737363901],[115.71167579368458,-7.004770258543366],[115.71169383984798,-7.0047700773061585],[115.7116939305461,-7.0047790924989455],[115.71170295362778,-7.0047790018799656],[115.71170313502475,-7.0047970322653086],[115.71169411194273,-7.0047971228845238],[115.71169420264121,-7.0048061380772815],[115.71170322572343,-7.0048060474579499],[115.7117033164222,-7.0048150626506001],[115.71171233950444,-7.0048149720309789],[115.71171243020351,-7.0048239872235065],[115.71170340712109,-7.0048240778432467],[115.71170367921854,-7.0048511234211608],[115.71171270230147,-7.0048510328010671],[115.71171279300101,-7.0048600479935779],[115.71173083916688,-7.0048598667526383],[115.71173074846698,-7.0048508515603638],[115.71173977154957,-7.0048507609397532],[115.71173986224966,-7.0048597761319105],[115.71174888533227,-7.0048596855110121],[115.71174906673312,-7.0048777158950779],[115.71174004365015,-7.0048778065162116],[115.71174013435059,-7.0048868217083573],[115.71172208818392,-7.0048870029503467],[115.71172199748383,-7.0048779877579666],[115.71170395131702,-7.004878168999034],[115.71170404201678,-7.0048871841916469],[115.71169501893301,-7.0048872748120399],[115.71169510963271,-7.0048962900047682],[115.71168608654867,-7.0048963806251061],[115.7116861772483,-7.004905395817949],[115.71167715416397,-7.0049054864382327],[115.71167733556324,-7.0049235168241362],[115.71166831247847,-7.0049236074444838],[115.71166840317811,-7.004932622637547],[115.71167742626307,-7.0049325320170812],[115.71167751696302,-7.0049415472100227],[115.71169556313295,-7.0049413659683379],[115.71169565383336,-7.0049503811610387],[115.71168663074826,-7.0049504717820845],[115.71168672144863,-7.0049594869749141],[115.711713790704,-7.0049592151109099],[115.71171397210608,-7.004977245495799],[115.71172299519132,-7.0049771548738846],[115.71172308589273,-7.0049861700662133],[115.71171406280732,-7.0049862606882467],[115.71171415350867,-7.0049952758806864],[115.71172317659426,-7.0049951852585375],[115.71172353940153,-7.0050312460277855],[115.71171451631525,-7.0050313366504069],[115.71171469771926,-7.0050493670352223],[115.71169665154569,-7.0050495482804189],[115.71169647014239,-7.0050315178951328],[115.71168744705574,-7.0050316085172391],[115.71168726565324,-7.0050135781316802],[115.71169628873955,-7.0050134875098111],[115.7116961980383,-7.0050044723171254],[115.71168717495216,-7.0050045629388782],[115.71168708425122,-7.0049955477461037],[115.71166903807901,-7.004995728988856],[115.71166921948034,-7.0050137593749042],[115.71167824256686,-7.0050136687533771],[115.71167914958242,-7.0051038206821588],[115.71168817267055,-7.0051037300592824],[115.71168835407541,-7.005121760444748],[115.71167933098697,-7.005121851067857],[115.71167960309469,-7.0051488966463751],[115.71168287643304,-7.0051488637705956],[115.71171477200005,-7.005098286999897],[115.71186242900002,-7.0048641479999043],[115.71189546700009,-7.0047368979999742],[115.71189692700011,-7.0047312729999449],[115.71186276000005,-7.0045897749999426],[115.71184679900021,-7.0045236719998867],[115.71176407100006,-7.0043782989999395],[115.71161803561768,-7.0041216790653982],[115.7115609869166,-7.0041222519406157],[115.71156089622959,-7.0041132367458436],[115.71152480394591,-7.0041135991755583],[115.71152471325973,-7.0041045839803084],[115.7115066671175,-7.0041047651938992],[115.7115064857462,-7.0040867348029163],[115.711515508817,-7.004086644196442],[115.71151541813136,-7.0040776290010616],[115.71150639506072,-7.0040777196074187],[115.71150621369013,-7.0040596892163913],[115.71151523676042,-7.0040595986102705],[115.71151514607513,-7.0040505834148927],[115.71150612300501,-7.0040506740208954],[115.71150576026572,-7.0040146132387822],[115.71149673719613,-7.0040147038441427],[115.71149637445946,-7.0039786430615187],[115.71148735139046,-7.0039787336662371],[115.71148689797317,-7.0039336576872442],[115.71149305767425,-7.0039335958353144],[115.71130890600034,-7.0037222079999415],[115.71087588074295,-7.0034078420097083]],[[115.71097888581465,-7.0036682751697734],[115.71101497809263,-7.0036679128048771],[115.7110153407761,-7.0037039736131241],[115.71100631770608,-7.0037040642050767],[115.71100613636446,-7.0036860338007267],[115.71097906715477,-7.0036863055748482],[115.71097888581465,-7.0036682751697734]],[[115.71111930969568,-7.0041717675234416],[115.71113735585058,-7.0041715863229923],[115.7111374465302,-7.0041806015232888],[115.71111940037494,-7.0041807827239726],[115.71111930969568,-7.0041717675234416]],[[115.71133822133045,-7.0044039882110756],[115.71134724440958,-7.0044038976037486],[115.71134733509628,-7.0044129128011994],[115.71133831201696,-7.0044130034086445],[115.71133822133045,-7.0044039882110756]],[[115.71172081839362,-7.0047607902566167],[115.71173886455547,-7.0047606090179233],[115.71173895525433,-7.0047696242101267],[115.71172090909215,-7.0047698054490555],[115.71172081839362,-7.0047607902566167]],[[115.71172136258657,-7.0048148814111828],[115.71173038566859,-7.0048147907912162],[115.711730476368,-7.0048238059835093],[115.71173949945009,-7.0048237153632522],[115.71173959014979,-7.0048327305554245],[115.71172154398519,-7.0048329117960009],[115.71172136258657,-7.0048148814111828]],[[115.71169674224754,-7.0050585634730815],[115.71170576533456,-7.0050584728504504],[115.7117058560367,-7.0050674880429726],[115.71171487912375,-7.0050673974200528],[115.71171496982616,-7.0050764126124534],[115.71170594673895,-7.0050765032354905],[115.71170621884642,-7.0051035488130182],[115.71169719575856,-7.0051036394362356],[115.71169674224754,-7.0050585634730815]]],[[[115.70486752365721,-7.0034591073192329],[115.70486743310744,-7.0034500920368803],[115.70486070206422,-7.003450159525821],[115.70485849598572,-7.0034587471788763],[115.70485850051168,-7.0034591977900797],[115.70486752365721,-7.0034591073192329]]],[[[115.71066044909762,-7.0034100047500862],[115.71066026777697,-7.003391974336485],[115.71065124470832,-7.0033920649176098],[115.71065142602862,-7.0034100953314473],[115.71066044909762,-7.0034100047500862]]],[[[115.70487636570287,-7.0034409862837563],[115.70487627515317,-7.003431971001528],[115.70486725200823,-7.0034320614721928],[115.70486734255779,-7.0034410767545392],[115.70487636570287,-7.0034409862837563]]],[[[115.7106962693895,-7.0033825968039247],[115.71069617872878,-7.0033735815975842],[115.71068715566098,-7.003373672179162],[115.71068724632151,-7.0033826873856224],[115.7106962693895,-7.0033825968039247]]],[[[115.70492102867486,-7.0033954575190167],[115.70491200553123,-7.0033955479900722],[115.70491218663119,-7.0034135785536371],[115.70493023291903,-7.0034133976108865],[115.70493014236865,-7.0034043823293333],[115.70492111922496,-7.0034044728006766],[115.70492102867486,-7.0033954575190167]]],[[[115.70492987071819,-7.0033773364846947],[115.70492978016829,-7.0033683212031406],[115.70492075702529,-7.0033684116740131],[115.70492084757504,-7.0033774269556863],[115.70492987071819,-7.0033773364846947]]],[[[115.70858387140056,-7.0033046206600602],[115.70857484830647,-7.0033047112002249],[115.70857530140302,-7.0033497873704125],[115.70859334759281,-7.0033496062887375],[115.7085932569729,-7.0033405910549433],[115.70858423387824,-7.0033406815957511],[115.70858387140056,-7.0033046206600602]]],[[[115.70858359954352,-7.0032775749582434],[115.70858341830609,-7.0032595444903265],[115.70857439521286,-7.0032596350299015],[115.70857457644995,-7.0032776654980546],[115.70858359954352,-7.0032775749582434]]],[[[115.71054142670708,-7.0032398933353113],[115.71052338057244,-7.0032400744889163],[115.71052347122809,-7.0032490896975812],[115.71053249429565,-7.0032489991207463],[115.71053258495158,-7.0032580143292726],[115.71054160801918,-7.0032579237521473],[115.71054142670708,-7.0032398933353113]]],[[[115.70492887467576,-7.0032781683873342],[115.70492878412715,-7.0032691531057294],[115.70491976098606,-7.0032692435753079],[115.7049198515345,-7.0032782588570317],[115.70492887467576,-7.0032781683873342]]],[[[115.70856473779475,-7.0031966189298771],[115.70856464717738,-7.0031876036956531],[115.70855562408529,-7.0031876942339428],[115.70855571470246,-7.003196709468285],[115.70856473779475,-7.0031966189298771]]],[[[115.71055865693964,-7.0031585753072365],[115.7105585662845,-7.0031495600990308],[115.71054954321919,-7.0031496506750859],[115.71054963387415,-7.0031586658834097],[115.71055865693964,-7.0031585753072365]]],[[[115.70716588529665,-7.0031836045733877],[115.7071657947063,-7.0031745893208956],[115.70715677159623,-7.0031746798321795],[115.70715686218637,-7.0031836950847897],[115.70716588529665,-7.0031836045733877]]],[[[115.70495413313931,-7.0030975913512696],[115.70495404259259,-7.0030885760699082],[115.70494909201462,-7.003088625705395],[115.70494691063534,-7.0030976637656179],[115.70495413313931,-7.0030975913512696]]],[[[115.70958298691025,-7.0030511586679074],[115.70958287812194,-7.0030403377867358],[115.70958280564035,-7.003033128225912],[115.70957378256453,-7.0030332187817486],[115.70957385504602,-7.0030404283426666],[115.70957396383409,-7.0030512492239803],[115.70958298691025,-7.0030511586679074]]],[[[115.70960067052155,-7.0030149166721785],[115.7096005798867,-7.0030059014513988],[115.70958253373641,-7.0030060825628855],[115.70958262437095,-7.0030150977838987],[115.70960067052155,-7.0030149166721785]]],[[[115.70964569526022,-7.00300544866968],[115.7096455139891,-7.0029874182292859],[115.70963649091499,-7.0029875087857398],[115.70963667218574,-7.0030055392263693],[115.70964569526022,-7.00300544866968]]],[[[115.706809998342,-7.0027904630754811],[115.70680990776364,-7.0027814478182133],[115.70680088465647,-7.002781538317616],[115.70680097523464,-7.0027905535749992],[115.706809998342,-7.0027904630754811]]],[[[115.70514748094523,-7.0025817301182105],[115.70514720931449,-7.002554684281133],[115.70513818618998,-7.0025547747457235],[115.7051384578202,-7.0025818205831527],[115.70514748094523,-7.0025817301182105]]],[[[115.70817788518357,-7.0024160955701573],[115.70817779458385,-7.0024070803305882],[115.70816877150173,-7.0024071708514199],[115.70816886210129,-7.0024161860911072],[115.70817788518357,-7.0024160955701573]]],[[[115.70812338429391,-7.0023805777321462],[115.70812329369571,-7.0023715624918541],[115.70811427061355,-7.0023716530111813],[115.70811436121157,-7.0023806682515932],[115.70812338429391,-7.0023805777321462]]],[[[115.71002698008958,-7.0023344286371074],[115.7100267988214,-7.0023163982061529],[115.71001777576514,-7.0023164887612888],[115.71001795703299,-7.0023345191924804],[115.71002698008958,-7.0023344286371074]]],[[[115.70751811282301,-7.0023145201693788],[115.70751802223731,-7.0023055049211678],[115.70750899914847,-7.0023055954280355],[115.70750908973403,-7.0023146106763647],[115.70751811282301,-7.0023145201693788]]],[[[115.70900701147986,-7.0023085993909255],[115.70900692086563,-7.0022995841621327],[115.70901594393476,-7.0022994936266061],[115.70901585332048,-7.002290478397927],[115.70899780718244,-7.0022906594685708],[115.70899798841047,-7.0023086899263971],[115.70900701147986,-7.0023085993909255]]],[[[115.7099902534307,-7.0022716843458426],[115.70999016279808,-7.0022626691298662],[115.70998113974241,-7.0022627596836076],[115.70998123037485,-7.002271774899703],[115.7099902534307,-7.0022716843458426]]],[[[115.70997202605442,-7.0022538350209418],[115.70997193542236,-7.0022448198047353],[115.70996291236678,-7.0022449103578976],[115.70996300299866,-7.0022539255742213],[115.70997202605442,-7.0022538350209418]]],[[[115.70902369841218,-7.0021731898906321],[115.70899662921204,-7.0021734614922675],[115.70899681043693,-7.0021914919501977],[115.7089697412347,-7.0021917635509929],[115.7089698318468,-7.0022007787803124],[115.70898787798211,-7.0022005977130517],[115.7089880592074,-7.0022186281711889],[115.7089970822752,-7.0022185376370656],[115.70899699166232,-7.0022095224081253],[115.70901503779726,-7.002209341339598],[115.70901512841047,-7.0022183565683029],[115.70902415147792,-7.0022182660336636],[115.70902406086454,-7.0022092508050768],[115.70904210699875,-7.0022090697355184],[115.70904201638513,-7.0022000545071448],[115.70903299331826,-7.0022001450418925],[115.70903290270495,-7.0021911298133981],[115.70902387963812,-7.0021912203478553],[115.70902369841218,-7.0021731898906321]]],[[[115.70536844123667,-7.0021196893527327],[115.70535941812338,-7.0021197798159767],[115.70535950866524,-7.002128795092406],[115.70535048555168,-7.0021288855555941],[115.70535057609348,-7.0021379008321381],[115.70537764543435,-7.0021376294417026],[115.70537755489202,-7.0021286141655121],[115.7053685317787,-7.0021287046290457],[115.70536844123667,-7.0021196893527327]]],[[[115.70540408097679,-7.0020742511187617],[115.70539505786486,-7.0020743415821043],[115.70539514840681,-7.0020833568580869],[115.70538612529457,-7.0020834473213753],[115.70538621583648,-7.0020924625974548],[115.7053681696113,-7.00209264352375],[115.70536826015297,-7.0021016588000942],[115.70538630637849,-7.0021014778735617],[115.70538648746287,-7.0021195084257295],[115.70539551057578,-7.0021194179619712],[115.70539542003337,-7.0021104026860073],[115.70540444314599,-7.0021103122221939],[115.70540408097679,-7.0020742511187617]]],[[[115.70546706167075,-7.0020555873204486],[115.70546697112778,-7.0020465720453764],[115.7054579480172,-7.0020466625095699],[115.70545803855998,-7.0020556777847593],[115.70546706167075,-7.0020555873204486]]],[[[115.70961731746119,-7.0019778946241278],[115.70960829440611,-7.0019779851670547],[115.70960838502769,-7.0019870003881222],[115.70959936197231,-7.0019870909309949],[115.70959945259384,-7.0019961061521769],[115.70961749870483,-7.0019959250660264],[115.70961731746119,-7.0019778946241278]]],[[[115.70961731746119,-7.0019778946241278],[115.70962634051617,-7.0019778040810294],[115.70962624989437,-7.001968788860192],[115.70961722683957,-7.0019688794031714],[115.70961731746119,-7.0019778946241278]]],[[[115.70964438662575,-7.0019776229943185],[115.7096442960036,-7.0019686077737138],[115.70963527294906,-7.0019686983170404],[115.70963536357105,-7.0019777135377597],[115.70964438662575,-7.0019776229943185]]],[[[115.70549358774322,-7.0020012242782137],[115.70549349720044,-7.0019922090034665],[115.70548447409125,-7.0019922994674699],[115.70548456463385,-7.0020013147423343],[115.70549358774322,-7.0020012242782137]]],[[[115.70905761598695,-7.0019564622756709],[115.70905770659766,-7.0019654775039504],[115.7090667296597,-7.0019653869717464],[115.7090666390488,-7.0019563717435869],[115.70905761598695,-7.0019564622756709]]],[[[115.70905761598695,-7.0019564622756709],[115.70905752537635,-7.0019474470474048],[115.70903947925258,-7.0019476281108242],[115.70903956986285,-7.0019566433393274],[115.70905761598695,-7.0019564622756709]]],[[[115.70545695205436,-7.0019474944823763],[115.705456861513,-7.0019384792071477],[115.70544783840435,-7.0019385696697594],[115.70544792894553,-7.0019475849451043],[115.70545695205436,-7.0019474944823763]]],[[[115.70984144379901,-7.0018313875063276],[115.70984135317501,-7.0018223722882391],[115.70985037622404,-7.0018222817428448],[115.70985028559998,-7.0018132665248709],[115.70983223950208,-7.0018134476152536],[115.70983242074965,-7.0018314780516695],[115.70984144379901,-7.0018313875063276]]],[[[115.70980517035437,-7.0018137192495393],[115.70980507973125,-7.0018047040309721],[115.70979605668197,-7.0018047945752713],[115.70979614730489,-7.0018138097939566],[115.70980517035437,-7.0018137192495393]]],[[[115.70984099068012,-7.0017863114158443],[115.7098409000567,-7.0017772961977345],[115.70983187700836,-7.0017773867423685],[115.70983196763162,-7.0017864019605973],[115.70984099068012,-7.0017863114158443]]],[[[115.70948891046714,-7.0017718120883927],[115.70948881985068,-7.0017627968656804],[115.70947979679806,-7.0017628874033759],[115.70947988741435,-7.0017719026262029],[115.70948891046714,-7.0017718120883927]]],[[[115.7098316957622,-7.0017593563058984],[115.70983160513933,-7.0017503410876722],[115.70982258209142,-7.0017504316317822],[115.70982267271414,-7.0017594468501256],[115.7098316957622,-7.0017593563058984]]],[[[115.70810783845826,-7.0017315709302501],[115.70810774786884,-7.0017225556895077],[115.70809872479892,-7.0017226462001929],[115.70809881538818,-7.0017316614410543],[115.70810783845826,-7.0017315709302501]]],[[[115.70953248525097,-7.0016181006200569],[115.70953239463567,-7.001609085397857],[115.70951434853735,-7.0016092664707914],[115.7095144391523,-7.0016182816932266],[115.70953248525097,-7.0016181006200569]]],[[[115.70939442116956,-7.0013490019311],[115.70939423995142,-7.0013309714828882],[115.70937619386015,-7.0013311525433677],[115.7093763750776,-7.0013491829920511],[115.70939442116956,-7.0013490019311]]],[[[115.70754351680571,-7.0012503588743256],[115.70754342623341,-7.0012413436260221],[115.7075344031654,-7.001241434119696],[115.70753449373755,-7.0012504493681167],[115.70754351680571,-7.0012503588743256]]],[[[115.70748910668132,-7.0012238560875018],[115.70748892553962,-7.0012058255894853],[115.70747990247159,-7.0012059160816582],[115.70748008361295,-7.0012239465799091],[115.70748910668132,-7.0012238560875018]]],[[[115.70758772641854,-7.0011597539256041],[115.70758763584655,-7.0011507386778753],[115.70757861278088,-7.0011508291712339],[115.70757870335267,-7.0011598444190772],[115.70758772641854,-7.0011597539256041]]],[[[115.70912046807234,-7.0010271695754147],[115.70912037747269,-7.0010181543475971],[115.70911135442954,-7.0010182448686482],[115.70911144502904,-7.0010272600965839],[115.70912046807234,-7.0010271695754147]]],[[[115.70845049790684,-7.0008084867634128],[115.70845040732289,-7.0007994715267881],[115.70844138427519,-7.000799562032177],[115.70844147485897,-7.0008085772689173],[115.70845049790684,-7.0008084867634128]]],[[[115.70750262440092,-7.0007729126579878],[115.70750244327047,-7.0007548821599803],[115.70749342021124,-7.0007549726466136],[115.70749360134135,-7.0007730031448565],[115.70750262440092,-7.0007729126579878]]],[[[115.70837777002698,-7.00075511937718],[115.70837767944512,-7.0007461041395862],[115.70836865639751,-7.0007461946428924],[115.7083687469792,-7.0007552098806034],[115.70837777002698,-7.00075511937718]]],[[[115.70851302514492,-7.000744746569362],[115.7085040020991,-7.0007448370752465],[115.70850409268337,-7.0007538523111936],[115.70849506963725,-7.0007539428170222],[115.7084952508058,-7.0007719732891545],[115.70850427385226,-7.0007718827830869],[115.70850436443688,-7.0007808980190021],[115.70851338748339,-7.0007808075126476],[115.70851347806831,-7.0007898227484562],[115.70852250111484,-7.0007897322418122],[115.70852259170007,-7.0007987474774991],[115.70853161474666,-7.0007986569705647],[115.70853152416129,-7.0007896417349951],[115.70854054720762,-7.0007895512280047],[115.70854045662219,-7.0007805359925497],[115.70853143357603,-7.000780626499421],[115.70853134299088,-7.0007716112638585],[115.70854036603686,-7.0007715207571053],[115.70854027545168,-7.0007625055216218],[115.70853125240586,-7.0007625960282587],[115.70853116182097,-7.0007535807926686],[115.70851311572936,-7.00075376180519],[115.70851302514492,-7.000744746569362]]],[[[115.70747537409248,-7.0007551536193642],[115.70748439715192,-7.0007550631330746],[115.70748421602264,-7.0007370326345786],[115.70747519296353,-7.0007371231206319],[115.70747528352797,-7.0007461383700003],[115.70746626046855,-7.0007462288560003],[115.70746635103292,-7.0007552441054814],[115.70745732797324,-7.0007553345914273],[115.70745723740906,-7.000746319341828],[115.70743919128968,-7.0007465003129674],[115.70743937241748,-7.0007645308126314],[115.70744839547756,-7.0007644403269129],[115.70744848604181,-7.0007734555766188],[115.707457509102,-7.0007733650906108],[115.70745741853756,-7.0007643498410204],[115.70747546465715,-7.0007641688687228],[115.70747537409248,-7.0007551536193642]]],[[[115.70837749828178,-7.0007280736643862],[115.70837758886339,-7.000737088901988],[115.70838661191071,-7.0007369983986285],[115.70838652132892,-7.0007279831611431],[115.70837749828178,-7.0007280736643862]]],[[[115.70839554437595,-7.0007278926577268],[115.70839563495791,-7.000736907895095],[115.70840465800498,-7.00073681739139],[115.70840456742286,-7.0007278021541408],[115.70839554437595,-7.0007278926577268]]],[[[115.70847684237732,-7.0007360933555667],[115.7084767517938,-7.000727078119259],[115.70845870570176,-7.0007272591290119],[115.70845879628493,-7.0007362743655541],[115.70847684237732,-7.0007360933555667]]],[[[115.70830531390031,-7.0007287976841415],[115.7083052233202,-7.0007197824455938],[115.70829620027213,-7.0007198729471725],[115.70829629085209,-7.0007288881858383],[115.70830531390031,-7.0007287976841415]]],[[[115.70837749828178,-7.0007280736643862],[115.70837740770028,-7.0007190584267791],[115.70835936160597,-7.0007192394325157],[115.70835945218712,-7.0007282546703564],[115.70837749828178,-7.0007280736643862]]],[[[115.70839554437595,-7.0007278926577268],[115.7083954537941,-7.0007188774203559],[115.70838643074725,-7.0007189679236532],[115.70838652132892,-7.0007279831611431],[115.70839554437595,-7.0007278926577268]]],[[[115.7084314553979,-7.0007095001685444],[115.70843136481564,-7.0007004849316319],[115.70842234176961,-7.000700575435383],[115.70842243235172,-7.0007095906724102],[115.7084314553979,-7.0007095001685444]]],[[[115.70861182571116,-7.0006986748205469],[115.70861209746872,-7.0007257205242031],[115.70860307442457,-7.0007258110317423],[115.70860316501049,-7.0007348262664033],[115.70857609587677,-7.000735097788346],[115.70857618646228,-7.0007441130233552],[115.70858520950716,-7.0007440225160948],[115.70858530009298,-7.0007530377509815],[115.70859432313789,-7.0007529472434324],[115.70859441372397,-7.0007619624781965],[115.70857636763367,-7.0007621434933593],[115.70857645821955,-7.0007711587283712],[115.70858548126495,-7.0007710682207582],[115.70858566243741,-7.0007890986904826],[115.7086037085285,-7.0007889176742699],[115.70860379911525,-7.000797932908899],[115.70861282216077,-7.0007978424004165],[115.70861273157385,-7.0007888271659064],[115.70862175461909,-7.0007887366573707],[115.70862157344526,-7.0007707061885878],[115.70863961953469,-7.0007705251714718],[115.7086395289476,-7.0007615099372824],[115.70864855199196,-7.0007614194285832],[115.70864837081781,-7.0007433889604629],[115.7086393477738,-7.0007434794689249],[115.70863925718707,-7.00073446423474],[115.7086302341431,-7.0007345547429143],[115.70863014355668,-7.0007255395086059],[115.70862112051273,-7.0007256300164906],[115.70862084875468,-7.000698584313187],[115.70861182571116,-7.0006986748205469]]],[[[115.70852150468549,-7.0006905646489459],[115.70852141410171,-7.0006815494132022],[115.70851239105724,-7.0006816399184366],[115.70851248164082,-7.0006906551542967],[115.70852150468549,-7.0006905646489459]]],[[[115.70861182571116,-7.0006986748205469],[115.70861173512556,-7.0006896595859844],[115.7086027120821,-7.0006897500930538],[115.70860262149677,-7.0006807348583706],[115.70859359845333,-7.0006808253651505],[115.70859377962375,-7.0006988558347496],[115.70861182571116,-7.0006986748205469]]],[[[115.70834988565554,-7.0006742537452542],[115.70833183956223,-7.0006744347487819],[115.70833193014226,-7.0006834499870001],[115.70834095318914,-7.0006833594852047],[115.70834104376948,-7.0006923747233021],[115.70835006681642,-7.0006922842212163],[115.70834988565554,-7.0006742537452542]]],[[[115.70845825278775,-7.0006821829462238],[115.70843118365138,-7.0006824544577988],[115.70843127423346,-7.0006914696947176],[115.70844029727918,-7.000691379190914],[115.70844038786153,-7.000700394427712],[115.70844941090733,-7.0007003039236171],[115.70844950148997,-7.0007093191602925],[115.70844047844399,-7.0007094096645037],[115.70844065960927,-7.0007274401380748],[115.70844968265561,-7.0007273496336291],[115.70844959207272,-7.0007183343969634],[115.70845861511873,-7.0007182438924627],[115.70845852453581,-7.0007092286559107],[115.70848559367263,-7.0007089571417298],[115.70848523134005,-7.0006728961968863],[115.7084581622053,-7.0006731677096532],[115.70845825278775,-7.0006821829462238],[115.70846727583296,-7.0006820924420223],[115.70846736641569,-7.0006911076784721],[115.7084583433703,-7.0006911981827908],[115.70845825278775,-7.0006821829462238]]],[[[115.7084581622053,-7.0006731677096532],[115.70845807162297,-7.0006641524730782],[115.70844002553287,-7.0006643334804943],[115.70844011611487,-7.0006733487173056],[115.7084581622053,-7.0006731677096532]]],[[[115.70859359845333,-7.0006808253651505],[115.70859350786831,-7.0006718101303447],[115.70858448482495,-7.0006719006368359],[115.70858439424021,-7.0006628854019066],[115.7085753711969,-7.0006629759081074],[115.70857555236613,-7.0006810063781959],[115.70856652932237,-7.0006810968844597],[115.70856643873786,-7.0006720816493013],[115.70853936960633,-7.0006723531667099],[115.70853946019034,-7.00068136840222],[115.70853043714607,-7.000681458907799],[115.70853052773002,-7.0006904741434228],[115.70858466599479,-7.0006899311066775],[115.70858457540982,-7.0006809158717589],[115.70859359845333,-7.0006808253651505]]],[[[115.70854821148232,-7.0006542321902581],[115.70854830206625,-7.0006632474256794],[115.70855732510994,-7.0006631569199937],[115.70855723452583,-7.0006541416846915],[115.70854821148232,-7.0006542321902581]]],[[[115.7085753711969,-7.0006629759081074],[115.70857528061244,-7.0006539606730405],[115.70856625756922,-7.0006540511789526],[115.70856634815347,-7.0006630664141385],[115.7085753711969,-7.0006629759081074]]],[[[115.70856625756922,-7.0006540511789526],[115.70856621803144,-7.0006501162515997],[115.70855718938469,-7.0006496490835746],[115.70855723452583,-7.0006541416846915],[115.70856625756922,-7.0006540511789526]]],[[[115.70854821148232,-7.0006542321902581],[115.70854816073786,-7.0006491819153807],[115.70853913209093,-7.0006487147470011],[115.70853918843871,-7.0006543226956541],[115.70854821148232,-7.0006542321902581]]],[[[115.7085211423511,-7.0006545037059293],[115.70852107479675,-7.0006477804096621],[115.70851204614954,-7.0006473132407052],[115.70851211930713,-7.0006545942108103],[115.7085211423511,-7.0006545037059293]]],[[[115.70848523134005,-7.0006728961968863],[115.70849425438473,-7.000672805692286],[115.70849443555113,-7.0006908361644822],[115.70850345859603,-7.0006907456594751],[115.7085030175022,-7.0006468460715618],[115.70848496020723,-7.0006459117327315],[115.70848505017449,-7.0006548657244201],[115.70846700408546,-7.0006550467326321],[115.70846709466785,-7.0006640619691112],[115.70848514075719,-7.0006638809606647],[115.70848523134005,-7.0006728961968863]]]]},"properties":{"FID":0,"Shape_Leng":18102566.929299999,"Shape_Area":236516885.403}}]
}