{
  "type" : "FeatureCollection",
  "features" : [{"type":"Feature","id":0,"geometry":{"type":"MultiPolygon","coordinates":[[[[113.38608914402896,-7.2163749803851749],[113.38608909665696,-7.2163659423992961],[113.38608004653909,-7.2163659897076755],[113.38608009391093,-7.2163750276936138],[113.38608914402896,-7.2163749803851749]]],[[[113.38608914402896,-7.2163749803851749],[113.38608919140104,-7.2163840183710501],[113.38609824151919,-7.2163839710623732],[113.38609828889149,-7.2163930090481836],[113.3861073390098,-7.2163929617392668],[113.38610724426489,-7.2163748857677614],[113.38611629438276,-7.2163748384587869],[113.38611627564784,-7.2163712641129241],[113.38611158900005,-7.2163661939998702],[113.38609303000021,-7.2163369289999597],[113.38608803200009,-7.21630908699996],[113.3860896817865,-7.2163026717059688],[113.38608876505465,-7.2163026764980396],[113.38608871768314,-7.2162936385121306],[113.3860920092288,-7.2162936213061055],[113.386094457,-7.2162841029998495],[113.38609875339635,-7.2162755095850324],[113.38607957282422,-7.21627560984808],[113.38607962019543,-7.2162846478340574],[113.3860705700791,-7.2162846951417183],[113.38607080693519,-7.2163298850718443],[113.38606175681792,-7.2163299323796259],[113.38606180418914,-7.2163389703656984],[113.3860708543066,-7.2163389230578581],[113.38607099642115,-7.2163660370158746],[113.38608004653909,-7.2163659897076755],[113.38607999916734,-7.2163569517217505],[113.38609809940264,-7.2163568571049339],[113.38609819414694,-7.2163749330765583],[113.38608914402896,-7.2163749803851749]]],[[[113.38611558380106,-7.2162392686728793],[113.38611559761493,-7.2162419042079247],[113.38611706113589,-7.2162392609503216],[113.38611558380106,-7.2162392686728793]]],[[[113.38608814922971,-7.2161851826809134],[113.38608810185899,-7.2161761446949537],[113.38607905174489,-7.2161761920020773],[113.38607909911543,-7.2161852299880955],[113.38608814922971,-7.2161851826809134]]],[[[113.38611558380106,-7.2162392686728793],[113.38611553642943,-7.21623023068714],[113.38612207995791,-7.2162301964817868],[113.38617835604435,-7.2161285565135742],[113.3861782713908,-7.2161124057162551],[113.38618732150299,-7.2161123584075844],[113.38618732718227,-7.2161134419371233],[113.38620196211517,-7.2160942054089325],[113.38618722675864,-7.2160942824369148],[113.38618727413078,-7.2161033204222509],[113.38616917390672,-7.2161034150392958],[113.38616912653494,-7.2160943770538397],[113.38616007642298,-7.2160944243620353],[113.3861601237946,-7.21610346234755],[113.38613297345785,-7.216103604271237],[113.38613321031413,-7.2161487941996718],[113.38614226042732,-7.2161487468916565],[113.38614235517062,-7.2161668228628626],[113.38613330505706,-7.2161668701709969],[113.38613325768556,-7.2161578321853286],[113.3861151574586,-7.2161579268009444],[113.38611525220094,-7.2161760027725164],[113.38609715197303,-7.2161760973876534],[113.38609719934392,-7.2161851353735544],[113.38608814922971,-7.2161851826809134],[113.38608852819769,-7.2162574865684546],[113.38609757831334,-7.2162574392606134],[113.38609753094195,-7.2162484012747443],[113.38610658105738,-7.2162483539667859],[113.38610653368588,-7.2162393159809568],[113.38611558380106,-7.2162392686728793]],[[113.38616031328164,-7.2161396142895748],[113.38615126316874,-7.2161396615978877],[113.38615121579706,-7.2161306236123286],[113.38616026590978,-7.2161305763040726],[113.38616031328164,-7.2161396142895748]]],[[[113.37325413089697,-7.2160803610660773],[113.37324508069999,-7.2160804081182714],[113.37324510874812,-7.2160857885656888],[113.37325416126983,-7.2160861874346818],[113.37325413089697,-7.2160803610660773]]],[[[113.37352568389963,-7.216087987485909],[113.37352563677881,-7.2160789494170157],[113.37351658658363,-7.2160789964745788],[113.37351663370428,-7.2160880345435316],[113.37352568389963,-7.216087987485909]]],[[[113.37315453161325,-7.2160718405590263],[113.37313643121821,-7.2160719346591762],[113.37313647678482,-7.2160806760642151],[113.37315458233495,-7.2160815708310269],[113.37315453161325,-7.2160718405590263]]],[[[113.37363423911627,-7.2160783847122749],[113.37363419199337,-7.2160693466440948],[113.3736251417991,-7.216069393703747],[113.37362518892184,-7.2160784317719884],[113.37363423911627,-7.2160783847122749]]],[[[113.38630945381003,-7.2160032611676597],[113.38629535435615,-7.2160033348739336],[113.38629540982943,-7.2160139181009457],[113.38630945381003,-7.2160032611676597]]],[[[113.37374270007001,-7.2160507057793266],[113.37373364987683,-7.2160507528410101],[113.37373369700158,-7.2160597909085622],[113.37372464680816,-7.2160598379701248],[113.3737246939328,-7.2160688760377134],[113.37371564373912,-7.2160689230991588],[113.37371569086363,-7.2160779611668042],[113.3737337912513,-7.2160778670436194],[113.37373383837622,-7.2160869051111431],[113.37374288857015,-7.2160868580492226],[113.37374284144502,-7.2160778199817583],[113.37375189163869,-7.2160777729197187],[113.37375179738825,-7.2160596967848987],[113.37374274719495,-7.2160597438468201],[113.37374270007001,-7.2160507057793266]]],[[[113.37367920734572,-7.2160239210036616],[113.37367916022227,-7.216014882935756],[113.37367011002935,-7.2160149299959455],[113.37367015715262,-7.2160239680639133],[113.37367920734572,-7.2160239210036616]]],[[[113.37370631080059,-7.2160147417541083],[113.37368821041508,-7.2160148358753844],[113.37368830466241,-7.2160329120110758],[113.37371545524162,-7.2160327708285346],[113.37371540811741,-7.2160237327608687],[113.37370635792458,-7.2160237798218363],[113.37370631080059,-7.2160147417541083]]],[[[113.37374255869555,-7.216023591576894],[113.37374251157085,-7.216014553509404],[113.37373346137836,-7.2160146005708485],[113.37373350850289,-7.2160236386383998],[113.37374255869555,-7.216023591576894]]],[[[113.37366101271338,-7.2160059389879443],[113.37366096559042,-7.2159969009198939],[113.37365191539776,-7.2159969479796073],[113.37365196252054,-7.216005986047719],[113.37366101271338,-7.2160059389879443]]],[[[113.37356136634689,-7.2159883804982092],[113.37356131922601,-7.2159793424295122],[113.37355226903304,-7.2159793894871385],[113.37355231615373,-7.2159884275558941],[113.37356136634689,-7.2159883804982092]]],[[[113.37369711923684,-7.2159876746114469],[113.37369693074295,-7.2159515223402071],[113.37368788055143,-7.2159515694003415],[113.37368797479787,-7.2159696455360871],[113.37367892460595,-7.2159696925961576],[113.37367897172909,-7.2159787306640855],[113.3736699215369,-7.2159787777240396],[113.37366996865993,-7.2159878157920216],[113.37369711923684,-7.2159876746114469]]],[[[113.3733077724528,-7.2159535457642452],[113.37330767822165,-7.2159354696234805],[113.37329862802787,-7.215935516675799],[113.37329872225867,-7.2159535928166791],[113.3733077724528,-7.2159535457642452]]],[[[113.37370588668747,-7.2159333991443733],[113.37369683649638,-7.2159334462045654],[113.37369688361964,-7.2159424842723894],[113.37370593381092,-7.2159424372121377],[113.37370588668747,-7.2159333991443733]]],[[[113.36873727564057,-7.2159501701600774],[113.36873006838046,-7.2159502075587554],[113.36873727738572,-7.215950505572545],[113.36873727564057,-7.2159501701600774]]],[[[113.36875537608869,-7.2159500762358411],[113.36874632586466,-7.2159501231980485],[113.36874632980121,-7.2159508797910998],[113.36875538221665,-7.2159512540094708],[113.36875537608869,-7.2159500762358411]]],[[[113.37370588668747,-7.2159333991443733],[113.37371493687851,-7.2159333520840008],[113.37371484263146,-7.2159152759485812],[113.37370579244079,-7.2159153230088346],[113.37370588668747,-7.2159333991443733]]],[[[113.36845662462527,-7.2159335496896349],[113.3684475743996,-7.215933596645816],[113.36844761159774,-7.2159407469450096],[113.36845666262025,-7.2159408531298856],[113.36845662462527,-7.2159335496896349]]],[[[113.36849282552731,-7.2159333618631187],[113.36847472507641,-7.2159334557767343],[113.36847476466508,-7.215941065499111],[113.3684928667097,-7.2159412778675938],[113.36849282552731,-7.2159333618631187]]],[[[113.37337088822629,-7.2159080260423361],[113.37337093534292,-7.2159170641123165],[113.37338903572868,-7.21591697000488],[113.37338898861171,-7.2159079319350221],[113.37337088822629,-7.2159080260423361]]],[[[113.37337088822629,-7.2159080260423361],[113.37337084110973,-7.2158989879723556],[113.37336179091709,-7.2158990350256849],[113.37336183803347,-7.2159080730957275],[113.37337088822629,-7.2159080260423361]]],[[[113.36859233098104,-7.2159238072240459],[113.36859228395919,-7.2159147691226382],[113.3685832337348,-7.2159148160813844],[113.36858328075647,-7.2159238541828508],[113.36859233098104,-7.2159238072240459]]],[[[113.36918036028194,-7.2158755640298864],[113.36918031324873,-7.2158665259323218],[113.36916221280953,-7.2158666198723171],[113.36916225984237,-7.2158756579700016],[113.36918036028194,-7.2158755640298864]]],[[[113.36915316258983,-7.2158666668420475],[113.36915311555721,-7.2158576287443337],[113.36914406533765,-7.2158576757138251],[113.36914411237007,-7.2158667138115975],[113.36915316258983,-7.2158666668420475]]],[[[113.35895188758407,-7.2156031521725907],[113.35893924352672,-7.2156032175084563],[113.35893836685626,-7.2156303372587587],[113.35894297778783,-7.2156303134325688],[113.35894307144497,-7.2156483897620589],[113.35893778240953,-7.2156484170922957],[113.35893358600002,-7.2157782329999955],[113.35893193793332,-7.2158292154278261],[113.35893495774349,-7.2158291998231077],[113.35893486408432,-7.2158111234936548],[113.35896201494111,-7.2158109831924166],[113.35896196811107,-7.2158019450278639],[113.35895291782572,-7.215801991795062],[113.35895287099592,-7.2157929536304444],[113.35896192128109,-7.215792906863304],[113.35896187445118,-7.2157838686987432],[113.35897092473611,-7.2157838219314829],[113.35897087790607,-7.2157747837669755],[113.35897992819079,-7.2157747369995953],[113.35897969404061,-7.2157295461773021],[113.35899779460804,-7.2157294526425959],[113.35899765411759,-7.2157023381495273],[113.35898860383443,-7.2157023849167912],[113.35898865066434,-7.215711423081193],[113.35897960038098,-7.2157114698483378],[113.35897950672157,-7.2156933935193965],[113.35896140615532,-7.2156934870529117],[113.35896135932606,-7.2156844488883047],[113.35897040960903,-7.2156844021216973],[113.35897022229189,-7.2156482494634782],[113.35898832285622,-7.2156481559301948],[113.35898836968578,-7.2156571940946383],[113.35897931940347,-7.2156572408614261],[113.3589793662329,-7.2156662790259425],[113.35898841651537,-7.2156662322590925],[113.35898846334506,-7.2156752704235112],[113.3589794130624,-7.215675317190418],[113.35897945989196,-7.2156843553549086],[113.35900661074031,-7.2156842150534697],[113.35900623610127,-7.2156119097388629],[113.35898813553861,-7.2156120032723878],[113.35898822919729,-7.2156300796012989],[113.35897012863369,-7.2156301731343451],[113.35897003497573,-7.2156120968051951],[113.35895193441262,-7.2156121903372901],[113.35895188758407,-7.2156031521725907]]],[[[113.36844559965168,-7.215553996344295],[113.36844550561874,-7.215535920139291],[113.36843645540088,-7.2155359670926797],[113.36843654943348,-7.2155540432978027],[113.36844559965168,-7.215553996344295]]],[[[113.35875264090429,-7.2155770664790237],[113.35875259407995,-7.2155680283130081],[113.35873449351571,-7.2155681218359167],[113.3587345403397,-7.2155771600020495],[113.35870738949238,-7.215577300285247],[113.35870743631588,-7.2155863384515557],[113.35871648659857,-7.2155862916906095],[113.35871653342231,-7.2155953298568543],[113.35870748313945,-7.2155953766178591],[113.35870752996308,-7.2156044147841598],[113.35868942939683,-7.2156045083057512],[113.35868952304355,-7.2156225846385764],[113.35869857332709,-7.215622537877751],[113.35869852650352,-7.2156134997113996],[113.35870757678678,-7.2156134529504552],[113.35870767043434,-7.2156315292830362],[113.35869862015072,-7.2156315760440979],[113.35869866697442,-7.215640614210443],[113.35869282537767,-7.2156406443927823],[113.35869846200001,-7.2156586439999817],[113.35869876063848,-7.2156586937261942],[113.35869871379818,-7.2156496523767837],[113.35872586464998,-7.2156495120927024],[113.35872591147434,-7.215658550258861],[113.35873496175833,-7.2156585034970835],[113.35873498735501,-7.2156634442182401],[113.35878909482746,-7.2156256736194528],[113.35878907615897,-7.2156220702596601],[113.35878002587604,-7.2156221170222743],[113.35877993222573,-7.2156040406906339],[113.35879803279079,-7.2156039471654614],[113.35879784548945,-7.2155677945026051],[113.35877974492581,-7.2155678880273033],[113.35877979175071,-7.2155769261931431],[113.35875264090429,-7.2155770664790237],[113.35875273455316,-7.2155951428110452],[113.35873463398785,-7.2155952363343072],[113.35873458716375,-7.2155861981681815],[113.35874363744625,-7.215586151406697],[113.35874359062203,-7.2155771132406272],[113.35875264090429,-7.2155770664790237]]],[[[113.368427311151,-7.2155179378406302],[113.36842726413509,-7.215508899737995],[113.36841821391768,-7.2155089466908455],[113.36841826093341,-7.215517984793542],[113.368427311151,-7.2155179378406302]]]]},"properties":{"FID":0,"Shape_Leng":18102566.929299999,"Shape_Area":236516885.403}}]
}