{
  "type" : "FeatureCollection",
  "features" : [{"type":"Feature","id":0,"geometry":{"type":"MultiPolygon","coordinates":[[[[114.30619014308191,-7.7481443845933722],[114.30619007256738,-7.7481353540844751],[114.30618101876183,-7.7481354244174128],[114.30618108927618,-7.7481444549263934],[114.30619014308191,-7.7481443845933722]]],[[[114.30617147135966,-7.748072281186615],[114.30617140084621,-7.7480632506775002],[114.30616234704205,-7.7480633210093908],[114.30616241755531,-7.7480723515185881],[114.30617147135966,-7.748072281186615]]],[[[114.30614416892068,-7.7480544311632462],[114.30614409840796,-7.7480454006538881],[114.30613504460392,-7.7480454709850388],[114.30613511511643,-7.7480545014944786],[114.30614416892068,-7.7480544311632462]]],[[[114.3061439573828,-7.7480273396351649],[114.30614381635797,-7.7480092786164203],[114.30613476255469,-7.7480093489472406],[114.30613490357914,-7.7480274099661486],[114.3061439573828,-7.7480273396351649]]],[[[114.3049931368172,-7.7479098428568722],[114.30499306633035,-7.7479008123369084],[114.30498401251884,-7.7479008826422948],[114.30498408300551,-7.7479099131623421],[114.3049931368172,-7.7479098428568722]]],[[[114.30604217975679,-7.7477481674446258],[114.30601501836065,-7.747748378422961],[114.30601508886788,-7.7477574089336425],[114.30602414266689,-7.7477573386076379],[114.3060242131744,-7.7477663691182164],[114.30604232077246,-7.7477662284654691],[114.30604217975679,-7.7477481674446258]]],[[[114.30595977899493,-7.7476314037289651],[114.30595963798525,-7.7476133427065124],[114.30595058418875,-7.7476134130298462],[114.30595072519806,-7.747631474052465],[114.30595977899493,-7.7476314037289651]]],[[[114.30598672886894,-7.7476041012243773],[114.30596862127675,-7.7476042418718363],[114.30596883279173,-7.7476313334052742],[114.30597788658845,-7.7476312630813915],[114.30597802759925,-7.7476493241034934],[114.30598708139625,-7.7476492537792527],[114.30598701089062,-7.7476402232682862],[114.30599606468738,-7.7476401529439372],[114.30599592367597,-7.7476220919221577],[114.30598686987962,-7.7476221622463397],[114.30598672886894,-7.7476041012243773]]],[[[114.30094368096383,-7.7476342113470587],[114.3009436105658,-7.7476251807899041],[114.30093455672299,-7.7476252510067622],[114.30093462712087,-7.7476342815639994],[114.30094368096383,-7.7476342113470587]]],[[[114.30593205357194,-7.7475593706069805],[114.30592299977633,-7.7475594409292414],[114.30592321128715,-7.7475865324639903],[114.30594131887942,-7.7475863918187775],[114.30594138938359,-7.7475954223301855],[114.3059594969759,-7.747595281684041],[114.30595942647136,-7.7475862511728],[114.30595037267544,-7.7475863214958851],[114.30595030217117,-7.7475772909845544],[114.30594124837535,-7.747577361307366],[114.30594117787135,-7.74756833079595],[114.30593212407565,-7.7475684011184862],[114.30593205357194,-7.7475593706069805]]],[[[114.30591380497424,-7.7475414502279421],[114.30591373447116,-7.7475324197162747],[114.30590468067598,-7.7475324900379023],[114.30590475117886,-7.7475415205496532],[114.30591380497424,-7.7475414502279421]]],[[[114.30580473642068,-7.7474881109997042],[114.30579568262544,-7.7474881813186185],[114.30579575312559,-7.7474972118313845],[114.30578669933008,-7.7474972821501886],[114.30578676983014,-7.7475063126630683],[114.30581393121702,-7.7475061017058291],[114.3058138607164,-7.7474970711932007],[114.30580480692103,-7.7474971415123886],[114.30580473642068,-7.7474881109997042]]],[[[114.30143188427931,-7.7475401138205546],[114.30143181387173,-7.7475310832678135],[114.30144086770795,-7.747531013041236],[114.30144072689266,-7.7475129519359545],[114.30142261922089,-7.7475130923885809],[114.30142283044282,-7.7475401840470211],[114.30143188427931,-7.7475401138205546]]],[[[114.3058952743685,-7.7474874078000271],[114.3058952038663,-7.7474783772881519],[114.3058770962778,-7.747478517929455],[114.30587716677961,-7.7474875484414962],[114.3058952743685,-7.7474874078000271]]],[[[114.30151308716729,-7.7475033595657852],[114.30150403333232,-7.7475034297936443],[114.30150410374119,-7.7475124603457202],[114.30151315757635,-7.7475123901177785],[114.30151308716729,-7.7475033595657852]]],[[[114.3058137197154,-7.7474790101679787],[114.30581364921503,-7.7474699796553503],[114.30579554162539,-7.7474701202930376],[114.30579561212537,-7.7474791508058294],[114.3058137197154,-7.7474790101679787]]],[[[114.30151308716729,-7.7475033595657852],[114.30152214100217,-7.7475032893377316],[114.30152221141142,-7.7475123198896423],[114.30153126524642,-7.7475122496613178],[114.30153140606558,-7.7475303107649438],[114.30152235223018,-7.7475303809934362],[114.30152242263969,-7.7475394115453504],[114.30150431496831,-7.7475395520019248],[114.3015042445592,-7.7475305214498444],[114.30151329839474,-7.7475304512217358],[114.3015132279855,-7.7475214206697673],[114.3014951203147,-7.7475215611256276],[114.30149519072353,-7.747530591677763],[114.30148613688783,-7.7475306619054871],[114.30148606647917,-7.7475216313532718],[114.30147701264355,-7.7475217015807223],[114.30147715346055,-7.7475397626853493],[114.30148620729656,-7.7475396924577353],[114.30148627770538,-7.7475487230099596],[114.30149533154149,-7.7475486527820685],[114.30149547235978,-7.7475667138863393],[114.30151358003251,-7.7475665734296504],[114.30151343921345,-7.7475485123257108],[114.30154060072073,-7.7475483016397364],[114.30154053031076,-7.7475392710880104],[114.30154958414614,-7.7475392008590509],[114.30154937291614,-7.7475121092040888],[114.30154031908133,-7.7475121794327988],[114.30154017826213,-7.7474941183293025],[114.30151301675831,-7.7474943290137865],[114.30151308716729,-7.7475033595657852]]],[[[114.30151301675831,-7.7474943290137865],[114.30151294634942,-7.7474852984617986],[114.30150389251483,-7.7474853686894942],[114.30150396292353,-7.7474943992415639],[114.30151301675831,-7.7474943290137865]]],[[[114.30569573838321,-7.747443802245459],[114.3056866845879,-7.7474438725616572],[114.30568675508532,-7.7474529030754749],[114.30567770128975,-7.7474529733915656],[114.30567791278196,-7.7474800649331739],[114.30568696657811,-7.7474799946168353],[114.30568703707587,-7.7474890251306174],[114.30567798327952,-7.7474890954470377],[114.30567819477277,-7.7475161869886113],[114.30568724856967,-7.7475161166719415],[114.30568746006423,-7.7475432082132087],[114.30569651386166,-7.7475431378961002],[114.30569573838321,-7.747443802245459]]],[[[114.30573202406194,-7.7474525514921559],[114.30573188306526,-7.74743449046536],[114.30572282927049,-7.747434560782243],[114.30572289976861,-7.7474435912957169],[114.30571384597354,-7.7474436616124889],[114.30571391647155,-7.7474526921260587],[114.30573202406194,-7.7474525514921559]]],[[[114.30580424292062,-7.7474248974106752],[114.30580417242095,-7.7474158668979376],[114.30579511862724,-7.7474159372161875],[114.30579518912673,-7.7474249677290068],[114.30580424292062,-7.7474248974106752]]],[[[114.30213737904401,-7.7474443301025913],[114.30213730862228,-7.7474352995562841],[114.3021282547945,-7.7474353697967944],[114.30212832521603,-7.747444400343185],[114.30213737904401,-7.7474443301025913]]],[[[114.30227283433138,-7.7473981237452962],[114.30227269348306,-7.7473800626551119],[114.3022636396577,-7.7473801328980025],[114.30226378050561,-7.7473981939883521],[114.30227283433138,-7.7473981237452962]]],[[[114.30564983493976,-7.7473628791971345],[114.30564976444394,-7.7473538486829563],[114.30564071065014,-7.7473539189973657],[114.30564078114574,-7.7473629495116256],[114.30564983493976,-7.7473628791971345]]],[[[114.30210951335204,-7.7473542353580136],[114.30205519039286,-7.7473546567902778],[114.30205533123143,-7.747372717884466],[114.30206438505857,-7.7473726476460678],[114.30206445547817,-7.7473816781930713],[114.30208256313254,-7.7473815377155377],[114.30208249271256,-7.7473725071686985],[114.30209154653943,-7.7473724369297274],[114.3020916169596,-7.7473814674764814],[114.30210067078657,-7.7473813972372341],[114.30210074120703,-7.7473904277839027],[114.30212790268804,-7.7473902170647628],[114.30212783226702,-7.7473811865183428],[114.30211877844027,-7.7473812567581648],[114.30211870801952,-7.7473722262116587],[114.30210965419292,-7.7473722964512062],[114.30210951335204,-7.7473542353580136]]],[[[114.30223633733465,-7.7473622825346418],[114.30223626691156,-7.7473532519892192],[114.30220910543592,-7.7473534627142682],[114.30220917585842,-7.7473624932599368],[114.30223633733465,-7.7473622825346418]]],[[[114.30584859538725,-7.7473071491556045],[114.30583954159627,-7.747307219473818],[114.3058396120957,-7.7473162499862758],[114.30583055830442,-7.74731632030438],[114.30583076980263,-7.7473434118419764],[114.30582171601073,-7.7473434821601384],[114.30582178651009,-7.7473525126727436],[114.30583989409423,-7.7473523720360635],[114.30584003509401,-7.7473704330609312],[114.30586719647073,-7.7473702221039753],[114.30586740797276,-7.7473973136404952],[114.30587646176539,-7.7473972433208775],[114.30587674377006,-7.7474333653691794],[114.30585863618317,-7.7474335060088864],[114.30585884768639,-7.7474605975455635],[114.30586790148047,-7.7474605272255568],[114.30586783097911,-7.7474514967134347],[114.30590404615381,-7.7474512154318225],[114.30590418715815,-7.7474692764554156],[114.30592229474574,-7.7474691358131276],[114.30592236524842,-7.7474781663247585],[114.30591331145446,-7.7474782366460815],[114.30591338195703,-7.7474872671577923],[114.30592243575117,-7.747487196836385],[114.30592250625402,-7.7474962273479901],[114.30593156004829,-7.747496157026311],[114.30593148954526,-7.7474871265147884],[114.30595865092693,-7.7474869155488442],[114.30595872143053,-7.7474959460601189],[114.30596777522445,-7.7474958757376715],[114.30596763421691,-7.7474778147152685],[114.30597668801036,-7.7474777443927945],[114.30597633549206,-7.7474325918370806],[114.30596728169957,-7.7474326621591398],[114.30596707019018,-7.7474055706254079],[114.30595801639818,-7.7474056409470267],[114.30595794589541,-7.7473966104356915],[114.30593983831156,-7.7473967510781856],[114.30593976780925,-7.7473877205666808],[114.30593071401741,-7.747387790887557],[114.3059305025116,-7.7473606993527637],[114.30591239492877,-7.7473608399934442],[114.30591246543023,-7.7473698705052136],[114.30590341163851,-7.7473699408253482],[114.30590334113724,-7.7473609103134979],[114.30589428734559,-7.7473609806333599],[114.30589414634368,-7.7473429196094772],[114.30588509255236,-7.7473429899289812],[114.3058848810507,-7.7473158983928778],[114.30586677346895,-7.747316039030812],[114.30586684396904,-7.7473250695430167],[114.30584873638655,-7.7473252101803514],[114.30584859538725,-7.7473071491556045]],[[114.30588544505683,-7.7473881424890667],[114.30589449884911,-7.7473880721691479],[114.30589442834786,-7.747379041657223],[114.30590348213987,-7.7473789713371941],[114.30590355264133,-7.7473880018490382],[114.30591260643342,-7.7473879315287366],[114.30591274743696,-7.7474059925522418],[114.30590369364447,-7.7474060628727077],[114.30590376414617,-7.7474150933845376],[114.30591281793885,-7.7474150230639856],[114.30591288844082,-7.7474240535757275],[114.30588572706192,-7.7474242645370532],[114.30588565656052,-7.7474152340250635],[114.30589471035337,-7.7474151637048951],[114.30589463985187,-7.7474061331929835],[114.3058855860592,-7.7474062035130684],[114.30588544505683,-7.7473881424890667]],[[114.30594012032161,-7.7474328731241648],[114.30595822790701,-7.7474327324810064],[114.3059582984101,-7.7474417629923229],[114.30594019082433,-7.7474419036356474],[114.30594012032161,-7.7474328731241648]],[[114.30593113703132,-7.7474419739570228],[114.30591302944504,-7.7474421145991981],[114.30591295894288,-7.747433084087465],[114.3059310665288,-7.7474329434454559],[114.30593113703132,-7.7474419739570228]]],[[[114.30225430413819,-7.7473440809596168],[114.30225416329166,-7.7473260198690497],[114.30224510946728,-7.7473260901110592],[114.30224517989031,-7.7473351206564276],[114.30223612606564,-7.7473351908983288],[114.30223619648856,-7.7473442214437753],[114.30225430413819,-7.7473440809596168]]],[[[114.30223584437481,-7.7472990687164929],[114.30225395202253,-7.747298928233163],[114.30225388159964,-7.7472898976878577],[114.3022086124807,-7.7472902488943314],[114.30220868290263,-7.7472992794400515],[114.3021996290784,-7.7472993496808522],[114.30219955865668,-7.7472903191350513],[114.30218145100834,-7.7472904596159156],[114.30218152142969,-7.7472994901618817],[114.30217246760519,-7.7472995604021087],[114.30217274929063,-7.7473356825862627],[114.3021818031159,-7.7473356123457053],[114.30218187353766,-7.7473446428916501],[114.30219998118829,-7.747344502409792],[114.30219984034409,-7.7473264413182292],[114.30219078651919,-7.7473265115590895],[114.30219071609739,-7.7473174810132353],[114.30221787757124,-7.7473172702903321],[114.30221794799361,-7.7473263008359377],[114.3022088941689,-7.7473263710771789],[114.30220903501349,-7.7473444321685765],[114.30222714266363,-7.7473442916855673],[114.30222700181827,-7.7473262305945019],[114.30223605564281,-7.7473261603528778],[114.30223584437481,-7.7472990687164929]]],[[[114.30229002646971,-7.7472805861742522],[114.30228996335384,-7.7472724926996124],[114.3022778975208,-7.7472806802743488],[114.30229002646971,-7.7472805861742522]]],[[[114.30567600937952,-7.7472362410570996],[114.30568506317047,-7.7472361707430011],[114.30568513366595,-7.7472452012569208],[114.30569418745704,-7.747245130942547],[114.30569411696138,-7.7472361004287107],[114.30570317075215,-7.7472360301142285],[114.30570310025638,-7.7472269996004863],[114.30569404646579,-7.7472270699148851],[114.30569397597029,-7.7472180394010541],[114.3056758683892,-7.7472181800291127],[114.30567600937952,-7.7472362410570996]]],[[[114.30582058803219,-7.7471989939578325],[114.30582051753426,-7.7471899634451509],[114.30581146374553,-7.7471900337617088],[114.30581153424328,-7.7471990642744757],[114.30582058803219,-7.7471989939578325]]],[[[114.30567600937952,-7.7472362410570996],[114.30566695558845,-7.7472363113710054],[114.30566702608355,-7.7472453418850931],[114.30565797229224,-7.7472454121988896],[114.30565804278721,-7.7472544427130199],[114.30566709657873,-7.7472543723991398],[114.30566723756934,-7.7472724334272574],[114.30570345273611,-7.7472721521691525],[114.30570352323232,-7.7472811826828751],[114.3057397383985,-7.7472809014213686],[114.30573966790153,-7.7472718709079818],[114.30577588306559,-7.7472715896437405],[114.30577595356331,-7.7472806201567987],[114.30576689977225,-7.7472806904732279],[114.30576697026989,-7.7472897209863811],[114.30577602406115,-7.7472896506698667],[114.30577616505705,-7.7473077116959406],[114.30579427264011,-7.7473075710620076],[114.30579406114524,-7.7472804795233632],[114.30580311493604,-7.7472804092063576],[114.30580304443772,-7.747271378693549],[114.30581209822829,-7.7472713083764333],[114.30581230972408,-7.7472983999145963],[114.30582136351509,-7.7472983295970401],[114.30582122251745,-7.7472802685717683],[114.30583933009851,-7.747280127936417],[114.30583925959942,-7.7472710974239405],[114.30583020580912,-7.747271167741629],[114.30583013531032,-7.7472621372290664],[114.30582108152014,-7.7472622075464805],[114.30582101102161,-7.7472531770338318],[114.30581195723153,-7.7472532473509723],[114.30581188673328,-7.7472442168382507],[114.3058028329433,-7.7472442871551159],[114.30580262144962,-7.7472171956166083],[114.30579356766013,-7.7472172659330347],[114.30579342666518,-7.7471992049071856],[114.30578437287599,-7.7471992752232524],[114.30578423188174,-7.7471812141972221],[114.30575707051482,-7.7471814251437756],[114.3057570000184,-7.7471723946305051],[114.30574794622947,-7.7471724649455558],[114.3057480167257,-7.7471814954589107],[114.30571180156831,-7.7471817767175315],[114.30571173107285,-7.7471727462038462],[114.30570267728349,-7.7471728165179394],[114.30570274777877,-7.7471818470317082],[114.30569369398913,-7.7471819173456922],[114.30569383497954,-7.7471999783733825],[114.30570288876955,-7.7471999080592315],[114.30570281827411,-7.7471908775454716],[114.30572092585354,-7.747190736916763],[114.30572099634936,-7.7471997674303577],[114.3057119425595,-7.7471998377448905],[114.3057120130552,-7.7472088682585634],[114.30572106684527,-7.7472087979439461],[114.30572113734127,-7.7472178284575337],[114.30573019113142,-7.7472177581426411],[114.30573033212403,-7.7472358191696324],[114.30572127833349,-7.7472358894846902],[114.30572134882974,-7.7472449199982787],[114.30571229503892,-7.7472449903132263],[114.30571236553506,-7.7472540208268592],[114.30567615037018,-7.7472543020850688],[114.30567600937952,-7.7472362410570996]],[[114.30577574207035,-7.7472535286176161],[114.30573952690784,-7.7472538098811912],[114.30573945641113,-7.7472447793678061],[114.30574851020168,-7.7472447090522829],[114.30574843970486,-7.7472356785389422],[114.30577560107547,-7.7472354675914712],[114.30577574207035,-7.7472535286176161]]],[[[114.30565733784117,-7.7471641375713407],[114.30565726734702,-7.7471551070571483],[114.30564821355755,-7.7471551773699261],[114.30564828405149,-7.7471642078842002],[114.30565733784117,-7.7471641375713407]]],[[[114.30572976815556,-7.7471635750615579],[114.3057296271643,-7.7471455140344956],[114.30572057337569,-7.7471455843487247],[114.30572071436657,-7.747163645375954],[114.30572976815556,-7.7471635750615579]]],[[[114.3047336394342,-7.7471442169274445],[114.30473356895992,-7.7471351864047646],[114.30472451516238,-7.7471352566977361],[114.30472458563648,-7.7471442872204994],[114.3047336394342,-7.7471442169274445]]],[[[114.30299354780726,-7.7469319462123876],[114.30299347737201,-7.7469229156737001],[114.30298442356302,-7.7469229859277871],[114.3029844939981,-7.746932016466558],[114.30299354780726,-7.7469319462123876]]],[[[114.30559191705497,-7.7469027448271062],[114.30558286327027,-7.7469028151362176],[114.3055829337605,-7.7469118456511987],[114.30557387997554,-7.7469119159602036],[114.30557395046567,-7.7469209464752442],[114.30560111182091,-7.7469207355474099],[114.30560104133021,-7.7469117050326153],[114.3055919875454,-7.7469117753420029],[114.30559191705497,-7.7469027448271062]]],[[[114.30577929729624,-7.7465490782748585],[114.30577922680517,-7.7465400477615418],[114.30577017302993,-7.7465401180713629],[114.3057702435208,-7.7465491485847648],[114.30577929729624,-7.7465490782748585]]],[[[114.30554347619245,-7.7464967231770787],[114.30554333522142,-7.7464786621460409],[114.30553428144532,-7.7464787324502948],[114.30553442241599,-7.7464967934815023],[114.30554347619245,-7.7464967231770787]]],[[[114.30566931271346,-7.7463783422080539],[114.30566924222632,-7.7463693116936394],[114.30566018845369,-7.7463693819995845],[114.30566025894066,-7.7463784125140824],[114.30566931271346,-7.7463783422080539]]],[[[114.30567794356332,-7.7463240888157774],[114.30568699733482,-7.7463240185098643],[114.30568692684778,-7.7463149879955884],[114.30570503439007,-7.746314847383351],[114.30570496390273,-7.7463058168692376],[114.30565969504731,-7.7463061683979788],[114.30565983602014,-7.7463242294270316],[114.30566888979179,-7.7463241591215013],[114.30566896027852,-7.746333189635938],[114.30567801405026,-7.7463331193301315],[114.30567794356332,-7.7463240888157774]]],[[[114.30571394718612,-7.7462967160488621],[114.30571387669877,-7.7462876855348384],[114.30572293046913,-7.7462876152284892],[114.30572278949428,-7.7462695542005617],[114.30571373572431,-7.7462696245067448],[114.3057138062115,-7.7462786550207934],[114.30568664490049,-7.7462788659384438],[114.30568678587397,-7.7462969269670054],[114.30571394718612,-7.7462967160488621]]],[[[114.30553618457789,-7.746722556370063],[114.30552713079653,-7.7467226266763669],[114.30552698982201,-7.7467045656452189],[114.30551793604094,-7.7467046359511622],[114.30551800652796,-7.7467136664668068],[114.30550895274664,-7.7467137367726435],[114.30550930518204,-7.7467588893512875],[114.30550025139965,-7.746758959657349],[114.3055003218868,-7.7467679901731659],[114.30549126810413,-7.7467680604791154],[114.3054911976172,-7.7467590299632159],[114.30548214383464,-7.7467591002688936],[114.30548235529518,-7.7467861918167893],[114.30550046286135,-7.7467860512047482],[114.30550067432381,-7.7468131427520879],[114.30550972810735,-7.7468130724455309],[114.30550986908314,-7.7468311334769187],[114.30551892286697,-7.7468310631700055],[114.30551899335518,-7.7468400936855852],[114.30552804713913,-7.7468400233783949],[114.30552811762762,-7.7468490538939045],[114.30551906384346,-7.7468491242011774],[114.30551913433183,-7.7468581547167652],[114.30552818811618,-7.7468580844094097],[114.30552825860484,-7.7468671149249095],[114.3055554199579,-7.7468669040014433],[114.30555549044722,-7.7468759345167069],[114.30554643666274,-7.7468760048248049],[114.30554671862008,-7.7469121268860643],[114.30555577240531,-7.7469120565776359],[114.30555584289506,-7.7469210870928418],[114.30556489668039,-7.7469210167841407],[114.30556475570062,-7.7469029557538684],[114.30557380948549,-7.7469028854451372],[114.30557373899555,-7.7468938549300699],[114.30559184656462,-7.7468937143122041],[114.30559170558421,-7.7468756532824008],[114.30560075936825,-7.7468755829733453],[114.30560097083959,-7.7469026745178011],[114.30561002462412,-7.7469026042083051],[114.30561037707901,-7.7469477567819203],[114.30560132329352,-7.7469478270918302],[114.30560139378454,-7.7469568576066221],[114.30559233999878,-7.7469569279164237],[114.30559269245427,-7.7470020804907342],[114.30560174624102,-7.7470020101805197],[114.30560181673256,-7.747011040695285],[114.30561992430614,-7.7470109000741108],[114.30561985381421,-7.7470018695595106],[114.30563796138708,-7.7470017289377342],[114.30563789089484,-7.7469926984232966],[114.30569221361027,-7.7469922765538666],[114.30569249558432,-7.7470283986096025],[114.30566533422467,-7.7470286095461756],[114.30566540471781,-7.7470376400603653],[114.30565635093092,-7.7470377103722567],[114.30565642142395,-7.7470467408864891],[114.30566547521104,-7.7470466705745169],[114.30566568669124,-7.7470737621169929],[114.30564757911583,-7.7470739027412456],[114.30564779059564,-7.7471009942841791],[114.30566589817221,-7.7471008536594281],[114.30566603915995,-7.7471189146876966],[114.30565698537131,-7.7471189850003315],[114.30565705586513,-7.7471280155145266],[114.30566610965394,-7.7471279452018065],[114.30566639163075,-7.7471640672582893],[114.30567544542028,-7.7471639969450443],[114.30567523393695,-7.7471369054029529],[114.30569334151458,-7.7471367647763874],[114.30569327101993,-7.7471277342624987],[114.30570232480841,-7.7471276639490103],[114.30570239530326,-7.7471366944628173],[114.30571144909185,-7.7471366241490562],[114.30571137859681,-7.7471275936353319],[114.30573853996152,-7.7471273826931473],[114.30573861045714,-7.7471364132066229],[114.30574766424539,-7.7471363428920936],[114.30574759374959,-7.7471273123787006],[114.30576570132547,-7.7471271717492352],[114.30576577182167,-7.7471362022624604],[114.30577482560965,-7.7471361319473591],[114.30577461412075,-7.7471090404079606],[114.30578366790812,-7.7471089700929143],[114.3057831039399,-7.7470367259883419],[114.30579215772562,-7.7470366556737664],[114.30579194623836,-7.7470095641347028],[114.30578289245322,-7.7470096344490296],[114.30578282195783,-7.7470006039359234],[114.30576471438768,-7.7470007445638336],[114.30576450290316,-7.7469736530239866],[114.3057735566877,-7.7469735827103765],[114.30577334520336,-7.7469464911707382],[114.30575523763534,-7.7469466317972699],[114.30575530812965,-7.7469556623106532],[114.30574625434534,-7.7469557326237153],[114.30574618385121,-7.7469467021102503],[114.305737130067,-7.746946772423037],[114.30573677759865,-7.7469016198552252],[114.30574583138191,-7.7469015495428524],[114.3057457608883,-7.7468925190293607],[114.30573670710525,-7.7468925893416509],[114.30573663661193,-7.7468835588280704],[114.3057185290459,-7.7468836994519084],[114.30571845855305,-7.7468746689381751],[114.30573656611868,-7.7468745283145042],[114.30573642513244,-7.746856467287305],[114.30574547891473,-7.746856396975347],[114.30574498546423,-7.7467931833806496],[114.30572687790223,-7.7467933240032121],[114.30572659593392,-7.7467572019483217],[114.30571754215357,-7.7467572722589821],[114.30571768313717,-7.7467753332866103],[114.30570862935635,-7.7467754035972485],[114.30570855886469,-7.7467663730833607],[114.30569045130318,-7.7467665137038928],[114.30569016933897,-7.7467303916476373],[114.30573543823827,-7.7467300400965318],[114.30573536774648,-7.7467210095828714],[114.30572631396696,-7.7467210798933914],[114.30572624347542,-7.7467120493796298],[114.30573529725474,-7.7467119790691887],[114.30573515627157,-7.7466939180418635],[114.30571704871363,-7.7466940586622188],[114.30571697822255,-7.7466850281483737],[114.30569887066466,-7.7466851687677956],[114.30569872968351,-7.7466671077397784],[114.30571683724064,-7.7466669671206896],[114.30571690773155,-7.7466759976345259],[114.30572596151016,-7.7466759273246106],[114.30572603200135,-7.7466849578383759],[114.30574413955874,-7.7466848172178047],[114.30574421005039,-7.7466938477313994],[114.30575326382915,-7.7466937774207425],[114.3057531933373,-7.7466847469072313],[114.30576224711579,-7.7466846765964661],[114.30576196514846,-7.7466485545427055],[114.30577101892608,-7.7466484842320789],[114.30577087794254,-7.7466304232053371],[114.30576182416532,-7.7466304935157968],[114.30576175367385,-7.7466214630023531],[114.3057708074509,-7.7466213926919778],[114.30577059597647,-7.7465943011518013],[114.30577964975286,-7.7465942308414819],[114.30577943827865,-7.7465671393015318],[114.30576133072694,-7.7465672799214813],[114.30576090778305,-7.7465130968404665],[114.3057699615578,-7.7465130265310851],[114.30576989106726,-7.7465039960176316],[114.30577894484173,-7.7465039257081418],[114.30577880386051,-7.7464858646814418],[114.3057878576345,-7.7464857943719263],[114.30578757567233,-7.7464496723187661],[114.30579662944545,-7.7464496020093927],[114.30579655895494,-7.7464405714961746],[114.30578750518198,-7.7464406418054672],[114.30578743469174,-7.7464316112921612],[114.30579648846449,-7.7464315409829521],[114.30579634748386,-7.7464134799564937],[114.30577823993904,-7.7464136205743896],[114.30577802846989,-7.746386529034174],[114.30578708224176,-7.7463864587255706],[114.30578701175203,-7.746377428212238],[114.30579606552362,-7.7463773579035253],[114.30579613601356,-7.7463863884167736],[114.30580518978527,-7.7463863181077866],[114.30580504880511,-7.7463682570814489],[114.30578694126237,-7.7463683976989017],[114.30578687077279,-7.7463593671855602],[114.3057778170015,-7.7463594374939158],[114.30577746455589,-7.746314284926731],[114.30578651832622,-7.7463142146187902],[114.30578637734817,-7.7462961535920343],[114.30577732357821,-7.7462962238998081],[114.30577725308952,-7.7462871933863644],[114.30576819931966,-7.7462872636938664],[114.30576812883123,-7.7462782331803188],[114.3057590750615,-7.7462783034875438],[114.30575893408528,-7.7462602424602718],[114.30574988031583,-7.7462603127671388],[114.30574980982803,-7.7462512822534313],[114.30574075605871,-7.746251352560023],[114.3057408265463,-7.7462603830738139],[114.3057317727767,-7.7462604533802981],[114.30573205472714,-7.7462965754358049],[114.30575016226781,-7.7462964348219812],[114.30575030324432,-7.7463144958493988],[114.30574124947364,-7.7463145661565749],[114.30574131996184,-7.7463235966703525],[114.30573226619089,-7.7463236669774167],[114.30573254814371,-7.7463597890328151],[114.30572349437188,-7.7463598593400178],[114.3057235648601,-7.7463688898539402],[114.30571451108803,-7.7463689601610346],[114.30571444059998,-7.7463599296470331],[114.305705386828,-7.7463599999538522],[114.30570531634024,-7.7463509694397628],[114.30571437011204,-7.7463508991330245],[114.3057142291364,-7.7463328381049914],[114.30570517536499,-7.7463329084115644],[114.30570524585256,-7.7463419389256494],[114.30568713830914,-7.7463420795383842],[114.30568720879643,-7.7463511100526627],[114.30569626256836,-7.7463510397463073],[114.30569647403132,-7.746378131288818],[114.30568742025879,-7.746378201595423],[114.30568756123414,-7.7463962626239056],[114.30566945368804,-7.7463964032368686],[114.30566952417544,-7.7464054337512698],[114.30566047040206,-7.746405504057547],[114.30566054088936,-7.7464145345720263],[114.30563337956818,-7.7464147454899566],[114.305633450055,-7.7464237760046792],[114.30562439628092,-7.746423846310357],[114.30562446676763,-7.7464328768251587],[114.30563352054189,-7.7464328065194001],[114.30563366151594,-7.7464508675488242],[114.30562460774128,-7.7464509378547506],[114.30562467822824,-7.7464599683695559],[114.3056156244533,-7.7464600386753713],[114.30561569494013,-7.7464690691902227],[114.30557947983876,-7.7464693504119024],[114.30557940935267,-7.7464603198967197],[114.30556130180186,-7.7464604605062437],[114.30556137228756,-7.7464694910215908],[114.30557042606321,-7.7464694207168439],[114.30557049654919,-7.7464784512321199],[114.30557955032492,-7.7464783809270967],[114.30557962081119,-7.7464874114422866],[114.30557056703525,-7.7464874817473923],[114.30557063752138,-7.7464965122626621],[114.30554347619245,-7.7464967231770787],[114.30554354667811,-7.7465057536925759],[114.3055616542312,-7.7465056130829888],[114.30556172471731,-7.7465146435983492],[114.30557983227044,-7.7465145029878295],[114.30557990275703,-7.7465235335030025],[114.30560706408666,-7.7465233225855377],[114.30560699359948,-7.7465142920706151],[114.30559793982323,-7.746514362376546],[114.30559772836281,-7.7464872708314987],[114.3056067821385,-7.7464872005258165],[114.3056068526254,-7.746496231040755],[114.30561590640119,-7.7464961607347975],[114.3056158359141,-7.7464871302199434],[114.30562488968962,-7.7464870599138802],[114.30562481920242,-7.7464780293991042],[114.30563387297765,-7.74647795909293],[114.30563401395254,-7.7464960201223114],[114.3056430677281,-7.7464959498157793],[114.30564327919164,-7.746523041359568],[114.30565233296767,-7.746522971052598],[114.30565240345589,-7.7465320015671004],[114.30564334967967,-7.7465320718741557],[114.30564349065597,-7.7465501329033],[114.30567970576189,-7.7465498516732669],[114.30567998771858,-7.7465859737302267],[114.30570714904944,-7.7465857628046946],[114.3057072195394,-7.7465947933186703],[114.30571627331638,-7.7465947230096921],[114.30571669625905,-7.7466489060929558],[114.30569858870271,-7.7466490467117124],[114.30569865919307,-7.7466580772257414],[114.30568055163599,-7.7466582178438976],[114.30568062212605,-7.7466672483581025],[114.30567156834721,-7.7466673186669768],[114.30567185030752,-7.7467034407240032],[114.3056627965278,-7.7467035110330178],[114.30566293750807,-7.746721572061678],[114.30567199128818,-7.7467215017524955],[114.30567206177865,-7.7467305322667377],[114.30566300799835,-7.7467306025760019],[114.30566307848869,-7.7467396330903204],[114.30565402470815,-7.7467397033994745],[114.30565360176846,-7.7466855203129956],[114.30564454798896,-7.7466855906214596],[114.30564461847851,-7.7466946211359673],[114.30563556469872,-7.7466946914443229],[114.30563570567769,-7.7467127524734725],[114.30562665189744,-7.7467128227818023],[114.30562686336596,-7.7467399143257856],[114.30561780958504,-7.7467399846341713],[114.30561773909564,-7.746730954119438],[114.30559057775302,-7.7467311650432009],[114.30559050726428,-7.7467221345282136],[114.3055723997025,-7.7467222751429308],[114.30557232921424,-7.7467132446277551],[114.3055632754334,-7.7467133149347429],[114.30556320494541,-7.7467042844195166],[114.3055541511647,-7.7467043547262291],[114.30555422165249,-7.7467133852415389],[114.3055361140904,-7.7467135258545561],[114.30553618457789,-7.746722556370063],[114.30554523835916,-7.7467224860635655],[114.30554530884693,-7.7467315165789694],[114.30553625506546,-7.7467315868855451],[114.30553618457789,-7.746722556370063]],[[114.30551821798954,-7.7467407580137753],[114.30552727177138,-7.7467406877074945],[114.30552734225894,-7.7467497182230547],[114.30551828847689,-7.7467497885294163],[114.30551821798954,-7.7467407580137753]],[[114.30563605812657,-7.7467579050463113],[114.30567227325054,-7.7467576238094171],[114.30567241423221,-7.7467756848378739],[114.30565430666964,-7.7467758254570365],[114.30565423617912,-7.7467667949426522],[114.30563612861658,-7.7467669355608848],[114.30563605812657,-7.7467579050463113]],[[114.30559998397987,-7.7467762473099242],[114.30559093019792,-7.7467763176180684],[114.30559085970879,-7.7467672871031024],[114.30559991349052,-7.7467672167950425],[114.30559998397987,-7.7467762473099242]],[[114.30555485604643,-7.7467946598793036],[114.30557296361162,-7.7467945192640277],[114.30557303410066,-7.7468035497791448],[114.30555492653505,-7.7468036903945876],[114.30555485604643,-7.7467946598793036]],[[114.3057088408318,-7.7468024951388808],[114.30571789461321,-7.7468024248279965],[114.3057179651054,-7.7468114553417813],[114.3057089113238,-7.7468115256527499],[114.3057088408318,-7.7468024951388808]],[[114.3056547296144,-7.7468300085432658],[114.30566378339688,-7.7468299382332813],[114.30566392437953,-7.7468479992618011],[114.30565487059665,-7.7468480695719508],[114.3056547296144,-7.7468300085432658]],[[114.30570013951017,-7.7468477180192874],[114.30571824707498,-7.7468475773968812],[114.30571831756758,-7.7468566079106447],[114.30570021000239,-7.746856748533216],[114.30570013951017,-7.7468477180192874]],[[114.30563767941867,-7.7469656068799386],[114.30564673320421,-7.7469655365690953],[114.30564680369638,-7.7469745670834778],[114.30563774991063,-7.7469746373944064],[114.30563767941867,-7.7469656068799386]],[[114.30569291854792,-7.7470825816930935],[114.3056838647603,-7.7470826520059743],[114.30568358278499,-7.7470465299499942],[114.30571074414526,-7.7470463190117735],[114.30571081463954,-7.7470553495255228],[114.30570176085268,-7.7470554198385368],[114.30570183134685,-7.7470644503523634],[114.30569277755971,-7.7470645206652691],[114.30569291854792,-7.7470825816930935],[114.30570197233544,-7.7470825113800208],[114.30570204282988,-7.747091541893818],[114.30572015040505,-7.7470914012669319],[114.30572022089996,-7.7471004317805745],[114.30572927468761,-7.7471003614667628],[114.30572934518277,-7.7471093919803193],[114.30571123760697,-7.7471095326079178],[114.30571116711219,-7.747100502094197],[114.30570211332437,-7.7471005724076258],[114.30570218381897,-7.7471096029214292],[114.30569313003087,-7.7471096732347515],[114.30569291854792,-7.7470825816930935]],[[114.30568868904902,-7.7465407508511319],[114.30567963527292,-7.7465408211590381],[114.30567956478406,-7.7465317906447861],[114.30568861855996,-7.7465317203369644],[114.30568868904902,-7.7465407508511319]],[[114.30576897469791,-7.7463865993425856],[114.30575086715372,-7.7463867399588331],[114.30575079666475,-7.74637770944517],[114.30574174289274,-7.7463777797529243],[114.30574146093845,-7.746341657697875],[114.30575051470971,-7.7463415873904538],[114.30575044422116,-7.7463325568767862],[114.30575949799216,-7.746332486569254],[114.30575928652645,-7.7463053950284202],[114.30576834029675,-7.7463053247209448],[114.30576897469791,-7.7463865993425856]]],[[[114.30569534623774,-7.7462336430616343],[114.30568629246829,-7.7462337133669115],[114.30568636295456,-7.7462427438812265],[114.30565920164507,-7.7462429547961547],[114.30565927213085,-7.7462519853107308],[114.30565021836068,-7.7462520556154066],[114.30565028884635,-7.7462610861300289],[114.30565934261671,-7.7462610158252705],[114.30565941310266,-7.7462700463398209],[114.30566846687316,-7.7462699760347871],[114.30566832590097,-7.746251915005864],[114.30567737967097,-7.7462518447008044],[114.30567745015722,-7.7462608752151771],[114.30569555769739,-7.7462607346043182],[114.30569534623774,-7.7462336430616343]]],[[[114.30571352426327,-7.7462425329645717],[114.30571345377641,-7.7462335024505062],[114.30570440000712,-7.7462335727561662],[114.30570447049377,-7.7462426032703142],[114.30571352426327,-7.7462425329645717]]],[[[114.30584862590186,-7.7461511732269939],[114.30584848492417,-7.7461331122012389],[114.30583037739227,-7.7461332528162945],[114.30583051836918,-7.7461513138423808],[114.30584862590186,-7.7461511732269939]]],[[[114.30571253745509,-7.7461161057672356],[114.3057124444239,-7.7461041867532909],[114.30570341762014,-7.7461077115013275],[114.30570348368829,-7.7461161760718173],[114.30571253745509,-7.7461161057672356]]],[[[114.30582076605172,-7.7460618897667874],[114.3057992869942,-7.7460702768238265],[114.30580272268129,-7.746070250144327],[114.30580286365586,-7.7460883111709418],[114.30579380989049,-7.7460883814771915],[114.30579368564773,-7.7460724640151462],[114.30573049803074,-7.746097137256819],[114.30573064498843,-7.7461159651574967],[114.30573969875496,-7.7461158948523394],[114.30573976924128,-7.7461249253662139],[114.30574882300792,-7.7461248550607813],[114.30574875252141,-7.7461158245469903],[114.30575780628779,-7.7461157542414494],[114.30575773580117,-7.7461067237277339],[114.30577584333327,-7.7461065831162443],[114.30577577284635,-7.7460975526026923],[114.30580293414327,-7.7460973416842664],[114.30580314560603,-7.7461244332241668],[114.30578503807367,-7.7461245738371378],[114.30578496758638,-7.7461155433236764],[114.30576686005406,-7.7461156839357157],[114.30576693054097,-7.7461247144493433],[114.30575787677449,-7.7461247847551586],[114.30575794726128,-7.7461338152688466],[114.30573983972769,-7.7461339558800679],[114.30573991021419,-7.7461429863939513],[114.30576707151502,-7.7461427754765841],[114.30576721248941,-7.7461608365038055],[114.30574005118743,-7.7461610474216718],[114.30574012167416,-7.7461700779355267],[114.30572201413871,-7.7461702185466432],[114.30572215511168,-7.7461882795746684],[114.30573120887985,-7.7461882092690395],[114.30573127936665,-7.7461972397829619],[114.30574033313492,-7.7461971694770586],[114.30574026264792,-7.7461881389632206],[114.30575837018382,-7.7461879983510027],[114.30575829969652,-7.7461789678373236],[114.30576735346415,-7.74617889753101],[114.30576742395164,-7.7461879280446082],[114.30578553148703,-7.746187787431241],[114.30578546099915,-7.7461787569178107],[114.30579451476653,-7.7461786866109215],[114.30579444427853,-7.746169656097571],[114.30578539051136,-7.7461697264043767],[114.30578532002366,-7.7461606958909375],[114.30577626625659,-7.7461607661974679],[114.30577612528181,-7.7461427051704117],[114.3058213941144,-7.7461423536366709],[114.30582118264998,-7.7461152620972964],[114.30583023641569,-7.7461151917902225],[114.30582995446355,-7.7460790697379931],[114.30582090069862,-7.7460791400447349],[114.30582076605172,-7.7460618897667874]]]]},"properties":{"FID":0,"Shape_Leng":18102566.929299999,"Shape_Area":236516885.403}}]
}