{
  "type" : "FeatureCollection",
  "features" : [{"type":"Feature","id":0,"geometry":{"type":"MultiPolygon","coordinates":[[[[113.20371394889413,-6.9012199122061642],[113.20371386524737,-6.9012018336700516],[113.20370482008987,-6.9012018754660662],[113.20370490373631,-6.9012199540022889],[113.20371394889413,-6.9012199122061642]]],[[[113.20373195556215,-6.901201750077508],[113.20373191373849,-6.901192710809573],[113.20372286858129,-6.9011927526058754],[113.20372291040478,-6.9012017918738646],[113.20373195556215,-6.901201750077508]]],[[[113.20427307525145,-6.9008557499240046],[113.20427303341964,-6.9008467106592306],[113.20426398827233,-6.9008467524637052],[113.20426403010396,-6.9008557917285351],[113.20427307525145,-6.9008557499240046]]],[[[113.19929752613757,-6.9007250485494129],[113.19929748440096,-6.9007160092542277],[113.19928843922574,-6.9007160509636005],[113.19928848096218,-6.90072509025884],[113.19929752613757,-6.9007250485494129]]],[[[113.20475004130996,-6.9003292568458212],[113.20474999947236,-6.9003202175837632],[113.20474095433795,-6.900320259394106],[113.20474099617537,-6.9003292986562199],[113.20475004130996,-6.9003292568458212]]],[[[113.20140829218452,-6.9002633368617339],[113.20139389755067,-6.9002592881720579],[113.20139391656765,-6.9002634032103289],[113.20140829218452,-6.9002633368617339]]],[[[113.20137667226896,-6.9002544433228401],[113.2013757833123,-6.9002541932914401],[113.2013757844867,-6.9002544474202212],[113.20137667226896,-6.9002544433228401]]],[[[113.20127615500455,-6.9002261714335189],[113.20127620424952,-6.900236828050093],[113.20128524940351,-6.9002367863059257],[113.20128529117491,-6.900245825589181],[113.20134505235404,-6.9002455497815047],[113.20127615500455,-6.9002261714335189]]],[[[113.20125019261258,-6.9002188691425959],[113.20123992653041,-6.900215981660911],[113.20123994009205,-6.9002189164579786],[113.20125019261258,-6.9002188691425959]]],[[[113.20118695278779,-6.9002010820376141],[113.20116501600002,-6.9001949119999093],[113.20115840990805,-6.9001925010169032],[113.20115845016701,-6.9002012135725446],[113.20118695278779,-6.9002010820376141]]],[[[113.2011575258321,-6.9001921783613636],[113.20114028865454,-6.9001858874185782],[113.20114031809038,-6.9001922577713168],[113.2011575258321,-6.9001921783613636]]],[[[113.20113306694384,-6.9001832517566264],[113.20113122802789,-6.9001825806191057],[113.20113123116818,-6.9001832602282542],[113.20113306694384,-6.9001832517566264]]],[[[113.20110860805622,-6.9001743251503402],[113.20109498552216,-6.9001693534190576],[113.20109500878476,-6.9001743879064907],[113.20110860805622,-6.9001743251503402]]],[[[113.20108414916918,-6.9001653985425042],[113.2010678036437,-6.9001594330167801],[113.20106783155583,-6.900165473841926],[113.20108414916918,-6.9001653985425042]]],[[[113.20105969028269,-6.9001564719331201],[113.20105874301767,-6.9001561262155899],[113.20105874463525,-6.9001564762968748],[113.20105969028269,-6.9001564719331201]]],[[[113.20048885807697,-6.9001500662560113],[113.20047981291972,-6.9001501079845626],[113.20047985467532,-6.9001591472727659],[113.20048889983272,-6.9001591055441605],[113.20048885807697,-6.9001500662560113]]],[[[113.20093189426187,-6.9001098309767448],[113.20093194541987,-6.9001209034909703],[113.20094099057376,-6.9001208617540248],[113.20094103233791,-6.9001299010394259],[113.20096816779979,-6.9001297758273976],[113.20096820956451,-6.9001388151126299],[113.2009953450264,-6.9001386898988954],[113.20099538679169,-6.9001477291839581],[113.20103156740747,-6.9001475622296962],[113.20103160917351,-6.9001566015145341],[113.20104969948139,-6.9001565180362663],[113.20104968239175,-6.9001528194142043],[113.20093189426187,-6.9001098309767448]]],[[[113.20015393672728,-6.900097374357137],[113.20015389497824,-6.9000883350669397],[113.20014484982015,-6.9000883767887693],[113.20014489156902,-6.9000974160790225],[113.20015393672728,-6.900097374357137]]],[[[113.20018107220172,-6.9000972491904546],[113.20018103045217,-6.9000882099004208],[113.20017198529426,-6.9000882516227646],[113.20017202704364,-6.9000972909128535],[113.20018107220172,-6.9000972491904546]]],[[[113.19948384361885,-6.8999377540163804],[113.19943861782167,-6.8999379625557911],[113.19943857608719,-6.8999289232611529],[113.19946571156514,-6.8999287981381858],[113.1994656698302,-6.8999197588437085],[113.19942044403417,-6.899919967380856],[113.19942048576827,-6.8999290066756078],[113.19941144060873,-6.8999290483825799],[113.1994114823427,-6.8999380876773833],[113.1993933920231,-6.8999381710909216],[113.19939335028947,-6.8999291317960072],[113.19937525997,-6.8999292152087515],[113.19937530170327,-6.899938254503776],[113.19936625654329,-6.899938296209946],[113.19936629827646,-6.899947335505022],[113.19934820795596,-6.8999474189169598],[113.19934816622313,-6.8999383796217737],[113.19930294042175,-6.8999385881483448],[113.19930298215372,-6.8999476274438063],[113.19927584667172,-6.8999477525578605],[113.19927588840324,-6.8999567918534845],[113.19926684324228,-6.8999568335578818],[113.1992668849737,-6.8999658728535573],[113.1992759301348,-6.8999658311491041],[113.19927597186643,-6.899974870444721],[113.19926692670514,-6.8999749121492284],[113.1992668849737,-6.8999658728535573],[113.19925783981249,-6.8999659145578391],[113.19925788154379,-6.8999749538535653],[113.19924883638238,-6.8999749955577308],[113.19924887811355,-6.8999840348535093],[113.19923983295193,-6.8999840765575584],[113.19923987468297,-6.8999931158533885],[113.1992308295211,-6.8999931575573221],[113.19923087125204,-6.9000021968532037],[113.19921278092781,-6.9000022802606669],[113.19921286438917,-6.9000203588526388],[113.19920381922663,-6.9000204005562242],[113.19920386095721,-6.9000294398522595],[113.19919481579446,-6.9000294815557286],[113.19919485752493,-6.9000385208518153],[113.19918581236192,-6.9000385625551681],[113.1991860210143,-6.9000837590358257],[113.19917697585041,-6.9000838007392833],[113.19917722623406,-6.9001380365162808],[113.19918627139899,-6.9001379948124937],[113.19918702256517,-6.9003007021417018],[113.19917797739716,-6.9003007438464836],[113.19917801912898,-6.9003097831425535],[113.19916897396071,-6.9003098248472181],[113.19916901569242,-6.9003188641433741],[113.19915997052395,-6.9003189058479233],[113.19916005398716,-6.9003369844403002],[113.1991510088183,-6.9003370261447881],[113.19915113401304,-6.9003641440334906],[113.19916017918241,-6.9003641023288393],[113.19916034611022,-6.9004002595135052],[113.19916939128022,-6.9004002178084596],[113.19916943301249,-6.9004092571045614],[113.19917847818263,-6.9004092153992902],[113.1991784364502,-6.9004001761032443],[113.1991874816201,-6.9004001343978558],[113.19918752335271,-6.9004091736938484],[113.19919656852274,-6.9004091319882344],[113.19919648505724,-6.9003910533963566],[113.19918743988755,-6.9003910951018597],[113.19918718949344,-6.900336859325809],[113.19919623466212,-6.9003368176206363],[113.1991961094653,-6.90030969973271],[113.19920515463338,-6.900309658027532],[113.19920502943656,-6.9002825401397709],[113.19921407460407,-6.9002824984345867],[113.19921382421091,-6.9002282626592644],[113.19922286937735,-6.90022822095424],[113.19922270244902,-6.900192063770838],[113.1992317476147,-6.9001920220658626],[113.19923170588258,-6.9001829827700591],[113.1992136155515,-6.9001830661797285],[113.19921332343066,-6.9001197911082235],[113.19920427826624,-6.9001198328124156],[113.19920419480398,-6.9001017542203966],[113.19921323996806,-6.9001017125163155],[113.19921298958164,-6.9000474767405695],[113.19923107990758,-6.9000473933325557],[113.19923099644519,-6.9000293147408245],[113.19924908677024,-6.9000292313323461],[113.1992490450388,-6.9000201920365862],[113.19926713536327,-6.9000201086275323],[113.19926709363153,-6.9000110693318968],[113.19925804846949,-6.900011111036453],[113.19925800673798,-6.9000020717407242],[113.19927609706166,-6.9000019883315495],[113.19927622225738,-6.9000291062183443],[113.19928526741965,-6.9000290645133333],[113.19928514222342,-6.9000019466267037],[113.19929418738512,-6.9000019049216883],[113.19929410392088,-6.8999838263306952],[113.19930314908217,-6.8999837846256185],[113.19930310734998,-6.8999747453301712],[113.19936642347632,-6.8999744533902287],[113.19936638174298,-6.8999654140951643],[113.19937542690347,-6.8999653723888272],[113.19937538517001,-6.8999563330938143],[113.19942965613089,-6.8999560828525359],[113.19942961439645,-6.8999470435578498],[113.19948388535425,-6.8999467933107397],[113.19948384361885,-6.8999377540163804]],[[113.19931206904648,-6.8999566250341831],[113.19932111420715,-6.8999565833289296],[113.19932115593959,-6.8999656226242738],[113.19931211077875,-6.8999656643295824],[113.19931206904648,-6.8999566250341831]]],[[[113.19952902767842,-6.8999285061786031],[113.19952898594228,-6.899919466884513],[113.19954707625952,-6.8999193834660586],[113.19954703452308,-6.8999103441720742],[113.19949276357175,-6.8999105944250498],[113.19949280530714,-6.8999196337193665],[113.19948376014821,-6.8999196754276513],[113.19948384361885,-6.8999377540163804],[113.19950193393733,-6.8999376705994173],[113.19950189220165,-6.8999286313051655],[113.19952902767842,-6.8999285061786031]]],[[[113.20515875349659,-6.898736423651405],[113.20515871166097,-6.8987273843912265],[113.20514966655928,-6.8987274261997138],[113.20514970839474,-6.8987364654599457],[113.20515875349659,-6.898736423651405]]],[[[113.2049881515489,-6.8990083958190231],[113.20498810971486,-6.8989993565579217],[113.20500619993045,-6.8989992729436231],[113.20500611626184,-6.8989811944216326],[113.2050151613692,-6.8989811526143372],[113.20501507770048,-6.8989630740924408],[113.20500603259345,-6.8989631158996261],[113.20500607442762,-6.8989721551606307],[113.20499702932037,-6.8989721969676996],[113.20499690381855,-6.8989450791845259],[113.20498785871176,-6.8989451209912582],[113.2049878168781,-6.8989360817301151],[113.20499686198474,-6.8989360399234378],[113.20499677831725,-6.8989179614012839],[113.20500582342346,-6.8989179195945471],[113.20500578158963,-6.8989088803335203],[113.20501482669563,-6.8989088385266664],[113.20501470119396,-6.8988817207437299],[113.20505992672055,-6.8988815117077253],[113.20505988488591,-6.8988724724469987],[113.20506892999092,-6.8988724306393392],[113.20506888815616,-6.8988633913786979],[113.2050779332609,-6.8988633495709237],[113.20507784959123,-6.8988452710497059],[113.20509593979989,-6.8988451874338637],[113.2050958979648,-6.89883614817336],[113.20510494306886,-6.8988361063652386],[113.20510490123365,-6.8988270671047696],[113.20511394633751,-6.8988270252965309],[113.20511390450217,-6.898817986036148],[113.20513199470936,-6.8988179024192684],[113.20513191103818,-6.8987998238986776],[113.20515000124443,-6.8987997402813344],[113.20514991757281,-6.8987816617609683],[113.20517705288077,-6.8987815363340017],[113.20517696920834,-6.8987634578139181],[113.20516792410608,-6.8987634996229676],[113.20516788227012,-6.8987544603628734],[113.20517692737222,-6.8987544185538798],[113.20517688553615,-6.898745379293838],[113.20519497573977,-6.8987452956754449],[113.20519493390341,-6.8987362564155266],[113.20520397900499,-6.8987362146061297],[113.20520393716852,-6.89872717534623],[113.20522202737112,-6.8987270917270322],[113.20522194369767,-6.8987090132074753],[113.20523098879856,-6.8987089713977312],[113.20523103063543,-6.8987180106574559],[113.20524912083738,-6.8987179270373415],[113.205249037163,-6.8986998485181097],[113.20526712736402,-6.8986997648975317],[113.20526708552657,-6.8986907256380201],[113.20527613062684,-6.8986906838275299],[113.20527617246447,-6.8986997230869873],[113.20528521756482,-6.8986996812762706],[113.20528517572703,-6.8986906420168701],[113.20531231102731,-6.8986905165838603],[113.20531222735087,-6.8986724380653781],[113.20529413715144,-6.8986725216873355],[113.20529405347591,-6.8986544431686179],[113.20526691817733,-6.8986545685999383],[113.20526696001455,-6.8986636078594472],[113.20524886981491,-6.8986636914795811],[113.20524891165185,-6.8986727307392322],[113.20525795675186,-6.8986726889291949],[113.20525799858903,-6.8986817281887687],[113.20524895348883,-6.898681769998861],[113.20524891165185,-6.8986727307392322],[113.20523986655175,-6.8986727725490971],[113.20523990838858,-6.8986818118087818],[113.20521277308747,-6.8986819372375185],[113.20521281492383,-6.8986909764973658],[113.20518567962169,-6.8986911019247277],[113.20518572145761,-6.8987001411847366],[113.20517667635661,-6.8987001829935712],[113.20517671819242,-6.8987092222536308],[113.20516767309118,-6.8987092640623491],[113.20516771492686,-6.8987183033224611],[113.20515866982542,-6.8987183451310639],[113.20515871166097,-6.8987273843912265],[113.20516775676258,-6.8987273425825695],[113.20516779859838,-6.8987363818426921],[113.20515875349659,-6.898736423651405],[113.20515879533227,-6.8987454629115437],[113.20514975023023,-6.8987455047201411],[113.2051497920658,-6.898754543980349],[113.20514074696355,-6.8987545857888302],[113.20514070512817,-6.8987455465285654],[113.20513166002605,-6.8987455883368201],[113.20513170186126,-6.898754627597139],[113.2051226567589,-6.8987546694052782],[113.205122698594,-6.8987637086656486],[113.20511365349141,-6.8987637504736714],[113.2051136953264,-6.8987727897340934],[113.20510465022357,-6.8987728315419998],[113.20510469205846,-6.8987818708024902],[113.20509564695541,-6.8987819126102812],[113.20509568879017,-6.8987909518707893],[113.20508664368691,-6.8987909936784648],[113.20508668552155,-6.8988000329390413],[113.20507764041805,-6.8988000747466005],[113.20507768225256,-6.8988091140072285],[113.20508672735626,-6.8988090721996143],[113.20508676919101,-6.8988181114601845],[113.20506867898327,-6.8988181950753527],[113.20506872081774,-6.8988272343360126],[113.20505967571361,-6.8988272761433951],[113.20505971754795,-6.8988363154041403],[113.20506876265226,-6.898836273596701],[113.20506880448684,-6.8988453128573708],[113.20505071427785,-6.8988453964721863],[113.2050506724436,-6.8988363572114073],[113.20500544692102,-6.8988365662451736],[113.20500548875441,-6.8988456055062297],[113.20499644364956,-6.8988456473125241],[113.20499648548282,-6.8988546865736327],[113.20498744037772,-6.8988547283798125],[113.20498752404409,-6.8988728069021104],[113.20499656914953,-6.8988727650958213],[113.20499661098296,-6.8988818043569342],[113.20498756587735,-6.8988818461632802],[113.20498752404409,-6.8988728069021104],[113.2049784789386,-6.8988728487082289],[113.20497856260485,-6.8988909272306564],[113.20496951749897,-6.8988909690367155],[113.20496964299824,-6.89891808682047],[113.20497868810463,-6.8989180450142458],[113.20497872993799,-6.8989270842754351],[113.20496968483144,-6.8989271260817144],[113.20496964299824,-6.89891808682047],[113.20496059789177,-6.8989181286265229],[113.2049606397248,-6.8989271678878232],[113.20495159461814,-6.8989272096937597],[113.20495180378326,-6.8989724060004791],[113.20493371356802,-6.8989724896123921],[113.20493379723378,-6.8989905681352921],[113.20492475212573,-6.8989906099411034],[113.20492479395853,-6.8989996492025778],[113.20491574885024,-6.8989996910082727],[113.20491579068292,-6.8990087302698155],[113.20490674557443,-6.8990087720753941],[113.204906787407,-6.8990178113369884],[113.20488869718947,-6.8990178949477432],[113.20488873902174,-6.899026934209445],[113.20487969391274,-6.8990269760146221],[113.20487973574491,-6.8990360152763577],[113.20487069063566,-6.8990360570814175],[113.20487073246771,-6.8990450963432393],[113.20486168735825,-6.8990451381481837],[113.20486177102217,-6.8990632166718919],[113.20485272591229,-6.899063258476775],[113.2048528095761,-6.8990813370005641],[113.20484376446583,-6.8990813788053869],[113.2048438481295,-6.8990994573293047],[113.20483480301885,-6.8990994991340662],[113.2048349703462,-6.8991356561820458],[113.2048259252348,-6.8991356979868579],[113.2048259670666,-6.899144737248899],[113.20481692195497,-6.8991447790535947],[113.20481700561842,-6.8991628575777773],[113.20480796050637,-6.8991628993824134],[113.2048080441697,-6.8991809779066902],[113.20479899905727,-6.8991810197112642],[113.20479904088886,-6.8991900589734536],[113.2047899957762,-6.8991901007779131],[113.20479003760765,-6.8991991400401691],[113.20478099249476,-6.8991991818445122],[113.2047810343261,-6.8992082211067878],[113.204771989213,-6.8992082629110154],[113.20477203104423,-6.8992173021733585],[113.20474489570405,-6.8992174275851799],[113.20474493753483,-6.8992264668476855],[113.20473589242113,-6.8992265086513394],[113.2047359342518,-6.8992355479138965],[113.20472688913789,-6.899235589717434],[113.20472693096843,-6.8992446289800258],[113.20471788585431,-6.8992446707834469],[113.20471792768473,-6.899253710046124],[113.20470888257036,-6.8992537518494297],[113.20470892440066,-6.8992627911121422],[113.2046998792861,-6.8992628329153316],[113.20469996294653,-6.8992809114408553],[113.20469091783153,-6.8992809532439843],[113.20469095966168,-6.8992899925067785],[113.20468191454647,-6.8992900343097929],[113.20468199820657,-6.8993081128355316],[113.20467295309096,-6.8993081546384847],[113.20467303675093,-6.8993262331643033],[113.20466399163492,-6.899326274967196],[113.20466411712479,-6.8993533927560611],[113.20465507200822,-6.8993534345589485],[113.20465515566808,-6.89937151308495],[113.20464611055108,-6.899371554887777],[113.20464615238093,-6.8993805941508279],[113.20463710726374,-6.8993806359535377],[113.20463714909346,-6.8993896752166419],[113.20462810397603,-6.8993897170192353],[113.20462827129481,-6.8994258740718308],[113.20461922617662,-6.8994259158744757],[113.20461935166577,-6.8994530336640327],[113.20461030654704,-6.8994530754666714],[113.20461043203619,-6.8994801932563954],[113.20460138691686,-6.8994802350590287],[113.20460147057624,-6.8994983135855916],[113.20459242545653,-6.8994983553881664],[113.20459259277526,-6.8995345124414689],[113.20458354765481,-6.8995345542440925],[113.20458363131418,-6.8995526327708321],[113.2045745861933,-6.8995526745733953],[113.2045746280229,-6.8995617138368157],[113.20456558290182,-6.8995617556392617],[113.20456566656082,-6.8995798341662011],[113.20455662143937,-6.8995798759685876],[113.20455670509826,-6.899597954495623],[113.20454765997636,-6.8995979962979481],[113.20454778546461,-6.8996251140886393],[113.20453874034217,-6.89962515589096],[113.20453886583041,-6.8996522736817845],[113.20452982070738,-6.899652315484099],[113.20452990436614,-6.8996703940114079],[113.20452085924273,-6.8996704358136611],[113.20452094290138,-6.8996885143410651],[113.20451189777758,-6.8996885561432597],[113.2045119396068,-6.8996975954070114],[113.20450289448276,-6.8996976372090888],[113.20450297814105,-6.8997157157366917],[113.20449393301662,-6.8997157575387087],[113.20449410033319,-6.8997519145940922],[113.20448505520801,-6.8997519563961589],[113.20448509703712,-6.8997609956600519],[113.20447605191171,-6.8997610374620022],[113.20447626105728,-6.8998062337816846],[113.20446721593096,-6.8998062755837397],[113.20446725776007,-6.8998153148477206],[113.2044582126335,-6.8998153566496612],[113.20445837994983,-6.8998515137057685],[113.20444933482253,-6.899851555507758],[113.20444950213906,-6.899887712564027],[113.204440457011,-6.8998877543660662],[113.20444054066927,-6.8999058328942908],[113.20443149554085,-6.8999058746962696],[113.20443162102814,-6.8999329924887425],[113.20442257589914,-6.8999330342907168],[113.20442265955727,-6.8999511128191244],[113.20441361442786,-6.8999511546210366],[113.20441365625683,-6.899960193885291],[113.20440461112722,-6.8999602356870895],[113.2044048202721,-6.9000054320085784],[113.20439577514158,-6.9000054738104808],[113.20439581697053,-6.9000145130748232],[113.20438677183976,-6.9000145548766092],[113.20438698098461,-6.9000597511985413],[113.20437793585293,-6.900059793000433],[113.20437797768192,-6.9000688322648642],[113.20438702281375,-6.9000687904629174],[113.20438706464294,-6.9000778297272714],[113.20437801951094,-6.9000778715292741],[113.20437810316915,-6.9000959500581338],[113.20436905803672,-6.900095991860077],[113.20436909986573,-6.9001050311245464],[113.20437814499833,-6.9001049893225499],[113.20437818682758,-6.9001140285869624],[113.20438723196028,-6.9001139867847385],[113.20438756659766,-6.9001863008994633],[113.2043966117317,-6.9001862590966256],[113.2043966535618,-6.9001952983609112],[113.20440569869592,-6.9001952565578479],[113.20440574052625,-6.9002042958220411],[113.20439669539194,-6.9002043376251585],[113.20439694637403,-6.9002585732106736],[113.20440599150936,-6.9002585314072222],[113.20440628432556,-6.9003218062564349],[113.20439723918902,-6.9003218480602717],[113.20439728101995,-6.9003308873244862],[113.20438823588319,-6.9003309291282067],[113.20438827771402,-6.9003399683924718],[113.20439732285095,-6.9003399265886953],[113.20439736468201,-6.9003489658529018],[113.20438831954489,-6.9003490076567333],[113.20438877968824,-6.9004484395633527],[113.20439782482725,-6.9004483977589137],[113.20439786665898,-6.9004574370230927],[113.20440691179807,-6.9004573952184263],[113.2044070372941,-6.900484513010726],[113.2043979921545,-6.9004845548155567],[113.20439815948261,-6.9005207118721259],[113.20438911434225,-6.9005207536770081],[113.20438923983841,-6.9005478714695618],[113.20438019469748,-6.9005479132744378],[113.20438023652949,-6.900556952538671],[113.2043711913883,-6.9005569943434324],[113.2043712332202,-6.900566033607733],[113.20436218807882,-6.9005660754123781],[113.20436227174241,-6.9005841539410282],[113.20435322660063,-6.9005841957456129],[113.20435326843234,-6.900593235009997],[113.20434422329031,-6.9005932768144644],[113.2043442651219,-6.9006023160789001],[113.20432617483736,-6.9006023996874344],[113.20432621666868,-6.9006114389519917],[113.20432403634774,-6.9006114490288288],[113.20431717152616,-6.9006114807560577],[113.2043172551886,-6.9006295592852247],[113.20430821004568,-6.9006296010892294],[113.20430825187682,-6.9006386403538711],[113.20429920673365,-6.9006386821577594],[113.20429929039574,-6.9006567606871263],[113.20429024525221,-6.9006568024909534],[113.20429037074524,-6.9006839202851831],[113.20428132560112,-6.9006839620890057],[113.20428157658769,-6.9007381976776641],[113.2042725314425,-6.9007382394816474],[113.20427278243007,-6.9007924750705048],[113.20426373728378,-6.9007925168746471],[113.20426377911507,-6.9008015561394993],[113.20425473396854,-6.900801597943528],[113.20425477579971,-6.9008106372084308],[113.20423668550617,-6.9008107208160823],[113.20423676916799,-6.9008287993461002],[113.20422772402081,-6.9008288411497798],[113.20422776585163,-6.9008378804148389],[113.20421872070422,-6.9008379222184022],[113.20421876253492,-6.900846961483512],[113.20420067223957,-6.9008470450902362],[113.20420071407,-6.9008560843554534],[113.20419166892206,-6.9008561261586143],[113.20419175258273,-6.9008742046891483],[113.20409225594797,-6.9008746645138306],[113.20409229777651,-6.9008837037796997],[113.2040832526274,-6.9008837455809715],[113.20408333628428,-6.9009018241128093],[113.20407429113475,-6.9009018659140207],[113.20407433296312,-6.9009109051799724],[113.20406528781338,-6.9009109469810674],[113.20406532964162,-6.9009199862471045],[113.20405628449166,-6.900920028048084],[113.20405632631979,-6.9009290673141557],[113.20404728116958,-6.9009291091150198],[113.20404736482567,-6.9009471876472626],[113.20403831967508,-6.9009472294480645],[113.20403840333104,-6.9009653079804041],[113.20401126787786,-6.9009654333821171],[113.20401130970544,-6.9009744726484472],[113.20388467758154,-6.9009750578368383],[113.20388471940677,-6.9009840971039553],[113.20386662910211,-6.900984180699667],[113.20386667092704,-6.9009932199668569],[113.20384858062184,-6.9009933035619957],[113.20384862244647,-6.901002342829309],[113.2037038999939,-6.9010030115666448],[113.20370385817202,-6.9009939722984486],[113.20367672271108,-6.9009940976816537],[113.20367668088974,-6.900985058413303],[113.20366763573617,-6.9009851002073086],[113.20366759391507,-6.9009760609388655],[113.20363141330083,-6.9009762281129481],[113.20363137148048,-6.9009671888442972],[113.20361328117336,-6.9009672724302016],[113.20361332299339,-6.9009763116989626],[113.20360427783957,-6.9009763534917123],[113.20360423601973,-6.9009673142228962],[113.20358614571229,-6.900967397807773],[113.20358618753178,-6.9009764370767002],[113.20356809722379,-6.9009765206610014],[113.20356813904301,-6.9009855599300529],[113.20355909388873,-6.9009856017220024],[113.20355913570783,-6.9009946409910707],[113.20354104539881,-6.9009947245745673],[113.20354108721762,-6.90100376384376],[113.20353204206286,-6.9010038056353045],[113.20353208388156,-6.9010128449045487],[113.20351399357149,-6.9010129284872397],[113.20351403538992,-6.9010219677565896],[113.20339644836686,-6.9010225110280983],[113.20339640655068,-6.9010134717580289],[113.203360225927,-6.9010136389124499],[113.20336018411156,-6.9010045996421576],[113.20334209379971,-6.9010046832182308],[113.20334205198466,-6.9009956439478231],[113.20333300682881,-6.9009956857355474],[113.20333296501398,-6.9009866464650971],[113.20331487470251,-6.9009867300399224],[113.2033148328881,-6.9009776907693245],[113.20327865226511,-6.9009778579166987],[113.20327861045143,-6.900968818645894],[113.20321529436026,-6.9009691111468197],[113.20321525254785,-6.9009600718756241],[113.20315193645514,-6.9009603643677746],[113.20315189464398,-6.9009513250961882],[113.20312475917531,-6.9009514504472325],[113.20312471736473,-6.9009424111754774],[113.20310662705238,-6.9009424947418747],[113.20310658524218,-6.9009334554700041],[113.20308849492993,-6.9009335390356057],[113.20308845312013,-6.9009244997636214],[113.20307940796408,-6.90092454154611],[113.20307936615451,-6.9009155022740503],[113.20307032099861,-6.9009155440563124],[113.20307027918926,-6.9009065047842277],[113.20304314372169,-6.9009066301298212],[113.2030431855305,-6.9009156694020719],[113.20303414037436,-6.9009157111836492],[113.20303409856569,-6.9009066719113434],[113.20304314372169,-6.9009066301298212],[113.2030431019129,-6.9008975908575509],[113.20303405675709,-6.9008976326390172],[113.20303401494854,-6.9008885933666866],[113.20298878916955,-6.9008888022711767],[113.20298874736191,-6.9008797629985663],[113.20294352158241,-6.9008799718985001],[113.20294347977568,-6.9008709326255939],[113.20289825399561,-6.9008711415209705],[113.20289821218981,-6.9008621022478192],[113.20288012187771,-6.9008621858046597],[113.2028800800723,-6.900853146531376],[113.20287103491634,-6.900853188309485],[113.20287099311116,-6.9008441490361427],[113.20286194795533,-6.9008441908140243],[113.20286190615036,-6.9008351515406225],[113.20285286099465,-6.9008351933182794],[113.20285281918991,-6.900826154044835],[113.20283472887864,-6.9008262375995226],[113.20283468707431,-6.9008171983259317],[113.20275328067235,-6.9008175743130549],[113.20275323886962,-6.9008085350389798],[113.20272610340182,-6.900808660364774],[113.20272606159965,-6.9007996210905285],[113.20270797128782,-6.9007997046400904],[113.20270792948605,-6.900790665365732],[113.20268079401845,-6.9007907906886272],[113.20268075221725,-6.9007817514141152],[113.20267170706143,-6.9007817931880142],[113.20267166526047,-6.9007727539134107],[113.20266262010475,-6.9007727956870859],[113.20266253650334,-6.9007547171377892],[113.2026173107257,-6.9007549260030396],[113.20261726892593,-6.9007458867281084],[113.20257204314777,-6.9007460955888025],[113.20257200134891,-6.9007370563135941],[113.20254486588183,-6.9007371816277896],[113.20254482408353,-6.9007281423524107],[113.20253577892792,-6.9007281841234107],[113.20253573712986,-6.9007191448479741],[113.20252669197436,-6.9007191866187485],[113.20252665017651,-6.9007101473432346],[113.20251760502111,-6.9007101891137825],[113.20251756322351,-6.9007011498382447],[113.20249947291288,-6.900701233378717],[113.20249943111567,-6.9006921941030468],[113.20248134080518,-6.9006922776427242],[113.20248129900837,-6.9006832383669403],[113.20241798292103,-6.9006835307500296],[113.20241794112547,-6.9006744914738558],[113.20239080565915,-6.9006746167781596],[113.20239076386416,-6.9006655775018002],[113.20236362839785,-6.9006657028043987],[113.20236358660344,-6.9006566635279034],[113.20235454144805,-6.9006567052950363],[113.20235449965385,-6.9006476660184664],[113.20233640934327,-6.9006477495521121],[113.20233636754948,-6.9006387102754267],[113.20230018692833,-6.9006388773404428],[113.2023001451353,-6.9006298380635336],[113.20227300966934,-6.9006299633603323],[113.20227296787687,-6.9006209240832694],[113.20222774210002,-6.9006211329075677],[113.20222770030847,-6.9006120936301913],[113.20212820359635,-6.9006125530279752],[113.20212816180674,-6.9006035137500046],[113.20207389087103,-6.9006037643215503],[113.2020738490825,-6.9005947250432458],[113.20206480392653,-6.900594766804514],[113.20206476213821,-6.9005857275261517],[113.20204667182644,-6.9005858110480682],[113.20204663003852,-6.9005767717696074],[113.20201949457096,-6.9005768970510299],[113.20201945278362,-6.9005678577723657],[113.20197422700406,-6.9005680665710383],[113.20197418521762,-6.9005590272921111],[113.20195609490575,-6.9005591108102724],[113.20195605311973,-6.9005500715312316],[113.20193796280797,-6.900550155048597],[113.20193792102233,-6.9005411157694398],[113.20190174039885,-6.9005412828018962],[113.20190169861397,-6.9005322435225169],[113.20188360830223,-6.900532327037606],[113.20188356651774,-6.9005232877581104],[113.20185643105022,-6.9005234130292985],[113.2018563892663,-6.9005143737496342],[113.20182925379878,-6.9005144990191134],[113.20182921201543,-6.9005054597392652],[113.20178398623598,-6.9005056685180284],[113.20178394445354,-6.9004966292379333],[113.20172062836119,-6.9004969215206273],[113.20172067014242,-6.9005059608011097],[113.20163021857542,-6.9005063783338141],[113.20163017679589,-6.9004973390527811],[113.20160304132521,-6.9004974643090886],[113.20160299954625,-6.9004884250278682],[113.20156681891858,-6.9004885920336605],[113.20156677714036,-6.9004795527522154],[113.20149441588369,-6.900479886755142],[113.2014943741069,-6.9004708474732519],[113.20144914832052,-6.9004710562192413],[113.20144910654463,-6.9004620169370545],[113.20143101623003,-6.9004621004341402],[113.20143097445455,-6.9004530611518744],[113.20142192929734,-6.9004531029001051],[113.20142188752209,-6.9004440636177629],[113.20139475205063,-6.9004441888612646],[113.20139471027595,-6.9004351495787519],[113.20135852964722,-6.9004353165674699],[113.20135848787328,-6.9004262772847333],[113.20134944271615,-6.9004263190314292],[113.20134948448991,-6.9004353583142199],[113.20134043933253,-6.9004354000608012],[113.20134039755892,-6.9004263607779546],[113.20121376535218,-6.9004269452113265],[113.20121372358105,-6.9004179059277204],[113.20116849779112,-6.9004181146455181],[113.20116845602088,-6.9004090753615985],[113.20115036570486,-6.9004091588474088],[113.20115032393502,-6.9004001195633915],[113.20113223361911,-6.9004002030484068],[113.20113219184968,-6.900391163764275],[113.20108696605979,-6.9003913724735408],[113.20108692429127,-6.9003823331891301],[113.2010597888172,-6.9003824584124693],[113.20105974704924,-6.9003734191279058],[113.20104165673324,-6.9003735026091659],[113.20104161496569,-6.900364463324455],[113.20101447949179,-6.9003645885448943],[113.20101443772481,-6.9003555492600324],[113.20096921193472,-6.9003557579570654],[113.20096917016863,-6.9003467186719227],[113.20095107985257,-6.9003468021494276],[113.2009510380869,-6.9003377628641704],[113.20094199292893,-6.9003378046026107],[113.20094195116349,-6.9003287653172958],[113.20092386084774,-6.9003288487935528],[113.20092373555278,-6.9003017309372359],[113.20088755492269,-6.9003018978870321],[113.20088751315849,-6.9002928586013867],[113.20086942284345,-6.900292942075148],[113.20086929755225,-6.9002658242178105],[113.20083311692353,-6.900265991162617],[113.20083307516059,-6.9002569518765924],[113.2007788042169,-6.9002572022883335],[113.20077876245504,-6.9002481630020087],[113.20076067214036,-6.9002482464711079],[113.20076063037891,-6.9002392071846526],[113.200733494907,-6.9002393323868532],[113.20073345314611,-6.9002302931002273],[113.20072440798886,-6.9002303348338971],[113.2007243662282,-6.9002212955472126],[113.20071532107106,-6.9002213372806551],[113.20071527931063,-6.9002122979939307],[113.20068814383941,-6.9002124231930662],[113.20068810207957,-6.9002033839061374],[113.20067905692254,-6.9002034256387841],[113.20067901516292,-6.9001943863518145],[113.20066092484906,-6.9001944698164861],[113.20066088308982,-6.900185430529401],[113.20065183793299,-6.9001854722614251],[113.20065179617399,-6.9001764329742814],[113.20064275101726,-6.900176474706079],[113.20064270925846,-6.9001674354188767],[113.20061557378848,-6.9001675606130766],[113.20061553203027,-6.9001585213257055],[113.20059744171699,-6.9001586047875385],[113.20059739995919,-6.9001495655000529],[113.20057930964603,-6.9001496489610901],[113.20057926788863,-6.9001406096734907],[113.20057022273214,-6.9001406514036985],[113.20057013921782,-6.9001225728283773],[113.20055204890537,-6.9001226562880573],[113.20055200714864,-6.9001136170002813],[113.2005429619925,-6.9001136587298095],[113.200542920236,-6.900104619441974],[113.20050673961155,-6.9001047863581535],[113.20050665610009,-6.9000867077820311],[113.20045238516381,-6.9000869581505029],[113.20045234340918,-6.9000779188621051],[113.20040711762827,-6.9000781274975154],[113.20040707587457,-6.9000690882088378],[113.20035280493664,-6.9000693385653502],[113.20035276318401,-6.9000602992763369],[113.20032562771482,-6.900060424452116],[113.20032558596277,-6.9000513851629171],[113.20030749565002,-6.9000514686124701],[113.20030745389836,-6.9000424293231921],[113.20027127327289,-6.9000425962200236],[113.20027123152197,-6.900033556930504],[113.20023505089631,-6.9000337238243752],[113.20023500914613,-6.9000246845346309],[113.20018073820695,-6.9000249348699718],[113.20018069645785,-6.9000158955798927],[113.20014451583133,-6.9000160624664755],[113.20014447408298,-6.9000070231761894],[113.20013542892636,-6.9000070648973511],[113.20013538717822,-6.8999980256069726],[113.20011729686522,-6.8999981090486733],[113.200117338613,-6.9000071483391636],[113.20009924829938,-6.9000072317802896],[113.20009920655194,-6.89999819248969],[113.20005398076781,-6.8999984010892357],[113.20005393902129,-6.8999893617983732],[113.19997253260786,-6.8999897372662735],[113.19997249086292,-6.899980697974911],[113.19993631023398,-6.8999808648448617],[113.19993635197822,-6.8999899041364454],[113.19992730682067,-6.8999899458535587],[113.1999272650766,-6.8999809065619209],[113.19993631023398,-6.8999808648448617],[113.19993626848979,-6.8999718255532745],[113.19987295238816,-6.8999721175687112],[113.19987299413116,-6.8999811568606839],[113.19986394897339,-6.8999811985765449],[113.19986390723057,-6.899972159284518],[113.19987295238816,-6.8999721175687112],[113.19987291064523,-6.8999630782767358],[113.19980054938424,-6.89996341199795],[113.19980050764272,-6.8999543727055288],[113.19977337216943,-6.8999544978479932],[113.19977333042851,-6.8999454585554041],[113.1997100143234,-6.8999457505481123],[113.19970997258372,-6.8999367112551324],[113.1996828371098,-6.899936836392131],[113.19968279537068,-6.8999277970989814],[113.19967375021275,-6.8999278388109166],[113.19967379195168,-6.8999368781041222],[113.19961952100198,-6.8999371283724704],[113.19961943752621,-6.8999190497853951],[113.19955612141804,-6.8999193417565756],[113.1995561631547,-6.8999283810505005],[113.19952902767842,-6.8999285061786031],[113.19952906941462,-6.8999375454726906],[113.19957429520899,-6.8999373369247197],[113.19957425347194,-6.8999282976309084],[113.19959234378896,-6.8999282142106324],[113.19959242726381,-6.8999462927980311],[113.1996376530571,-6.8999460842437932],[113.19963769479546,-6.8999551235372119],[113.19968292058819,-6.8999549149784194],[113.19968296232746,-6.8999639542715574],[113.19969200748601,-6.8999639125592305],[113.19969204922552,-6.8999729518523099],[113.19974632017667,-6.8999727015744199],[113.19974636191726,-6.8999817408671644],[113.19980063286741,-6.8999814905827828],[113.19980067460908,-6.8999905298751925],[113.19985494555824,-6.8999902795843147],[113.19985498730101,-6.8999993188763913],[113.19997257435284,-6.8999987765576316],[113.1999726160979,-6.9000078158490039],[113.19999070641306,-6.9000077324126705],[113.1999907481585,-6.9000167717038945],[113.20004501910368,-6.9000165213904552],[113.20004506085021,-6.9000255606813612],[113.20010837695159,-6.9000252686408388],[113.20010841869937,-6.9000343079313566],[113.20013555417106,-6.9000341827683993],[113.20013559591942,-6.9000432220587458],[113.20017177654825,-6.900043055172187],[113.20017181829733,-6.9000520944622927],[113.20016277314004,-6.9000521361842448],[113.20016285663804,-6.9000702147646074],[113.20017190179568,-6.9000701730425442],[113.20017186004648,-6.9000611337524296],[113.20022613099009,-6.9000608834167911],[113.20022617274032,-6.9000699227065763],[113.20025330821188,-6.9000697975362808],[113.20025334996268,-6.9000788368258954],[113.20028953059135,-6.9000786699295515],[113.20028957234288,-6.9000877092189423],[113.20032575297132,-6.9000875423196382],[113.20032579472361,-6.9000965816087882],[113.20035293019487,-6.9000964564323475],[113.20035297194772,-6.9001054957213608],[113.20036201710485,-6.9001054539954829],[113.20036197535183,-6.9000964147065247],[113.20037102050874,-6.9000963729805305],[113.20037106226194,-6.9001054122694345],[113.20038915257595,-6.9001053288168226],[113.20038919432955,-6.9001143681055961],[113.20042537495758,-6.9001142011980967],[113.20042541671192,-6.9001232404866464],[113.20045255218287,-6.9001231153040585],[113.20045259393777,-6.9001321545924386],[113.20047972940873,-6.9001320294081445],[113.2004797711642,-6.9001410686963558],[113.20048881632127,-6.9001410269678605],[113.20048885807697,-6.9001500662560113],[113.20049790323412,-6.9001500245272904],[113.20049794499005,-6.9001590638153827],[113.2005250804617,-6.9001589386280244],[113.2005251222182,-6.9001679779159488],[113.20053416737549,-6.9001679361864321],[113.20053425088901,-6.9001860147621574],[113.20057947667627,-6.9001858061114536],[113.20057951843395,-6.9001948453990352],[113.20058856359141,-6.9001948036683256],[113.20058860534934,-6.9002038429558485],[113.20063383113664,-6.9002036342994559],[113.20063391465438,-6.9002217128739387],[113.2006520049696,-6.9002216294099634],[113.20065204672889,-6.9002306686970885],[113.20066109188656,-6.9002306269647891],[113.20066113364609,-6.9002396662518564],[113.20067922396166,-6.9002395827866323],[113.20067926572158,-6.9002486220735841],[113.20070640119501,-6.9002484968743003],[113.20070648471604,-6.9002665754478638],[113.20069743955794,-6.9002666171812397],[113.20069748131837,-6.9002756564680707],[113.200724616793,-6.9002755312672628],[113.20072465855401,-6.9002845705539242],[113.2007427488705,-6.9002844870857514],[113.20074279063189,-6.9002935263722991],[113.20078801642298,-6.9002933176985977],[113.20078809994764,-6.9003113962711309],[113.20080619026439,-6.9003113128002314],[113.20080614850168,-6.9003022735140593],[113.20081519365981,-6.900302231778408],[113.20081523542268,-6.9003112710645249],[113.20084237089721,-6.9003111458563753],[113.20084241266065,-6.9003201851423057],[113.20086050297706,-6.9003201016692426],[113.2008605865048,-6.9003381802408699],[113.20088772198001,-6.9003380550296578],[113.20088784727359,-6.900365172886576],[113.20092402790848,-6.9003650059352344],[113.20092411143919,-6.9003830845060525],[113.20099647270902,-6.9003827505942681],[113.20099651447582,-6.9003917898792304],[113.20102364995162,-6.9003916646593222],[113.201023691719,-6.900400703944114],[113.20106891751171,-6.9004004952405653],[113.20106895927999,-6.9004095345250791],[113.20108704959701,-6.9004094510423499],[113.20108709136569,-6.9004184903267669],[113.20112327199978,-6.9004183233590348],[113.2011233137692,-6.9004273626431933],[113.20115949440309,-6.9004271956725018],[113.20115953617325,-6.9004362349564516],[113.20117762649016,-6.9004361514699681],[113.20117766826074,-6.900445190753806],[113.20122289405296,-6.9004449820343252],[113.20122293582445,-6.9004540213178807],[113.20118675519011,-6.9004541882940291],[113.20118683873187,-6.9004722668615734],[113.20119588389088,-6.9004722251176833],[113.20119592566202,-6.9004812644013942],[113.20120497082114,-6.9004812226572776],[113.20120492904982,-6.9004721833736218],[113.20123206452638,-6.9004720581404086],[113.20123202275462,-6.9004630188568976],[113.20124106791316,-6.9004629771122046],[113.20124102614129,-6.9004539378287797],[113.20129529709044,-6.9004536873573681],[113.20129533886336,-6.9004627266404635],[113.20134056465365,-6.9004625179093022],[113.20134052287987,-6.9004534786264831],[113.20134956803763,-6.9004534368797925],[113.20134960981154,-6.9004624761625566],[113.20138579044254,-6.9004623091738617],[113.20138583221721,-6.9004713484564348],[113.20140392253273,-6.9004712649609496],[113.2014039643078,-6.9004803042433922],[113.20141300946564,-6.9004802624953374],[113.20141305124095,-6.9004893017777196],[113.20142209639891,-6.9004892600294383],[113.20142213817445,-6.9004982993117636],[113.20144022849053,-6.9004982158145776],[113.20144018671465,-6.9004891765323633],[113.20146732218785,-6.900489051285466],[113.20146744751717,-6.9005161691315999],[113.20158503456854,-6.9005156263750873],[113.20158507634731,-6.9005246656564081],[113.20161221181986,-6.9005245404006299],[113.20161225359924,-6.900533579681781],[113.20172079548648,-6.9005330786426002],[113.20172075370508,-6.9005240393621126],[113.2017659794882,-6.9005238305887877],[113.20176602127046,-6.9005328698689983],[113.20182933736565,-6.9005325775787671],[113.20182942093274,-6.9005506561384085],[113.20187464671507,-6.9005504473539832],[113.20187468849956,-6.9005594866335205],[113.20188373365603,-6.9005594448760661],[113.20188377544075,-6.9005684841555466],[113.20191091091033,-6.9005683588819924],[113.20191095269561,-6.9005773981613183],[113.20193808816521,-6.9005772728860588],[113.20193812995106,-6.9005863121651823],[113.20194717510766,-6.9005862704063636],[113.20194721689374,-6.9005953096854462],[113.20197435236369,-6.9005951844078002],[113.20197439415034,-6.9006042236867131],[113.20198343930704,-6.9006041819270996],[113.20198339752021,-6.9005951426482417],[113.20201053298948,-6.9005950173685404],[113.20201057477682,-6.9006040566472322],[113.20202866508974,-6.900603973126465],[113.20202870687747,-6.9006130124050431],[113.20205584234694,-6.9006128871224419],[113.20205588413523,-6.9006219264008672],[113.20207397444828,-6.9006218428781674],[113.20207405802574,-6.9006399214347356],[113.20210119349591,-6.9006397961490693],[113.20210123528524,-6.9006488354271918],[113.2021283707554,-6.9006487101398193],[113.20212841254531,-6.9006577494177712],[113.20213745770209,-6.9006577076549167],[113.20213749949222,-6.9006667469327931],[113.20215558980597,-6.9006666634064588],[113.2021556315965,-6.9006757026842545],[113.20216467675345,-6.9006756609207756],[113.2021645931721,-6.9006575823653229],[113.2021555480155,-6.9006576241286917],[113.20215546443472,-6.9006395455731173],[113.20217355474719,-6.9006394620464295],[113.20217351295655,-6.9006304227687467],[113.20219160326847,-6.9006303392414843],[113.20219164505946,-6.9006393785190578],[113.20220069021549,-6.9006393367551144],[113.20220073200672,-6.9006483760326285],[113.20226404809867,-6.9006480836798474],[113.20226408989116,-6.9006571229569715],[113.20229122535881,-6.9006569976601897],[113.20229126715185,-6.9006660369371264],[113.20231840261953,-6.9006659116386375],[113.20231844441314,-6.9006749509154393],[113.20232748956907,-6.9006749091488784],[113.20232753136293,-6.9006839484256046],[113.20235466683093,-6.9006838231247292],[113.20235462503659,-6.9006747838481681],[113.20236367019233,-6.9006747420809234],[113.20236371198685,-6.9006837813574293],[113.20237275714268,-6.9006837395899563],[113.20237279893743,-6.9006927788664036],[113.20238184409338,-6.900692737098705],[113.20238188588834,-6.9007017763750929],[113.20240902135639,-6.900701651070805],[113.20240906315193,-6.9007106903470055],[113.20241810830802,-6.9007106485785128],[113.20241806651231,-6.9007016093023656],[113.20243615682394,-6.9007015257649762],[113.20243619861999,-6.9007105650410114],[113.20246333408755,-6.9007104397334764],[113.20246337588418,-6.9007194790093758],[113.20249051135173,-6.9007193537001346],[113.20249055314893,-6.9007283929758483],[113.20249959830483,-6.9007283512057036],[113.20249964010226,-6.9007373904813578],[113.20250868525831,-6.9007373487109867],[113.20250872705596,-6.9007463879865814],[113.20252681736818,-6.9007463044452164],[113.20252685916624,-6.9007553437206974],[113.20254494947858,-6.9007552601785349],[113.20254499127702,-6.900764299453904],[113.2025540364333,-6.9007642576825106],[113.20255407823198,-6.9007732969578193],[113.20258121370092,-6.900773171642447],[113.20258125550019,-6.9007822109176029],[113.20265361674963,-6.9007818767353024],[113.20265370035105,-6.9007999552846702],[113.20268083581969,-6.9007998299631517],[113.20268087762099,-6.9008088692376708],[113.20268992277728,-6.9008088274634334],[113.20268996457882,-6.9008178667378974],[113.2026990097352,-6.9008178249634327],[113.20269905153695,-6.9008268642378532],[113.20272618700631,-6.9008267389132696],[113.20272622880863,-6.9008357781874858],[113.2027714545906,-6.9008355693094785],[113.20277149639386,-6.9008446085834318],[113.2028257673314,-6.9008443579238419],[113.20282580913572,-6.9008533971974595],[113.20283485429198,-6.9008533554202067],[113.20283489609653,-6.9008623946937666],[113.20285298640917,-6.9008623111386385],[113.20285302821414,-6.9008713504120678],[113.20287111852686,-6.9008712668561421],[113.20287116033222,-6.9008803061294914],[113.2028892506451,-6.9008802225727699],[113.20288929245086,-6.9008892618459887],[113.20289833760739,-6.9008892200673158],[113.20289837941337,-6.9008982593404751],[113.20291646972659,-6.9008981757825065],[113.20291651153296,-6.9009072150555504],[113.20292555668968,-6.9009071732762539],[113.20292559849628,-6.9009162125492223],[113.20301605006192,-6.9009157947462905],[113.2030160918703,-6.9009248340187357],[113.20303418218306,-6.9009247504559852],[113.20303422399184,-6.9009337897282998],[113.20305231430477,-6.9009337061647527],[113.20305239792316,-6.9009517847091519],[113.20306144307989,-6.9009517429270106],[113.20306140127049,-6.9009427036548692],[113.20307044642698,-6.9009426618726124],[113.20307048823655,-6.9009517011446997],[113.20307953339314,-6.9009516593622164],[113.20307957520293,-6.9009606986342451],[113.20311575582949,-6.9009605315023785],[113.20311579764002,-6.9009695707741825],[113.20312484279668,-6.9009695289907329],[113.20312488460745,-6.9009785682624782],[113.2031791555473,-6.9009783175578523],[113.20317919735916,-6.9009873568292788],[113.20321537798529,-6.900987189689217],[113.20321541979787,-6.9009962289603859],[113.20326969073642,-6.9009959782448247],[113.2032697325501,-6.9010050175156747],[113.20330591317533,-6.9010048503683228],[113.20330595498976,-6.9010138896389481],[113.2033240453024,-6.9010138060641335],[113.20332408711721,-6.9010228453346434],[113.20335122258625,-6.9010227199709737],[113.20335130621707,-6.9010407985116533],[113.20337844168664,-6.9010406731461096],[113.20337848350265,-6.9010497124162793],[113.20347798022198,-6.9010492527288294],[113.20347802203993,-6.9010582919983854],[113.20349611235213,-6.9010582084165133],[113.20349615417048,-6.9010672476859565],[113.20351424448282,-6.9010671641032877],[113.20351420266412,-6.9010581248339555],[113.20353229297589,-6.9010580412507139],[113.20353225115691,-6.9010490019814883],[113.20355938662362,-6.9010488766055049],[113.20355934480419,-6.9010398373364428],[113.2035683899595,-6.901039795544162],[113.20356834813992,-6.9010307562751674],[113.20358643844999,-6.9010306726902018],[113.20358631299064,-6.9010035548834594],[113.20364962907051,-6.901003262331848],[113.20364967089142,-6.9010123016003728],[113.20368585150796,-6.901012134424036],[113.20368589332963,-6.901021173692337],[113.20372207394591,-6.90102100651304],[113.2037221575908,-6.9010390850491881],[113.20373120274508,-6.9010390432538253],[113.20373124456778,-6.9010480825218394],[113.20374028972216,-6.9010480407262476],[113.2037402478993,-6.9010390014582903],[113.20381260913106,-6.901038667087855],[113.20381256730688,-6.9010296278203507],[113.20386683822731,-6.9010293770356634],[113.20386679640215,-6.9010203377684549],[113.20388488670818,-6.9010202541723009],[113.20388484488274,-6.9010112149052159],[113.20393007064595,-6.9010110059121077],[113.20393002881971,-6.9010019666452953],[113.20395716427646,-6.9010018412475427],[113.2039572061032,-6.901010880514189],[113.20398434155996,-6.9010107551147293],[113.20398438338729,-6.9010197943812059],[113.20400247369183,-6.9010197107806004],[113.20400251551956,-6.9010287500469802],[113.20402060582424,-6.901028666445578],[113.20402056399618,-6.9010196271793092],[113.20402960914825,-6.9010195853784069],[113.20402956732008,-6.9010105461122055],[113.20403861247193,-6.9010105043111878],[113.20403857064365,-6.9010014650450389],[113.20405666094686,-6.9010013814425983],[113.20405661911828,-6.900992342176556],[113.20406566426962,-6.9009923003751341],[113.20406570609836,-6.9010013396411223],[113.20407475124982,-6.9010012978394739],[113.20407470942089,-6.9009922585735417],[113.20408375457215,-6.9009922167717779],[113.20408367091412,-6.9009741382400138],[113.20407462576323,-6.9009741800416675],[113.20407454210577,-6.9009561015097773],[113.20409263240681,-6.9009560179065215],[113.2040925487489,-6.9009379393748373],[113.20410159389901,-6.9009378975730629],[113.20410146841205,-6.9009107797756588],[113.20411955871101,-6.9009106961719278],[113.20411951688179,-6.9009016569062522],[113.20421901352037,-6.900901197074095],[113.20421897168931,-6.9008921578090066],[113.20422801683776,-6.900892116005112],[113.20422789134444,-6.9008649982099746],[113.20423693649232,-6.9008649564060738],[113.20423685283005,-6.900846877876103],[113.20424589797754,-6.9008468360721409],[113.20424581431514,-6.9008287575422491],[113.20425485946222,-6.9008287157382266],[113.20425481763094,-6.9008196764733478],[113.20426386277781,-6.9008196346692108],[113.20426382094641,-6.9008105954043479],[113.20429095638612,-6.9008104699910735],[113.20429099821804,-6.9008195092557694],[113.20430004336465,-6.9008194674509467],[113.20429995970055,-6.9008013889216784],[113.20429091455428,-6.9008014307263901],[113.20429087272247,-6.9007923914617049],[113.20429991786858,-6.9007923496570474],[113.20429966687793,-6.9007381140691848],[113.20430871202298,-6.900738072264688],[113.20430867019124,-6.9007290330000872],[113.20431771533602,-6.9007289911954732],[113.2043175480089,-6.9006928341372529],[113.20432441283165,-6.9006928024096466],[113.20432659315297,-6.9006927923326895],[113.20432650948939,-6.9006747138036681],[113.20433555463308,-6.9006746719990444],[113.20433551280119,-6.9006656327345839],[113.20432646765769,-6.9006656745391508],[113.20432642582605,-6.9006566352746139],[113.20434451611264,-6.9006565516654179],[113.20434443244885,-6.9006384731366053],[113.20437156787727,-6.9006383477218574],[113.20437152604495,-6.900629308457602],[113.20438961632995,-6.9006292248470249],[113.20438957449734,-6.900620185582877],[113.20439861963959,-6.9006201437773873],[113.20439857780686,-6.9006111045133078],[113.20441666809083,-6.9006110209019242],[113.20441654259193,-6.9005839031099292],[113.20442558773334,-6.9005838613041455],[113.20442546223444,-6.9005567435122988],[113.20443450737525,-6.9005567017065106],[113.20443404721506,-6.9004572698034004],[113.20444309235394,-6.9004572279980483],[113.20444305052135,-6.9004481887341464],[113.20446114079861,-6.90044810512304],[113.20446101530017,-6.9004209873317084],[113.2044519701621,-6.9004210291371804],[113.20445184466469,-6.9003939113456338],[113.20444279952704,-6.9003939531507701],[113.20444275769486,-6.9003849138868585],[113.20443371255736,-6.9003849556917674],[113.20443367072539,-6.9003759164277962],[113.20444271586274,-6.9003758746229433],[113.20444250670292,-6.9003306783033116],[113.20445155183937,-6.9003306364985626],[113.20445138451183,-6.9002944794430121],[113.20446042964751,-6.9002944376383137],[113.2044603878156,-6.9002853983744545],[113.2044513426801,-6.9002854401790987],[113.2044513008484,-6.9002764009152155],[113.20444225571299,-6.9002764427196324],[113.20444208838751,-6.9002402856637559],[113.20443304325275,-6.9002403274677802],[113.20443300142169,-6.9002312882037682],[113.20444204655627,-6.900231246399799],[113.20444187923191,-6.9001950893438835],[113.204432834098,-6.9001951311476306],[113.20443279226721,-6.9001860918835662],[113.20444183740095,-6.9001860500798733],[113.20444187923191,-6.9001950893438835],[113.20445092436577,-6.9001950475399632],[113.20445084070359,-6.900176969012068],[113.20445988583704,-6.9001769272080882],[113.20445984400585,-6.9001678879441988],[113.20445079887257,-6.9001679297481244],[113.20445075704161,-6.9001588904841755],[113.20445980217472,-6.9001588486803067],[113.20445971851264,-6.9001407701525093],[113.20444162824704,-6.9001408537598561],[113.20444158641642,-6.9001318144958423],[113.20442349615095,-6.9001318981023934],[113.20442337066046,-6.900104780309996],[113.20441432552815,-6.9001048221128487],[113.20441428369827,-6.9000957828486547],[113.20442332883042,-6.900095741045857],[113.20442324517049,-6.9000776625175497],[113.20443229030222,-6.9000776207146917],[113.20443220664218,-6.9000595421865141],[113.20444125177352,-6.9000595003835956],[113.20444108445341,-6.9000233433273834],[113.20445012958402,-6.9000233015245138],[113.20445000409401,-6.8999961837324832],[113.20444095896391,-6.8999962255351868],[113.20444083347493,-6.8999691077429564],[113.20444987860452,-6.899969065940418],[113.20444979494515,-6.8999509874123568],[113.20445884007431,-6.899950945609759],[113.20445863092597,-6.8999057492898181],[113.20446767605425,-6.8999057074873251],[113.2044675505654,-6.899878589695482],[113.20447659569309,-6.8998785478929845],[113.20447638654528,-6.8998333515734496],[113.2044944767988,-6.8998332679684919],[113.20449439313938,-6.899815189440873],[113.2045034382657,-6.8998151476382485],[113.20450327094686,-6.8997789905832043],[113.20451231607247,-6.8997789487806296],[113.2045121905834,-6.8997518309894454],[113.20452123570841,-6.8997517891868645],[113.20452111021935,-6.8997246713958296],[113.20453920046819,-6.8997245877904874],[113.2045390749786,-6.8996974699997518],[113.20454812010242,-6.8996974281969896],[113.2045480782725,-6.8996883889334581],[113.20455712339609,-6.8996883471305797],[113.20455708156607,-6.8996793078671006],[113.20456612668941,-6.8996792660641066],[113.20456600119913,-6.8996521482738125],[113.20457504632192,-6.8996521064708141],[113.20457500449176,-6.89964306720743],[113.20458404961434,-6.8996430254043153],[113.2045839241237,-6.899615907614292],[113.2045929692457,-6.8996158658111719],[113.2045928855852,-6.8995977872846099],[113.20461097582834,-6.8995977036780758],[113.20461089216739,-6.8995796251517039],[113.20460184704618,-6.8995796669549456],[113.20460180521597,-6.8995706276917161],[113.204610850337,-6.8995705858885295],[113.20461080850667,-6.8995615466253168],[113.20461985362746,-6.8995615048220147],[113.20461981179702,-6.8995524655588714],[113.20462885691759,-6.8995524237554529],[113.20462864776533,-6.8995072274399556],[113.20463769288499,-6.8995071856366428],[113.2046375673938,-6.8994800678474668],[113.20464661251287,-6.8994800260441487],[113.20464648702168,-6.8994529082550882],[113.20465553214021,-6.8994528664517647],[113.20465549030975,-6.899443827188815],[113.20464644519137,-6.8994438689920834],[113.20464636153098,-6.8994257904660294],[113.204655406649,-6.8994257486628703],[113.20465536481869,-6.899416709399893],[113.20466440993647,-6.8994166675966184],[113.20466436810607,-6.8994076283337105],[113.20467341322363,-6.8994075865303204],[113.20467332956264,-6.8993895080045515],[113.20470046491393,-6.8993893825936867],[113.20470054857594,-6.8994074611191243],[113.20470959369327,-6.8994074193150503],[113.20470955186207,-6.8993983800523795],[113.20471859697916,-6.8993983382481883],[113.20471847148538,-6.899371220460373],[113.20470942636878,-6.8993712622643981],[113.20470930087598,-6.8993441444763839],[113.20470025575986,-6.8993441862800715],[113.20470017209863,-6.8993261077545984],[113.20470921721441,-6.8993260659510218],[113.20470917538371,-6.899317026688335],[113.20471822049927,-6.8993169848846438],[113.2047181368377,-6.8992989063593706],[113.20472718195285,-6.8992988645556173],[113.20472705646038,-6.8992717467678464],[113.20473610157498,-6.8992717049640877],[113.2047361852369,-6.8992897834891442],[113.20474523035179,-6.8992897416851031],[113.20474518852062,-6.899280702422641],[113.20475423363527,-6.8992806606184844],[113.20475414997277,-6.8992625820936242],[113.20476319508703,-6.8992625402894072],[113.20476311142441,-6.8992444617646269],[113.20477215653825,-6.8992444199603495],[113.20477224020122,-6.8992624984850197],[113.20479937554346,-6.8992623730708287],[113.20479929187947,-6.8992442945464898],[113.20481738210667,-6.8992442109363949],[113.20481741187872,-6.8992506441791956],[113.20482536777993,-6.8992402093225893],[113.20483211546706,-6.8992351033853909],[113.20481734027442,-6.8992351716743556],[113.20481725661008,-6.8992170931502326],[113.20483534683603,-6.8992170095397842],[113.20483538866851,-6.8992260488017365],[113.20484413348382,-6.8992260083841463],[113.2048534464783,-6.8992189606664871],[113.20485343706174,-6.8992169259286511],[113.20485544869483,-6.8992169166310502],[113.20486928093472,-6.8991987737891778],[113.20486239850869,-6.8991988055992595],[113.20486227301039,-6.8991716878138387],[113.20487131812224,-6.8991716460081207],[113.20487127628941,-6.8991626067463674],[113.20488936651263,-6.8991625231345282],[113.20488940834581,-6.8991715623961714],[113.20489002884048,-6.899171559528269],[113.20489081193,-6.8991705317386138],[113.20490534163008,-6.8991522084995287],[113.20491172286268,-6.8991443408942486],[113.20489832795762,-6.8991444028051658],[113.20489828612445,-6.8991353635435679],[113.20488924101345,-6.8991354053495764],[113.20488928284645,-6.899144444611232],[113.20488023773521,-6.8991444864171259],[113.20488019590239,-6.899135447155416],[113.20487115079125,-6.8991354889610843],[113.20487110895864,-6.8991264496993168],[113.20486206384764,-6.8991264915047585],[113.20486198018294,-6.8991084129811009],[113.2048710252936,-6.8991083711757692],[113.20487106712609,-6.8991174104375448],[113.20488011223689,-6.8991173686319875],[113.20487998673906,-6.8990902508468164],[113.20489807695941,-6.8990901672355189],[113.20489803512656,-6.899081127973882],[113.2048889900166,-6.89908116977956],[113.20488886451892,-6.8990540519945283],[113.20489790962837,-6.8990540101890145],[113.20489799329378,-6.8990720887122743],[113.20490703840355,-6.899072046906479],[113.20490695473779,-6.8990539683833303],[113.20491599984716,-6.8990539265774737],[113.20491608351324,-6.8990720051005132],[113.20493417373248,-6.8990719214880682],[113.20493409006571,-6.8990538429652526],[113.20492504495647,-6.8990538847714502],[113.20492500312335,-6.8990448455099793],[113.20496118355928,-6.8990446782843842],[113.20496114172552,-6.8990356390231149],[113.20497923194283,-6.8990355554094007],[113.20497927377693,-6.8990445946705581],[113.20497022866815,-6.8990446364775568],[113.20497027050213,-6.8990536757387497],[113.20497931561108,-6.8990536339316977],[113.2049793574453,-6.8990626731928311],[113.20497031233617,-6.8990627149999382],[113.20497036985807,-6.8990751439840681],[113.20499255449873,-6.899049569166066],[113.20501073750674,-6.8990312281362236],[113.20501460442136,-6.8990263524601199],[113.2050063254338,-6.8990263907265827],[113.20500628359929,-6.8990173514656004],[113.20499723849119,-6.8990173932729455],[113.20499719665692,-6.8990083540119045],[113.2049881515489,-6.8990083958190231],[113.20498819338302,-6.8990174350801201],[113.2049791482748,-6.8990174768871233],[113.20497910644086,-6.8990084376259713],[113.2049881515489,-6.8990083958190231]],[[113.20498769137747,-6.8989089639467132],[113.2049786462713,-6.8989090057530529],[113.20497860443805,-6.8988999664918573],[113.20498764954404,-6.8988999246855727],[113.20498769137747,-6.8989089639467132]],[[113.20502362079773,-6.8988545611540673],[113.20501457569281,-6.8988546029607614],[113.2050145338592,-6.8988455636997639],[113.20502357896396,-6.8988455218931266],[113.20502362079773,-6.8988545611540673]],[[113.20503262406864,-6.898845480086317],[113.20504166917328,-6.8988454382793378],[113.2050417110074,-6.8988544775401692],[113.20503266590258,-6.8988545193472044],[113.20503262406864,-6.898845480086317]],[[113.20484397362546,-6.8991265751151278],[113.20485301873657,-6.8991265333100289],[113.20485306056882,-6.8991355725719083],[113.20484401545754,-6.8991356143770624],[113.20484397362546,-6.8991265751151278]],[[113.20484422461887,-6.8991808106866772],[113.20485326973099,-6.8991807688812461],[113.20485335339626,-6.899198847404973],[113.20484430828377,-6.8991988892105143],[113.20484422461887,-6.8991808106866772]],[[113.20479012127075,-6.8992172185646217],[113.20479007943918,-6.8992081793023896],[113.20479912455217,-6.89920813749782],[113.20479916638391,-6.8992171767599961],[113.20479012127075,-6.8992172185646217],[113.20479016310237,-6.8992262578268511],[113.20478111798896,-6.8992262996313594],[113.2047810761575,-6.8992172603690767],[113.20479012127075,-6.8992172185646217]],[[113.20473601791326,-6.8992536264389992],[113.20474506302747,-6.8992535846351801],[113.20474510485846,-6.8992626238976698],[113.20473605974409,-6.8992626657015448],[113.20473601791326,-6.8992536264389992]],[[113.20433526181115,-6.9006113971477561],[113.20434430695356,-6.9006113553433481],[113.20434434878527,-6.9006203946077598],[113.20433530364269,-6.9006204364122228],[113.20433526181115,-6.9006113971477561]],[[113.2013133874064,-6.900453603865528],[113.20130434224846,-6.9004536456115337],[113.20130430047544,-6.9004446063284739],[113.2013133456332,-6.9004445645825223],[113.2013133874064,-6.900453603865528]]],[[[113.20532110509762,-6.8986362392173595],[113.20532106325955,-6.8986271999581543],[113.20531201816075,-6.8986272417691126],[113.20531205999866,-6.8986362810283737],[113.20532110509762,-6.8986362392173595]]],[[[113.2055562776507,-6.8986351520709226],[113.20555623580816,-6.8986261128131563],[113.20556528090542,-6.898626070997576],[113.20556523906276,-6.8986170317398425],[113.20554714886853,-6.8986171153707216],[113.20554719071085,-6.8986261546285643],[113.20553814561345,-6.8986261964438018],[113.20553818745564,-6.89863523570168],[113.2055562776507,-6.8986351520709226]]],[[[113.20540238546695,-6.898608745134398],[113.20535715997673,-6.8986089541946285],[113.20535720181539,-6.8986179934536045],[113.20533911161857,-6.898618077076609],[113.20533915345693,-6.8986271163357236],[113.20533010835827,-6.8986271581470247],[113.20533015019652,-6.8986361974061738],[113.20534824039414,-6.8986361137832901],[113.20534819855554,-6.8986270745242511],[113.20537533385104,-6.8986269490888086],[113.20537537569015,-6.8986359883476815],[113.20538442078873,-6.8986359465354701],[113.20538433711022,-6.898617868017813],[113.20540242730647,-6.8986177843930969],[113.20540238546695,-6.898608745134398]]],[[[113.20562847105332,-6.8985986605117287],[113.20562842920965,-6.8985896212543887],[113.20561938411346,-6.898589663070946],[113.20561942595698,-6.8985987023283402],[113.20562847105332,-6.8985986605117287]]],[[[113.20549283644321,-6.898608327001102],[113.20549287828445,-6.8986173662592467],[113.20551096847936,-6.8986172826304228],[113.20551105216266,-6.8986353611465301],[113.20552914235805,-6.8986352775168003],[113.20552905867406,-6.8986171990009142],[113.20553810377132,-6.8986171571859032],[113.2055380200872,-6.8985990786701459],[113.20554706518409,-6.8985990368550745],[113.20554702334194,-6.8985899975972362],[113.20555606843858,-6.8985899557820494],[113.20555602659633,-6.8985809165242626],[113.20562838736602,-6.8985805819970452],[113.20562834552246,-6.898571542739715],[113.20563739061824,-6.8985715009230972],[113.20563734877456,-6.8985624616657857],[113.20555594291199,-6.8985628380086812],[113.20555590106989,-6.8985537987508838],[113.20554685597395,-6.8985538405658495],[113.20554689781586,-6.898562879823702],[113.20550167233441,-6.8985630888962417],[113.20550171417551,-6.8985721281543837],[113.2054836239822,-6.8985722117823132],[113.20548366582302,-6.8985812510405289],[113.20546557562913,-6.8985813346678819],[113.20546561746968,-6.8985903739262211],[113.20542943708054,-6.8985905411790975],[113.20542947892045,-6.8985995804376534],[113.2054023436275,-6.8985997058756787],[113.20540238546695,-6.898608745134398],[113.20543856585815,-6.8986085778831336],[113.20543852401801,-6.8985995386246355],[113.20546565931028,-6.8985994131845558],[113.20546570115094,-6.898608452442887],[113.20549283644321,-6.898608327001102],[113.20549279460205,-6.8985992877429361],[113.20551088479628,-6.8985992041143325],[113.2055109266378,-6.8986082433723874],[113.20549283644321,-6.898608327001102]]],[[[113.20644194347346,-6.8984683467824022],[113.2064057631175,-6.8984685141063391],[113.20640580497519,-6.8984775533589691],[113.20635153443851,-6.8984778043400716],[113.20635157629522,-6.8984868435930311],[113.20627921557515,-6.8984871782253592],[113.20627917371982,-6.8984781389719583],[113.20626108353957,-6.8984782226282189],[113.20626112539458,-6.8984872618817299],[113.20625208030421,-6.8984873037096595],[113.2062521221591,-6.8984963429632229],[113.20622498688712,-6.8984964684461465],[113.20622502874154,-6.8985055076998725],[113.2062069385596,-6.8985055913544118],[113.20620698041374,-6.8985146306082443],[113.20615270986556,-6.898514881568083],[113.20615275171873,-6.8985239208222442],[113.20609848116749,-6.8985241717762529],[113.20609852301968,-6.8985332110307427],[113.2060442524654,-6.8985334619789231],[113.20604421061422,-6.8985244227241012],[113.20593566950166,-6.8985249246013138],[113.20593575319992,-6.8985430031122803],[113.20591766301305,-6.8985430867563062],[113.20591770486193,-6.8985521260118947],[113.20589056958063,-6.8985522514768185],[113.20589061142904,-6.8985612907325686],[113.20580016048608,-6.8985617089384066],[113.20580020233285,-6.8985707481947225],[113.20569166119179,-6.8985712500198009],[113.20569161934709,-6.8985622107628215],[113.20566448406107,-6.8985623362150736],[113.20566452590529,-6.89857137547222],[113.20565548080964,-6.8985714172893511],[113.20565560634206,-6.8985985350608656],[113.20588173372859,-6.8985974895771092],[113.20588169188011,-6.8985884503213173],[113.20591787225801,-6.8985882830342105],[113.20591783040891,-6.8985792437786371],[113.20592687550305,-6.8985792019564878],[113.20592683365385,-6.8985701627009828],[113.20593587874777,-6.898570120878718],[113.20593583689843,-6.8985610816232308],[113.20599010745985,-6.8985608306863782],[113.20599006560956,-6.8985517914312355],[113.2060081557959,-6.8985517077843594],[113.20600819764654,-6.898560747039391],[113.2060172427398,-6.8985607052156421],[113.20601720088898,-6.8985516659606647],[113.206026245982,-6.8985516241367995],[113.20602628783298,-6.89856066339172],[113.20607151329817,-6.8985604542695471],[113.20607147144632,-6.8985514150149019],[113.20611669690923,-6.8985512058887259],[113.20611665505659,-6.898542166634356],[113.20617092560921,-6.8985419156776278],[113.20617088375559,-6.8985328764235856],[113.20621610921368,-6.8985326672885492],[113.20621606735926,-6.8985236280347788],[113.20625224772407,-6.8985234607238919],[113.20625220586902,-6.8985144214703382],[113.20628838623223,-6.8985142541569333],[113.20628834437656,-6.8985052149035981],[113.20634261491865,-6.8985049639286879],[113.206342573062,-6.8984959246756814],[113.20639684360106,-6.8984956736949412],[113.20639680174342,-6.8984866344422633],[113.20642393701168,-6.8984865089497491],[113.20642389515361,-6.898477469697232],[113.20644198533182,-6.8984773860348119],[113.20644194347346,-6.8984683467824022]],[[113.20623407383243,-6.898505465872347],[113.20624311892327,-6.8985054240446502],[113.20624316077807,-6.8985144632982625],[113.20623411568708,-6.8985145051260144],[113.20623407383243,-6.898505465872347]],[[113.20599902700195,-6.8985336710976997],[113.20600807209478,-6.8985336292742856],[113.2060081139453,-6.8985426685293243],[113.20599906885232,-6.8985427103527934],[113.20599902700195,-6.8985336710976997]]],[[[113.20644194347346,-6.8984683467824022],[113.20651430418269,-6.8984680121263136],[113.206514262323,-6.8984589728743426],[113.20652330741125,-6.8984589310416169],[113.20652326555145,-6.8984498917896824],[113.20656849099092,-6.8984496826237622],[113.20656844913032,-6.8984406433721324],[113.20657749421787,-6.89844060153849],[113.20657745235714,-6.8984315622868975],[113.20661363270611,-6.8984313949508378],[113.20661359084478,-6.8984223556994611],[113.20663168101856,-6.8984222720305164],[113.20663163915692,-6.8984132327792462],[113.20663467323683,-6.8984132187462617],[113.20662753696621,-6.8984042123074145],[113.20662255220886,-6.8984042353624053],[113.20662259407024,-6.8984132746137501],[113.20660450389667,-6.8984133582822427],[113.20660454575777,-6.8984223975336771],[113.20655932032201,-6.8984226067021908],[113.20655936218233,-6.8984316459538988],[113.20652318183204,-6.8984318132858506],[113.20652322369172,-6.8984408525377763],[113.20649608842788,-6.8984409780351088],[113.20649613028711,-6.8984500172871801],[113.2064780401106,-6.8984501009513233],[113.20647808196954,-6.8984591402035367],[113.20644190161515,-6.8984593075299898],[113.20644194347346,-6.8984683467824022]]]]},"properties":{"FID":0,"Shape_Leng":18102566.929299999,"Shape_Area":236516885.403}}]
}