{
  "type" : "FeatureCollection",
  "features" : [{"type":"Feature","id":0,"geometry":{"type":"MultiPolygon","coordinates":[[[[113.07833265462976,-6.8849318956760586],[113.07833261527884,-6.8849228556574706],[113.07832356968515,-6.8849228949840224],[113.07832360903589,-6.8849319350026636],[113.07833265462976,-6.8849318956760586]]],[[[113.07838653467476,-6.8848412595299253],[113.07838649532336,-6.8848322195115967],[113.07837744973169,-6.884832258838653],[113.07837748908292,-6.884841298857034],[113.07838653467476,-6.8848412595299253]]],[[[113.0783309625881,-6.8845431748734853],[113.07833092323945,-6.8845341348547411],[113.0783218776531,-6.884534174179052],[113.07832191700157,-6.8845432141978486],[113.0783309625881,-6.8845431748734853]]],[[[113.07834851244476,-6.8844187334143454],[113.07834023473814,-6.8844346522867355],[113.07835762716094,-6.8844345766760746],[113.07835758781242,-6.8844255366574423],[113.07834854222827,-6.8844255759816404],[113.07834851244476,-6.8844187334143454]]],[[[113.07836647600224,-6.8843893372587184],[113.07836379217997,-6.884389348926204],[113.07835436920365,-6.8844074702704052],[113.07836655469926,-6.8844074172959022],[113.07836659404785,-6.8844164573144733],[113.0783756396317,-6.8844164179899838],[113.07837556093423,-6.8843983379529288],[113.07836651535074,-6.8843983772773125],[113.07836647600224,-6.8843893372587184]]]]},"properties":{"FID":0,"Shape_Leng":18102566.929299999,"Shape_Area":236516885.403}}]
}