{
  "type" : "FeatureCollection",
  "features" : [{"type":"Feature","id":0,"geometry":{"type":"MultiPolygon","coordinates":[[[[112.83251479102752,-6.9764425378171318],[112.83249669368213,-6.9764426080876509],[112.83249672884583,-6.9764516494045683],[112.83250577751872,-6.9764516142693491],[112.83250581268264,-6.9764606555862168],[112.83251486135565,-6.9764606204507782],[112.83251479102752,-6.9764425378171318]]],[[[112.83254183155184,-6.9764153084599698],[112.83251468553568,-6.9764154138666337],[112.83251472069958,-6.9764244551834542],[112.83250567202725,-6.976424490318708],[112.83250570719103,-6.9764335316356032],[112.832523804536,-6.9764334613648291],[112.83252376937187,-6.9764244200480263],[112.83253281804409,-6.9764243849124261],[112.83253285320839,-6.9764334262291827],[112.83255095055304,-6.9764333559573704],[112.83255091538841,-6.9764243146407035],[112.83254186671627,-6.9764243497766518],[112.83254183155184,-6.9764153084599698]]],[[[112.83215259798591,-6.9763806538650988],[112.83215256282918,-6.976371612546389],[112.83214351415602,-6.9763716476744371],[112.83214354931258,-6.976380688993193],[112.83215259798591,-6.9763806538650988]]],[[[112.83240592565841,-6.9763706288907033],[112.83240589049686,-6.9763615875732938],[112.83239684182519,-6.9763616227061469],[112.83239687698656,-6.9763706640236016],[112.83240592565841,-6.9763706288907033]]],[[[112.83246011220088,-6.9763432941382568],[112.83244201485876,-6.976343364405686],[112.83244205002089,-6.9763524057229187],[112.83242395267821,-6.9763524759897457],[112.83242398784006,-6.9763615173070672],[112.8324330365116,-6.9763614821736946],[112.83243310683577,-6.9763795648082514],[112.83244215550759,-6.9763795296746132],[112.83244219066992,-6.9763885709918148],[112.83246028801379,-6.9763885007239264],[112.83246025285112,-6.9763794594068171],[112.83246930152279,-6.9763794242726576],[112.83246933668563,-6.9763884655897215],[112.83248743402923,-6.9763883953207948],[112.83248739886604,-6.9763793540038233],[112.83249644753758,-6.976379318869145],[112.83249637721099,-6.9763612362352321],[112.83246923119724,-6.9763613416384684],[112.83246919603452,-6.9763523003213779],[112.83246014736336,-6.976352335455398],[112.83246011220088,-6.9763432941382568]]],[[[112.83250489843603,-6.9762255813464771],[112.83250486327333,-6.9762165400294975],[112.83249581460494,-6.9762165751635221],[112.83249584976747,-6.9762256164805478],[112.83250489843603,-6.9762255813464771]]],[[[112.83249577944247,-6.9762075338465275],[112.83249574428004,-6.9761984925295115],[112.83248669561195,-6.9761985276632705],[112.83248673077422,-6.9762075689803318],[112.83249577944247,-6.9762075338465275]]],[[[112.83249563879301,-6.976171368578461],[112.83249560363075,-6.9761623272614148],[112.83248655496338,-6.97616236239499],[112.83248659012544,-6.9761714037120823],[112.83249563879301,-6.976171368578461]]]]},"properties":{"FID":0,"Shape_Leng":18102566.929299999,"Shape_Area":236516885.403}}]
}