{
  "type" : "FeatureCollection",
  "features" : [{"type":"Feature","id":0,"geometry":{"type":"MultiPolygon","coordinates":[[[[112.90281771988322,-7.1806099230540141],[112.9028176822911,-7.1806008821803742],[112.90280863000474,-7.1806009197249727],[112.90280866759667,-7.1806099605986597],[112.90281771988322,-7.1806099230540141]]],[[[112.9029624436769,-7.1805821996967856],[112.90296233089259,-7.1805550770781092],[112.90295327860785,-7.1805551146253226],[112.90295331620241,-7.1805641554982671],[112.90294426391748,-7.1805641930453481],[112.90294433910636,-7.1805822747913179],[112.9029624436769,-7.1805821996967856]]],[[[112.90296229329792,-7.1805460362052109],[112.90296221810871,-7.1805279544593992],[112.90294411354031,-7.1805280295533604],[112.9029441887288,-7.1805461112993614],[112.90296229329792,-7.1805460362052109]]],[[[112.90301630623992,-7.180473483937436],[112.90299820167424,-7.180473559032964],[112.90299827686428,-7.1804916407784365],[112.90298922458101,-7.1804916783260282],[112.90298926217594,-7.1805007191987897],[112.90298020989241,-7.1805007567462509],[112.90298036027185,-7.1805369202375369],[112.9029713079876,-7.1805369577850104],[112.9029713455824,-7.180545998657867],[112.90298039786683,-7.1805459611103455],[112.90298058584246,-7.1805911654743264],[112.90297153355714,-7.1805912030220869],[112.90297157115224,-7.1806002438949195],[112.90297509684281,-7.1806002292707944],[112.90300771841099,-7.1805852123532823],[112.9030076675067,-7.18057297108468],[112.90301671979148,-7.1805729335362996],[112.90301675355633,-7.1805810531402949],[112.90302578870146,-7.1805768939271921],[112.90302569688423,-7.1805548142426252],[112.90304380145282,-7.1805547391451663],[112.90304376385654,-7.1805456982726978],[112.90303471157246,-7.1805457358214673],[112.90303467397641,-7.1805366949489473],[112.90302562169242,-7.1805367324974911],[112.9030255089051,-7.1805096098797607],[112.90301645662163,-7.1805096474279857],[112.90301638143067,-7.1804915656827175],[112.90302543371379,-7.1804915281345902],[112.90302539611821,-7.1804824872619992],[112.90301634383526,-7.1804825248100785],[112.90301630623992,-7.180473483937436]]],[[[112.90475400497584,-7.1803849036737848],[112.90474495270396,-7.1803849412554515],[112.90474496483571,-7.180387856068811],[112.90475401857015,-7.1803881698688787],[112.90475400497584,-7.1803849036737848]]],[[[112.90498031175701,-7.180383964074176],[112.90495315494488,-7.1803840768320137],[112.90495319257801,-7.1803931176944671],[112.90494414030701,-7.1803931552801039],[112.90494414698517,-7.1803947596280295],[112.90498036191966,-7.1803960148111505],[112.90498031175701,-7.180383964074176]]],[[[112.90485350470111,-7.1803664085377248],[112.904826347888,-7.1803665212877856],[112.90482638551853,-7.1803755621509131],[112.90479922870446,-7.1803756748995129],[112.90479926633451,-7.1803847157627816],[112.90479021406287,-7.1803847533453391],[112.90479023350753,-7.1803894250672755],[112.90486266338061,-7.1803919354553658],[112.9048626322346,-7.1803844526798839],[112.9048535799633,-7.1803844902636911],[112.90485350470111,-7.1803664085377248]]],[[[112.90497995030174,-7.1802971298638933],[112.90498004832271,-7.180320678037913],[112.90498910059208,-7.1803206404519448],[112.90498913822557,-7.1803296813142312],[112.90499819049508,-7.1803296437280357],[112.9049982657626,-7.1803477254525028],[112.90500731803239,-7.1803476878660346],[112.9050073556664,-7.1803567287282171],[112.905051860315,-7.1803565439349875],[112.90505121800004,-7.1803358219999556],[112.90497995030174,-7.1802971298638933]]],[[[112.90420132726865,-7.1802696645652473],[112.90421037954111,-7.1802696269949031],[112.90421026668784,-7.180242504395606],[112.90418310987188,-7.1802426171056695],[112.90418322026235,-7.180269148185948],[112.90420133251774,-7.1802709261090261],[112.90420132726865,-7.1802696645652473]]],[[[112.90421928134191,-7.1802334259588569],[112.90421924372411,-7.1802243850924645],[112.90419208690936,-7.1802244978027812],[112.90419212452663,-7.1802335386693139],[112.90421928134191,-7.1802334259588569]]],[[[112.90412872100659,-7.1802247607872722],[112.90412868339062,-7.1802157199204011],[112.9041196311188,-7.1802157574888534],[112.90411959350307,-7.1802067166219299],[112.9041014889596,-7.180206791758204],[112.90410152657498,-7.1802158326252217],[112.9041105788469,-7.1802157950571264],[112.90411072930961,-7.1802519585249751],[112.9040835724915,-7.180252071229301],[112.90408360285694,-7.1802593695957029],[112.90416510800695,-7.1802673702621664],[112.90416496771091,-7.1802336513781668],[112.90417401998286,-7.1802336138087286],[112.90417398236596,-7.180224572942099],[112.90418303463768,-7.1802245353725294],[112.90418299702064,-7.1802154945059433],[112.90415584020586,-7.1802156072139747],[112.90415591543889,-7.1802336889474274],[112.90414686316686,-7.1802337265165104],[112.90414682555048,-7.1802246856497387],[112.90412872100659,-7.1802247607872722],[112.9041287586226,-7.1802338016541425],[112.90411970635041,-7.180233839222689],[112.90411966873458,-7.1802247983557743],[112.90412872100659,-7.1802247607872722]]],[[[112.90412853292729,-7.180179556452873],[112.90412849531157,-7.1801705155859841],[112.90411944304063,-7.1801705531541966],[112.90411948065618,-7.1801795940211361],[112.90412853292729,-7.180179556452873]]],[[[112.9041465622373,-7.1801613995822233],[112.90414652462132,-7.1801523587154197],[112.90413747235083,-7.1801523962838951],[112.90413750996662,-7.1801614371507458],[112.9041465622373,-7.1801613995822233]]],[[[112.90414648700541,-7.1801433178486143],[112.90414644938953,-7.1801342769818026],[112.9041283448492,-7.1801343521183822],[112.90412838246472,-7.1801433929852889],[112.90414648700541,-7.1801433178486143]]],[[[112.90416462916218,-7.1801522835779359],[112.90416455392965,-7.1801342018445098],[112.9041555016596,-7.1801342394132455],[112.90415557689177,-7.1801523211467666],[112.90416462916218,-7.1801522835779359]]],[[[112.90490691516922,-7.1801492023269011],[112.9049068022766,-7.1801220797385152],[112.9048977500107,-7.1801221173218259],[112.9048978629028,-7.1801492399103566],[112.90490691516922,-7.1801492023269011]]],[[[112.90490657649264,-7.1800678345616387],[112.90490653886216,-7.1800587936988132],[112.90489748659752,-7.1800588312817899],[112.90489752422783,-7.1800678721446634],[112.90490657649264,-7.1800678345616387]]],[[[112.904924530499,-7.1800315959441283],[112.90492483154596,-7.1801039228459373],[112.90493388381134,-7.1801038852621879],[112.90493395907393,-7.1801219669875094],[112.90492490680818,-7.1801220045713565],[112.90492517022749,-7.1801852906102059],[112.90493422249449,-7.1801852530260257],[112.90493433538975,-7.1802123756139027],[112.90493534069923,-7.1802123714399224],[112.90494342055108,-7.1801038456667721],[112.90494293607665,-7.1801038476782582],[112.90494289844526,-7.1800948068156378],[112.90494409387222,-7.18009480185236],[112.9049467871569,-7.1800586265947377],[112.90493369565573,-7.1800586809488127],[112.90493358276296,-7.1800315583607599],[112.904924530499,-7.1800315959441283]]],[[[112.904924530499,-7.1800315959441283],[112.90492437997669,-7.1799954324931088],[112.90491532771343,-7.1799954700761077],[112.90491540297413,-7.1800135518017125],[112.90490635071045,-7.1800135893846289],[112.90490631308025,-7.1800045485217794],[112.9048972608167,-7.1800045861044701],[112.90489729844671,-7.1800136269673658],[112.90488824618294,-7.1800136645499251],[112.90488828381281,-7.180022705412866],[112.90489733607677,-7.1800226678302579],[112.90489737370689,-7.1800317086931633],[112.90490642597098,-7.1800316711103296],[112.90490638834069,-7.1800226302474739],[112.90491544060455,-7.1800225926645078],[112.90491547823501,-7.1800316335273191],[112.904924530499,-7.1800315959441283]]],[[[112.90490623782,-7.1799864667960893],[112.90490620018996,-7.1799774259332132],[112.90489714792692,-7.1799774635157574],[112.90489718555681,-7.1799865043786832],[112.90490623782,-7.1799864667960893]]],[[[112.90575662329201,-7.1798563612184738],[112.9057656755481,-7.1798563236196067],[112.90576563790177,-7.1798472827612372],[112.90574753338991,-7.179847357958697],[112.90574757103589,-7.1798563988171624],[112.90573851877971,-7.1798564364156725],[112.90573855642556,-7.1798654772741646],[112.90574760868191,-7.1798654396756048],[112.90574763430979,-7.1798715943153884],[112.90576573352534,-7.1798702469734756],[112.90576571319447,-7.1798653644779558],[112.90575666093821,-7.1798654020768709],[112.90575662329201,-7.1798563612184738]]],[[[112.90713071972306,-7.1794076424336364],[112.90713068205216,-7.1793986015823235],[112.90712162981234,-7.1793986392057247],[112.90712166748307,-7.1794076800570856],[112.90713071972306,-7.1794076424336364]]],[[[112.8970539727659,-7.1790696889922767],[112.89703778199366,-7.1790697559262782],[112.897054000427,-7.179076363135608],[112.8970539727659,-7.1790696889922767]]],[[[112.89709018191148,-7.1790695392985846],[112.89706302505236,-7.1790696515691215],[112.89706306252275,-7.1790786924736993],[112.89705975175106,-7.1790787061608352],[112.89708578300008,-7.1790893109998768],[112.89709357712798,-7.1790785663214667],[112.89709021938239,-7.1790785802030204],[112.89709018191148,-7.1790695392985846]]],[[[112.89701772615011,-7.1790607977783285],[112.89701581223694,-7.1790608056904732],[112.89701772941986,-7.1790615867296337],[112.89701772615011,-7.1790607977783285]]],[[[112.89697238978002,-7.1790429030775336],[112.89697187272537,-7.1790429052149882],[112.89697239066334,-7.1790431162172625],[112.89697238978002,-7.1790429030775336]]],[[[112.89699954663897,-7.1790427908127743],[112.89699049435271,-7.1790428282345387],[112.89699052616562,-7.1790505044228752],[112.89699959391693,-7.1790541985253462],[112.89699954663897,-7.1790427908127743]]],[[[112.89696330002539,-7.1790338995936631],[112.89694990297056,-7.1790339549753241],[112.89696332291236,-7.1790394221141351],[112.89696330002539,-7.1790338995936631]]],[[[112.89694515798493,-7.1790249335303091],[112.89692793321636,-7.1790250047343953],[112.89694518741071,-7.1790320339072276],[112.89694515798493,-7.1790249335303091]]],[[[112.89692701594507,-7.1790159674660146],[112.89690891137276,-7.179016042306225],[112.89690891640871,-7.1790172574907798],[112.89692705190949,-7.1790246456994486],[112.89692701594507,-7.1790159674660146]]],[[[112.89689978415295,-7.1789979979151717],[112.89689073186705,-7.178998035334736],[112.8968906944005,-7.1789889944292371],[112.89688164211469,-7.1789890318485767],[112.89688171315832,-7.1790061751761636],[112.89689984865848,-7.1790135633861256],[112.89689978415295,-7.1789979979151717]]],[[[112.89689978415295,-7.1789979979151717],[112.89690883643881,-7.1789979604954288],[112.89690879897189,-7.1789889195900249],[112.89689974668622,-7.1789889570097198],[112.89689978415295,-7.1789979979151717]]],[[[112.89712609128497,-7.1789970623680981],[112.89712605381378,-7.1789880214638382],[112.89711700152925,-7.1789880588878123],[112.89711703900026,-7.1789970997921202],[112.89712609128497,-7.1789970623680981]]],[[[112.89681823864781,-7.1789802528730711],[112.89681808445479,-7.1789802535104332],[112.89681823891119,-7.1789803164343695],[112.89681823864781,-7.1789802528730711]]],[[[112.89692675367452,-7.178952681128826],[112.8969267162075,-7.1789436402234967],[112.89691766392282,-7.1789436776433107],[112.89691770138967,-7.1789527185486861],[112.89692675367452,-7.178952681128826]]],[[[112.89679081953925,-7.1789170787838392],[112.89678388280339,-7.1789171074563765],[112.89678178971197,-7.1789225357175335],[112.8967818047184,-7.178926157106936],[112.89678039108185,-7.1789261629500967],[112.89676748300019,-7.1789596389999577],[112.89680917116205,-7.1789766223275349],[112.89680914889696,-7.1789712493850004],[112.89680009661112,-7.178971286802641],[112.8967999842174,-7.1789441640846707],[112.89679093193202,-7.1789442015019862],[112.89679081953925,-7.1789170787838392]]],[[[112.89696285041047,-7.1789254087321694],[112.89696281294287,-7.1789163678270231],[112.89694470837489,-7.1789164426676129],[112.89694474584212,-7.1789254835728569],[112.89696285041047,-7.1789254087321694]]],[[[112.89681793892892,-7.1789079256258486],[112.89679983435977,-7.1789080004606385],[112.89679990928849,-7.1789260822726684],[112.89680896157344,-7.1789260448552685],[112.89680899903804,-7.1789350857612222],[112.89681805132314,-7.1789350483435967],[112.89681801385835,-7.1789260074376902],[112.89684517071282,-7.1789258951838804],[112.89684513324757,-7.1789168542781141],[112.89681797639362,-7.1789169665317791],[112.89681793892892,-7.1789079256258486]]],[[[112.8967907820751,-7.1789080378777648],[112.89679074590221,-7.1788993085712312],[112.89678737452485,-7.1789080519626429],[112.8967907820751,-7.1789080378777648]]],[[[112.89681782653514,-7.1788808029080995],[112.89679972196706,-7.1788808777426043],[112.89679975943125,-7.1788899186486255],[112.89680881171549,-7.1788898812314157],[112.89680884917991,-7.1788989221373845],[112.89681790146427,-7.1788988847199473],[112.89681782653514,-7.1788808029080995]]],[[[112.89660913700902,-7.1787641316702357],[112.89660008472622,-7.1787641690828572],[112.89660012218584,-7.1787732099899726],[112.89659271289335,-7.178773240612105],[112.89660919050682,-7.1787770433370381],[112.89660913700902,-7.1787641316702357]]],[[[112.89661807691213,-7.1787369715363507],[112.89661796453289,-7.1787098488152301],[112.8966089122512,-7.1787098862277432],[112.89660902462988,-7.1787370089490068],[112.89661807691213,-7.1787369715363507]]],[[[112.89544015673944,-7.1784706062883537],[112.89542205217305,-7.178470681064276],[112.89542208960786,-7.1784797219777028],[112.89543114189127,-7.1784796845897816],[112.89543117932632,-7.178488725503156],[112.89544023160984,-7.1784886881150118],[112.89544015673944,-7.1784706062883537]]]]},"properties":{"FID":0,"Shape_Leng":18102566.929299999,"Shape_Area":236516885.403}}]
}