{
  "type" : "FeatureCollection",
  "features" : [{"type":"Feature","id":0,"geometry":{"type":"MultiPolygon","coordinates":[[[[113.91176009511257,-7.0192178660029558],[113.91175992649713,-7.0191907633973614],[113.9117418417152,-7.0191908757052843],[113.91174189791992,-7.0191999099072939],[113.91173285552868,-7.0191999660610671],[113.91173296793801,-7.0192180344652373],[113.91176009511257,-7.0192178660029558]]],[[[113.91172375693297,-7.0191909880125118],[113.91172370072867,-7.019181953810353],[113.91171465833764,-7.0191820099636333],[113.91171471454177,-7.0191910441658667],[113.91172375693297,-7.0191909880125118]]],[[[113.91182311081916,-7.0191723019114569],[113.91182305461308,-7.0191632677100744],[113.91181401222319,-7.0191633238651221],[113.91181406842908,-7.0191723580665739],[113.91182311081916,-7.0191723019114569]]],[[[113.91184125180553,-7.0191812238018949],[113.91184113939262,-7.0191631553994611],[113.91183209700289,-7.0191632115548543],[113.91183220941545,-7.0191812799574329],[113.91184125180553,-7.0191812238018949]]],[[[113.91190443611869,-7.0191627623068413],[113.91189539372948,-7.0191628184634487],[113.91189533752208,-7.0191537842626666],[113.91188629513296,-7.0191538404190288],[113.91188646375483,-7.019180943021591],[113.91189550614448,-7.0191808868650076],[113.91189556235207,-7.0191899210657809],[113.91191364713146,-7.019189808751948],[113.91191353471562,-7.0191717403507088],[113.91190449232631,-7.0191717965075648],[113.91190443611869,-7.0191627623068413]]],[[[113.91191353471562,-7.0191717403507088],[113.91192257710489,-7.0191716841936769],[113.91192252089689,-7.019162649993099],[113.91193156328588,-7.0191625938359676],[113.91193150707781,-7.019153559635475],[113.91192246468898,-7.0191536157925336],[113.91192240848116,-7.0191445815919629],[113.91191336609242,-7.0191446377487745],[113.91191342230009,-7.0191536719494181],[113.91190437991112,-7.0191537281061303],[113.91190443611869,-7.0191627623068413],[113.91191347850781,-7.0191627061500554],[113.91191353471562,-7.0191717403507088]]],[[[113.91185905555203,-7.0191359404849125],[113.91185899934555,-7.0191269062838249],[113.91184995695667,-7.0191269624392723],[113.91185001316296,-7.0191359966404345],[113.91185905555203,-7.0191359404849125]]],[[[113.91194931081418,-7.0191082763190451],[113.9119492546062,-7.0190992421186573],[113.91193116983086,-7.0190993544324209],[113.9119312260385,-7.0191083886329526],[113.91194931081418,-7.0191082763190451]]],[[[113.9123592848123,-7.0189973154696066],[113.91235554360364,-7.0189973387070284],[113.91235555746252,-7.0189995659421438],[113.9123592848123,-7.0189973154696066]]],[[[113.91209320206491,-7.0189808989935587],[113.91210224444903,-7.0189808428345852],[113.91210218823912,-7.0189718086354018],[113.91209314585518,-7.0189718647943025],[113.91209320206491,-7.0189808989935587]]],[[[113.91212931539047,-7.0189716401576563],[113.91212925918012,-7.0189626059587029],[113.91212021679658,-7.018962662118053],[113.91212027300675,-7.0189716963170783],[113.91212931539047,-7.0189716401576563]]],[[[113.91310589239448,-7.018965573917149],[113.91310583616534,-7.0189565397260809],[113.91308775141421,-7.0189566520821431],[113.91308779098927,-7.0189630105436729],[113.91309071440212,-7.0189656682144106],[113.91310589239448,-7.018965573917149]]],[[[113.91161748763669,-7.0189296459254047],[113.91160452937754,-7.0189222295189939],[113.91160457601222,-7.018929726100831],[113.91161748763669,-7.0189296459254047]]],[[[113.91160187129718,-7.018920708343642],[113.91157730424412,-7.0189066486383576],[113.91157739265121,-7.0189208603438038],[113.91160187129718,-7.018920708343642]]],[[[113.91126995144523,-7.0189227692913514],[113.9112697828653,-7.0188956666735471],[113.91126292261308,-7.0188957092673983],[113.91126558715257,-7.0189227963884333],[113.91126995144523,-7.0189227692913514]]],[[[113.91126051570461,-7.0188595859917573],[113.91125936989522,-7.0188595931057929],[113.91126059309313,-7.0188720278731802],[113.91126051570461,-7.0188595859917573]]],[[[113.91234565800782,-7.0188618819125157],[113.91234554558062,-7.0188438135179654],[113.91233650320115,-7.0188438696805378],[113.91233655941451,-7.0188529038778951],[113.91232751703477,-7.0188529600403653],[113.91232757324805,-7.0188619942377759],[113.91234565800782,-7.0188618819125157]]],[[[113.91150449157593,-7.0188309674855489],[113.91150443537876,-7.0188219332814814],[113.9114953929929,-7.0188219894276731],[113.91149544918989,-7.0188310236318125],[113.91150449157593,-7.0188309674855489]]],[[[113.91274318532081,-7.0188052054165357],[113.91274312909997,-7.0187961712224753],[113.91273408672461,-7.0187962273923281],[113.91273414294528,-7.0188052615864613],[113.91274318532081,-7.0188052054165357]]],[[[113.91304135876595,-7.0187672149448028],[113.91304130253968,-7.0187581807531201],[113.91303226016747,-7.0187582369284156],[113.91303231639358,-7.0187672711201721],[113.91304135876595,-7.0187672149448028]]],[[[113.91226405173875,-7.0188262505790053],[113.91225500935892,-7.0188263067398662],[113.91225512178234,-7.018844375135858],[113.91226416416252,-7.0188443189748515],[113.91226422037451,-7.0188533531727941],[113.91227326275477,-7.0188532970115389],[113.91227331896701,-7.0188623312093883],[113.91228236134738,-7.0188622750478871],[113.91228230513497,-7.0188532408501114],[113.91229134751508,-7.0188531846885098],[113.91229129130255,-7.0188441504907866],[113.91230033368241,-7.0188440943290837],[113.91230005262005,-7.0187989233408929],[113.91231813737782,-7.018798811017696],[113.91231808116524,-7.0187897768201672],[113.91233616592235,-7.0187896644964223],[113.9123361097095,-7.0187806302990534],[113.91234515208777,-7.0187805741369935],[113.9123450958748,-7.0187715399396939],[113.9123360534967,-7.018771596101681],[113.91233594107135,-7.0187535277069237],[113.91232689869349,-7.0187535838685911],[113.91232695490596,-7.0187626180660443],[113.91230887014976,-7.0187627303890041],[113.91230898257423,-7.0187807987841921],[113.912290897817,-7.0187809111067487],[113.91229101024108,-7.0187989795022299],[113.91228196786201,-7.0187990356633927],[113.91228202407399,-7.0188080698611754],[113.91227298169466,-7.0188081260222379],[113.91227303790653,-7.0188171602201068],[113.91226399552697,-7.0188172163810689],[113.91226405173875,-7.0188262505790053],[113.91227309411848,-7.0188261944179704],[113.91227315033049,-7.0188352286158304],[113.91226410795059,-7.0188352847769373],[113.91226405173875,-7.0188262505790053]]],[[[113.91234492723633,-7.0187444373477703],[113.91234487102366,-7.0187354031504547],[113.91233582864626,-7.0187354593121505],[113.91233588485876,-7.0187444935095389],[113.91234492723633,-7.0187444373477703]]],[[[113.91241726625431,-7.0187439880473672],[113.91241721004025,-7.0187349538506352],[113.91239912528657,-7.0187350661766335],[113.91239918150028,-7.0187441003735112],[113.91241726625431,-7.0187439880473672]]],[[[113.91280631328152,-7.0187777096414798],[113.91280620083792,-7.0187596412543227],[113.91283332795992,-7.0187594727409488],[113.91283321551556,-7.0187414043542127],[113.91284225788907,-7.0187413481828864],[113.91284208922258,-7.0187142456029719],[113.91282400447655,-7.0187143579450142],[113.91282422936395,-7.018750494718808],[113.91279710224227,-7.018750663231442],[113.91279715846379,-7.018759697425101],[113.9127700313409,-7.0187598659363895],[113.91277014378312,-7.0187779343241319],[113.91280631328152,-7.0187777096414798]]],[[[113.91238098431927,-7.0187261443049076],[113.91238087189291,-7.0187080759108404],[113.9123718295163,-7.0187081320730123],[113.91237194194233,-7.0187262004672251],[113.91238098431927,-7.0187261443049076]]],[[[113.91155795912248,-7.0187041517531483],[113.9115579029253,-7.0186951175494654],[113.91154886054231,-7.0186951736956775],[113.91154891673932,-7.0187042078994351],[113.91155795912248,-7.0187041517531483]]],[[[113.91271532733559,-7.0186879293996443],[113.91271527111623,-7.0186788952052819],[113.91270622874292,-7.0186789513736638],[113.9127062849621,-7.0186879855680999],[113.91271532733559,-7.0186879293996443]]],[[[113.91285090670716,-7.018678052658692],[113.91285085048528,-7.018669018465455],[113.91284180811324,-7.0186690746363691],[113.91284186433496,-7.0186781088296808],[113.91285090670716,-7.018678052658692]]],[[[113.91240760552863,-7.0186446680454599],[113.91239856315349,-7.0186447242076415],[113.91239873179263,-7.0186718267983803],[113.91238968941688,-7.0186718829606072],[113.91238974562991,-7.0186809171575684],[113.91238070325392,-7.0186809733196949],[113.91238081567984,-7.018699041713802],[113.91238985805617,-7.0186989855515298],[113.91238980184299,-7.0186899513545598],[113.9123988442191,-7.0186898951921863],[113.91239878800583,-7.0186808609952687],[113.91241687275743,-7.018680748670147],[113.91241676033042,-7.0186626802766412],[113.91240771795501,-7.0186627364391434],[113.91240760552863,-7.0186446680454599]]],[[[113.91242563406529,-7.0186355215238558],[113.91241659169046,-7.018635577686311],[113.91241664790371,-7.0186446118831043],[113.91242569027871,-7.0186445557205746],[113.91242563406529,-7.0186355215238558]]],[[[113.91242563406529,-7.0186355215238558],[113.91243467644003,-7.0186354653612257],[113.91243456401307,-7.018617396967973],[113.91242552163867,-7.0186174531304575],[113.91242563406529,-7.0186355215238558]]],[[[113.91246174734981,-7.0186262626758946],[113.91246169113583,-7.018617228479477],[113.91245264876166,-7.0186172846424828],[113.91245270497545,-7.0186263188389733],[113.91246174734981,-7.0186262626758946]]],[[[113.91132190187126,-7.018552030004658],[113.91132173329731,-7.0185249273877037],[113.91133077567885,-7.0185248712472212],[113.91133061570773,-7.0184991517354778],[113.91130905744468,-7.0185521097505017],[113.91132190187126,-7.018552030004658]]],[[[113.91133959329471,-7.0184886782844877],[113.9113395223527,-7.018477272501725],[113.91133486731802,-7.0184887076261253],[113.91133959329471,-7.0184886782844877]]],[[[113.91136624228474,-7.0184116348014136],[113.91134224156679,-7.0184705927336868],[113.91135756567299,-7.018470497592471],[113.91135734090776,-7.018434360770863],[113.91137542566668,-7.0184342484897986],[113.91137531328383,-7.0184161800792895],[113.91136627090475,-7.0184162362197631],[113.91136624228474,-7.0184116348014136]]],[[[113.9113752570925,-7.0184071458740203],[113.91137514892841,-7.0183897556711496],[113.91137066800002,-7.0184007629999332],[113.91136805143492,-7.0184071906109891],[113.9113752570925,-7.0184071458740203]]],[[[113.91146860301475,-7.0188763630912971],[113.91146854681791,-7.0188673288869579],[113.91145950443089,-7.0188673850328183],[113.91145939203778,-7.0188493166239647],[113.91146843442446,-7.01884926047825],[113.91146820963844,-7.0188131236608378],[113.91147725202437,-7.0188130675152411],[113.9114770834351,-7.0187859649023494],[113.91148612582043,-7.0187859087567981],[113.91148601342761,-7.0187678403483291],[113.91149505581252,-7.0187677842027494],[113.91149499961605,-7.0187587499985806],[113.91150404200069,-7.0187586938529023],[113.91150398580412,-7.0187496596488037],[113.91151302818852,-7.0187496035030223],[113.91151263481338,-7.0186863640747159],[113.9115216771965,-7.0186863079292729],[113.91152162100018,-7.0186772737253049],[113.91153066338305,-7.0186772175797625],[113.91153055099026,-7.0186591491719286],[113.91152150860776,-7.0186592053173271],[113.91152145241166,-7.0186501711133298],[113.91153049479399,-7.0186501149680049],[113.91153032620561,-7.0186230123562128],[113.91153936858734,-7.0186229562109332],[113.91153925619511,-7.018604887803197],[113.91154829857643,-7.0186048316578908],[113.91154818618416,-7.0185867632502861],[113.91155722856504,-7.0185867071049479],[113.91155705997666,-7.0185596044937313],[113.91154801759629,-7.0185596606388483],[113.91154796140049,-7.0185506264350286],[113.91155700378069,-7.0185505702899844],[113.91155694758477,-7.0185415360862331],[113.91156598996474,-7.0185414799410886],[113.91156593376874,-7.0185324457374065],[113.91157497614844,-7.0185323895921607],[113.91157469516864,-7.018487218574057],[113.9115837375474,-7.0184871624290031],[113.91158356895988,-7.0184600598183131],[113.91159261133807,-7.0184600036733045],[113.91159255514221,-7.0184509694698054],[113.91160159752012,-7.0184509133246946],[113.91160131654105,-7.0184057423075119],[113.91161035891803,-7.0184056861625912],[113.91161024652658,-7.0183876177558524],[113.91161928890313,-7.0183875616109068],[113.91161900792491,-7.0183423905942961],[113.91162805030051,-7.0183423344495406],[113.91162788171395,-7.0183152318397575],[113.91164596646392,-7.0183151195501612],[113.91164591026821,-7.0183060853470378],[113.9116097407687,-7.0183063099252436],[113.91160985315882,-7.0183243783320686],[113.91160081078338,-7.0183244344763311],[113.91160092317347,-7.0183425028832884],[113.91160996554923,-7.0183424467388784],[113.91161007793994,-7.0183605151456741],[113.91160103556382,-7.0183605712902288],[113.91160109175912,-7.0183696054936933],[113.91159204938278,-7.0183696616381468],[113.91159221796859,-7.0183967642487355],[113.91158317559162,-7.0183968203932334],[113.91158323178686,-7.0184058545968284],[113.91157418940966,-7.018405910741226],[113.91157430180003,-7.0184239791485492],[113.91156525942242,-7.0184240352929201],[113.911565428008,-7.0184511379040941],[113.91155638562977,-7.0184511940485104],[113.91155655421549,-7.0184782966598513],[113.91154751183669,-7.0184783528043129],[113.91154784900908,-7.0185325580273767],[113.91153880662915,-7.0185326141721012],[113.91153858184794,-7.0184964773564591],[113.91152953946865,-7.0184965335007181],[113.91152982044446,-7.0185417045206258],[113.91152077806422,-7.0185417606650757],[113.91152083425942,-7.0185507948691193],[113.91151179187891,-7.018550851013468],[113.91151212905069,-7.01860505623808],[113.91150308666909,-7.0186051123826934],[113.91150319905992,-7.0186231807910113],[113.91149415667789,-7.0186232369355981],[113.91149421287325,-7.0186322711398237],[113.91148517049095,-7.0186323272843074],[113.91148522668621,-7.0186413614885863],[113.91147618430368,-7.0186414176329697],[113.91147640908476,-7.0186775544504219],[113.91146736670144,-7.0186776105949242],[113.91146764767859,-7.0187227816169937],[113.91144956291002,-7.0187228939062054],[113.91144978769168,-7.0187590307243735],[113.91144074530658,-7.0187590868690108],[113.9114408576975,-7.018777155278217],[113.911431815312,-7.0187772114228286],[113.91143204009404,-7.0188133482414843],[113.91142299770775,-7.0188134043862123],[113.91142350347013,-7.0188947122286063],[113.91140854703231,-7.0188948050947264],[113.91140541869422,-7.0188948245188536],[113.91140553108598,-7.018912892928542],[113.91139648869755,-7.0189129490735516],[113.91139699446256,-7.0189942569175434],[113.9113879520725,-7.0189943130630352],[113.91138851403895,-7.0190846551122723],[113.91139755643074,-7.0190845989660513],[113.91139783741762,-7.0191297699901565],[113.91138879502495,-7.0191298261367443],[113.91138885122237,-7.0191388603416263],[113.91137980882944,-7.0191389164881111],[113.91138031460801,-7.0192202243325514],[113.91137127221346,-7.0192202804795203],[113.91137132841128,-7.019229314684492],[113.91138037080601,-7.0192292585374512],[113.91138048320221,-7.019247326947271],[113.91138952559723,-7.0192472707999123],[113.91138963799408,-7.0192653392095545],[113.91139868038935,-7.0192652830618725],[113.91139873658805,-7.0192743172666416],[113.91140777898345,-7.0192742611187136],[113.91140800377971,-7.0193103979373683],[113.91141113212058,-7.0193103785120821],[113.9114351309675,-7.0193102294916692],[113.91143518716727,-7.0193192636961257],[113.9114532719591,-7.0193191513979771],[113.91145332815931,-7.0193281856022658],[113.91147141295117,-7.0193280733032761],[113.91147158155326,-7.0193551759156847],[113.91148062394963,-7.0193551197657085],[113.91148084875414,-7.0193912565819065],[113.91148989115111,-7.0193912004314667],[113.91148994395445,-7.0193996883980008],[113.91151491947107,-7.0194181486708525],[113.91151718694782,-7.0194181345903335],[113.91151719751028,-7.0194198324486781],[113.91155215400032,-7.0194456699998593],[113.91156871975829,-7.0194539527895898],[113.91157166614346,-7.0194539344927716],[113.91157167545116,-7.0194554306199866],[113.91158656739195,-7.0194628765090981],[113.91158980714218,-7.0194628563903558],[113.91158975093828,-7.0194538221872183],[113.91163496292403,-7.0194535414203001],[113.91163501912882,-7.0194625756230709],[113.91165310392297,-7.0194624633149401],[113.91165321633346,-7.0194805317201796],[113.91166225873077,-7.0194804755657074],[113.91166231493632,-7.0194895097682473],[113.91170752692257,-7.0194892289929172],[113.91170747071617,-7.0194801947907415],[113.91171651311305,-7.0194801386352266],[113.91171645690655,-7.0194711044331033],[113.91170741450985,-7.0194711605885454],[113.9117073583036,-7.0194621263863786],[113.91172544309654,-7.019462014075466],[113.91172549930316,-7.019471048277488],[113.9117345416997,-7.0194709921216987],[113.91173459790656,-7.0194800263236763],[113.91174364030319,-7.01947997016764],[113.91174358409616,-7.019470935965737],[113.91175262649254,-7.0194708798095986],[113.91175257028542,-7.0194618456077986],[113.91174352788921,-7.0194619017638606],[113.91174347168234,-7.0194528675619656],[113.91173442928621,-7.0194529237177825],[113.9117343730796,-7.0194438895158102],[113.91174341547554,-7.0194438333600644],[113.9117433592688,-7.0194347991581614],[113.9117524016645,-7.019434743002317],[113.91175234545767,-7.0194257088004992],[113.91176138785312,-7.0194256526445544],[113.91176144406012,-7.0194346868462976],[113.91177048645567,-7.0194346306901059],[113.91177054266291,-7.0194436648917895],[113.91176150026719,-7.0194437210480549],[113.91176161268157,-7.0194617894515581],[113.91182490945249,-7.0194613963530292],[113.911824965661,-7.0194704305542484],[113.91184305045236,-7.0194703182386728],[113.9118429942435,-7.0194612840376012],[113.91185203663892,-7.0194612278796233],[113.91185198042996,-7.0194521936786041],[113.91187558661174,-7.0194520470713115],[113.91187908916382,-7.0194490596286263],[113.91187905140576,-7.0194429910030491],[113.91188625663555,-7.019442946254399],[113.91193048900016,-7.0194052189999052],[113.91197303618502,-7.0193610963518855],[113.91196896945297,-7.0193611216091254],[113.91196891324257,-7.0193520874090112],[113.91197795563484,-7.0193520312494764],[113.91197789942433,-7.0193429970494323],[113.91199056507708,-7.0193429183867435],[113.91201048100014,-7.0193222649999756],[113.91212322500007,-7.0192053449998788],[113.91219363664163,-7.0191359111258826],[113.91219362389528,-7.0191338626084141],[113.91219572725385,-7.0191338495445006],[113.91227452493229,-7.0190561460579417],[113.91227449944127,-7.0190520493632853],[113.91226545705719,-7.0190521055261437],[113.91226540084357,-7.0190430713283209],[113.91227444322746,-7.0190430151655354],[113.91227438701374,-7.0190339809677651],[113.91229880872643,-7.0190338292823702],[113.91232904677079,-7.0190155723764862],[113.91232852888528,-7.0190155755931567],[113.91232847267074,-7.0190065413958296],[113.91233751505345,-7.0190064852321177],[113.91233745883881,-7.018997451034827],[113.91234650122125,-7.0189973948710147],[113.91234644500649,-7.0189883606738084],[113.91236452977083,-7.0189882483458099],[113.91236456634826,-7.0189941266215721],[113.91237357523376,-7.0189886873009106],[113.91237357215287,-7.0189881921815482],[113.91237440383195,-7.0189881870157951],[113.91240060188873,-7.0189723693383819],[113.91240058686726,-7.0189699552941773],[113.91240464186912,-7.0189699301074251],[113.9124096107732,-7.0189669300173856],[113.91240957303292,-7.0189608649326773],[113.91241976088661,-7.0189608016528844],[113.91242065800009,-7.0189602599999503],[113.91242763266183,-7.0189567135495636],[113.91242754536322,-7.0189426842095326],[113.91243658774387,-7.0189426280444209],[113.91243653152782,-7.0189335938479207],[113.91246365866884,-7.0189334253517615],[113.91246360245236,-7.0189243911554779],[113.91245456007228,-7.0189244473209627],[113.91245450385604,-7.0189154131246028],[113.91244546147604,-7.0189154692898432],[113.91244540526006,-7.0189064350934052],[113.9124634900196,-7.0189063227628958],[113.91246360245236,-7.0189243911554779],[113.91248168721233,-7.018924278823981],[113.91248163099557,-7.0189152446278387],[113.91249971575489,-7.0189151322957928],[113.91249965953786,-7.0189060980997935],[113.91250870191723,-7.0189060419335831],[113.91250858948302,-7.0188879735417],[113.912517631862,-7.0188879173754621],[113.91251757564483,-7.0188788831796112],[113.91252661802353,-7.0188788270132738],[113.91252656180627,-7.018869792817477],[113.91253560418471,-7.0188697366510375],[113.91253566040216,-7.0188787708467606],[113.91254470278072,-7.0188787146800742],[113.91254464656311,-7.0188696804844239],[113.91255368894141,-7.0188696243176363],[113.91255357650607,-7.0188515559264681],[113.91258070363951,-7.0188513874255021],[113.91258064742144,-7.0188423532301156],[113.91259873217633,-7.018842240895415],[113.9125986197397,-7.0188241725049698],[113.9126076621167,-7.0188241163375045],[113.91260760589833,-7.0188150821423401],[113.91262569065174,-7.0188149698070346],[113.91262574687046,-7.0188240040020533],[113.91264383162394,-7.0188238916659067],[113.91264371918585,-7.0188058232761605],[113.91265276156214,-7.0188057671079722],[113.91265270534304,-7.0187967329131826],[113.91266174771906,-7.0187966767448939],[113.91266163528073,-7.0187786083553991],[113.91265259290505,-7.0187786645235395],[113.91265253668617,-7.0187696303287224],[113.91264349431057,-7.0187696864966185],[113.91264343809195,-7.0187606523017241],[113.91263439571647,-7.0187607084693733],[113.91263445193493,-7.0187697426643414],[113.9126163671834,-7.0187698549992632],[113.91261642340157,-7.0187788891943725],[113.91260738102552,-7.0187789453616478],[113.91260743724361,-7.0187879795568273],[113.91258935249094,-7.0187880918909995],[113.91258924005554,-7.0187700235003438],[113.91259828243156,-7.0187699673334922],[113.91259822621379,-7.0187609331382319],[113.9125530143338,-7.0187612139703957],[113.91255312676765,-7.0187792823616419],[113.91254408439109,-7.0187793385276986],[113.9125440281743,-7.0187703043320031],[113.91253498579782,-7.0187703604978138],[113.91253492958127,-7.0187613263020445],[113.91252588720491,-7.0187613824676083],[113.91252599963772,-7.0187794508592916],[113.91250791488406,-7.0187795631901899],[113.9125080835328,-7.0188066657781247],[113.91248999877782,-7.0188067781087655],[113.91248983013013,-7.0187796755203937],[113.91248078775301,-7.0187797316852336],[113.91248067532194,-7.0187616632928194],[113.91246259056823,-7.0187617756216882],[113.91246253435315,-7.0187527414253301],[113.91241732246846,-7.018753022244093],[113.91241737868266,-7.0187620564408189],[113.91239929392793,-7.0187621687672532],[113.91239951878413,-7.0187983055547098],[113.91239047640593,-7.018798361717959],[113.91239058883413,-7.0188164301117855],[113.91238154645553,-7.0188164862750062],[113.91238171509787,-7.0188435888659439],[113.91237267271865,-7.0188436450292091],[113.9123727851469,-7.0188617134233207],[113.91236374276728,-7.0188617695865601],[113.91236379898135,-7.018870803783674],[113.91237284136112,-7.0188707476203636],[113.91237289757544,-7.0188797818174011],[113.9124000247149,-7.0188796133262032],[113.91239996850008,-7.0188705791293851],[113.91240901087957,-7.0188705229653792],[113.91240895466464,-7.0188614887686276],[113.91241799704389,-7.0188614326045213],[113.91241794082885,-7.0188523984078408],[113.91242698320785,-7.0188523422436315],[113.91242703942306,-7.018861376440241],[113.91243608180216,-7.0188613202757848],[113.91243619423312,-7.018879388668843],[113.91242715185369,-7.0188794448334439],[113.91242720806912,-7.0188884790300232],[113.9124181656894,-7.0188885351945229],[113.91241827812013,-7.0189066035878662],[113.91240019335983,-7.0189067159166374],[113.91240024957496,-7.0189157501134405],[113.91238216481399,-7.0189158624416619],[113.91238205238452,-7.0188977940477599],[113.91236396762396,-7.0188979063749954],[113.91236391140968,-7.0188888721778762],[113.91231869950785,-7.0188891529925561],[113.91231875572127,-7.0188981871900413],[113.91230971334051,-7.0188982433525284],[113.91230965712728,-7.0188892091549713],[113.91229157236587,-7.0188893214792794],[113.91229179721788,-7.0189254582700205],[113.91228275483638,-7.0189255144322056],[113.91228292347564,-7.0189526170254268],[113.91227388109353,-7.0189526731876573],[113.91227393730658,-7.0189617073854791],[113.91226489492425,-7.0189617635476091],[113.91226472628581,-7.0189346609539456],[113.91223759913989,-7.0189348294386358],[113.91223776777676,-7.0189619320329566],[113.91224681015932,-7.018961875871347],[113.91224686637193,-7.0189709100693509],[113.91223782398919,-7.0189709662310333],[113.91223776777676,-7.0189619320329566],[113.9122287253941,-7.0189619881943912],[113.91222878160637,-7.018971022392539],[113.9122106968405,-7.0189711347150352],[113.91221064062859,-7.0189621005167391],[113.91220159824573,-7.0189621566776523],[113.91220165445748,-7.0189711908760195],[113.91219261207436,-7.0189712470368342],[113.91219278070952,-7.0189983496321835],[113.91217469594201,-7.0189984619537267],[113.91217452730791,-7.0189713593579368],[113.91218356969117,-7.018971303197473],[113.91218345726844,-7.0189532348004047],[113.9121924996513,-7.0189531786399133],[113.91219244343988,-7.0189441444414467],[113.91220148582246,-7.0189440882808531],[113.91220142961095,-7.0189350540824558],[113.91221047199328,-7.0189349979217619],[113.91221041578166,-7.0189259637234347],[113.91223754292774,-7.0189257952405262],[113.91223737429178,-7.0188986926461761],[113.91224641667311,-7.0188986364850772],[113.9122463604611,-7.0188896022870093],[113.91225540284219,-7.0188895461258118],[113.91225534663008,-7.0188805119278443],[113.91226438901094,-7.0188804557665465],[113.91226427658657,-7.0188623873707146],[113.91225523420606,-7.0188624435318685],[113.91225517799417,-7.0188534093338726],[113.91223709323329,-7.0188535216555126],[113.91223720565647,-7.0188715900517895],[113.91222816327553,-7.018871646212494],[113.91222821948706,-7.0188806804106996],[113.91220109234338,-7.0188808488919916],[113.91220114855446,-7.0188898830903943],[113.91219210617291,-7.0188899392505508],[113.91219216238389,-7.0188989734490566],[113.91218312000208,-7.0188990296091118],[113.91218306379129,-7.0188899954105324],[113.9121740214096,-7.0188900515703407],[113.91217407762021,-7.018899085768993],[113.91216503523825,-7.0188991419287001],[113.91216509144878,-7.0189081761274039],[113.91220126097683,-7.0189079514872397],[113.9122013733995,-7.0189260198840531],[113.91219233101727,-7.0189260760445009],[113.91219238722853,-7.0189351102429773],[113.91218334484603,-7.018935166403323],[113.91218328863492,-7.0189261322047747],[113.91217424625255,-7.0189261883648761],[113.9121741900417,-7.0189171541662523],[113.91216514765938,-7.0189172103261059],[113.91216537250253,-7.0189533471208705],[113.91214728773635,-7.0189534594406391],[113.91214740015768,-7.0189715278382891],[113.91212931539047,-7.0189716401576563],[113.91212942781139,-7.0189897085555808],[113.91212038542733,-7.0189897647151493],[113.91212049784821,-7.0190078331132248],[113.91211145546373,-7.0190078892727632],[113.9121115116741,-7.0190169234718445],[113.91209342690458,-7.019017035790549],[113.91209320206491,-7.0189808989935587],[113.91208415968075,-7.0189809551523599],[113.91208421589037,-7.0189899893516845],[113.91207517350595,-7.0189900455103835],[113.91207539834451,-7.0190261823079423],[113.91208444072963,-7.0190261261489511],[113.91208449693963,-7.019035160348257],[113.91209353932484,-7.0190351041890198],[113.91209376416629,-7.0190712409859151],[113.91208472178037,-7.0190712971454454],[113.91208460935985,-7.0190532287468432],[113.91202816769169,-7.0190535792841739],[113.91202937106158,-7.0190987445547126],[113.91203063609152,-7.0190987366981226],[113.91203069230107,-7.0191077708978522],[113.91202164991392,-7.019107827056458],[113.91202170612337,-7.0191168612562409],[113.91201266373599,-7.0191169174147454],[113.91201271994535,-7.019125951614595],[113.91198559278224,-7.0191261200892869],[113.91198564899113,-7.0191351542893523],[113.911967564215,-7.0191352666050895],[113.91196762042364,-7.0191443008052969],[113.91195857803527,-7.019144356962979],[113.9119586342438,-7.0191533911632549],[113.91194959185522,-7.0191534473208348],[113.91194964806365,-7.0191624815211817],[113.9119406056748,-7.0191625376786604],[113.91194066188315,-7.0191715718790944],[113.91193161949404,-7.0191716280364727],[113.91193190053593,-7.0192167990388574],[113.9119228581459,-7.0192168551964249],[113.91192291435432,-7.0192258893969459],[113.91191387196403,-7.0192259455544148],[113.91191381575577,-7.0192169113538219],[113.911886688585,-7.0192170798249647],[113.91188680100053,-7.0192351482266062],[113.91187775860979,-7.0192352043834525],[113.91187787102527,-7.0192532727852388],[113.91185074385153,-7.0192534412551701],[113.91185091247374,-7.0192805438584784],[113.91184187008182,-7.0192806000149943],[113.91184192628918,-7.0192896342161628],[113.91183288389702,-7.0192896903725774],[113.91183282768982,-7.0192806561713379],[113.91182378529776,-7.0192807123275047],[113.91182367288391,-7.0192626439248498],[113.91181463049212,-7.0192627000806995],[113.91181457428547,-7.019253665879317],[113.91182361667711,-7.0192536097235427],[113.91182356047037,-7.0192445755222126],[113.91183260286174,-7.0192445193663362],[113.91183254665491,-7.0192354851650753],[113.91184158904602,-7.0192354290090986],[113.91184153283909,-7.0192263948079088],[113.91185961762078,-7.0192262824955769],[113.91185944899937,-7.0191991798924178],[113.91187753377972,-7.0191990675798319],[113.91187758998711,-7.0192081017807428],[113.91188663237735,-7.0192080456241142],[113.91188651996225,-7.0191899772224362],[113.91187747757238,-7.0191900333789174],[113.91187736515793,-7.0191719649770929],[113.91185928037862,-7.0191720772892428],[113.91185939279238,-7.0191901456913577],[113.91183226562184,-7.0191903141587169],[113.9118323218283,-7.0191993483599964],[113.91180519465658,-7.0191995168260108],[113.91180525086259,-7.0192085510275044],[113.91179620847167,-7.0192086071825699],[113.911796489502,-7.0192537781903486],[113.91178744711017,-7.0192538343456032],[113.91178750331628,-7.0192628685472025],[113.91176037613978,-7.0192630370121432],[113.91176043234546,-7.0192720712139911],[113.91175138995295,-7.0192721273686951],[113.91175150236415,-7.0192901957724958],[113.91173341757828,-7.0192903080816746],[113.91173336137298,-7.0192812738796322],[113.91171527658713,-7.0192813861879717],[113.91171522038226,-7.0192723519857783],[113.91170617798939,-7.0192724081396145],[113.91170612178476,-7.0192633739373278],[113.91169707939201,-7.019263430090918],[113.91169702318764,-7.0192543958885878],[113.91168798079499,-7.019254452041932],[113.91168792459086,-7.0192454178395067],[113.91167888219829,-7.019245473992604],[113.9116788259944,-7.0192364397901024],[113.91166978360195,-7.019236495942951],[113.91166967119477,-7.0192184275378091],[113.91165158641031,-7.0192185398426945],[113.91165153020718,-7.0192095056399459],[113.91164248781503,-7.0192095617920547],[113.91164243161215,-7.0192005275892466],[113.91162434682795,-7.0192006398927971],[113.91162429062548,-7.0191916056898407],[113.91164237540933,-7.019191493386435],[113.91164231920661,-7.0191824591836189],[113.9116242344231,-7.0191825714868772],[113.91162417822078,-7.0191735372839288],[113.91161513582909,-7.0191735934352257],[113.91161507962703,-7.0191645592321645],[113.91162412201854,-7.0191645030809422],[113.91162400961427,-7.0191464346749921],[113.91159688244056,-7.0191466031277008],[113.91159677003765,-7.0191285347212951],[113.91157868525549,-7.0191286470219403],[113.91157857285356,-7.0191105786152281],[113.91158761524431,-7.0191105224651382],[113.91158739044064,-7.0190743856519582],[113.91157834805058,-7.0190744418017577],[113.91157829185003,-7.0190654075983785],[113.91156924946007,-7.0190654637479302],[113.91156902465929,-7.0190293269340875],[113.91155998226992,-7.0190293830831747],[113.91155981367062,-7.0190022804725309],[113.91153268650369,-7.0190024489180889],[113.91153263030461,-7.0189934147143145],[113.91154167269347,-7.0189933585660427],[113.91154150409612,-7.0189662559549326],[113.91155054648442,-7.018966199806707],[113.91155060268363,-7.0189752340103286],[113.911559645072,-7.0189751778618552],[113.91155970127146,-7.0189842120654182],[113.91156874365996,-7.018984155916697],[113.91156863126075,-7.0189660875097317],[113.91155958887261,-7.0189661436583046],[113.91155930787676,-7.0189209726403972],[113.91155026548942,-7.0189210287884318],[113.91155015309195,-7.0189029603811006],[113.91154111070487,-7.0189030165288191],[113.91154105450643,-7.0188939823250571],[113.91155009689334,-7.018893926177415],[113.91155004069478,-7.0188848919737561],[113.91155908308141,-7.0188848358260119],[113.91155913928013,-7.018893870029598],[113.91157176516472,-7.0188937916301102],[113.91157224156233,-7.0188847541195045],[113.91156812546799,-7.0188847796780944],[113.91156795687174,-7.0188576770674826],[113.91154987209956,-7.0188577893627082],[113.91154970350503,-7.018830686751623],[113.91155094502456,-7.0188306790426083],[113.91154996016739,-7.0187931574331008],[113.91154043401484,-7.0187932165837905],[113.91154043632835,-7.0187946060836319],[113.91152235155819,-7.0187947183767916],[113.91152246395283,-7.018812786784653],[113.91151342156728,-7.0188128429311201],[113.91151347776454,-7.0188218771351174],[113.91152252015029,-7.0188218209885793],[113.91152263254537,-7.0188398893964168],[113.91151359015929,-7.0188399455431014],[113.91151353396188,-7.018830911339113],[113.91150449157593,-7.0188309674855489],[113.91150460397047,-7.0188490358936537],[113.91149556158409,-7.0188490920400648],[113.91149567397859,-7.018867160448333],[113.91148663159176,-7.0188672165947166],[113.91148674398622,-7.0188852850030985],[113.91147770159898,-7.0188853411494536],[113.9114776454019,-7.0188763069451907],[113.91146860301475,-7.0188763630912971],[113.91146877160571,-7.0189034657042928],[113.91147781399339,-7.018903409557967],[113.91147787019069,-7.0189124437622175],[113.91145074302698,-7.0189126122008929],[113.91145057443684,-7.0188855095874709],[113.91145961682429,-7.0188854534416398],[113.91145956062755,-7.0188764192372304],[113.91146860301475,-7.0188763630912971]],[[113.91143288303729,-7.0189488613108981],[113.9114419254261,-7.0189488051649018],[113.91144186922919,-7.018939770960376],[113.91145091161778,-7.0189397148142785],[113.91145085542077,-7.0189306806098211],[113.91147798258552,-7.018930512170706],[113.91147809498067,-7.018948580579182],[113.91146001020353,-7.0189486928723896],[113.9114604035864,-7.0190119323029645],[113.91146944597621,-7.019011876155937],[113.91146961457051,-7.0190389787687373],[113.91146057218018,-7.0190390349159841],[113.91146074077461,-7.019066137528986],[113.9114516983837,-7.019066193676279],[113.91145164218565,-7.0190571594718598],[113.91144259979481,-7.0190572156189042],[113.91144243120162,-7.0190301130054689],[113.91143338881125,-7.0190301691521224],[113.91143322021925,-7.0190030665384153],[113.91145130499892,-7.0190029542453738],[113.9114512488014,-7.0189939200409448],[113.91144220641176,-7.0189939761874776],[113.91144215021448,-7.0189849419829713],[113.91143310782498,-7.018984998129258],[113.91143288303729,-7.0189488613108981]],[[113.91146910878963,-7.0189576709301758],[113.91147815117834,-7.018957614783413],[113.91147820737611,-7.0189666489876563],[113.91146916498721,-7.0189667051344946],[113.91146910878963,-7.0189576709301758]],[[113.91150539074061,-7.0189755147500916],[113.91151443312935,-7.018975458602486],[113.91151448932794,-7.0189844928064131],[113.91150544693903,-7.0189845489540907],[113.91150539074061,-7.0189755147500916]],[[113.91148011814381,-7.0192738119290388],[113.91149820293317,-7.0192736996298821],[113.91149825913386,-7.0192827338338262],[113.91148017434416,-7.0192828461331302],[113.91148011814381,-7.0192738119290388]],[[113.91198666076407,-7.019297769889878],[113.91196857598167,-7.0192978822082415],[113.91196840735223,-7.0192707796078047],[113.91198649213358,-7.0192706672898773],[113.91198666076407,-7.019297769889878],[113.91199570315514,-7.0192977137304355],[113.91199575936562,-7.0193067479303375],[113.91198671697438,-7.0193068040898519],[113.91198666076407,-7.019297769889878]],[[113.91181479911246,-7.019289802684888],[113.91180575672007,-7.0192898588407795],[113.91180570051338,-7.0192808246393215],[113.91179665812109,-7.0192808807949678],[113.91179660191466,-7.0192718465934334],[113.91181468669882,-7.0192717342821105],[113.91181479911246,-7.019289802684888]],[[113.91188747549998,-7.0193435586362121],[113.91187843310715,-7.019343614793935],[113.91187837689863,-7.0193345805930818],[113.91188741929128,-7.0193345244354335],[113.91188747549998,-7.0193435586362121],[113.91189651789276,-7.0193435024783168],[113.91189674272897,-7.0193796392811185],[113.9118877003355,-7.0193796954393051],[113.91188747549998,-7.0193435586362121]],[[113.91188792517221,-7.019415832242303],[113.91190600996046,-7.0194157199251697],[113.91190606617018,-7.0194247541257848],[113.91188798138157,-7.0194248664430647],[113.91188792517221,-7.019415832242303]],[[113.91183383943088,-7.0194432717930662],[113.91184288182599,-7.0194432156354098],[113.91184293803471,-7.0194522498365064],[113.91183389563942,-7.0194523059942364],[113.91183383943088,-7.0194432717930662]],[[113.91179772605746,-7.0194525306234121],[113.91177964126607,-7.019452642936959],[113.91177958505857,-7.0194436087353518],[113.91179766984962,-7.0194434964219514],[113.91179772605746,-7.0194525306234121]],[[113.91200390239514,-7.0191621445726575],[113.91199486000677,-7.0191622007311798],[113.91199474758824,-7.0191441323312125],[113.91200378997628,-7.0191440761728376],[113.91200390239514,-7.0191621445726575]],[[113.91212965265413,-7.019025845351389],[113.91212061026937,-7.0190259015112488],[113.91212055405875,-7.0190168673122306],[113.91212959644334,-7.0190168111524436],[113.91212965265413,-7.019025845351389]],[[113.9122019355173,-7.0190163618678891],[113.91219289313332,-7.0190164180290671],[113.91219283692138,-7.0190073838306448],[113.91220187930519,-7.0190073276695397],[113.9122019355173,-7.0190163618678891]],[[113.91225607739341,-7.0189979565013161],[113.91224703501021,-7.0189980126633884],[113.91224692258461,-7.0189799442673682],[113.91225596496746,-7.0189798881054397],[113.91225607739341,-7.0189979565013161]],[[113.91233734640973,-7.0189793826402642],[113.91232830402754,-7.0189794388037567],[113.91232824781329,-7.0189704046063985],[113.9123372901953,-7.018970348442978],[113.91233734640973,-7.0189793826402642]],[[113.91237345972257,-7.0189701237875637],[113.91236441734087,-7.0189701799516779],[113.91236436112598,-7.0189611457546226],[113.91237340350752,-7.0189610895905812],[113.91237345972257,-7.0189701237875637]],[[113.91240047443618,-7.0189518869006147],[113.91238238967384,-7.0189519992294196],[113.91238227724376,-7.0189339308355487],[113.91240036200543,-7.0189338185070351],[113.91240047443618,-7.0189518869006147]],[[113.9123368966964,-7.0189071090618622],[113.91233700912429,-7.0189251774564854],[113.91232796674315,-7.0189252336195409],[113.91232802295703,-7.0189342678169204],[113.9123099381942,-7.0189343801426531],[113.91230982576721,-7.0189163117475992],[113.9123188681483,-7.0189162555849647],[113.91231881193475,-7.0189072213875052],[113.9123368966964,-7.0189071090618622],[113.91233684048257,-7.018898074864544],[113.91234588286309,-7.0188980187015346],[113.91234593907711,-7.01890705289878],[113.9123368966964,-7.0189071090618622]],[[113.9124183343356,-7.0189156377845228],[113.91242737671583,-7.0189155816198037],[113.91242748914735,-7.0189336500129604],[113.91241844676676,-7.0189337061778261],[113.9124183343356,-7.0189156377845228]],[[113.91249050472491,-7.0188880858736544],[113.91248146234572,-7.0188881420393709],[113.91248140612925,-7.0188791078432304],[113.91249044850827,-7.0188790516775867],[113.91249050472491,-7.0188880858736544]],[[113.91246326515497,-7.0188701859776881],[113.91245422277593,-7.0188702421427385],[113.91245416656014,-7.0188612079463537],[113.91246320893902,-7.018861151781377],[113.91246326515497,-7.0188701859776881]],[[113.91247225131782,-7.0188610956162272],[113.91248129369654,-7.0188610394509023],[113.91248134991287,-7.0188700736470686],[113.91247230753396,-7.0188701298124645],[113.91247225131782,-7.0188610956162272]],[[113.91246315272312,-7.0188521175850616],[113.91245411034441,-7.0188521737499654],[113.91245399791319,-7.0188341053571754],[113.91246304029154,-7.0188340491924182],[113.91246315272312,-7.0188521175850616]],[[113.91248112504803,-7.0188339368623822],[113.91247208266984,-7.0188339930274868],[113.91247202645398,-7.0188249588312317],[113.91248106883201,-7.0188249026662],[113.91248112504803,-7.0188339368623822]],[[113.91244467445888,-7.0187889905393535],[113.91246275921391,-7.0187888782107422],[113.91246292786026,-7.0188159807997597],[113.91244484310418,-7.0188160931288079],[113.91244467445888,-7.0187889905393535],[113.91243563208123,-7.0187890467033984],[113.91243551965174,-7.0187709783102621],[113.91244456202904,-7.0187709221463628],[113.91244467445888,-7.0187889905393535]],[[113.91221940195206,-7.0189168733643799],[113.91221035957011,-7.0189169295251013],[113.91221024714726,-7.0188988611284255],[113.91221928952884,-7.0188988049678498],[113.91221940195206,-7.0189168733643799]]],[[[113.90981030667049,-7.0183174791810359],[113.90981019434989,-7.0182994107451613],[113.90979210957087,-7.0182995229637699],[113.9097922218908,-7.0183175913999358],[113.90981030667049,-7.0183174791810359]]],[[[113.90979205341104,-7.0182904887456798],[113.90979194109157,-7.0182724203094899],[113.90978289870249,-7.0182724764183151],[113.9097830110216,-7.0182905448546506],[113.90979205341104,-7.0182904887456798]]],[[[113.91162776932329,-7.018297163433215],[113.91162765693292,-7.0182790950266583],[113.91163669930724,-7.0182790388822385],[113.91163658691681,-7.0182609704758123],[113.91161850216879,-7.0182610827641838],[113.9116186707535,-7.0182881853742565],[113.91160962837887,-7.0182882415184009],[113.91160968457373,-7.0182972757218236],[113.91162776932329,-7.018297163433215]]],[[[113.91166365784267,-7.01825176783895],[113.91166360164712,-7.0182427336359448],[113.91165455927373,-7.0182427897805928],[113.9116546154691,-7.0182518239836718],[113.91166365784267,-7.01825176783895]]],[[[113.91169977113998,-7.0182425090556126],[113.91169971494381,-7.0182334748528952],[113.91169067257088,-7.0182335309981676],[113.91169072876687,-7.0182425652009561],[113.91169977113998,-7.0182425090556126]]],[[[113.91168157400213,-7.0182245529403797],[113.91168151780646,-7.0182155187375281],[113.9116724754337,-7.018215574882305],[113.91167253162921,-7.0182246090852303],[113.91168157400213,-7.0182245529403797]]],[[[113.90977351935877,-7.0182183272174266],[113.90974639219397,-7.0182184955410234],[113.90974644835235,-7.0182275297595087],[113.90973740596377,-7.0182275858670993],[113.90973734980557,-7.0182185516485411],[113.90972830741705,-7.0182186077558857],[113.90972841973318,-7.0182366761931263],[113.90973746212204,-7.018236620085637],[113.90973751828039,-7.0182456543042031],[113.90977368783571,-7.0182454298722137],[113.90977351935877,-7.0182183272174266]]],[[[113.91160917882253,-7.0182159678908791],[113.91160912262832,-7.0182069336874218],[113.91160008025516,-7.018206989830734],[113.9116001364492,-7.0182160240342668],[113.91160917882253,-7.0182159678908791]]],[[[113.90984585846169,-7.0182178783468565],[113.90984574614131,-7.0181998099114793],[113.90983670375407,-7.0181998660207627],[113.90983681607409,-7.0182179344562865],[113.90984585846169,-7.0182178783468565]]],[[[113.91160906643418,-7.0181978994839582],[113.91160901024013,-7.0181888652804938],[113.9115999678673,-7.0181889214236621],[113.91160002406119,-7.0181979556271994],[113.91160906643418,-7.0181978994839582]]],[[[113.91169949015986,-7.0181973380419906],[113.91169943396406,-7.0181883038392554],[113.911690391592,-7.0181883599841601],[113.91169044778763,-7.0181973941869691],[113.91169949015986,-7.0181973380419906]]],[[[113.91146444464898,-7.0182078319595949],[113.91146427607515,-7.018180729345711],[113.91145523370135,-7.0181807854860256],[113.91145540227465,-7.0182078881001262],[113.91146444464898,-7.0182078319595949]]],[[[113.90986371859485,-7.0181816292572901],[113.90986383091561,-7.018199697692391],[113.90987287330266,-7.0181996415825871],[113.90987276098156,-7.01818157314763],[113.90986371859485,-7.0181816292572901]]],[[[113.90971909655535,-7.0181915612069385],[113.90971904039779,-7.0181825269882019],[113.90972808278566,-7.0181824708813227],[113.90972802662799,-7.0181734366626731],[113.90970994185251,-7.0181735488761108],[113.90971005416722,-7.0181916173137164],[113.90971909655535,-7.0181915612069385]]],[[[113.90975520994881,-7.0181823025596444],[113.90975515379064,-7.0181732683412132],[113.90974611140318,-7.01817332444854],[113.90974616756118,-7.018182358667044],[113.90975520994881,-7.0181823025596444]]],[[[113.91171735011997,-7.0181610889411283],[113.91169926537711,-7.018161201231023],[113.91169937776833,-7.0181792696365308],[113.91172650488357,-7.0181791012009915],[113.9117264486874,-7.0181700669984473],[113.91171740631589,-7.0181701231437295],[113.91171735011997,-7.0181610889411283]]],[[[113.91161788403059,-7.018161706526949],[113.91161782783665,-7.0181526723235415],[113.91160878546462,-7.0181527284665899],[113.91160884165839,-7.0181617626700712],[113.91161788403059,-7.018161706526949]]],[[[113.91145506512871,-7.018153682871854],[113.91145500893798,-7.0181446486671275],[113.91144596656478,-7.0181447048069785],[113.91144602275533,-7.018153739011777],[113.91145506512871,-7.018153682871854]]],[[[113.90986371859485,-7.0181816292572901],[113.90986366243457,-7.0181725950397329],[113.9098727048211,-7.0181725389301466],[113.90987264866074,-7.0181635047126587],[113.90986360627437,-7.018163560822174],[113.90986355011425,-7.0181545266046088],[113.90985450772801,-7.0181545827138754],[113.90985445156815,-7.018145548496233],[113.90986349395421,-7.0181454923870392],[113.90986338163432,-7.0181274239518912],[113.90984529686281,-7.0181275361698132],[113.90984552150148,-7.0181636730406778],[113.90985456388798,-7.0181636169315125],[113.90985462004799,-7.0181726511491451],[113.90983653527459,-7.0181727633674482],[113.90983664759418,-7.0181908318030128],[113.90984568998125,-7.0181907756938022],[113.90984563382125,-7.0181817414760861],[113.90986371859485,-7.0181816292572901]]],[[[113.9098633254745,-7.0181183897343118],[113.90986326931474,-7.018109355516728],[113.90985422692938,-7.0181094116256286],[113.90985428308896,-7.0181184458432879],[113.9098633254745,-7.0181183897343118]]],[[[113.90982709977283,-7.0181095799512923],[113.90982698745493,-7.0180915115155287],[113.90981794506961,-7.01809156762359],[113.90981800122834,-7.0181006018415468],[113.90979991645715,-7.0181007140572929],[113.9097999726156,-7.0181097482753918],[113.90982709977283,-7.0181095799512923]]],[[[113.90986315699547,-7.0180912870815479],[113.90986321315506,-7.0181003212991397],[113.90987225554021,-7.018100265190137],[113.90987219938043,-7.018091230972618],[113.90986315699547,-7.0180912870815479]]],[[[113.91162664543289,-7.0181164793669355],[113.9116267578206,-7.0181345477736334],[113.9116448425636,-7.0181344354869566],[113.91164478636937,-7.0181254012837551],[113.91166287111173,-7.0181252889965293],[113.91166270252842,-7.0180981863873413],[113.91165366015781,-7.0180982425308214],[113.91165360396369,-7.0180892083276767],[113.91164456159316,-7.0180892644709107],[113.91164450539929,-7.0180802302676915],[113.91162642065837,-7.0180803425534908],[113.91162647685189,-7.0180893767568584],[113.91161743448117,-7.018089432899572],[113.91161737828781,-7.0180803986961307],[113.91160833591718,-7.0180804548385964],[113.91160839211035,-7.0180894890421097],[113.91159030736848,-7.0180896013266683],[113.91159025117567,-7.0180805671230084],[113.91156312406287,-7.0180807355483239],[113.91156301167847,-7.0180626671405388],[113.91154492693693,-7.0180627794229204],[113.91154498312872,-7.0180718136269684],[113.9115540254997,-7.0180717574857914],[113.91155408169176,-7.0180807916897452],[113.9115450393206,-7.0180808478309951],[113.91154509551255,-7.0180898820350199],[113.91153605314113,-7.0180899381761686],[113.911536109333,-7.0180989723802618],[113.91157227881889,-7.0180987478143306],[113.91157233501151,-7.0181077820181264],[113.91158137738296,-7.0181077258761366],[113.91158143357583,-7.0181167600798586],[113.91159047594741,-7.0181167039376202],[113.91159041975436,-7.0181076697339737],[113.91159946212566,-7.0181076135916349],[113.91159951831889,-7.0181166477952095],[113.91162664543289,-7.0181164793669355],[113.91162658923916,-7.0181074451635812],[113.91164467398112,-7.0181073328773422],[113.9116447301752,-7.01811636708055],[113.91162664543289,-7.0181164793669355]]],[[[113.91160827972408,-7.0180714206350805],[113.91160822353106,-7.0180623864315432],[113.91159013879025,-7.0180624987156639],[113.91159019498292,-7.0180715329193468],[113.91160827972408,-7.0180714206350805]]],[[[113.90981777659385,-7.0180644649696973],[113.90981783275237,-7.0180734991876488],[113.90982687513734,-7.018073443079734],[113.90982681897866,-7.0180644088618553],[113.90981777659385,-7.0180644649696973]]],[[[113.91163501348201,-7.0180080127841862],[113.911634957289,-7.0179989785808559],[113.91162591492005,-7.0179990347230135],[113.9116259711129,-7.0180080689264148],[113.91163501348201,-7.0180080127841862]]],[[[113.90981777659385,-7.0180644649696973],[113.9098177204354,-7.0180554307517253],[113.90982676282005,-7.0180553746439562],[113.90982670666151,-7.0180463404260527],[113.90981766427706,-7.018046396533749],[113.9098174958024,-7.0180192938797976],[113.90980845341841,-7.0180193499871022],[113.90980850957638,-7.0180283842051789],[113.9097904248078,-7.0180284964194106],[113.90979020017775,-7.017992359546545],[113.90978115779406,-7.0179924156531079],[113.90978121395129,-7.0180014498713996],[113.90977217156733,-7.0180015059778622],[113.90977211541026,-7.0179924717594986],[113.9097540306425,-7.0179925839717567],[113.9097540867992,-7.0180016181902669],[113.9097631291833,-7.0180015620841516],[113.90976324149729,-7.0180196305210139],[113.90978132626596,-7.0180195183079706],[113.90978149473852,-7.0180466209627967],[113.90979053712326,-7.0180465648557959],[113.90979048096548,-7.0180375306375966],[113.90979952334997,-7.0180374745304954],[113.90979957950792,-7.018046508748621],[113.90980862189252,-7.018046452641272],[113.90980873420899,-7.018064521077366],[113.90981777659385,-7.0180644649696973]]],[[[113.91163490109604,-7.0179899443775247],[113.91163484490316,-7.0179809101741863],[113.91162580253457,-7.0179809663161983],[113.91162585872728,-7.0179900005196068],[113.91163490109604,-7.0179899443775247]]],[[[113.90974481978937,-7.0179655374218539],[113.90974493210204,-7.0179836058590555],[113.90975397448587,-7.0179835497532599],[113.90975386217283,-7.0179654813162031],[113.90974481978937,-7.0179655374218539]]],[[[113.91156233737843,-7.0179542566936233],[113.91155329500977,-7.0179543128340258],[113.91155335120085,-7.017963347038032],[113.91154430883196,-7.0179634031783324],[113.91154436502295,-7.0179724373824239],[113.91155340739202,-7.0179723812420489],[113.91155357596595,-7.0179994838540143],[113.91156261833548,-7.0179994277132467],[113.91156284310246,-7.0180355645288754],[113.9115718854726,-7.0180355083876442],[113.91157177308861,-7.0180174399799995],[113.91158081545834,-7.018017383838739],[113.91158075926627,-7.0180083496349583],[113.91158980163576,-7.0180082934935974],[113.91158974544361,-7.0179992592899039],[113.91159878781282,-7.0179992031484417],[113.91159861923629,-7.0179721005375733],[113.91157149212995,-7.0179722689607811],[113.91157143593843,-7.017963234756909],[113.9115623935697,-7.0179632908975575],[113.91156233737843,-7.0179542566936233]]],[[[113.90974481978937,-7.0179655374218539],[113.90974476363313,-7.0179565032032549],[113.90973572124976,-7.0179565593086579],[113.90973577740583,-7.0179655935273297],[113.90974481978937,-7.0179655374218539]]],[[[113.91151701315385,-7.0179364689852894],[113.9114898860476,-7.0179366374029311],[113.91148999842714,-7.0179547058119764],[113.91152616790336,-7.0179544812541899],[113.91152611171286,-7.0179454470499616],[113.9115170693441,-7.0179455031895968],[113.91151701315385,-7.0179364689852894]]],[[[113.91143742990764,-7.0182260687903417],[113.91143737371665,-7.0182170345855184],[113.91142833134192,-7.018217090725603],[113.9114282751512,-7.0182080565206864],[113.91143731752575,-7.0182080003806737],[113.91143714895348,-7.0181808977661344],[113.91142810657945,-7.0181809539059268],[113.91142793800837,-7.0181538512911006],[113.91141889563478,-7.0181539074305013],[113.91141878325477,-7.0181358390204629],[113.91140974088145,-7.0181358951595429],[113.91140957231255,-7.0181087925442354],[113.91140365827253,-7.0181088292609957],[113.91140052993968,-7.0181088486829246],[113.91140047375036,-7.0180998144777416],[113.91140360208315,-7.0180997950558366],[113.91141855849567,-7.0180997022003364],[113.91141844611656,-7.0180816337902501],[113.91140940374427,-7.018081689928894],[113.91140929136581,-7.0180636215186274],[113.91140337732639,-7.0180636582351497],[113.91140024899381,-7.0180636776569525],[113.91140041756113,-7.0180907802725532],[113.91138233281585,-7.0180908925491172],[113.91138199568402,-7.0180366873170357],[113.91137295331231,-7.0180367434546209],[113.9113728971241,-7.0180277092491865],[113.91138193949564,-7.0180276531116759],[113.91138188330734,-7.0180186189063303],[113.91137284093598,-7.0180186750437672],[113.91137278474791,-7.0180096408383079],[113.91136374237666,-7.0180096969754988],[113.91136368618886,-7.0180006627699818],[113.91133655907518,-7.0180008311802933],[113.91133644670084,-7.0179827627688063],[113.9113274043298,-7.0179828189050832],[113.9113273481429,-7.0179737846992785],[113.91131830577199,-7.0179738408353094],[113.91131819339877,-7.0179557724234902],[113.91130915102812,-7.0179558285592023],[113.91130909484181,-7.0179467943532226],[113.91130005247125,-7.0179468504886851],[113.91129999628518,-7.0179378162826289],[113.91129095391473,-7.0179378724178463],[113.9112908977289,-7.017928838211712],[113.91128137172701,-7.0179288973490594],[113.91133800300007,-7.0180156139999825],[113.91134322195153,-7.0180278934795348],[113.91135481238085,-7.0180278215236882],[113.91135492475662,-7.018045889934843],[113.9113508813677,-7.0180459150371561],[113.91137845500009,-7.0181107919998418],[113.91138551377018,-7.0181450801255165],[113.91139171232403,-7.0181450416424251],[113.91139165613461,-7.0181360074371835],[113.91140069850807,-7.0181359512984498],[113.91140075469769,-7.0181449855036186],[113.91139171232403,-7.0181450416424251],[113.91139176851357,-7.0181540758476615],[113.9113873713068,-7.0181541031473156],[113.91139190567617,-7.0181761289356759],[113.91139182470314,-7.0181631100528943],[113.91140086707715,-7.0181630539139412],[113.91140092326698,-7.0181720881190977],[113.91140405160027,-7.0181720686969919],[113.91140996564107,-7.0181720319798977],[113.91141002183114,-7.0181810661849928],[113.91140410779023,-7.0181811029021333],[113.9114009794569,-7.0181811223242665],[113.91140103564689,-7.0181901565293972],[113.91140416398028,-7.0181901371072408],[113.91141007802131,-7.0181901003900524],[113.91141013421155,-7.0181991345951227],[113.91141917658608,-7.0181990784555301],[113.91141934515774,-7.0182261810704842],[113.91141030278268,-7.0182262372102953],[113.91141035897321,-7.0182352714153682],[113.91141940134844,-7.0182352152754852],[113.91141962611201,-7.0182713520953586],[113.91141058373609,-7.0182714082355329],[113.91141069611797,-7.0182894766456174],[113.91140478207569,-7.0182895133633316],[113.91140165374162,-7.0182895327857659],[113.91140159755082,-7.0182804985806619],[113.91139793794392,-7.0182805213014756],[113.91139098278076,-7.0183347718070763],[113.91140193469674,-7.0183347038112309],[113.91140199088798,-7.0183437380163136],[113.91140511922241,-7.0183437185937283],[113.91141103326538,-7.0183436818757272],[113.91141108945688,-7.0183527160807317],[113.91140517541379,-7.0183527527987799],[113.91140204707932,-7.0183527722213901],[113.91140210327072,-7.0183618064264639],[113.91140523160526,-7.018361787003828],[113.91141114564843,-7.0183617502857318],[113.91141125803179,-7.0183798186957231],[113.91140534398838,-7.0183798554139125],[113.91140221565371,-7.0183798748366],[113.91140210327072,-7.0183618064264639],[113.91138648720299,-7.0183619033803613],[113.91137542572746,-7.0183890757187672],[113.91138418708859,-7.0183890213230589],[113.91138413089732,-7.0183799871178323],[113.91139317327554,-7.0183799309773036],[113.911393229467,-7.0183889651824547],[113.91140227184533,-7.0183889090416791],[113.91140244042063,-7.0184160116568233],[113.91139339804177,-7.01841606779782],[113.91139351042531,-7.0184341362080351],[113.91138446804605,-7.0184341923490035],[113.91138463662142,-7.0184612949645624],[113.91136655186159,-7.0184614072464147],[113.91136688901223,-7.0185156124782644],[113.91135784663118,-7.0185156686193695],[113.91135779043938,-7.0185066344139972],[113.9113487480584,-7.0185066905548537],[113.91134880425001,-7.0185157247602987],[113.9113397618688,-7.0185157809010539],[113.91133981806031,-7.0185248151065665],[113.91135790282303,-7.0185247028247364],[113.91135801520697,-7.0185427712354613],[113.91134897282529,-7.0185428273766091],[113.91134908520918,-7.0185608957874628],[113.91134004282711,-7.0185609519285839],[113.91134009901899,-7.0185699861340778],[113.91133105663664,-7.0185700422750967],[113.91133100044495,-7.0185610080695309],[113.91130537031958,-7.0185611671969497],[113.91130168319441,-7.0185702246434225],[113.91130392948921,-7.0185702106971135],[113.91130398568048,-7.0185792449028961],[113.9113130280632,-7.0185791887623239],[113.91131297187177,-7.018570154556615],[113.91132201425425,-7.0185700984159434],[113.9113221828293,-7.018597201032855],[113.9113131404463,-7.0185972571737487],[113.91131308425472,-7.0185882229680292],[113.9113040418718,-7.0185882791086733],[113.91130432282958,-7.0186334501375063],[113.91129528044576,-7.0186335062783414],[113.91129533663735,-7.0186425404841515],[113.91128629425327,-7.0186425966248853],[113.91128618187048,-7.0186245282130981],[113.91129522425422,-7.0186244720725099],[113.91129498912302,-7.0185866686719871],[113.91127851600002,-7.018627134999921],[113.91126424100003,-7.0187127979999246],[113.91125710100017,-7.0188365279999534],[113.91125848171603,-7.018850564065322],[113.91126045951192,-7.0188505517857145],[113.9112602347419,-7.0188144149615894],[113.91126927712953,-7.0188143588199914],[113.91126905236001,-7.0187782219960795],[113.91128713713364,-7.0187781097129438],[113.91128685617167,-7.0187329386836943],[113.91129589855748,-7.0187328825422304],[113.91129584236513,-7.0187238483364416],[113.91131392713625,-7.0187237360531372],[113.91131375855861,-7.0186966334361864],[113.91132280094351,-7.0186965772944925],[113.91132274475095,-7.0186875430888902],[113.91133178713559,-7.0186874869470959],[113.91133167475033,-7.0186694185360778],[113.91134071713459,-7.0186693623942551],[113.91134066094189,-7.0186603281888047],[113.91134970332588,-7.0186602720468807],[113.91134953474771,-7.0186331694307231],[113.91135857713113,-7.0186331132888462],[113.91135835236058,-7.0185969764675562],[113.91137643712575,-7.0185968641838627],[113.91137626854757,-7.0185697615682612],[113.91136722616554,-7.0185698177099756],[113.91136716997313,-7.0185607835047001],[113.91138525473679,-7.0185606712212438],[113.91138497377415,-7.0185155001955373],[113.91140618687133,-7.0185153684890507],[113.91141210091645,-7.0185153317701445],[113.91141204472362,-7.0185062975652093],[113.91142108710406,-7.0185062414231369],[113.91142091852549,-7.0184791388085124],[113.91142996090537,-7.0184790826664862],[113.91142990471248,-7.0184700484616993],[113.91143894709207,-7.018469992319571],[113.91143883470619,-7.0184519239100966],[113.91144787708538,-7.0184518677679399],[113.91144776469945,-7.0184337993585801],[113.9114387223206,-7.0184338555005903],[113.91143855374277,-7.0184067528863441],[113.91145663849932,-7.0184066406025885],[113.91145624515121,-7.0183434011701928],[113.91144720277421,-7.018343457311647],[113.91144725896639,-7.0183524915163593],[113.91143821658912,-7.0183525476577131],[113.9114379918215,-7.0183164108385476],[113.91144703419808,-7.018316354697486],[113.91144664085638,-7.0182531152643053],[113.91145568323165,-7.0182530591235794],[113.91145562704011,-7.0182440249188991],[113.91146466941514,-7.0182439687780711],[113.91146461322349,-7.0182349345734583],[113.9114465284737,-7.01823504685479],[113.91144647228248,-7.0182260126500093],[113.91143742990764,-7.0182260687903417],[113.91143782324656,-7.0182893082241327],[113.91142878087044,-7.0182893643648008],[113.91142838753274,-7.0182261249305],[113.91143742990764,-7.0182260687903417]],[[113.91140277757323,-7.0184702168870423],[113.9114059059085,-7.0184701974641035],[113.91141181995305,-7.0184701607454354],[113.91141187614558,-7.0184791949503671],[113.91140596210091,-7.0184792316690832],[113.91140283376559,-7.018479251092046],[113.91140277757323,-7.0184702168870423]],[[113.91134021140297,-7.018588054545055],[113.91134925378557,-7.0185879984037136],[113.91134930997785,-7.0185970326091409],[113.91134026759508,-7.0185970887505524],[113.91134021140297,-7.018588054545055]]],[[[113.90974431438593,-7.0178842294543253],[113.90974425823038,-7.0178751952356917],[113.90972617346668,-7.0178753074450109],[113.90972622962188,-7.0178843416637919],[113.90974431438593,-7.0178842294543253]]],[[[113.9114622532412,-7.0178554979761296],[113.91145321087366,-7.0178555541138152],[113.91145326706202,-7.0178645883186848],[113.91143518232633,-7.0178647005936847],[113.91143523851441,-7.0178737347986795],[113.91142619614629,-7.0178737909359921],[113.91142625233428,-7.0178828251410543],[113.91144433707082,-7.0178827128661077],[113.91144428088248,-7.0178736786611928],[113.91145332325046,-7.0178736225235321],[113.91145337943895,-7.0178826567283759],[113.91146242180702,-7.0178826005904691],[113.91146247799578,-7.0178916347952356],[113.91145343562754,-7.0178916909332152],[113.91145354800493,-7.0179097593428832],[113.9114806751105,-7.0179095909279834],[113.91148045035393,-7.017873454109508],[113.91147140798618,-7.0178735102476892],[113.9114713517974,-7.0178644760429894],[113.91146230942974,-7.0178645321809228],[113.9114622532412,-7.0178554979761296]]],[[[113.90974420207488,-7.0178661610170368],[113.90974414591946,-7.017857126798412],[113.90972606115645,-7.0178572390074407],[113.90972611731152,-7.0178662732262111],[113.90974420207488,-7.0178661610170368]]],[[[113.91148932415446,-7.017846295357475],[113.91148926796555,-7.0178372611529083],[113.91149831033245,-7.0178372050146711],[113.91149819795451,-7.017819136605671],[113.9114710708546,-7.0178193050194233],[113.91147123942005,-7.0178464076335754],[113.91148932415446,-7.017846295357475]]],[[[113.91139861954443,-7.0178016857044963],[113.91138957717737,-7.0178017418405307],[113.91138963336408,-7.0178107760459341],[113.91138059099681,-7.0178108321818664],[113.91138070337009,-7.0178289005927539],[113.91138974573771,-7.017828844456675],[113.91138980192461,-7.017837878662049],[113.91139884429235,-7.0178378225257232],[113.91139873191824,-7.0178197541151173],[113.91140186024917,-7.0178197346939974],[113.91140777428555,-7.017819697978763],[113.91140771809843,-7.0178106637735462],[113.91140180406217,-7.0178107004887309],[113.91139867573131,-7.0178107199098267],[113.91139861954443,-7.0178016857044963]]],[[[113.91151617030907,-7.0178009559202428],[113.91151611412,-7.017791921715876],[113.9115070717541,-7.0177919778540945],[113.911507127943,-7.0178010120585368],[113.91151617030907,-7.0178009559202428]]],[[[113.91141664809111,-7.0177925392267371],[113.91141659190403,-7.0177835050215629],[113.9114256342705,-7.0177834488851545],[113.91142557808332,-7.0177744146800478],[113.91140749335068,-7.0177745269525484],[113.91140760572441,-7.017792595363046],[113.91141664809111,-7.0177925392267371]]],[[[113.90965321672172,-7.0177763798621058],[113.90965310441592,-7.0177583114232647],[113.90964406203562,-7.0177583675253263],[113.9096441743411,-7.0177764359643131],[113.90965321672172,-7.0177763798621058]]],[[[113.91001513652684,-7.017810272497254],[113.91001695605331,-7.0178102612067716],[113.91002384153019,-7.0177559445130058],[113.91002378578412,-7.0177469768727176],[113.91000570102989,-7.0177470890907685],[113.91000626262894,-7.0178374312563312],[113.9100135175385,-7.0178373862382619],[113.91001580988168,-7.0178193028839395],[113.91001519268711,-7.0178193067137444],[113.91001513652684,-7.017810272497254]]],[[[113.9099877285939,-7.0177652697415605],[113.90998756011624,-7.0177381670914016],[113.90997851773901,-7.0177382231997472],[113.90997868621618,-7.0177653258501245],[113.9099877285939,-7.0177652697415605]]],[[[113.91143433951392,-7.0177291875183174],[113.91141625478315,-7.0177292997904344],[113.91141631096978,-7.0177383339956325],[113.91140135456878,-7.0177384268463046],[113.91139822623839,-7.0177384462672006],[113.91139828242476,-7.0177474804725408],[113.91140141075519,-7.0177474610516208],[113.91140732479064,-7.0177474243367701],[113.91140738097725,-7.0177564585420322],[113.91143450807508,-7.0177562901334616],[113.91143445188794,-7.0177472559284171],[113.91144349425358,-7.0177471997919527],[113.91144343806636,-7.0177381655869775],[113.91143439570089,-7.0177382217233699],[113.91143433951392,-7.0177291875183174]]],[[[113.91002367346452,-7.0177289084398513],[113.91002361730482,-7.0177198742234106],[113.91001457492827,-7.017719930332305],[113.91001463108779,-7.0177289645488177],[113.91002367346452,-7.0177289084398513]]],[[[113.91100906736978,-7.0176866546868526],[113.91100901119142,-7.0176776204783486],[113.91099166289843,-7.0176777281620524],[113.91100462300777,-7.0176866822738342],[113.91100906736978,-7.0176866546868526]]],[[[113.91138890294279,-7.0176933313755825],[113.91138879057138,-7.0176752629647217],[113.91137974820673,-7.0176753190995633],[113.91137980439221,-7.0176843533050741],[113.91137076202729,-7.0176844094398136],[113.91137081821266,-7.0176934436453786],[113.91138890294279,-7.0176933313755825]]],[[[113.90968882471054,-7.0176858132601625],[113.90968876855766,-7.0176767790410057],[113.90967972617921,-7.0176768351431056],[113.90967978233192,-7.0176858693623361],[113.90968882471054,-7.0176858132601625]]],[[[113.91144310094457,-7.0176839603570436],[113.91144298857122,-7.0176658919470363],[113.91143394620717,-7.0176659480828443],[113.91143400239363,-7.0176749822879234],[113.91142496002934,-7.0176750384236311],[113.91142501621569,-7.0176840726287777],[113.91144310094457,-7.0176839603570436]]],[[[113.91096357464257,-7.0176417642788005],[113.91093982246517,-7.0176419117092586],[113.91096367804759,-7.017658393485676],[113.91096357464257,-7.0176417642788005]]],[[[113.9114609047386,-7.017638677060293],[113.91146084855193,-7.0176296428554163],[113.91145180618874,-7.0176296989912812],[113.91145186237524,-7.0176387331962298],[113.9114609047386,-7.017638677060293]]],[[[113.90971567107958,-7.0176404738578686],[113.90971561492653,-7.0176314396389108],[113.90970657254917,-7.0176314957411678],[113.90970662870204,-7.0176405299601994],[113.90971567107958,-7.0176404738578686]]],[[[113.91089095482295,-7.0175970422375782],[113.91088191245574,-7.017597098362204],[113.91088194245255,-7.0176019225068806],[113.91093643284739,-7.0176395698285852],[113.91093633518685,-7.0176238642392006],[113.91092729281951,-7.0176239203649153],[113.91092723664323,-7.0176148861557275],[113.9109091519087,-7.0176149984064855],[113.91090909573283,-7.0176059641971635],[113.91089101099837,-7.0176060764470822],[113.91089095482295,-7.0175970422375782]]],[[[113.90974251744458,-7.0175951344561005],[113.90974246129137,-7.0175861002373408],[113.90973341891514,-7.017586156339755],[113.90973347506817,-7.0175951905585858],[113.90974251744458,-7.0175951344561005]]],[[[113.91095419521456,-7.0175876151513519],[113.91095413903804,-7.0175785809423648],[113.91094509667174,-7.0175786370680608],[113.91094515284806,-7.0175876712771199],[113.91095419521456,-7.0175876151513519]]],[[[113.91083653209601,-7.0175702763529237],[113.91083020586245,-7.01757031561805],[113.91083655359346,-7.0175737336812904],[113.91083653209601,-7.0175702763529237]]],[[[113.9098689983955,-7.0175762805675674],[113.90986894224001,-7.017567246349838],[113.90985989986514,-7.0175673024545393],[113.90985995602045,-7.0175763366723407],[113.9098689983955,-7.0175762805675674]]],[[[113.91090864632869,-7.0175336905222983],[113.91090859015351,-7.0175246563129248],[113.91089954778788,-7.0175247124373143],[113.91089960396289,-7.0175337466467624],[113.91090864632869,-7.0175336905222983]]],[[[113.9109264501832,-7.0174884072266579],[113.91088123835846,-7.0174886878471456],[113.91088129453283,-7.0174977220567714],[113.91089033689811,-7.0174976659329484],[113.91089039307272,-7.0175067001424791],[113.91090847780337,-7.0175065878941654],[113.91090842162842,-7.0174975536847803],[113.91091746399346,-7.0174974975604361],[113.9109175201686,-7.0175065317697483],[113.91092656253373,-7.0175064756451562],[113.91092661870913,-7.017515509854392],[113.91093566107438,-7.0175154537295557],[113.91093571725001,-7.0175244879387142],[113.91094475961535,-7.0175244318136292],[113.91094481579124,-7.0175334660227104],[113.91096290052205,-7.0175333537718743],[113.91096301287473,-7.0175514221897348],[113.91097205524036,-7.0175513660639108],[113.910972111417,-7.0175604002727789],[113.91099923851399,-7.0175602318940422],[113.91099918233685,-7.0175511976853935],[113.91100822470221,-7.0175511415588723],[113.91100828087953,-7.0175601757674491],[113.91101732324498,-7.0175601196406827],[113.91101737942255,-7.0175691538491503],[113.91102642178809,-7.0175690977221352],[113.91102647796592,-7.0175781319305415],[113.91106264742807,-7.0175779074204598],[113.91106270360665,-7.0175869416285694],[113.91108078833763,-7.0175868293723394],[113.91108084451662,-7.0175958635803006],[113.91110797161306,-7.0175956951944354],[113.91110802779265,-7.0176047294021879],[113.91111707015816,-7.0176046732731452],[113.91111712633801,-7.0176137074807894],[113.9111442534346,-7.0176135390924008],[113.91114419725423,-7.0176045048849751],[113.91113515488894,-7.0176045610145392],[113.91113509870881,-7.0175955268070052],[113.91111701397837,-7.0175956390654655],[113.91111695779867,-7.0175866048577973],[113.91110791543353,-7.0175866609866926],[113.91110785925407,-7.0175776267789489],[113.91109881688902,-7.0175776829075991],[113.91109876070982,-7.0175686486997755],[113.91108067597983,-7.0175687609564079],[113.91108073215869,-7.0175777951643754],[113.91107168979342,-7.0175778512925042],[113.91107157743612,-7.017559782876436],[113.91104445034087,-7.017559951259341],[113.91104439416286,-7.0175509170510564],[113.91103535179782,-7.0175509731782721],[113.91103529562005,-7.0175419389699272],[113.91101721089007,-7.017542051223689],[113.91101715471272,-7.0175330170151948],[113.91099002761771,-7.0175331853943179],[113.91098997144097,-7.0175241511855999],[113.910980929076,-7.0175242073115527],[113.91098087289951,-7.0175151731027592],[113.91097183053462,-7.017515229228465],[113.91097177435836,-7.0175061950195943],[113.91093560489882,-7.0175064195203918],[113.91093554872334,-7.0174973853112252],[113.91092650635844,-7.0174974414359177],[113.9109264501832,-7.0174884072266579]]],[[[113.91098974673471,-7.0174880143506755],[113.91098969055835,-7.0174789801419548],[113.91098064819424,-7.0174790362675434],[113.91098070437044,-7.0174880704763378],[113.91098974673471,-7.0174880143506755]]],[[[113.91111628364803,-7.0174781943654709],[113.91111622746929,-7.0174691601577512],[113.91110718510642,-7.0174692162856998],[113.91110724128497,-7.0174782504934923],[113.91111628364803,-7.0174781943654709]]],[[[113.91084490037679,-7.0174618097107038],[113.91084495655024,-7.0174708439206155],[113.91085399891527,-7.0174707877977056],[113.91085394274165,-7.0174617535878667],[113.91084490037679,-7.0174618097107038]]],[[[113.91094436638627,-7.0174611923499448],[113.91094425403578,-7.0174431239317006],[113.91092616930814,-7.0174432361803829],[113.91092622548301,-7.0174522703896614],[113.91089909839047,-7.0174524387616009],[113.91089915456489,-7.0174614729710783],[113.91094436638627,-7.0174611923499448]]],[[[113.91098952202965,-7.0174518775157217],[113.91098946585358,-7.017442843306954],[113.91098042349016,-7.0174428994322486],[113.91098047966608,-7.017451933641091],[113.91098952202965,-7.0174518775157217]]],[[[113.91084490037679,-7.0174618097107038],[113.91084478803012,-7.0174437412908528],[113.91080861857127,-7.0174439657798766],[113.91080850622629,-7.0174258973594581],[113.91075425203792,-7.0174262340869076],[113.91075419586657,-7.017417199876248],[113.91072706877191,-7.0174173682374068],[113.91072712494274,-7.0174264024482866],[113.91073616730786,-7.0174263463280004],[113.91073622347892,-7.0174353805388039],[113.91076335057441,-7.0174352121766841],[113.91076340674607,-7.0174442463872486],[113.91077244911128,-7.0174441902661204],[113.91077250528318,-7.0174532244766405],[113.91079963237883,-7.0174530561119983],[113.91079968855132,-7.0174620903222804],[113.91084490037679,-7.0174618097107038]]],[[[113.91088983132992,-7.0174163580469902],[113.91088994367789,-7.017434426466119],[113.91089898604186,-7.0174343703426327],[113.91089887369355,-7.0174163019236495],[113.91088983132992,-7.0174163580469902]]],[[[113.91092611313334,-7.0174342019711311],[113.91092605695863,-7.0174251677618615],[113.91093509932215,-7.0174251116377535],[113.91093504314733,-7.0174160774285497],[113.91091695842059,-7.0174161896764469],[113.91091707076959,-7.0174342580951388],[113.91092611313334,-7.0174342019711311]]],[[[113.90990415709503,-7.0174134402319606],[113.90989511472343,-7.0174134963361157],[113.90989522703299,-7.0174315647713001],[113.9099133117768,-7.0174314525625237],[113.90991325562165,-7.0174224183450811],[113.90990421324994,-7.0174224744494822],[113.90990415709503,-7.0174134402319606]]],[[[113.91085360570148,-7.0174075483287517],[113.91084456333766,-7.0174076044511509],[113.9108447318569,-7.0174347070809446],[113.91086281658552,-7.0174345948355361],[113.9108627042386,-7.0174165264159685],[113.91085366187465,-7.0174165825386137],[113.91085360570148,-7.0174075483287517]]],[[[113.91088983132992,-7.0174163580469902],[113.91088977515605,-7.0174073238374195],[113.91088073279252,-7.0174073799605132],[113.91088078896621,-7.0174164141701558],[113.91088983132992,-7.0174163580469902]]],[[[113.91087163425546,-7.017398401873729],[113.91087157808209,-7.0173893676639887],[113.91086253571876,-7.0173894237865886],[113.91086259189196,-7.0173984579964035],[113.91087163425546,-7.017398401873729]]],[[[113.90986315699547,-7.0180912870815479],[113.90986310083593,-7.0180822528639517],[113.90987214322072,-7.0180821967550955],[113.90987208706109,-7.0180731625375516],[113.90988112944559,-7.0180731064285942],[113.9098815225658,-7.0181363459507056],[113.90989056495145,-7.0181362898410633],[113.90989084575469,-7.0181814609277913],[113.90989988814117,-7.0181814048176108],[113.90990000046331,-7.0181994732521282],[113.90989095807649,-7.0181995293624553],[113.90989101423752,-7.0182085635797806],[113.90988197185045,-7.0182086196900064],[113.90988202801138,-7.0182176539074019],[113.9098910703986,-7.0182175977971033],[113.90989112655977,-7.0182266320144215],[113.90990921133435,-7.0182265197931573],[113.90990926749595,-7.0182355540103094],[113.90992019615504,-7.0182354861943912],[113.90996863044009,-7.0181358054233138],[113.90995386164906,-7.0181358970687038],[113.90995380548742,-7.0181268628518572],[113.90996284787232,-7.0181268067408986],[113.90996279171058,-7.0181177725241204],[113.90997183409524,-7.0181177164130615],[113.90997177793341,-7.0181086821963516],[113.9099627355489,-7.0181087383073386],[113.90996267938732,-7.0180997040905533],[113.90995363700294,-7.0180997602012942],[113.9099535808416,-7.0180907259844316],[113.90996262322579,-7.0180906698737635],[113.90996245474169,-7.0180635672233711],[113.90995341235802,-7.0180636233338198],[113.90995335619697,-7.0180545891169412],[113.90994431381338,-7.018054645227144],[113.90994420149185,-7.0180365767932296],[113.90993515910854,-7.0180366329031116],[113.90993499062733,-7.0180095302519927],[113.90994403301013,-7.0180094741423291],[113.9099439768497,-7.0180004399253546],[113.90995301923223,-7.0180003838155898],[113.9099529630717,-7.0179913495986845],[113.90996200545399,-7.0179912934888193],[113.9099618931328,-7.017973225055143],[113.90993476598675,-7.0179733933837793],[113.90993465366691,-7.0179553249496482],[113.9099256112851,-7.0179553810587008],[113.90992555512545,-7.0179463468415575],[113.9099345975071,-7.0179462907325778],[113.90993448518769,-7.0179282222984236],[113.90994352756894,-7.0179281661894164],[113.90994347140918,-7.0179191319724055],[113.90995251379013,-7.0179190758632979],[113.90995256995008,-7.017928110080236],[113.90996161233114,-7.0179280539708815],[113.90996150001099,-7.0179099855371492],[113.90994341524949,-7.0179100977553919],[113.90994335908987,-7.0179010635383747],[113.90993431670915,-7.0179011196471643],[113.90993426054979,-7.017892085430069],[113.90994330293033,-7.0178920293213531],[113.90994324677087,-7.017882995104328],[113.90995228915114,-7.0178829389955117],[113.90995223299157,-7.0178739047785559],[113.9099612753716,-7.0178738486696384],[113.90996099457401,-7.0178286775851619],[113.9099700369531,-7.0178286214764345],[113.90996992463424,-7.0178105530427635],[113.90996088225549,-7.0178106091513435],[113.90996082609634,-7.0178015749344294],[113.90995178371772,-7.0178016310427616],[113.90995167139999,-7.0177835626087743],[113.90994262902163,-7.0177836187167886],[113.90994251670455,-7.0177655502826397],[113.90995155908256,-7.0177654941747711],[113.90995150292396,-7.0177564599577638],[113.90996958767943,-7.0177563477416518],[113.90996947536175,-7.0177382793079168],[113.90996043298439,-7.0177383354159142],[113.90996020835061,-7.017702198548089],[113.90995116597389,-7.01770225465562],[113.90995110981581,-7.017693220438602],[113.90993302506249,-7.0176933326529971],[113.90993296890481,-7.017684298435813],[113.90994201128134,-7.0176842423287749],[113.9099416743359,-7.0176300370260227],[113.90995071671129,-7.0176299809192475],[113.90995049208178,-7.0175938440509604],[113.90996857683099,-7.0175937318374739],[113.90996852067346,-7.0175846976205376],[113.90995043592457,-7.0175848098338784],[113.90995037976745,-7.017575775616792],[113.90995942214174,-7.0175757195102824],[113.90995936598453,-7.0175666852932821],[113.90997745073254,-7.0175665730798862],[113.90997739457505,-7.0175575388629943],[113.9099864369488,-7.0175574827561071],[113.9099863807912,-7.0175484485393032],[113.90999542316466,-7.0175483924323157],[113.90999536700697,-7.0175393582155792],[113.91001345175336,-7.0175392460012294],[113.9100133955954,-7.0175302117846359],[113.91005860745918,-7.017529931246087],[113.91005855130041,-7.0175208970298533],[113.91004046655547,-7.0175210092456473],[113.91004035423886,-7.0175029408128768],[113.91004939661102,-7.0175028847052117],[113.91004945276946,-7.0175119189215263],[113.91005849514173,-7.0175118628136151],[113.91005815819115,-7.017457657516105],[113.91004911581992,-7.0174577136235783],[113.91004922813615,-7.017475782056243],[113.9100401857645,-7.0174758381636888],[113.91004001729081,-7.0174487355144501],[113.91004905966192,-7.0174486794072228],[113.910049003504,-7.0174396451908976],[113.91005804587488,-7.017439589083569],[113.91005776508551,-7.0173944180021648],[113.91006680745542,-7.0173943618950272],[113.91006686361334,-7.0174033961112592],[113.91007590598335,-7.0174033400038764],[113.91007584982529,-7.0173943057877173],[113.9101029769344,-7.0173941374647422],[113.91010292077588,-7.0173851032488148],[113.91005770892787,-7.0173853837858715],[113.91005765277028,-7.0173763495695756],[113.9100395680309,-7.0173764617830354],[113.91003962418813,-7.0173854959994779],[113.91001249707799,-7.017385664318585],[113.91001255323478,-7.0173946985352424],[113.91000351086439,-7.0173947546413373],[113.91000345470778,-7.0173857204246053],[113.90999441233751,-7.0173857765304541],[113.90999435618114,-7.0173767423136466],[113.90998531381099,-7.0173767984192486],[113.90998542612344,-7.0173948668530048],[113.90999446849395,-7.0173948107472572],[113.90999452465046,-7.0174038449640737],[113.91001260939163,-7.0174037327519132],[113.91001272170556,-7.0174218011851908],[113.90997655222154,-7.0174220256094015],[113.90997649606523,-7.0174129913924643],[113.90996745369421,-7.0174130474980103],[113.90996750985035,-7.0174220817150204],[113.90995846747907,-7.0174221378204642],[113.90995841132312,-7.0174131036033813],[113.90993128420941,-7.0174132719184534],[113.90993139652035,-7.0174313403530535],[113.90994948126361,-7.017431228142887],[113.90994953741955,-7.0174402623600356],[113.90997666453437,-7.0174400940432644],[113.90997672069089,-7.0174491282601732],[113.90996767831919,-7.0174491843660105],[113.90996773447563,-7.0174582185830223],[113.90994964973164,-7.0174583307943212],[113.9099497058878,-7.0174673650114574],[113.90994066351551,-7.0174674211169199],[113.90994071967158,-7.0174764553341253],[113.90991359255375,-7.0174766236496859],[113.90991364870936,-7.0174856578671072],[113.90992269108223,-7.0174856017620204],[113.90992274723808,-7.0174946359793475],[113.90993178961102,-7.0174945798740147],[113.90993184576713,-7.0175036140912974],[113.9099408881402,-7.0175035579857195],[113.90994094429655,-7.0175125922029089],[113.90995902904275,-7.0175124799910824],[113.90995914135638,-7.0175305484251593],[113.90995009898297,-7.017530604531304],[113.90995021129655,-7.0175486729655123],[113.9099411689227,-7.0175487290716303],[113.90994128123623,-7.0175667975059826],[113.90992319648763,-7.0175669097179894],[113.90992325264415,-7.0175759439352809],[113.90990516789488,-7.0175760561467388],[113.90990511173871,-7.0175670219293016],[113.90988702698949,-7.0175671341399175],[113.9098871954572,-7.0175942367926893],[113.90987815308198,-7.0175942928979556],[113.90987820923786,-7.0176033271156166],[113.90986012448681,-7.0176034393257742],[113.90986018064243,-7.0176124735435943],[113.90985113826662,-7.0176125296484857],[113.90985108211119,-7.0176034954305919],[113.90981491260791,-7.0176037198481271],[113.90981480029868,-7.0175856514117791],[113.90982384267427,-7.0175855953078017],[113.90982378651958,-7.0175765610896956],[113.90980570176869,-7.0175766732973299],[113.90980575792302,-7.0175857075155825],[113.90979671554729,-7.0175857636192118],[113.90979677170152,-7.0175947978375337],[113.90978772932556,-7.0175948539410626],[113.90978784163391,-7.0176129223778556],[113.90976975688103,-7.0176130345846843],[113.90976986918899,-7.0176311030217207],[113.90976082681212,-7.0176311591250204],[113.90976093912001,-7.0176492275622033],[113.90975189674268,-7.0176492836654756],[113.90975200905054,-7.017667352102789],[113.90974296667279,-7.0176674082060329],[113.9097431351346,-7.0176945108621922],[113.90972505037787,-7.0176946230685964],[113.90972516268542,-7.0177126915063077],[113.90971612030658,-7.0177127476093943],[113.90971623261409,-7.0177308160472363],[113.90970719023483,-7.0177308721502962],[113.90970752715805,-7.0177850774641657],[113.90969848477769,-7.0177851335674886],[113.90969859708567,-7.0178032020055596],[113.90970763946638,-7.017803145902092],[113.90970769562065,-7.017812180121048],[113.90972578038222,-7.0178120679134448],[113.9097258926917,-7.017830136351054],[113.90975301983451,-7.0178299680379075],[113.90975307598988,-7.0178390022564878],[113.90978924551332,-7.0178387778362339],[113.90978930166945,-7.0178478120545194],[113.90979834405029,-7.0178477559489485],[113.90979862483297,-7.0178929270399495],[113.90980766721461,-7.0178928709338413],[113.90980777952856,-7.0179109393700676],[113.90981682191047,-7.0179108832636397],[113.90981693422503,-7.0179289516997043],[113.90978980707804,-7.0179291200189073],[113.90978997554889,-7.0179562226736332],[113.90978093316591,-7.0179562787799039],[113.90978098932284,-7.0179653129982116],[113.90980811647215,-7.0179651446786551],[113.90980839726051,-7.018010315769037],[113.90983552441176,-7.0180101474468239],[113.90983580520459,-7.0180553185360131],[113.90984484758906,-7.0180552624278976],[113.90984495990705,-7.0180733308633831],[113.90985400229181,-7.0180732747549461],[113.90985411461044,-7.0180913431903056],[113.90986315699547,-7.0180912870815479]],[[113.90990820043848,-7.0180639038834567],[113.90989915805434,-7.0180639599928627],[113.90989910189435,-7.0180549257755471],[113.90990814427829,-7.0180548696662139],[113.90990803195817,-7.018036801231716],[113.90988994719086,-7.0180369134499188],[113.90988989103127,-7.018027879232533],[113.90989893341479,-7.0180278231235933],[113.90989887725507,-7.0180187889062449],[113.90990791963833,-7.018018732797203],[113.90990797579821,-7.0180277670144786],[113.90991701818156,-7.0180277109051898],[113.90991724282253,-7.0180638477738766],[113.90992628520652,-7.0180637916641233],[113.90992634136711,-7.0180728258812],[113.90991729898296,-7.0180728819910261],[113.90991735514346,-7.0180819162082058],[113.90990831275906,-7.0180819723179306],[113.90990820043848,-7.0180639038834567]],[[113.90984445447839,-7.0179920229035142],[113.90983541209515,-7.0179920790111199],[113.90983546825342,-7.0180011132289737],[113.90982642586992,-7.018001169336479],[113.90982620123799,-7.0179650324647485],[113.90983524362079,-7.0179649763575345],[113.90983535593695,-7.0179830447932785],[113.90984439832003,-7.0179829886857448],[113.90984445447839,-7.0179920229035142]],[[113.90980806031469,-7.0179561104605668],[113.90979901793182,-7.0179561665671857],[113.90979896177463,-7.0179471323490219],[113.90980800415731,-7.0179470762424758],[113.90980806031469,-7.0179561104605668]],[[113.909888880171,-7.0178652633186225],[113.90989792255137,-7.0178652072109946],[113.90989786639301,-7.0178561729936098],[113.90990690877312,-7.0178561168858806],[113.90990707724899,-7.0178832195378558],[113.90989803486835,-7.0178832756458034],[113.90989809102695,-7.0178923098631936],[113.90990713340776,-7.0178922537551731],[113.90990718956661,-7.0179012879724869],[113.90989814718561,-7.0179013440805793],[113.90989831566206,-7.0179284467327152],[113.90988927328047,-7.0179285028408538],[113.90988932943927,-7.0179375370582981],[113.90988028705742,-7.0179375931663346],[113.90988034321612,-7.0179466273838473],[113.90987130083404,-7.0179466834917843],[113.90987124467551,-7.0179376492741978],[113.90986220229351,-7.0179377053818879],[113.90986203381891,-7.0179106027288896],[113.9098710762004,-7.017910546621418],[113.90987102004217,-7.0179015124038173],[113.90988910480452,-7.0179014001884985],[113.909888880171,-7.0178652633186225],[113.90987983779056,-7.0178653194260754],[113.90987989394864,-7.0178743536436361],[113.90987085156794,-7.0178744097509895],[113.90987090772595,-7.0178834439686026],[113.90986186534499,-7.0178835000758557],[113.9098617530294,-7.0178654316404625],[113.90987983779056,-7.0178653194260754],[113.90987978163251,-7.0178562852085449],[113.9098888240128,-7.0178562291011648],[113.909888880171,-7.0178652633186225]],[[113.90985315991145,-7.0179377614894038],[113.9098441175293,-7.0179378175967466],[113.90984394905576,-7.0179107149433113],[113.90985299143738,-7.017910658836187],[113.90985315991145,-7.0179377614894038]],[[113.90991572651902,-7.0178199239089309],[113.90990668413967,-7.0178199800165419],[113.90990685261465,-7.0178470826685473],[113.90988876785467,-7.0178471948836858],[113.90988871169661,-7.0178381606662024],[113.90989775407647,-7.017838104558793],[113.90989752944432,-7.017801967689115],[113.90990657182338,-7.0178019115818238],[113.90990651566536,-7.0177928773644691],[113.90991555804419,-7.0177928212570748],[113.90991572651902,-7.0178199239089309]],[[113.90977087997391,-7.0177937189544961],[113.90976183759388,-7.0177937750591086],[113.9097617814387,-7.0177847408405816],[113.90975273905877,-7.0177847969449463],[113.909752626749,-7.017766728507735],[113.90977071150807,-7.0177666162991228],[113.90977076766328,-7.017775650517601],[113.90977981004289,-7.0177755944129618],[113.90977986619835,-7.017784628631329],[113.90977082381855,-7.0177846847360419],[113.90977087997391,-7.0177937189544961]],[[113.90990634719171,-7.0177657747123758],[113.90988826243486,-7.0177658869262007],[113.90988803780577,-7.0177297500561053],[113.90987899542793,-7.0177298061624649],[113.90987888311417,-7.0177117377272475],[113.9098698407366,-7.0177117938332882],[113.90986978458002,-7.0177027596155845],[113.9098788269574,-7.0177027035096167],[113.90987877080072,-7.0176936692920151],[113.9098697284235,-7.0176937253979101],[113.90986950379816,-7.01765758852709],[113.90987854617468,-7.0176575324214863],[113.90987860233108,-7.0176665666391367],[113.90988764470769,-7.0176665105332869],[113.90988770086435,-7.0176755447508459],[113.90987865848756,-7.0176756008567667],[113.90987871464408,-7.0176846350743922],[113.90988775702105,-7.0176845789683977],[113.90988781317785,-7.017693613185946],[113.90989685555493,-7.0176935570797045],[113.90989679939797,-7.0176845228622282],[113.90990584177479,-7.0176844667558855],[113.90990601024643,-7.0177115694080845],[113.90989696786909,-7.0177116255146448],[113.90989702402628,-7.0177206597321096],[113.90990606640379,-7.0177206036254747],[113.90990612256124,-7.0177296378428631],[113.90991516493884,-7.0177295817359804],[113.90991522109653,-7.0177386159532924],[113.90990617871873,-7.017738672060247],[113.90990623487633,-7.0177477062776275],[113.90991527725429,-7.0177476501706],[113.909915445728,-7.0177747528225138],[113.90990640334952,-7.0177748089297598],[113.90990634719171,-7.0177657747123758]],[[113.90987933237098,-7.017784011468021],[113.90988837474985,-7.0177839553612236],[113.90988843090746,-7.0177929895787301],[113.90987938852841,-7.0177930456856012],[113.90987933237098,-7.017784011468021]],[[113.909788010097,-7.0176400250329767],[113.90977896772009,-7.0176400811366966],[113.90977891156582,-7.0176310469182486],[113.90978795394257,-7.0176309908146015],[113.909788010097,-7.0176400250329767]],[[113.90990550483349,-7.0176302614513828],[113.90991454720921,-7.0176302053453021],[113.90991460336608,-7.0176392395626568],[113.9099055609902,-7.0176392956688085],[113.90990550483349,-7.0176302614513828]],[[113.91003142418289,-7.0175210653532849],[113.9100133394375,-7.0175211775680371],[113.91001328327968,-7.0175121433514329],[113.91002232565222,-7.0175120872442172],[113.91002226949431,-7.0175030530276841],[113.91003131186662,-7.0175029969203662],[113.91003142418289,-7.0175210653532849]]],[[[113.91031067060358,-7.0173476758653619],[113.91031061444143,-7.0173386416510919],[113.91030157207453,-7.0173386977624821],[113.91030162823651,-7.0173477319768258],[113.91031067060358,-7.0173476758653619]]],[[[113.91034684007106,-7.0173474514177734],[113.91034678390821,-7.017338417203792],[113.91033774154162,-7.0173384733158795],[113.9103377977043,-7.0173475075299301],[113.91034684007106,-7.0173474514177734]]],[[[113.91048241939811,-7.0173375755016636],[113.91047337703264,-7.0173376316163552],[113.91047343319792,-7.0173466658293124],[113.91044630610054,-7.017346834172562],[113.91044624993577,-7.0173377999593871],[113.91041912283822,-7.0173379683008541],[113.91041917900246,-7.0173470025142501],[113.9104101366363,-7.0173470586277995],[113.91041019280044,-7.017356092841279],[113.91041923516677,-7.0173560367276595],[113.91041929133115,-7.0173650709410289],[113.91042833369761,-7.0173650148271607],[113.91042827753306,-7.0173559806138641],[113.91043731989923,-7.0173559244998955],[113.91043743222878,-7.0173739929263563],[113.91046455932795,-7.01737382458297],[113.91046450316261,-7.0173647903699505],[113.9104735455287,-7.0173647342552146],[113.91047360169421,-7.0173737684681603],[113.91050977115842,-7.0173735440071843],[113.91050960266006,-7.0173464413692113],[113.91048247556355,-7.0173466097145472],[113.91048241939811,-7.0173375755016636]]],[[[113.90996195407619,-7.0150731290738051],[113.90996189793916,-7.01506409485585],[113.90995285561335,-7.0150641509424334],[113.90995291175022,-7.0150731851604631],[113.90996195407619,-7.0150731290738051]]]]},"properties":{"FID":0,"Shape_Leng":18102566.929299999,"Shape_Area":236516885.403}}]
}