{
  "type" : "FeatureCollection",
  "features" : [{"type":"Feature","id":0,"geometry":{"type":"MultiPolygon","coordinates":[[[[113.53252960599052,-7.1747284895461663],[113.53252955600617,-7.174719452542476],[113.53252050771312,-7.17471950246434],[113.53252055769728,-7.1747285394680951],[113.53252960599052,-7.1747284895461663]]],[[[113.53243857325064,-7.1746295817096444],[113.53243852326879,-7.1746205447052747],[113.53242947497708,-7.1746205946246624],[113.53242952495876,-7.1746296316290952],[113.53243857325064,-7.1746295817096444]]],[[[113.53234779044912,-7.1745758588660653],[113.53234774046945,-7.1745668218610374],[113.53233869217814,-7.1745668717782642],[113.53233874215765,-7.1745759087833552],[113.53234779044912,-7.1745758588660653]]],[[[113.53227520420273,-7.1745401101772446],[113.53227515422472,-7.1745310731716936],[113.5322661059336,-7.1745311230872435],[113.53226615591143,-7.1745401600928584],[113.53227520420273,-7.1745401101772446]]],[[[113.53229325080677,-7.17453097334006],[113.53229320082848,-7.1745219363346315],[113.53228415253766,-7.1745219862504745],[113.53228420251577,-7.174531023255966],[113.53229325080677,-7.17453097334006]]],[[[113.53222086447707,-7.1745313726623241],[113.5322207645234,-7.1745132986504503],[113.53221171623224,-7.1745133485648047],[113.53221181618555,-7.1745314225768073],[113.53222086447707,-7.1745313726623241]]],[[[113.53226575609061,-7.1744678640478314],[113.5322476595107,-7.1744679638775093],[113.53224780944194,-7.1744950748948044],[113.53223876115135,-7.1744951248095674],[113.53223881112838,-7.1745041618153866],[113.53224785941916,-7.1745041119005615],[113.53224790939645,-7.1745131489063141],[113.53225695768732,-7.1745130989912473],[113.53225690770986,-7.1745040619855587],[113.5322659560005,-7.1745040120703765],[113.53226605595584,-7.174522086081625],[113.53227510424679,-7.1745220361661382],[113.53227490433567,-7.1744858881438791],[113.53230204920594,-7.1744857383971148],[113.53230199922778,-7.1744767013917308],[113.53226580606798,-7.174476901053473],[113.53226575609061,-7.1744678640478314]]],[[[113.53258054686827,-7.1741227107804866],[113.53258044690615,-7.1741046367733414],[113.53257139862561,-7.1741046866919547],[113.53257149858737,-7.1741227606992268],[113.53258054686827,-7.1741227107804866]]],[[[113.53257129866411,-7.1740866126846665],[113.53257124868345,-7.1740775756810162],[113.53256220040336,-7.1740776255992609],[113.53256225038383,-7.1740866626029751],[113.53257129866411,-7.1740866126846665]]],[[[113.53254385394339,-7.1740325404159568],[113.53258004706026,-7.1740323407446027],[113.53257994709945,-7.1740142667373643],[113.53257089882068,-7.1740143166553416],[113.53257094880088,-7.1740233536590363],[113.53254380396366,-7.1740235034120934],[113.53254385394339,-7.1740325404159568]]],[[[113.53254385394339,-7.1740325404159568],[113.532534805664,-7.1740325903333506],[113.53253465572554,-7.174005479321556],[113.53251655916765,-7.1740055791554287],[113.53251670910504,-7.1740326901676044],[113.53250766082547,-7.1740327400844635],[113.5325077607837,-7.1740508140926886],[113.53254395390306,-7.1740506144236722],[113.53254385394339,-7.1740325404159568]]],[[[113.53257069890051,-7.1739781686406108],[113.53257064892064,-7.1739691316368983],[113.53256160064268,-7.1739691815543809],[113.5325616506224,-7.1739782185581573],[113.53257069890051,-7.1739781686406108]]]]},"properties":{"FID":0,"Shape_Leng":18102566.929299999,"Shape_Area":236516885.403}}]
}