{
  "type" : "FeatureCollection",
  "features" : [{"type":"Feature","id":0,"geometry":{"type":"MultiPolygon","coordinates":[[[[113.38634463195893,-7.2167713269772964],[113.38634458457922,-7.2167622889932463],[113.38633553445517,-7.2167623363092721],[113.3863355818347,-7.2167713742933808],[113.38634463195893,-7.2167713269772964]]],[[[113.3863530661494,-7.2166537858690623],[113.38635301877031,-7.2166447478850566],[113.38638016913494,-7.216644605937705],[113.38638012175538,-7.2166355679538565],[113.3863439212698,-7.2166357572163982],[113.38634401602755,-7.2166538331845489],[113.3863530661494,-7.2166537858690623]]],[[[113.38621451921198,-7.2161212544656426],[113.3862235693241,-7.2161212071561955],[113.38622352195112,-7.2161121691711054],[113.38623257206299,-7.2161121218615394],[113.38623238257094,-7.2160759699213832],[113.38622333245979,-7.2160760172307103],[113.38622342720534,-7.2160940932009181],[113.38620196211517,-7.2160942054089325],[113.38618732718227,-7.2161134419371233],[113.38618741624759,-7.2161304343782371],[113.38617836613506,-7.2161304816870286],[113.38617835604435,-7.2161285565135742],[113.38612207995791,-7.2162301964817868],[113.38612458654437,-7.2162301833789417],[113.38612463391618,-7.2162392213646216],[113.38611706113589,-7.2162392609503216],[113.38611559761493,-7.2162419042079247],[113.38611577328815,-7.2162754206158857],[113.38609875339635,-7.2162755095850324],[113.386094457,-7.2162841029998495],[113.3860920092288,-7.2162936213061055],[113.38609776779951,-7.2162935912040513],[113.38609781517121,-7.2163026291899],[113.3860896817865,-7.2163026717059688],[113.38608803200009,-7.21630908699996],[113.38609303000021,-7.2163369289999597],[113.38611158900005,-7.2163661939998702],[113.38611627564784,-7.2163712641129241],[113.38611624701021,-7.2163658004730884],[113.38613434724542,-7.2163657058547175],[113.3861342524998,-7.2163476298835496],[113.3861252023826,-7.2163476771927026],[113.38612510763758,-7.216329601221398],[113.38613415775443,-7.2163295539123649],[113.38613411038183,-7.216320515926764],[113.38614316049845,-7.2163204686176119],[113.38614287626308,-7.2162662407042983],[113.38615192637856,-7.2162661933953247],[113.38615187900605,-7.2162571554098198],[113.38616092912126,-7.2162571081007263],[113.38616088174862,-7.2162480701152765],[113.38616993186363,-7.2162480228060648],[113.38616978974551,-7.2162209088498708],[113.38617883985991,-7.2162208615406591],[113.38617869774181,-7.2161937475845939],[113.3861877478556,-7.216193700275384],[113.38618770048285,-7.2161846622901038],[113.38619675059641,-7.2161846149807722],[113.38619660847797,-7.2161575010250365],[113.38621470870382,-7.216157406406202],[113.38621466133075,-7.2161483684210843],[113.38622371144344,-7.2161483211114561],[113.38622361669715,-7.2161302451412794],[113.38621456658485,-7.2161302924507869],[113.38621451921198,-7.2161212544656426]],[[113.38613363665925,-7.2162301360705667],[113.38614268677406,-7.2162300887620132],[113.38614273414622,-7.2162391267475714],[113.38613368403124,-7.2162391740561862],[113.38613363665925,-7.2162301360705667]]],[[[113.38632250468369,-7.2160031929425541],[113.38630945381003,-7.2160032611676597],[113.38629540982943,-7.2160139181009457],[113.3862954491036,-7.2160214108432434],[113.3863044992132,-7.2160213635328425],[113.38630454658717,-7.2160304015174148],[113.38633169691617,-7.2160302595849597],[113.38633160216717,-7.2160121836161535],[113.38632255205792,-7.2160122309270323],[113.38632250468369,-7.2160031929425541]]],[[[113.38635875249452,-7.2160120416824478],[113.38635870511956,-7.2160030036982095],[113.38634060490176,-7.2160030983207406],[113.38634065227633,-7.2160121363050971],[113.38635875249452,-7.2160120416824478]]]]},"properties":{"FID":0,"Shape_Leng":18102566.929299999,"Shape_Area":236516885.403}}]
}