{
  "type" : "FeatureCollection",
  "features" : [{"type":"Feature","id":0,"geometry":{"type":"MultiPolygon","coordinates":[[[[113.94747378774277,-7.0421676134251285],[113.94748028059263,-7.0421585382145917],[113.94746935565595,-7.0421586071133229],[113.94746941273776,-7.0421676410163503],[113.94747378774277,-7.0421676134251285]]],[[[113.94745121348504,-7.0421496872642422],[113.94745109932251,-7.0421316194579084],[113.94744205677816,-7.0421316764844644],[113.94744217094035,-7.0421497442909464],[113.94745121348504,-7.0421496872642422]]],[[[113.94721507992803,-7.0419885596097576],[113.94721490870201,-7.041961457894276],[113.94720586615902,-7.0419615149148962],[113.94720603738452,-7.0419886166305998],[113.94721507992803,-7.0419885596097576]]],[[[113.9471967665411,-7.0419525380300261],[113.94719665239164,-7.041934470219382],[113.94718760984904,-7.0419345272394329],[113.94718772399814,-7.0419525950502253],[113.9471967665411,-7.0419525380300261]]],[[[113.94709701320086,-7.0419079957119148],[113.94709695612839,-7.0418989618057628],[113.94708791358563,-7.0418990188236004],[113.94708797065793,-7.0419080527298261],[113.94709701320086,-7.0419079957119148]]],[[[113.9471601968519,-7.0418895287703638],[113.94716025392552,-7.0418985626760211],[113.94716929646765,-7.0418985056567882],[113.94716923939386,-7.0418894717512064],[113.9471601968519,-7.0418895287703638]]],[[[113.9471961387228,-7.0418531650712879],[113.94720518126378,-7.0418531080517281],[113.94720512418967,-7.0418440741464208],[113.94719608164887,-7.0418441311659086],[113.9471961387228,-7.0418531650712879]]],[[[113.94723230888624,-7.0418529369920018],[113.94723225181161,-7.0418439030869155],[113.94722320927102,-7.0418439601069256],[113.94722326634549,-7.0418529940120846],[113.94723230888624,-7.0418529369920018]]],[[[113.9471961387228,-7.0418531650712879],[113.94718709618176,-7.0418532220906735],[113.9471869820343,-7.041835154279795],[113.94721410965616,-7.0418349832215572],[113.94721405258203,-7.0418259493163342],[113.94715979733867,-7.0418262914307954],[113.94715974026565,-7.0418172575251248],[113.9471778253467,-7.0418171434878163],[113.94717776827342,-7.0418081095822886],[113.94715064065223,-7.0418082806377695],[113.94715086894375,-7.041844416260723],[113.9471418264025,-7.0418444732791627],[113.94714176932968,-7.0418354393733695],[113.94713272678852,-7.0418354963915615],[113.94713266971596,-7.0418264624856732],[113.94711458463379,-7.0418265765213857],[113.94711475585069,-7.0418536782394838],[113.94710571330896,-7.0418537352572992],[113.94710577038121,-7.0418627691633979],[113.94709672783925,-7.0418628261811138],[113.94709678491144,-7.0418718600872827],[113.94711486999566,-7.0418717460515277],[113.94711492706824,-7.0418807799575438],[113.94710588452598,-7.0418808369755821],[113.94710594159848,-7.0418898708816524],[113.94712402668326,-7.0418897568452534],[113.94712408375618,-7.0418987907512047],[113.94711504121366,-7.0418988477695654],[113.94711509828647,-7.0419078816755691],[113.94712414082917,-7.0419078246571356],[113.94712425497539,-7.0419258924689849],[113.94711521243235,-7.0419259494875668],[113.94711526950539,-7.0419349833935598],[113.9471243120486,-7.0419349263749051],[113.94712436912191,-7.04194396028082],[113.94713341166522,-7.0419439032619158],[113.94713346873876,-7.0419529371677525],[113.94715155382552,-7.0419528231292743],[113.94715161089948,-7.04196185703496],[113.9471696959863,-7.0419617429956354],[113.94716958183773,-7.0419436751845561],[113.94717862438068,-7.0419436181647805],[113.94717851023206,-7.0419255503538336],[113.94718755277459,-7.0419254933340305],[113.94718743862593,-7.0419074255232141],[113.94715126845679,-7.041907653600787],[113.94715115430984,-7.041889585789348],[113.9471601968519,-7.0418895287703638],[113.94716013977835,-7.0418804948647375],[113.94716918232014,-7.041880437845653],[113.94716923939386,-7.0418894717512064],[113.94718732447757,-7.0418893577123676],[113.94718743862593,-7.0419074255232141],[113.94720552371004,-7.0419073114833832],[113.94720546663548,-7.0418982775781167],[113.94719642409362,-7.0418983345980468],[113.94719630994507,-7.0418802667873539],[113.94720535248658,-7.041880209767573],[113.94720529541223,-7.0418711758622949],[113.94719625287091,-7.0418712328820039],[113.9471961387228,-7.0418531650712879]],[[113.94713312629861,-7.0418987337326699],[113.947142168841,-7.0418986767139602],[113.94714222591433,-7.0419077106197454],[113.94713318337179,-7.041907767638528],[113.94713312629861,-7.0418987337326699]],[[113.9471513255304,-7.0419166875064922],[113.94716941061546,-7.0419165734679074],[113.94716946768948,-7.04192560737346],[113.94715138260406,-7.041925721412194],[113.9471513255304,-7.0419166875064922]]],[[[113.94717776827342,-7.0418081095822886],[113.94718681081368,-7.0418080525634466],[113.94718675374028,-7.0417990186580068],[113.9471777112002,-7.0417990756767752],[113.94717776827342,-7.0418081095822886]]],[[[113.94718675374028,-7.0417990186580068],[113.94719579628027,-7.0417989616390644],[113.94719573920678,-7.0417899277336602],[113.94718669666698,-7.041789984752528],[113.94718675374028,-7.0417990186580068]]],[[[113.94716861158709,-7.0417900987897433],[113.94716855451419,-7.0417810648841295],[113.94715951197433,-7.0417811219024022],[113.94715956904705,-7.041790155808088],[113.94716861158709,-7.0417900987897433]]],[[[113.94718663959372,-7.0417809508470635],[113.94718652544746,-7.0417628830361227],[113.94717748290809,-7.0417629400545954],[113.94717759705398,-7.0417810078656835],[113.94718663959372,-7.0417809508470635]]],[[[113.94721348184476,-7.0417356102638804],[113.94721342477145,-7.041726576358613],[113.94719533969445,-7.0417266903958389],[113.94719539676741,-7.0417357243012537],[113.94721348184476,-7.0417356102638804]]],[[[113.94726790829847,-7.0417623698620213],[113.94727695083712,-7.041762312841807],[113.94727683668766,-7.0417442450323255],[113.94726779414938,-7.0417443020523942],[113.94726773707494,-7.0417352681475744],[113.94727677961306,-7.0417352111275795],[113.94727672253852,-7.0417261772228299],[113.94728576507637,-7.0417261202027346],[113.94728565092717,-7.0417080523933704],[113.94729469346458,-7.0417079953732493],[113.94729457931535,-7.0416899275640166],[113.94728553677828,-7.0416899845839902],[113.94728547970394,-7.0416809506792779],[113.94724026701827,-7.0416812357761627],[113.94724043823889,-7.0417083374913636],[113.94724948077669,-7.0417082804721138],[113.94724953785055,-7.0417173143770926],[113.94724049531258,-7.041717371396417],[113.94724043823889,-7.0417083374913636],[113.94723139570102,-7.0417083945104393],[113.94723179521719,-7.0417716318462462],[113.94724083775628,-7.0417715748266536],[113.94724100897915,-7.0417986765417355],[113.94723196643953,-7.0417987335615511],[113.94723202351379,-7.0418077674666213],[113.94722298097392,-7.0418078244863365],[113.94722292389982,-7.0417987905811898],[113.94721388136006,-7.0417988476006554],[113.94721393843398,-7.0418078815058749],[113.94720489589396,-7.0418079385252401],[113.94720495296777,-7.0418169724305448],[113.94723208058814,-7.0418168013717048],[113.94723213766255,-7.0418258352767857],[113.94724118020268,-7.041825778256749],[113.94724112312811,-7.0418167443517428],[113.947250165668,-7.0418166873316075],[113.94725010859331,-7.0418076534266714],[113.94725915113297,-7.0418075964064348],[113.94725897990882,-7.0417804946918237],[113.94726802244787,-7.0417804376716342],[113.94726790829847,-7.0417623698620213],[113.94725886575978,-7.0417624268820642],[113.94725880868538,-7.0417533929771778],[113.94726785122388,-7.0417533359572104],[113.94726790829847,-7.0417623698620213]]],[[[113.94732125032799,-7.0416174852677358],[113.94732119325356,-7.0416084513633042],[113.94731215071826,-7.0416085083831366],[113.94731220779252,-7.0416175422876419],[113.94732125032799,-7.0416174852677358]]],[[[113.94737499186255,-7.0415358380085991],[113.94738403439591,-7.0415357809881387],[113.94738397732094,-7.0415267470841876],[113.94737493478775,-7.0415268041045742],[113.94737499186255,-7.0415358380085991]]],[[[113.94737499186255,-7.0415358380085991],[113.94736594932913,-7.0415358950288862],[113.94736583517994,-7.0415178272206855],[113.94734775011354,-7.0415179412604418],[113.94734786426201,-7.0415360090689374],[113.94733882172834,-7.0415360660887014],[113.94733893587679,-7.0415541338973293],[113.94735702094474,-7.0415540198573314],[113.94735696387012,-7.0415449859531671],[113.94737504893743,-7.0415448719126195],[113.94737499186255,-7.0415358380085991]]],[[[113.94738392024603,-7.0415177131802329],[113.9473838631712,-7.0415086792762747],[113.94739290570398,-7.0415086222558614],[113.94739284862905,-7.0414995883519733],[113.94737476356379,-7.0414997023924784],[113.94737487771302,-7.0415177702005467],[113.94738392024603,-7.0415177131802329]]],[[[113.94741980500046,-7.041472315578865],[113.94740171993671,-7.041472429619974],[113.94740177701158,-7.0414814635238168],[113.94739273447941,-7.0414815205441839],[113.94739279155419,-7.041490554448079],[113.94741991915099,-7.0414903833862352],[113.94741980500046,-7.041472315578865]]],[[[113.94798032765617,-7.0414507121604331],[113.94798027057035,-7.0414416782613225],[113.9479712280437,-7.0414417352925511],[113.94797128512936,-7.0414507691917354],[113.94798032765617,-7.0414507121604331]]],[[[113.94741980500046,-7.041472315578865],[113.94742884753222,-7.0414722585580494],[113.9474287904569,-7.0414632246544571],[113.94743783298843,-7.0414631676335411],[113.947437775913,-7.0414541337300021],[113.94744681844426,-7.0414540767089857],[113.94744676136874,-7.0414450428055169],[113.94745580389974,-7.0414449857843993],[113.94745574682412,-7.0414359518810006],[113.9474647893549,-7.0414358948597835],[113.94746461812797,-7.0414087931497846],[113.94744653306739,-7.0414089071916024],[113.94744659014262,-7.0414179410950872],[113.9474556326731,-7.0414178840741917],[113.94745568974857,-7.0414269179775815],[113.94741951962546,-7.0414271460604132],[113.94741957670031,-7.041436179964129],[113.94743766176238,-7.0414360659229125],[113.94743771883765,-7.0414450998264604],[113.94742867630647,-7.0414451568472289],[113.94742873338164,-7.0414541907508452],[113.94741064831875,-7.0414543047920075],[113.94741070539365,-7.0414633386957677],[113.94741974792531,-7.0414632816751999],[113.94741980500046,-7.041472315578865]]],[[[113.94743726223756,-7.0413728285979778],[113.94743720516287,-7.0413637946944005],[113.94742816263327,-7.0413638517145039],[113.94742821970777,-7.0413728856181557],[113.94743726223756,-7.0413728285979778]]],[[[113.94746461812797,-7.0414087931497846],[113.94747366065812,-7.0414087361286137],[113.94747348943133,-7.0413816344188191],[113.94748253196092,-7.0413815773976953],[113.94748230365887,-7.041345441784836],[113.94747326113,-7.0413454988056632],[113.94747320405484,-7.0413364649023684],[113.94746416152609,-7.0413365219229487],[113.94746433275122,-7.0413636236330417],[113.9474462476924,-7.0413637376741214],[113.94744630476725,-7.0413727715776249],[113.94746438982642,-7.0413726575363986],[113.94746450397705,-7.0413907253431001],[113.94745546144713,-7.0413907823639477],[113.94745551852237,-7.041399816267365],[113.94746456105246,-7.0413997592464437],[113.94746461812797,-7.0414087931497846]]],[[[113.94742799141022,-7.0413367500035235],[113.94742793433603,-7.0413277160998557],[113.94741889180705,-7.0413277731194901],[113.94741894888109,-7.0413368070232307],[113.94742799141022,-7.0413367500035235]]],[[[113.94749106081095,-7.0413002152480608],[113.94749111788614,-7.0413092491512232],[113.94750016041417,-7.0413091921303428],[113.94750010333878,-7.0413001582272532],[113.94749106081095,-7.0413002152480608]]],[[[113.94749106081095,-7.0413002152480608],[113.94749100373583,-7.041291181344894],[113.94748196120807,-7.0412912383654529],[113.94748201828303,-7.0413002722686944],[113.94749106081095,-7.0413002152480608]]],[[[113.94749100373583,-7.041291181344894],[113.94750908879111,-7.0412910673032538],[113.94750903171571,-7.0412820334002308],[113.94751807424305,-7.0412819763792234],[113.94751801716755,-7.0412729424762714],[113.94749993211313,-7.041273056517964],[113.94749998918827,-7.0412820904210651],[113.94749094666078,-7.0412821474417244],[113.94749100373583,-7.041291181344894]]],[[[113.94752694554356,-7.041254817649393],[113.9475179030168,-7.0412548746703534],[113.94751796009214,-7.0412639085732964],[113.94752700261908,-7.0412638515522623],[113.94752694554356,-7.041254817649393]]],[[[113.94752694554356,-7.041254817649393],[113.94754503059683,-7.0412547036069482],[113.94754497352103,-7.0412456697042058],[113.94752688846813,-7.0412457837465023],[113.94752694554356,-7.041254817649393]]],[[[113.94758114362601,-7.0412454416175212],[113.9475812007025,-7.0412544755199677],[113.94760832828095,-7.0412543044529032],[113.94760827120395,-7.0412452705506761],[113.94758114362601,-7.0412454416175212]]],[[[113.94754497352103,-7.0412456697042058],[113.94755401604741,-7.041245612682796],[113.94755395897151,-7.0412365787801221],[113.94754491644532,-7.0412366358014582],[113.94754497352103,-7.0412456697042058]]],[[[113.94758114362601,-7.0412454416175212],[113.94758108654959,-7.0412364077150684],[113.94757204402364,-7.0412364647369277],[113.94757210109988,-7.0412454986394533],[113.94758114362601,-7.0412454416175212]]],[[[113.94748150461122,-7.0412189671394056],[113.94748144753694,-7.0412099332361144],[113.94747240501067,-7.0412099902558332],[113.94747246208478,-7.0412190241591999],[113.94748150461122,-7.0412189671394056]]],[[[113.94749947551468,-7.0412007852930198],[113.94749958966383,-7.0412188530992958],[113.94750863219005,-7.0412187960789794],[113.94750851804055,-7.0412007282728499],[113.94749947551468,-7.0412007852930198]]],[[[113.94749947551468,-7.0412007852930198],[113.9474994184402,-7.0411917513898832],[113.94749037591444,-7.0411918084098044],[113.94749043298874,-7.0412008423130139],[113.94749947551468,-7.0412007852930198]]],[[[113.94749037591444,-7.0411918084098044],[113.94749031884024,-7.0411827745065914],[113.94748127631458,-7.041182831526263],[113.94748133338862,-7.0411918654295507],[113.94749037591444,-7.0411918084098044]]],[[[113.94763505631755,-7.0411908960701552],[113.94763499924055,-7.0411818621681235],[113.9476259567161,-7.0411819191905858],[113.94762601379293,-7.0411909530926913],[113.94763505631755,-7.0411908960701552]]],[[[113.94749031884024,-7.0411827745065914],[113.94749936136581,-7.0411827174867438],[113.94749930429148,-7.0411736835836161],[113.94749026176608,-7.0411737406033899],[113.94749031884024,-7.0411827745065914]]],[[[113.95193917519548,-7.0411456658200242],[113.95193911803557,-7.0411366319531581],[113.95193007554722,-7.0411366890584448],[113.95193013270696,-7.0411457229253873],[113.95193917519548,-7.0411456658200242]]],[[[113.94754445984229,-7.041164364579342],[113.94754440276725,-7.0411553306765597],[113.94753536024257,-7.0411553876970565],[113.94753541731743,-7.0411644215999134],[113.94754445984229,-7.041164364579342]]],[[[113.94753530316778,-7.041146353794197],[113.94753524609305,-7.041137319891333],[113.94752620356867,-7.0411373769115082],[113.9475262606432,-7.0411464108144459],[113.94753530316778,-7.041146353794197]]],[[[113.95206531273018,-7.041072595399986],[113.95207435521618,-7.0410725382926005],[113.95207441237818,-7.0410815721583848],[113.95209249735031,-7.0410814579429433],[113.95209244018795,-7.0410724240773073],[113.95208339770211,-7.04107248118504],[113.95208334054001,-7.0410634473193587],[113.95206525556844,-7.0410635615341564],[113.95206531273018,-7.041072595399986]]],[[[113.95211956764504,-7.04107225275306],[113.95211951048225,-7.0410632188876736],[113.95210142551127,-7.0410633331038648],[113.95210148267373,-7.0410723669693978],[113.95211956764504,-7.04107225275306]]],[[[113.95217376539338,-7.041062876234915],[113.95217370822961,-7.0410538423699531],[113.95216466574477,-7.041053899479107],[113.95216472290836,-7.0410629333441443],[113.95217376539338,-7.041062876234915]]],[[[113.95220083568363,-7.0410536710414426],[113.95220077851941,-7.0410446371766984],[113.95218269355048,-7.0410447513957317],[113.95218275071434,-7.0410537852606243],[113.95220083568363,-7.0410536710414426]]],[[[113.95226407590826,-7.0410442374045914],[113.95226401874291,-7.0410352035403605],[113.95230018867704,-7.0410349750956174],[113.95230013151105,-7.0410259412316627],[113.9523995988218,-7.0410253129950533],[113.95239954165397,-7.0410162791319415],[113.9522819893789,-7.0410170215901609],[113.95228204654448,-7.0410260554542354],[113.95222779164295,-7.0410263981177676],[113.95222784880755,-7.0410354319823147],[113.95220976383943,-7.041035546202246],[113.95220982100375,-7.0410445800669201],[113.95226407590826,-7.0410442374045914]]],[[[113.9524899664723,-7.0410157079901881],[113.9524899093028,-7.0410066741277957],[113.95248086682149,-7.0410067312426809],[113.95248092399081,-7.0410157651051479],[113.9524899664723,-7.0410157079901881]]],[[[113.95254416418915,-7.0410063314348212],[113.95254410701867,-7.0409972975728685],[113.95257123446029,-7.0409971262242497],[113.95257117728939,-7.0409880923625154],[113.95252596488716,-7.0409883779423037],[113.95252602205721,-7.0409974118044092],[113.95249889461445,-7.0409975831504124],[113.95249895178405,-7.0410066170127346],[113.95254416418915,-7.0410063314348212]]],[[[113.95165788639997,-7.0409938602292081],[113.95165782924676,-7.0409848263600141],[113.95163070178339,-7.0409849976553707],[113.9516307589361,-7.0409940315247885],[113.95165788639997,-7.0409938602292081]]],[[[113.9517393830974,-7.0410114140701312],[113.95173932594247,-7.0410023802015953],[113.95169411350479,-7.0410026657015718],[113.95169405635077,-7.0409936318326602],[113.95168501386318,-7.0409936889320583],[113.95168495670944,-7.0409846550630864],[113.95167591422197,-7.0409847121622366],[113.95167602852918,-7.0410027799003414],[113.95168507101701,-7.0410027228010419],[113.95168512817091,-7.0410117566700245],[113.9517393830974,-7.0410114140701312]]],[[[113.95273377040007,-7.0409599626579586],[113.95272472792165,-7.0409600197771809],[113.95272478509531,-7.040969053637669],[113.95273382757392,-7.0409689965183722],[113.95273377040007,-7.0409599626579586]]],[[[113.95191119034675,-7.0410103291290724],[113.95191107603031,-7.0409922613948055],[113.95190203354453,-7.0409923184983878],[113.95190191922875,-7.0409742507639566],[113.95189287674322,-7.0409743078672165],[113.95189281958561,-7.0409652739999213],[113.95186569212916,-7.0409654453084318],[113.95186563497215,-7.0409564114409102],[113.95185659248669,-7.0409564685433255],[113.95185653532992,-7.0409474346757248],[113.95183845035912,-7.0409475488798838],[113.95183856467203,-7.0409656166153729],[113.95181143721422,-7.0409657879207472],[113.95181149437026,-7.0409748217887076],[113.95180245188401,-7.0409748788902258],[113.95180250903995,-7.0409839127582723],[113.95179346655343,-7.0409839698596892],[113.9517935808652,-7.0410020375958702],[113.95178453837826,-7.0410020946972605],[113.95178459553408,-7.0410111285654278],[113.95179363802117,-7.0410110714639638],[113.95179369517724,-7.0410201053320529],[113.95178465268998,-7.0410201624335906],[113.95178459553408,-7.0410111285654278],[113.95177555304689,-7.0410111856667168],[113.9517756102026,-7.0410202195349552],[113.95176656771518,-7.0410202766361429],[113.95176645340418,-7.041002208899517],[113.95174836842976,-7.0410023231010763],[113.95174842558488,-7.0410113569695394],[113.9517393830974,-7.0410114140701312],[113.95173944025244,-7.0410204479386653],[113.95175752522768,-7.0410203337371584],[113.95175758238312,-7.0410293676055229],[113.9517666248708,-7.0410293105044328],[113.95176668202649,-7.0410383443727538],[113.95177572451426,-7.0410382872714177],[113.95177578167021,-7.0410473211396418],[113.95182099410887,-7.0410470356299726],[113.95182105126577,-7.0410560694978237],[113.9518481787286,-7.0410558981897085],[113.95184823588608,-7.041064932057334],[113.95186632086124,-7.0410648178509048],[113.95186637801916,-7.0410738517183615],[113.9518844629944,-7.0410737375110859],[113.95188440583614,-7.0410647036437775],[113.95189344832346,-7.0410646465399509],[113.95189350548191,-7.0410736804071865],[113.95191159045669,-7.0410735661988655],[113.95191164761555,-7.0410826000659821],[113.95193877507768,-7.041082428751972],[113.9519387179183,-7.0410733948850774],[113.95194776040536,-7.0410733377801327],[113.95194793188426,-7.041100439380549],[113.9519841018338,-7.0411002109581391],[113.9519840446734,-7.041091177091638],[113.95199308716043,-7.0410911199856736],[113.95199302999993,-7.0410820861192436],[113.95202015746003,-7.0410819148005261],[113.95202021462104,-7.041090948666735],[113.95202925710777,-7.0410908915600734],[113.95202919994655,-7.0410818576939382],[113.95204728491944,-7.0410817434802393],[113.952047342081,-7.0410907773462261],[113.95206542705392,-7.0410906631316825],[113.95206531273018,-7.041072595399986],[113.95205627024411,-7.0410726525071965],[113.95205621308254,-7.0410636186412923],[113.95204717059656,-7.0410636757482559],[113.95204711343523,-7.0410546418822575],[113.95205615592104,-7.0410545847753685],[113.95205604159825,-7.0410365170435094],[113.9520469991128,-7.0410365741502492],[113.95204688479066,-7.0410185064182258],[113.95203784230549,-7.0410185635246441],[113.95203772798402,-7.0410004957924563],[113.95201964301411,-7.041000610004474],[113.95201958585383,-7.040991576138226],[113.95197437342868,-7.0409918616648515],[113.95197443058809,-7.0410008955314698],[113.95196538810268,-7.0410009526363453],[113.95196544526198,-7.041009986503032],[113.95191119034675,-7.0410103291290724],[113.95191124750508,-7.0410193629962006],[113.9519022050188,-7.041019420100004],[113.95190214786062,-7.0410103862328022],[113.95191119034675,-7.0410103291290724]],[[113.95187490608674,-7.0409924898080867],[113.95186586360064,-7.0409925469109718],[113.95186574928624,-7.040974479175949],[113.95187479177198,-7.0409744220732113],[113.95187490608674,-7.0409924898080867]],[[113.95188406288814,-7.0410105004397385],[113.95189310537441,-7.0410104433363578],[113.9518931625324,-7.0410194772036325],[113.95188412004596,-7.0410195343070887],[113.95188406288814,-7.0410105004397385]]],[[[113.95273377040007,-7.0409599626579586],[113.95276089783488,-7.0409597912992465],[113.95276084066059,-7.0409507574390497],[113.95280605304956,-7.0409504718380793],[113.9528061102247,-7.0409595056979066],[113.95284228013523,-7.0409592772136964],[113.95284222295938,-7.0409502433541657],[113.95290552029863,-7.0409498435006066],[113.95290546312162,-7.0409408096415902],[113.9529325905511,-7.0409406382733861],[113.95293253337366,-7.040931604414606],[113.95287827851509,-7.0409319471490006],[113.95287833569149,-7.0409409810082257],[113.95286025073767,-7.0409410952517772],[113.95286019356163,-7.0409320613924047],[113.95281498117667,-7.0409323469978631],[113.95281503835184,-7.0409413808576069],[113.95279695339701,-7.0409414950987186],[113.95279689622218,-7.0409324612388264],[113.95276072631225,-7.0409326897186624],[113.95276078348638,-7.0409417235788503],[113.95275174100856,-7.0409417806984473],[113.95275179818259,-7.0409508145587205],[113.95273371322632,-7.0409509287975407],[113.95273377040007,-7.0409599626579586]]],[[[113.95249843726036,-7.0409253122516917],[113.95249838009143,-7.0409162783893349],[113.95244412521329,-7.0409166210726397],[113.95244418238116,-7.0409256549354415],[113.95249843726036,-7.0409253122516917]]],[[[113.95305002837829,-7.0409218279440324],[113.95304997119872,-7.0409127940861884],[113.95304092872379,-7.0409128512111412],[113.9530409859032,-7.040921885069058],[113.95305002837829,-7.0409218279440324]]],[[[113.95148556477078,-7.040913640239034],[113.95145843730732,-7.0409138115226817],[113.95145849445612,-7.0409228453935508],[113.95146753694418,-7.0409227882991026],[113.9514675940932,-7.0409318221698944],[113.95149472155749,-7.0409316508852795],[113.95149477870713,-7.0409406847558627],[113.95151286368328,-7.0409405705650991],[113.95151292083335,-7.0409496044354967],[113.95153100580956,-7.0409494902438903],[113.95153106296004,-7.0409585241141519],[113.95155819042431,-7.0409583528252115],[113.95155824757539,-7.0409673866952476],[113.95157633255155,-7.040967272501601],[113.95157638970305,-7.0409763063714861],[113.95160351716724,-7.0409761350794868],[113.95160357431935,-7.0409851689491623],[113.95162165929545,-7.0409850547534765],[113.95162160214301,-7.0409760208839485],[113.95164872960608,-7.0409758495893353],[113.95164867245317,-7.0409668157200436],[113.95162154499063,-7.0409669870144347],[113.95162148783832,-7.0409579531449165],[113.95161244535083,-7.0409580102426244],[113.95161250250295,-7.0409670441122163],[113.95160346001522,-7.0409671012098238],[113.95160340286327,-7.0409580673401573],[113.95156723291224,-7.0409582957285481],[113.95156717576106,-7.0409492618585832],[113.95154004829755,-7.0409494331478246],[113.95153999114697,-7.04094039927765],[113.95152190617125,-7.0409405134694572],[113.95152184902109,-7.040931479599096],[113.9515128065333,-7.0409315366946652],[113.9515127493834,-7.0409225028242428],[113.9514856219201,-7.0409226741096811],[113.95148556477078,-7.040913640239034]]],[[[113.95313135346954,-7.0409122799537673],[113.95313129628848,-7.040903246096585],[113.95307704144298,-7.0409035888526574],[113.95307709862301,-7.0409126227102838],[113.95313135346954,-7.0409122799537673]]],[[[113.9514403523313,-7.0409139257109086],[113.95144029518295,-7.0409048918398858],[113.95142221020697,-7.040905006027268],[113.95142226735499,-7.0409140398984382],[113.9514403523313,-7.0409139257109086]]],[[[113.95320357889588,-7.040893755222136],[113.9531945364226,-7.0408938123499043],[113.95319459360481,-7.0409028462065715],[113.95320363607826,-7.0409027890787286],[113.95320357889588,-7.040893755222136]]],[[[113.95141316771888,-7.0409050631206975],[113.95141311057111,-7.0408960292494491],[113.95140406808311,-7.0408960863426318],[113.9514041252307,-7.040905120213953],[113.95141316771888,-7.0409050631206975]]],[[[113.95320357889588,-7.040893755222136],[113.95323070631528,-7.0408935838377849],[113.95323064913245,-7.0408845499814108],[113.95320352171356,-7.0408847213655381],[113.95320357889588,-7.040893755222136]]],[[[113.95357414866766,-7.0408643112728599],[113.95357420585697,-7.04087334512643],[113.95358324832675,-7.0408732879914897],[113.95358319113727,-7.0408642541379933],[113.95357414866766,-7.0408643112728599]]],[[[113.95357414866766,-7.0408643112728599],[113.95357409147842,-7.0408552774192694],[113.95356504900892,-7.0408553345538873],[113.95356510619798,-7.0408643684075534],[113.95357414866766,-7.0408643112728599]]],[[[113.95342941195734,-7.0408561915522512],[113.95342935477098,-7.040847157697506],[113.95342031230045,-7.0408472148292622],[113.95342036948664,-7.0408562486840811],[113.95342941195734,-7.0408561915522512]]],[[[113.95356504900892,-7.0408553345538873],[113.95356499181995,-7.0408463007002524],[113.95355594935052,-7.0408463578346225],[113.95355600653933,-7.0408553916883321],[113.95356504900892,-7.0408553345538873]]],[[[113.95323064913245,-7.0408845499814108],[113.95323969160528,-7.0408844928530181],[113.95323974878828,-7.0408935267093193],[113.95325783373403,-7.0408934124518661],[113.95325777655067,-7.0408843785957131],[113.95327586149575,-7.0408842643377101],[113.95327580431213,-7.0408752304816993],[113.95328484678438,-7.0408751733525117],[113.95328490396818,-7.040884207208447],[113.95331203138504,-7.0408840358196123],[113.95331197420072,-7.040875001963899],[113.95330293172866,-7.0408750590936107],[113.95330287454459,-7.0408660252378192],[113.95334808690313,-7.0408657395878871],[113.95334814408808,-7.0408747734433081],[113.95335718655974,-7.0408747163127252],[113.95335712937464,-7.0408656824573779],[113.95338425678862,-7.040865511064804],[113.95338419960305,-7.0408564772096573],[113.95332994477543,-7.0408568199927926],[113.95332988759098,-7.0408477861372329],[113.95329371770508,-7.0408480146555412],[113.95329377488883,-7.0408570485113975],[113.953284732417,-7.0408571056406117],[113.95328461804993,-7.0408390379287313],[113.95326653310673,-7.0408391521863427],[113.95326659028987,-7.0408481860424414],[113.95327563276167,-7.0408481289136491],[113.95327568994509,-7.0408571627696528],[113.95324856252891,-7.0408573341557288],[113.95324861971186,-7.0408663680119865],[113.95323957723949,-7.0408664251404041],[113.95323963442233,-7.0408754589967124],[113.95323059194969,-7.0408755161250305],[113.95323064913245,-7.0408845499814108]]],[[[113.9535106798145,-7.0408376096497589],[113.95351062262671,-7.040828575795655],[113.95350158015722,-7.0408286329288305],[113.95350163734484,-7.0408376667830099],[113.9535106798145,-7.0408376096497589]]],[[[113.9529772311522,-7.0408500140717702],[113.95300435857465,-7.0408498427016024],[113.95300430139656,-7.0408408088433569],[113.9530223863441,-7.0408406945958557],[113.95302227198744,-7.0408226268796499],[113.95298610209342,-7.0408228553733636],[113.95298615927102,-7.0408318892317645],[113.95292286195235,-7.0408322890895718],[113.9529229191288,-7.040841322948487],[113.95288674923006,-7.0408415514351237],[113.95288680640589,-7.0408505852943311],[113.95296818867793,-7.040850071194809],[113.95296824585539,-7.0408591050533307],[113.95297728832985,-7.0408590479302173],[113.9529772311522,-7.0408500140717702]]],[[[113.95358296238008,-7.0408281187239679],[113.95358290519097,-7.0408190848704519],[113.95354673531558,-7.0408193134073933],[113.953546792504,-7.0408283472612059],[113.95358296238008,-7.0408281187239679]]],[[[113.9536281175335,-7.0408187991953515],[113.95362806034359,-7.0408097653421864],[113.95360997540715,-7.0408098796125991],[113.95361003259671,-7.0408189134659143],[113.9536281175335,-7.0408187991953515]]],[[[113.95365524493812,-7.0408186277882008],[113.95365518774769,-7.0408095939352551],[113.95364614527971,-7.0408096510710729],[113.95364620246997,-7.0408186849240932],[113.95365524493812,-7.0408186277882008]]],[[[113.95119563369251,-7.0408251284533483],[113.95119557654961,-7.0408160945803058],[113.95118653406139,-7.0408161516686389],[113.95118659120412,-7.0408251855417534],[113.95119563369251,-7.0408251284533483]]],[[[113.953745555231,-7.0407999887153219],[113.95370938536242,-7.0408002172642199],[113.95370944255382,-7.0408092511166922],[113.95374561242309,-7.0408090225674949],[113.953745555231,-7.0407999887153219]]],[[[113.95375459769794,-7.0407999315776593],[113.9537546548902,-7.0408089654297612],[113.95376369735725,-7.0408089082918517],[113.95376375454977,-7.0408179421439083],[113.95377279701692,-7.040817885005751],[113.95377273982423,-7.0408088511537681],[113.95379986722472,-7.0408086797384719],[113.95379981003155,-7.0407996458867412],[113.95375459769794,-7.0407999315776593]]],[[[113.95116822051594,-7.0407801303516377],[113.95116816337395,-7.0407710964783217],[113.95114103591098,-7.0407712677401166],[113.95114109305246,-7.0407803016136539],[113.95109588061176,-7.0407805870468634],[113.95109593775246,-7.0407896209207337],[113.95108689526393,-7.0407896780069255],[113.95108695240451,-7.0407987118808837],[113.95112312235888,-7.0407984835347701],[113.95112317950023,-7.0408075174084281],[113.95114126447733,-7.0408074032341776],[113.9511413216191,-7.0408164371076838],[113.9511503641077,-7.0408163800202219],[113.95115030696576,-7.0408073461467913],[113.95115934945412,-7.0408072890592317],[113.95115929231207,-7.0407982551858685],[113.95114120733562,-7.0407983693606688],[113.951141150194,-7.0407893354871547],[113.9511592351701,-7.0407892213125045],[113.95115917802819,-7.0407801874391511],[113.95116822051594,-7.0407801303516377]]],[[[113.95108689526393,-7.0407896780069255],[113.95108683812342,-7.0407806441329823],[113.95107779563497,-7.0407807012189263],[113.95107773849472,-7.0407716673448704],[113.95102348356357,-7.0407720098564326],[113.95102342642444,-7.0407629759819459],[113.95101438393583,-7.0407630330665221],[113.95101449821382,-7.0407811008156571],[113.95105971065787,-7.040780815390292],[113.95105976779784,-7.0407898492644589],[113.95108689526393,-7.0407896780069255]]],[[[113.95117720586147,-7.0407710393907079],[113.95117714871937,-7.040762005517478],[113.95116810623202,-7.040762062605018],[113.95116816337395,-7.0407710964783217],[113.95117720586147,-7.0407710393907079]]],[[[113.95116822051594,-7.0407801303516377],[113.95116827765801,-7.0407891642249174],[113.95117732014589,-7.0407891071371544],[113.95117737728822,-7.0407981410103728],[113.95118641977616,-7.0407980839223621],[113.95118630549123,-7.0407800161760878],[113.95120439046624,-7.0407799019998416],[113.95120433332355,-7.0407708681268213],[113.95121337581075,-7.0407708110385103],[113.95121349009656,-7.0407888787843644],[113.95124061755878,-7.0407887075179447],[113.95124056041531,-7.0407796736452566],[113.95123151792815,-7.0407797307341644],[113.95123146078494,-7.0407706968613661],[113.95124954575883,-7.0407705826835238],[113.95124948861535,-7.0407615488108855],[113.95118619120662,-7.0407619484297639],[113.95118624834889,-7.0407709823029201],[113.95117720586147,-7.0407710393907079],[113.95117726300363,-7.0407800732639494],[113.95116822051594,-7.0407801303516377]]],[[[113.95346200616646,-7.0407566092410709],[113.95349208019084,-7.0407564192276713],[113.95349202300409,-7.0407473853733826],[113.9534619489803,-7.0407475753865363],[113.95345585313127,-7.0407476139009839],[113.95345591031733,-7.0407566477555683],[113.95346200616646,-7.0407566092410709]]],[[[113.95096911435364,-7.0407542846118556],[113.95096917149164,-7.0407633184867899],[113.95098725646953,-7.0407632043192061],[113.95098719933117,-7.0407541704444201],[113.95096911435364,-7.0407542846118556]]],[[[113.95375459769794,-7.0407999315776593],[113.95375454050573,-7.0407908977255378],[113.95377262543907,-7.0407907834498413],[113.95377256824661,-7.0407817495978637],[113.95380873811165,-7.0407815210446758],[113.95380879530481,-7.0407905548963567],[113.95383592270336,-7.040790383479413],[113.95383597989712,-7.0407994173308701],[113.95385406482943,-7.0407993030518883],[113.95385395044127,-7.0407812353492689],[113.95384490797551,-7.040781292488699],[113.953844793588,-7.0407632247859322],[113.95380862372552,-7.0407634533413175],[113.95380850933972,-7.0407453856379103],[113.95379946687427,-7.0407454427761724],[113.95379940968165,-7.0407364089243973],[113.95375419735413,-7.0407366946127237],[113.95375425454588,-7.0407457284648709],[113.95374521207998,-7.0407457856020876],[113.95374526927162,-7.0407548194543033],[113.9537543117377,-7.0407547623170119],[113.9537544833136,-7.0407818638734128],[113.95374544084702,-7.0407819210109253],[113.953745555231,-7.0407999887153219],[113.95375459769794,-7.0407999315776593]]],[[[113.95096911435364,-7.0407542846118556],[113.9509690572157,-7.0407452507369168],[113.95096001472697,-7.0407453078203002],[113.95096007186474,-7.0407543416953127],[113.95096911435364,-7.0407542846118556]]],[[[113.95093283012321,-7.0407364451941792],[113.95093277298612,-7.0407274113189215],[113.95089660303101,-7.0407276396480256],[113.9508966601674,-7.0407366735235799],[113.95093283012321,-7.0407364451941792]]],[[[113.95086941842808,-7.0407187770172603],[113.95086947556388,-7.0407278108930242],[113.95088756054204,-7.0407276967298671],[113.95088750340589,-7.0407186628542489],[113.95086941842808,-7.0407187770172603]]],[[[113.95086941842808,-7.0407187770172603],[113.95086930415674,-7.0407007092657192],[113.95081504922359,-7.0407010517496778],[113.95081510635818,-7.0407100856258946],[113.95083319133656,-7.040709971465124],[113.95083324847158,-7.0407190053411881],[113.95086941842808,-7.0407187770172603]]],[[[113.95070642508441,-7.0406836689445544],[113.95070659648168,-7.0407107705758749],[113.95072468146186,-7.0407106564192876],[113.95072451006354,-7.0406835547884095],[113.95070642508441,-7.0406836689445544]]],[[[113.95070642508441,-7.0406836689445544],[113.95070636795214,-7.0406746350674387],[113.95069732546264,-7.0406746921451759],[113.95069738259474,-7.0406837260223627],[113.95070642508441,-7.0406836689445544]]],[[[113.94738782632938,-7.0407046047943718],[113.94738771219295,-7.0406865369858718],[113.94737866967606,-7.0406865939995651],[113.94737878381213,-7.0407046618082108],[113.94738782632938,-7.0407046047943718]]],[[[113.95081504922359,-7.0407010517496778],[113.95081499208906,-7.04069201787346],[113.9507969071111,-7.0406921320332367],[113.95079684997701,-7.0406830981568644],[113.95077876499909,-7.0406832123157965],[113.95077870786541,-7.0406741784392732],[113.95076966537653,-7.0406742355184049],[113.95076960824311,-7.0406652016417857],[113.95076056575432,-7.0406652587206704],[113.95076050862113,-7.0406562248440068],[113.95075146613243,-7.040656281922641],[113.95075140899951,-7.040647248045885],[113.95073332402224,-7.0406473622024812],[113.95073338115481,-7.0406563960793864],[113.9507152961769,-7.0406565102354355],[113.95071535330919,-7.0406655441124659],[113.95072439579836,-7.040665487034456],[113.9507244529309,-7.040674520911443],[113.95074253790938,-7.0406744067547518],[113.95074259504236,-7.040683440631569],[113.95075163753165,-7.0406833835528868],[113.95075169466487,-7.0406924174296295],[113.95078786462201,-7.0406921891128631],[113.950787921756,-7.0407012229893056],[113.95081504922359,-7.0407010517496778]]],[[[113.95065188448986,-7.040638842020968],[113.95065182735901,-7.0406298081433905],[113.95064278486994,-7.040629865219711],[113.95064284200062,-7.0406388990973641],[113.95065188448986,-7.040638842020968]]],[[[113.95067895482579,-7.0406296369133834],[113.95066991233693,-7.0406296939902271],[113.95067002659943,-7.0406477617450829],[113.95069715406679,-7.0406475905135855],[113.95069709693499,-7.0406385566363818],[113.95067901195716,-7.040638670790738],[113.95067895482579,-7.0406296369133834]]],[[[113.94752306458444,-7.0406405122438374],[113.94752312165485,-7.0406495461470087],[113.94753216416983,-7.040649489130824],[113.94753210709925,-7.0406404552277264],[113.94752306458444,-7.0406405122438374]]],[[[113.94749570876073,-7.0406045476775994],[113.94749570084312,-7.0406032943482426],[113.94748942811705,-7.0406045872785112],[113.94749570876073,-7.0406045476775994]]],[[[113.94752306458444,-7.0406405122438374],[113.94752300751411,-7.0406314783406962],[113.94751396499937,-7.0406315353565612],[113.94751390792929,-7.0406225014533232],[113.9475319929583,-7.0406223874215694],[113.94753182174743,-7.0405952857122971],[113.9475408642613,-7.0405952286963807],[113.94754080719098,-7.0405861947933328],[113.94755889221815,-7.0405860807611242],[113.94755877807705,-7.0405680129553465],[113.94756782059018,-7.0405679559391281],[113.94756778010048,-7.0405615466861793],[113.94751180000003,-7.0405999759999442],[113.94750473195808,-7.0406014328604556],[113.94750475127508,-7.0406044906623073],[113.94749570876073,-7.0406045476775994],[113.94749582289998,-7.0406226154843798],[113.94748678038522,-7.040622672499647],[113.94748683745479,-7.0406317064031052],[113.94749587996971,-7.0406316493877643],[113.94749593703953,-7.0406406832911266],[113.94748689452443,-7.0406407403065421],[113.94748695159414,-7.0406497742100091],[113.94751407913978,-7.0406496031630201],[113.94751402206954,-7.040640569259776],[113.94752306458444,-7.0406405122438374]]],[[[113.9503257264633,-7.0405415239785052],[113.95032578358712,-7.0405505578587855],[113.95033482607725,-7.0405505007892311],[113.95033476895325,-7.0405414669090245],[113.9503257264633,-7.0405415239785052]]],[[[113.9503257264633,-7.0405415239785052],[113.95032566933956,-7.0405324900982373],[113.95031662684968,-7.040532547167472],[113.95031656972618,-7.0405235132870922],[113.95030752723643,-7.0405235703560773],[113.95030764148315,-7.0405416381169426],[113.9503257264633,-7.0405415239785052]]],[[[113.94773041459244,-7.0405398279129123],[113.94773035751892,-7.0405307940114099],[113.9477122724967,-7.0405309080493561],[113.94771232956987,-7.040539941951006],[113.94773041459244,-7.0405398279129123]]],[[[113.94776652756242,-7.0405305659334276],[113.94776647048829,-7.0405215320322156],[113.94777551299882,-7.0405214750123584],[113.94777545592457,-7.0405124411112165],[113.9477573709038,-7.0405125551506096],[113.94775748505167,-7.0405306229531837],[113.94776652756242,-7.0405305659334276]]],[[[113.9477498501834,-7.0405035683128485],[113.94774826828787,-7.0405030983820964],[113.94774827131964,-7.0405035782686785],[113.9477498501834,-7.0405035683128485]]],[[[113.9505152759734,-7.0404861222103641],[113.95051521884645,-7.0404770883316115],[113.95049713387189,-7.0404772024763362],[113.95049719099849,-7.0404862363552372],[113.9505152759734,-7.0404861222103641]]],[[[113.94768172000011,-7.040483328999934],[113.94767789688649,-7.0404859534991635],[113.94768485960067,-7.0404859095955459],[113.94768491667296,-7.0404949434974382],[113.94766683165139,-7.0404950575330503],[113.94766688872339,-7.0405040914350856],[113.94769401625615,-7.0405039203811857],[113.94769407332876,-7.0405129542829954],[113.94770311583969,-7.0405128972646072],[113.94770305876692,-7.0405038633628703],[113.94771210127762,-7.0405038063443799],[113.94771202879187,-7.040492332780655],[113.94768172000011,-7.040483328999934]]],[[[113.95018946077657,-7.0404430073042636],[113.95018041828732,-7.0404430643701437],[113.95018053252781,-7.0404611321331325],[113.95021670248573,-7.0404609038679817],[113.95021675960677,-7.0404699377492008],[113.95024388707495,-7.0404697665482852],[113.9502439441966,-7.0404788004292618],[113.95026202917536,-7.0404786862942981],[113.95026208629743,-7.0404877201751237],[113.95028017127625,-7.0404876060393144],[113.95028022839874,-7.0404966399199891],[113.95029831337762,-7.0404965257833343],[113.95029837050053,-7.0405055596638562],[113.95032549796876,-7.0405053884573467],[113.95032555509229,-7.0405144223376421],[113.9503436400711,-7.0405143081989499],[113.95034369719505,-7.0405233420790942],[113.95037082466321,-7.0405231708695268],[113.95037088178775,-7.0405322047494616],[113.95037992427714,-7.0405321476791851],[113.95037998140195,-7.0405411815590071],[113.9503980663809,-7.04054106741778],[113.9503981235061,-7.0405501012974669],[113.95044333595304,-7.0405498159409783],[113.95044339307921,-7.0405588498202931],[113.9504614780578,-7.0405587356763313],[113.95046153518439,-7.0405677695554925],[113.95047057767376,-7.0405677124831767],[113.95047046342029,-7.0405496447249956],[113.9504614209313,-7.0405497017971648],[113.95046136380486,-7.0405406679179938],[113.95044327882695,-7.0405407820616617],[113.95044322170094,-7.0405317481823557],[113.95047939165572,-7.0405315198946194],[113.95047933452908,-7.0405224860155728],[113.95052454697002,-7.04052220065235],[113.95052448984258,-7.0405131667736862],[113.95054257481809,-7.0405130526273245],[113.95054251769038,-7.0405040187488028],[113.95053347520285,-7.0405040758219979],[113.95053341807539,-7.0404950419433989],[113.95047916314962,-7.0404953843784579],[113.95047910602329,-7.0404863504994113],[113.95047006353559,-7.0404864075712368],[113.9504700064095,-7.0404773736921138],[113.9504609639219,-7.0404774307636915],[113.95046090679605,-7.0404683968844877],[113.95044282182094,-7.0404685110269725],[113.95044293607199,-7.0404865787856696],[113.95043389358399,-7.040486635856797],[113.95043372220806,-7.0404595342185088],[113.95038850976947,-7.0404598195704287],[113.95038845264519,-7.0404507856906449],[113.95037941015741,-7.0404508427604329],[113.95037946728152,-7.0404598766402904],[113.9503704247935,-7.0404599337099771],[113.95037036766958,-7.0404508998300441],[113.9503432402056,-7.040451071037837],[113.950343297329,-7.0404601049179902],[113.95028904239797,-7.0404604473293126],[113.95028898527559,-7.0404514134487153],[113.95018951789694,-7.040452041185695],[113.95018946077657,-7.0404430073042636]]],[[[113.95009892164369,-7.0404255101908504],[113.95009886452527,-7.0404164763086516],[113.95007173705663,-7.0404166474998693],[113.95007179417452,-7.0404256813822919],[113.95009892164369,-7.0404255101908504]]],[[[113.94794669283536,-7.0404210187046132],[113.94794665835215,-7.0404155608296639],[113.94794437393716,-7.0404210333276813],[113.94794669283536,-7.0404210187046132]]],[[[113.94795567826554,-7.040411927782376],[113.9479555663923,-7.0403942209095742],[113.94794815511138,-7.040411975223738],[113.94795567826554,-7.040411927782376]]],[[[113.95002629614009,-7.0403807972839596],[113.94999012618213,-7.0403810255318087],[113.94999018329814,-7.0403900594148947],[113.94999922578792,-7.040390002353119],[113.94999928290419,-7.0403990362361268],[113.95001736788387,-7.0403989221119083],[113.95001742500057,-7.0404079559947643],[113.95004455247003,-7.0404077848069058],[113.95004460958732,-7.0404168186895193],[113.95006269456692,-7.0404167045632606],[113.95006263744929,-7.0404076706807954],[113.9500535949597,-7.0404077277439381],[113.95005353784231,-7.040398693861377],[113.95003545286323,-7.0403988079869908],[113.95003539574627,-7.0403897741042787],[113.9500263532568,-7.0403898311667499],[113.95002629614009,-7.0403807972839596]]],[[[113.94992671452346,-7.0403633571916133],[113.9499267716381,-7.040372391075242],[113.94994485661792,-7.0403722769542556],[113.94994497084812,-7.0403903447211542],[113.94997209831837,-7.0403901735379213],[113.94997192697161,-7.0403630718882066],[113.94992671452346,-7.0403633571916133]]],[[[113.94992671452346,-7.0403633571916133],[113.9499266002944,-7.040345289424379],[113.94991755780489,-7.040345346484389],[113.9499176149192,-7.0403543803680844],[113.94990857242946,-7.040354437427994],[113.94990862954367,-7.040363471311756],[113.94992671452346,-7.0403633571916133]]],[[[113.94796460661846,-7.0403938029604669],[113.94796449246481,-7.0403757351611711],[113.94797353497087,-7.0403756781386626],[113.94797338247115,-7.040351541069783],[113.94795571745955,-7.0403938590159338],[113.94796460661846,-7.0403938029604669]]],[[[113.94798240624593,-7.0403485194174493],[113.94798229050987,-7.0403302011501152],[113.94797462332845,-7.0403485684969018],[113.94798240624593,-7.0403485194174493]]],[[[113.94923902827207,-7.0402954221529352],[113.94923891407075,-7.0402773543743997],[113.94922082908303,-7.040277468466571],[113.94922094328366,-7.0402955362454023],[113.94923902827207,-7.0402954221529352]]],[[[113.94966391119549,-7.0402746730076764],[113.94966396830431,-7.0402837068934687],[113.94968205328502,-7.0402835927840686],[113.94968211039428,-7.0402926266697126],[113.94973636533561,-7.0402922843368856],[113.94973630822531,-7.0402832504516875],[113.94972726573546,-7.0402833075075204],[113.9497272086254,-7.0402742736222415],[113.94971816613565,-7.0402743306778266],[113.94971822324553,-7.0402833645631775],[113.94970013826543,-7.0402834786739721],[113.9497000811559,-7.0402744447884729],[113.94966391119549,-7.0402746730076764]]],[[[113.94918465910671,-7.0402776966488219],[113.94918460200719,-7.0402686627591056],[113.94917555951309,-7.0402687198041605],[113.94917561661242,-7.0402777536939487],[113.94918465910671,-7.0402776966488219]]],[[[113.94922065778263,-7.040250366798297],[113.94920257279566,-7.0402504808893278],[113.94920262989537,-7.0402595147788869],[113.94921167238907,-7.0402594577333852],[113.94921172948902,-7.0402684916229017],[113.94922077198281,-7.0402684345771513],[113.94922065778263,-7.040250366798297]]],[[[113.94904885039433,-7.0402514506349387],[113.94904879329766,-7.0402424167441042],[113.94903975080295,-7.0402424737863205],[113.94903980789944,-7.0402515076772296],[113.94904885039433,-7.0402514506349387]]],[[[113.94799127752054,-7.0403213606964714],[113.94799122044375,-7.0403123267970171],[113.94800026294838,-7.0403122697745024],[113.94800020587149,-7.0403032358751156],[113.94800924837588,-7.0403031788525006],[113.94800913422199,-7.0402851110538656],[113.94801817672594,-7.040285054031223],[113.94801800549516,-7.0402579523334632],[113.94802704799851,-7.0402578953108685],[113.94802693384466,-7.0402398275124902],[113.94801999740494,-7.0402398712540197],[113.94798596684873,-7.0403213941858125],[113.94799127752054,-7.0403213606964714]]],[[[113.94901256622251,-7.0402336110207875],[113.94901250912669,-7.0402245771296483],[113.94899442413731,-7.0402246912122175],[113.94899448123279,-7.0402337251035059],[113.94901256622251,-7.0402336110207875]]],[[[113.94814431513998,-7.0402119845100941],[113.94813527263845,-7.0402120415345859],[113.94813544387492,-7.0402391432295222],[113.94812640137282,-7.040239200254061],[113.94812662968847,-7.0402753358475501],[113.94811758718558,-7.0402753928722106],[113.94811770134349,-7.040293460669079],[113.94810865884021,-7.0402935176937138],[113.9481087159191,-7.040302551592216],[113.94811775842258,-7.0403024945675083],[113.94811781550173,-7.0403115284659323],[113.94810877299808,-7.0403115854907146],[113.94810883007713,-7.0403206193892096],[113.94809074506925,-7.0403207334383975],[113.94809085922688,-7.0403388012356691],[113.94808181672248,-7.0403388582601512],[113.94808187380123,-7.0403478921588549],[113.94807283129657,-7.0403479491832339],[113.94807288837522,-7.0403569830820087],[113.94806384587034,-7.0403570401062892],[113.94806390294889,-7.0403660740051333],[113.94805486044373,-7.0403661310293124],[113.94805497460072,-7.0403841988271543],[113.94806401710622,-7.0403841418028268],[113.948064074185,-7.0403931757016425],[113.94807311669059,-7.0403931186770672],[113.94807334500716,-7.0404292542720448],[113.94806430250087,-7.040429311296915],[113.94806441665924,-7.0404473790945534],[113.94807345916588,-7.0404473220695349],[113.94807357332492,-7.0404653898669922],[113.94808261583185,-7.0404653328416513],[113.94808267291165,-7.0404743667402849],[113.94809171541867,-7.0404743097146962],[113.94809177249873,-7.0404833436132837],[113.94810081500584,-7.0404832865874472],[113.94810087208614,-7.0404923204859404],[113.9481189571005,-7.0404922064335951],[113.94811907126203,-7.0405102742302752],[113.94812811376946,-7.0405102172036935],[113.94812805668847,-7.0405011833054294],[113.94813709919563,-7.0405011262787482],[113.94813715627679,-7.0405101601769378],[113.94815524129125,-7.0405100461229031],[113.94815535545449,-7.0405281139189757],[113.94817344046935,-7.0405279998639481],[113.94817349755141,-7.0405370337618312],[113.94820966758091,-7.0405368056493884],[113.94820972466376,-7.04054583954699],[113.94821876717114,-7.040545782518369],[113.9482187100881,-7.0405367486208439],[113.94829105014291,-7.0405362923861992],[113.94829093597431,-7.0405182245923497],[113.94828189346805,-7.0405182816221439],[113.9482817793001,-7.040500213828131],[113.94827273679414,-7.0405002708576019],[113.94827267971044,-7.0404912369605164],[113.94828172221622,-7.0404911799311192],[113.94828166513244,-7.0404821460341038],[113.94829975014345,-7.0404820319749355],[113.94829980722758,-7.0404910658718025],[113.94830884973317,-7.0404910088418822],[113.94830879264886,-7.040481974945088],[113.9483268776594,-7.0404818608848743],[113.94832682057481,-7.0404728269882071],[113.94830873556461,-7.0404729410482734],[113.94830862139636,-7.0404548732546832],[113.94832670640585,-7.0404547591949118],[113.94832664932149,-7.04044572529825],[113.94833569182597,-7.0404456682681769],[113.94833563474151,-7.0404366343715843],[113.94835371974987,-7.0404365203110624],[113.94835366266514,-7.0404274864145968],[113.94836270516903,-7.0404274293841489],[113.94836276225395,-7.0404364632805407],[113.94838084726186,-7.0404363492189734],[113.94838073309141,-7.0404182814265157],[113.9483626480842,-7.0404183954877873],[113.94836247683013,-7.0403912937986286],[113.94834439182367,-7.0403914078587597],[113.94834444890792,-7.0404004417552981],[113.9483263639008,-7.0404005558148803],[113.94832642098478,-7.0404095897115626],[113.94831737848095,-7.040409646741165],[113.94831743556483,-7.0404186806379183],[113.94830839306076,-7.0404187376674194],[113.9483085072284,-7.0404368054610593],[113.94829946472387,-7.0404368624905356],[113.94829963597539,-7.0404639641811864],[113.94827250845981,-7.0404641352692368],[113.94827245137643,-7.0404551013721344],[113.94820915383866,-7.040455500570963],[113.94820909675657,-7.0404464666733402],[113.94819101174546,-7.0404465807284318],[113.94819106882723,-7.040455614626203],[113.94817298381545,-7.0404557286807457],[113.94817292673405,-7.0404466947828279],[113.94815484172233,-7.0404468088365242],[113.94815478464135,-7.0404377749384546],[113.94814574213557,-7.040437831964967],[113.94814568505484,-7.0404287980668032],[113.94815472756046,-7.0404287410403636],[113.94815449923762,-7.0403926054480479],[113.94813641422769,-7.0403927195001597],[113.94813630006742,-7.0403746517036732],[113.94815438507663,-7.0403745376518554],[113.94815432799626,-7.0403655037537538],[113.94817241300484,-7.0403653897013863],[113.94817212760236,-7.0403202202115587],[113.94818117010566,-7.0403201631854833],[113.94818099886454,-7.0402930614917629],[113.94816291385889,-7.0402931755432956],[113.94816285677904,-7.0402841416452313],[113.94815381427628,-7.0402841986706637],[113.94815375719666,-7.040275164772523],[113.94814471469401,-7.0402752217977067],[113.94814431513998,-7.0402119845100941]],[[113.94810900131473,-7.040347721084669],[113.94811804381906,-7.0403476640595919],[113.94811798673963,-7.0403386301611821],[113.94813607174775,-7.0403385161106522],[113.94813618590743,-7.0403565839071707],[113.9481181008986,-7.0403566979579963],[113.9481181579782,-7.0403657318563972],[113.94810911547351,-7.0403657888816218],[113.94810900131473,-7.040347721084669]],[[113.94809114462225,-7.0403839707287998],[113.94810018712748,-7.0403839137037751],[113.94810013004808,-7.0403748798052179],[113.94810917255302,-7.0403748227800929],[113.94810922963259,-7.0403838566785772],[113.94811827213763,-7.0403837996532044],[113.94811838629735,-7.0404018674499609],[113.9481003012865,-7.0404019815008292],[113.94810024420694,-7.0403929476022959],[113.94809120170156,-7.0403930046273926],[113.94809114462225,-7.0403839707287998]]],[[[113.94966391119549,-7.0402746730076764],[113.94966385408672,-7.0402656391218779],[113.94970002404644,-7.0402654109029701],[113.94969996693706,-7.0402563770174469],[113.94973613689484,-7.0402561487960478],[113.94973607978484,-7.0402471149108496],[113.94971799480646,-7.0402472290217499],[113.94971793769689,-7.040238195136383],[113.94973602267493,-7.0402380810256293],[113.94973596556507,-7.0402290471404063],[113.94960032822497,-7.0402299029529463],[113.94960027111782,-7.0402208690666113],[113.94956410115829,-7.040221097276369],[113.94956404405191,-7.0402120633897178],[113.94953691658201,-7.0402122345449847],[113.94953685947621,-7.0402032006581408],[113.94950068951597,-7.0402034288624264],[113.94950063241096,-7.0401943949752654],[113.94943733497888,-7.0401947943255392],[113.94943727787516,-7.0401857604378577],[113.94939206542233,-7.0401860456824545],[113.94939212252517,-7.0401950795705073],[113.94941020750687,-7.0401949654730442],[113.94941026461015,-7.0402039993609433],[113.94942834959191,-7.0402038852626339],[113.9494284066956,-7.0402129191503651],[113.94943744918655,-7.0402128621008755],[113.94943739208267,-7.040203828213218],[113.9494826045354,-7.0402035429635239],[113.94948266164015,-7.0402125768508119],[113.94949170413065,-7.0402125198002761],[113.94949176123565,-7.0402215536875206],[113.94951888870719,-7.0402213825346456],[113.94951894581278,-7.0402304164216467],[113.94953703079379,-7.0402303023187107],[113.94953708789981,-7.0402393362055617],[113.94955517288088,-7.0402392221017811],[113.94955511577452,-7.0402301882150784],[113.94956415826475,-7.0402301311630016],[113.94956421537128,-7.0402391650496279],[113.94958230035191,-7.0402390509448027],[113.9495824145659,-7.040257118717733],[113.94959145705643,-7.0402570616649109],[113.94959151416371,-7.0402660955513205],[113.94962768412583,-7.0402658673379932],[113.94962762701785,-7.0402568334518776],[113.949636669508,-7.0402567763981843],[113.94963678372439,-7.0402748441702458],[113.94966391119549,-7.0402746730076764]]],[[[113.94861384006492,-7.0401006122632301],[113.94861372589097,-7.0400825444743234],[113.94860468339581,-7.0400826015068443],[113.94860479756943,-7.0401006692958976],[113.94861384006492,-7.0401006122632301]]],[[[113.94904885039433,-7.0402514506349387],[113.94904890749106,-7.0402604845257555],[113.94907603497575,-7.0402603133976154],[113.9490760920731,-7.0402693472882394],[113.94910321955763,-7.0402691761583087],[113.94910316245976,-7.0402601422679068],[113.94911220495428,-7.0402600852243218],[113.94911214785631,-7.0402510513340228],[113.94913927533892,-7.0402508802024437],[113.94913910404391,-7.0402237785321411],[113.94913006155031,-7.0402238355759508],[113.94913000445229,-7.0402148016857513],[113.9491209619588,-7.040214858729315],[113.94912090486103,-7.0402058248390702],[113.94910281987416,-7.0402059389255278],[113.94910276277682,-7.0401969050351143],[113.94908467778998,-7.0401970191207282],[113.94908462069307,-7.0401879852301619],[113.94905749321279,-7.0401881563570523],[113.94905743611648,-7.0401791224662604],[113.94904839362307,-7.0401791795081339],[113.94904833652701,-7.0401701456172825],[113.9490392940337,-7.040170202658909],[113.94903923693788,-7.0401611687679466],[113.94900306696464,-7.0401613969324099],[113.94900312405974,-7.040170430823669],[113.94899408156607,-7.0401704878644225],[113.94899413866108,-7.0401795217557179],[113.94897605367316,-7.0401796358368509],[113.9489759394839,-7.0401615680539278],[113.94896689699014,-7.0401616250940853],[113.94896678280153,-7.0401435573109978],[113.94894869781454,-7.0401436713904948],[113.9489486407207,-7.0401346374987996],[113.94893055573378,-7.0401347515774502],[113.94893049864035,-7.0401257176856005],[113.94887624367877,-7.0401260599169282],[113.94887618658647,-7.0401170260246326],[113.9488671440928,-7.0401170830625022],[113.94886708700075,-7.0401080491701284],[113.94885804450715,-7.0401081062077511],[113.94885798741534,-7.0400990723152992],[113.94882181744096,-7.0400993004637504],[113.94882176034994,-7.0400902665709992],[113.94876750538715,-7.0400906087880042],[113.94876744829726,-7.0400815748948062],[113.94875840580336,-7.0400816319302892],[113.9487583487137,-7.0400725980370122],[113.94873122123211,-7.0400727691421965],[113.94873133541046,-7.0400908369291901],[113.94874942039895,-7.0400907228589462],[113.94874947748859,-7.0400997567522881],[113.94876756247714,-7.0400996426811995],[113.94876779083783,-7.0401357782539389],[113.94875874834288,-7.040135835289866],[113.94875880543307,-7.0401448691831154],[113.94874976293789,-7.0401449262189422],[113.94874982002797,-7.0401539601122609],[113.94876790501863,-7.0401538460402859],[113.94876796210913,-7.0401628799334528],[113.94879508959505,-7.0401627088239618],[113.94879514668615,-7.0401717427169199],[113.94880418918147,-7.0401716856799998],[113.94880413209019,-7.0401626517871145],[113.94881317458528,-7.040162594750095],[113.94881323167674,-7.0401716286429048],[113.948849401657,-7.0401714004927873],[113.94884945874922,-7.0401804343852641],[113.94892179870756,-7.0401799780760674],[113.94892174161393,-7.0401709441841813],[113.94893078410823,-7.0401708871448223],[113.94893084120203,-7.0401799210366338],[113.94894892619068,-7.0401798069572443],[113.94894898328491,-7.0401888408489208],[113.94896706827365,-7.0401887267686849],[113.94896718246302,-7.0402067945517333],[113.94897622495763,-7.0402067375112063],[113.9489762820526,-7.0402157714026332],[113.94898532454731,-7.0402157143618576],[113.94898526745214,-7.0402066804705052],[113.9489943099466,-7.0402066234296292],[113.94899419575617,-7.0401885556470258],[113.94901228074416,-7.0401884415650473],[113.94901233783968,-7.0401974754562024],[113.94902138033373,-7.0401974184148797],[113.94902143742952,-7.0402064523059575],[113.94903047992366,-7.0402063952643843],[113.94903053701968,-7.0402154291553689],[113.94905766450219,-7.0402152580293818],[113.94905772159881,-7.0402242919201736],[113.949066764093,-7.0402242348777557],[113.94906687828681,-7.0402423026591467],[113.94905783579227,-7.0402423597017121],[113.9490578928891,-7.0402513935924746],[113.94904885039433,-7.0402514506349387]]],[[[113.94928287032461,-7.0400783235841393],[113.94928281322483,-7.0400692896951487],[113.94927377073539,-7.0400693467404922],[113.94927382783499,-7.0400783806295566],[113.94928287032461,-7.0400783235841393]]],[[[113.94909286383498,-7.0400614537202308],[113.94909292093101,-7.0400704876107767],[113.94910196342195,-7.0400704305689183],[113.94910190632572,-7.0400613966784462],[113.94909286383498,-7.0400614537202308]]],[[[113.94912004840359,-7.0400703164846794],[113.94911999130703,-7.0400612825943547],[113.94911094881641,-7.0400613396364866],[113.9491110059128,-7.0400703735268859],[113.94912004840359,-7.0400703164846794]]],[[[113.95383117588287,-7.0400405737948661],[113.95383111869543,-7.0400315399430795],[113.95382207624397,-7.0400315970760161],[113.95382213343125,-7.0400406309278765],[113.95383117588287,-7.0400405737948661]]],[[[113.94868595167311,-7.0400640204201439],[113.9486860087613,-7.0400730543140169],[113.94865888127792,-7.040073225415016],[113.94865876710266,-7.0400551576268082],[113.94864972460837,-7.0400552146599793],[113.94864978169581,-7.0400642485541676],[113.94864073920129,-7.0400643055872365],[113.9486407962886,-7.0400733394814781],[113.94863175379385,-7.0400733965144475],[113.94863186796836,-7.0400914643030665],[113.94862282547317,-7.0400915213360094],[113.94862288256036,-7.0401005552303868],[113.94863192505574,-7.0401004981973694],[113.94863203923069,-7.0401185659859644],[113.94866820921276,-7.0401183378515624],[113.94866843756637,-7.0401544734275223],[113.94868652255838,-7.0401543593586844],[113.94868657964732,-7.0401633932525174],[113.94870466463935,-7.0401632791828339],[113.94870460755007,-7.0401542452891492],[113.94871365004579,-7.0401541882541201],[113.94871359295641,-7.0401451543605056],[113.94872263545189,-7.0401450973253761],[113.94872235000521,-7.0400999278576135],[113.94871330751059,-7.0400999848923735],[113.94871319333279,-7.040081917105093],[113.94870415083847,-7.0400819741395315],[113.94870409374985,-7.0400729402458113],[113.94869505125561,-7.0400729972800002],[113.94869499416724,-7.0400639633862019],[113.94868595167311,-7.0400640204201439]]],[[[113.94868595167311,-7.0400640204201439],[113.948685894585,-7.0400549865262514],[113.94867685209097,-7.0400550435599447],[113.94867690917891,-7.0400640774539109],[113.94868595167311,-7.0400640204201439]]],[[[113.94921940160035,-7.0400516212298543],[113.94920131662106,-7.0400517353176335],[113.94920137371911,-7.0400607692073134],[113.94921041620898,-7.0400607121634371],[113.94921047330729,-7.0400697460530219],[113.94921951579722,-7.0400696890088978],[113.9492195728958,-7.0400787228984063],[113.94921053040567,-7.0400787799426032],[113.94921064460264,-7.0400968477217551],[113.94920160211208,-7.0400969047659263],[113.94920143081724,-7.0400698030969728],[113.94918334583697,-7.0400699171843488],[113.94918340293482,-7.0400789510741522],[113.94917436044439,-7.0400790081176536],[113.94917430334669,-7.0400699742277784],[113.94915621836596,-7.0400700883141072],[113.94915616126869,-7.0400610544240783],[113.94913807628802,-7.0400611685095651],[113.94913819048192,-7.0400792362899143],[113.94914723297265,-7.04007917924711],[113.94914729006987,-7.0400882131372056],[113.94918346003277,-7.0400879849639519],[113.94918351713078,-7.0400970188537464],[113.94919255962147,-7.0400969618099234],[113.94919261671973,-7.0401059956996415],[113.94921974419191,-7.040105824566905],[113.94921980129077,-7.0401148584563975],[113.94922884378154,-7.0401148014117281],[113.94922890088064,-7.0401238353011415],[113.94923794337149,-7.0401237782562252],[113.94923800047083,-7.0401328121455604],[113.94924704296179,-7.0401327551003972],[113.94924710006138,-7.040141788989656],[113.94927422753432,-7.0401416178528944],[113.94927417043418,-7.0401325839638575],[113.94926512794346,-7.0401326410095448],[113.94926507084359,-7.0401236071204325],[113.94925602835298,-7.0401236641658702],[113.94925597125334,-7.0401146302766779],[113.9492469287628,-7.0401146873218705],[113.94924687166342,-7.0401056534326001],[113.94925591415378,-7.0401055963874821],[113.94925574285557,-7.0400784947198698],[113.94926478534532,-7.0400784376748016],[113.94926472824589,-7.0400694037856635],[113.94925568575631,-7.0400694608306589],[113.94925562865714,-7.0400604269414426],[113.94921945869875,-7.0400606551193867],[113.94921940160035,-7.0400516212298543]],[[113.94922867248467,-7.0400876997434638],[113.94924675746489,-7.0400875856540468],[113.94924681456412,-7.0400966195433252],[113.94922872958354,-7.0400967336328897],[113.94922867248467,-7.0400876997434638]]],[[[113.94925551445901,-7.0400423591629986],[113.94925545736005,-7.0400333252737717],[113.94922832989296,-7.0400334964068261],[113.94922838699139,-7.040042530296275],[113.94925551445901,-7.0400423591629986]]],[[[113.94915598997737,-7.0400339527539701],[113.94915593288042,-7.0400249188639252],[113.94913784790113,-7.0400250329488205],[113.94913790499774,-7.040034066839012],[113.94915598997737,-7.0400339527539701]]],[[[113.94909286383498,-7.0400614537202308],[113.94909280673902,-7.0400524198296637],[113.94908376424834,-7.0400524768711996],[113.94908365005699,-7.0400344090899569],[113.94907460756662,-7.0400344661311713],[113.94907455047124,-7.0400254322404621],[113.94903838050962,-7.0400256604032805],[113.94903832341501,-7.040016626512271],[113.94902928092461,-7.0400166835524658],[113.94902939511357,-7.0400347513346286],[113.94904748009502,-7.0400346372537692],[113.94904753718995,-7.040043671144697],[113.94906562217143,-7.0400435570629911],[113.94906567926681,-7.0400525909537501],[113.94907472175763,-7.0400525339125615],[113.94907477885323,-7.0400615678032761],[113.94909286383498,-7.0400614537202308]]],[[[113.94921923030557,-7.0400245195613014],[113.94921917320747,-7.0400154856717725],[113.94920108822959,-7.0400155997589584],[113.94920114532734,-7.0400246336486374],[113.94921923030557,-7.0400245195613014]]],[[[113.94902018133993,-7.0400077067013083],[113.94894784141471,-7.0400081630146074],[113.9489478985075,-7.0400171969063789],[113.9489659834896,-7.0400170828289506],[113.94896604058283,-7.0400261167205507],[113.94898412556499,-7.0400260026422785],[113.94898406847142,-7.0400169687508258],[113.94899311096219,-7.0400169117115041],[113.94899316805594,-7.0400259456028813],[113.94902029552838,-7.0400257744836434],[113.94902018133993,-7.0400077067013083]]],[[[113.94906545088578,-7.0400164553906412],[113.94906539379072,-7.0400074214998316],[113.94905635130071,-7.0400074785404758],[113.94905640839561,-7.0400165124313583],[113.94906545088578,-7.0400164553906412]]],[[[113.94839447981742,-7.0397315912507281],[113.94838543732725,-7.0397316482761845],[113.94838549440691,-7.0397406821726403],[113.94839453689725,-7.0397406251471102],[113.94839447981742,-7.0397315912507281]]],[[[113.94839447981742,-7.0397315912507281],[113.9484035223075,-7.0397315342250977],[113.94840346522757,-7.0397225003287858],[113.94839442273766,-7.0397225573543425],[113.94839447981742,-7.0397315912507281]]],[[[113.94851140428459,-7.0396314770540442],[113.94851134720341,-7.0396224431585743],[113.9485023047163,-7.03962250018541],[113.94850236179732,-7.0396315340809528],[113.94851140428459,-7.0396314770540442]]],[[[113.96541389291191,-7.038449514762946],[113.96541383551352,-7.0384404810055674],[113.9653957508624,-7.0384405956931548],[113.96539580826045,-7.0384496294506818],[113.96541389291191,-7.038449514762946]]],[[[113.96542282044045,-7.0384313899042219],[113.96542276304204,-7.0384223561469286],[113.96541372071695,-7.0384224134908342],[113.96541377811519,-7.038431447248203],[113.96542282044045,-7.0384313899042219]]],[[[113.96546791726715,-7.0384130356678565],[113.96546780246895,-7.038394968153991],[113.96545876014477,-7.038395025498545],[113.96545887494261,-7.0384130930125606],[113.96546791726715,-7.0384130356678565]]],[[[113.96549504424031,-7.0384128636327006],[113.96549498684065,-7.0384038298759934],[113.96550402916472,-7.0384037725306676],[113.96550391436529,-7.0383857050173892],[113.96551295668891,-7.0383856476720368],[113.96551284188942,-7.0383675801588916],[113.96553092653579,-7.0383674654679638],[113.96553081173589,-7.0383493979551002],[113.9655036847673,-7.0383495699907854],[113.96550374216669,-7.0383586037474419],[113.96549469984348,-7.0383586610923974],[113.96549475724275,-7.0383676948491232],[113.96548571491932,-7.0383677521939783],[113.96548600191602,-7.0384129209779269],[113.96549504424031,-7.0384128636327006]]],[[[113.96555782390317,-7.0383311584053967],[113.9655576517028,-7.0383040571367319],[113.9655486093811,-7.0383041144822878],[113.96554866678099,-7.0383131482385917],[113.96553962445904,-7.0383132055840445],[113.96553968185881,-7.0383222393404203],[113.96553063953662,-7.0383222966857737],[113.96553069693631,-7.0383313304422037],[113.96555782390317,-7.0383311584053967]]],[[[113.96563863078541,-7.0382403047298814],[113.96563857338438,-7.0382312709742711],[113.96562953106476,-7.0382313283207996],[113.96562958846559,-7.0382403620764835],[113.96563863078541,-7.0382403047298814]]]]},"properties":{"FID":0,"Shape_Leng":18102566.929299999,"Shape_Area":236516885.403}}]
}