{
  "type" : "FeatureCollection",
  "features" : [{"type":"Feature","id":0,"geometry":{"type":"MultiPolygon","coordinates":[[[[114.01375316928369,-6.8981353729240773],[114.01375294064816,-6.8980992392835434],[114.01372582294071,-6.8980994106484461],[114.01372605157418,-6.8981355442898868],[114.01375316928369,-6.8981353729240773]]],[[[114.01368886579844,-6.8979731713828372],[114.01368880864202,-6.897964137972127],[114.01367976940831,-6.8979641950916042],[114.01367982656457,-6.8979732285023898],[114.01368886579844,-6.8979731713828372]]],[[[114.01371592634271,-6.897963966612668],[114.0137249655761,-6.8979639094925087],[114.01372485126214,-6.897945842671632],[114.01373389049512,-6.8979457855514532],[114.0137337761811,-6.8979277187307284],[114.01371569771575,-6.8979278329706162],[114.01371575487238,-6.8979368663811309],[114.01370671563939,-6.897936923500894],[114.01370688710922,-6.8979640237326585],[114.01369784787568,-6.8979640808524785],[114.01369836228774,-6.8980453815481777],[114.01368028381732,-6.8980454957886623],[114.01368039813127,-6.8980635626101918],[114.01367135889561,-6.8980636197303289],[114.01367141605255,-6.8980726531411642],[114.01366237681661,-6.8980727102612054],[114.01366254828733,-6.8980998104939113],[114.01365350905083,-6.8980998676140111],[114.01365379483603,-6.8981450346688211],[114.01366283407339,-6.8981449775483457],[114.01366271975873,-6.8981269107265835],[114.01369887670604,-6.8981266822435785],[114.01369881954815,-6.8981176488329936],[114.0137078587846,-6.8981175917118911],[114.0137077444687,-6.8980995248908625],[114.01371678370477,-6.8980994677697387],[114.01371672654676,-6.8980904343592933],[114.01370768731087,-6.8980904914803407],[114.01370763015311,-6.8980814580698162],[114.01374378709546,-6.898081229584907],[114.01374367277882,-6.8980631627644504],[114.01373463354366,-6.8980632198857812],[114.01373429059657,-6.8980090194238821],[114.01372525136239,-6.8980090765445912],[114.01372513704764,-6.8979910097237527],[114.01371609781374,-6.8979910668441411],[114.01371592634271,-6.897963966612668]]],[[[114.01376009368191,-6.8978010796272988],[114.01375105445187,-6.897801136746784],[114.01375122592081,-6.8978282369775572],[114.01374218669021,-6.8978282940970974],[114.01374235815933,-6.8978553943280794],[114.01373331892812,-6.8978554514476755],[114.0137334903974,-6.8978825516788493],[114.01374252962914,-6.8978824945590267],[114.01374247247246,-6.8978734611487145],[114.01375151170392,-6.8978734040287968],[114.01375139739045,-6.8978553372083136],[114.01376043662151,-6.8978552800883755],[114.01376009368191,-6.8978010796272988]]],[[[114.01385037166192,-6.8977824416041669],[114.01385031450404,-6.897773408194718],[114.01384127527531,-6.8977734653156837],[114.01384133243302,-6.8977824987252063],[114.01385037166192,-6.8977824416041669]]],[[[114.01385889647104,-6.8977010837984585],[114.01385878215638,-6.8976830169796219],[114.01384974292941,-6.8976830741000006],[114.01384985724371,-6.8977011409189899],[114.01385889647104,-6.8977010837984585]]],[[[114.01376009368191,-6.8978010796272988],[114.01376913291185,-6.8978010225076449],[114.01376901859892,-6.8977829556873838],[114.01377805782845,-6.8977828985677085],[114.01377760057845,-6.897710631287179],[114.01378663980654,-6.8977105741679372],[114.01378652549447,-6.8976925073479176],[114.01380460394974,-6.8976923931092236],[114.01380448963728,-6.8976743262894908],[114.01381352886445,-6.8976742691700395],[114.01381347170816,-6.8976652357602433],[114.01380443248118,-6.8976652928796183],[114.01380437532514,-6.8976562594697421],[114.01381341455196,-6.8976562023504417],[114.01381335739583,-6.8976471689406367],[114.01382239662242,-6.8976471118212421],[114.01382233946617,-6.8976380784114912],[114.01381330023978,-6.8976381355308112],[114.01381312877207,-6.8976110353013782],[114.01382216799797,-6.897610978182283],[114.01382199653045,-6.8975838779530267],[114.01383103575579,-6.8975838208339892],[114.01383092144414,-6.8975657540146136],[114.01381284299411,-6.8975658682522161],[114.01381290014956,-6.8975749016620576],[114.01380386092427,-6.8975749587806785],[114.01380397523504,-6.8975930256005151],[114.01379493600932,-6.8975930827191165],[114.01379505032004,-6.8976111495390526],[114.01378601109391,-6.8976112066576345],[114.01378612540462,-6.8976292734777251],[114.01377708617805,-6.8976293305962857],[114.0137772004887,-6.8976473974165122],[114.01376687085134,-6.897647462689096],[114.01375923232736,-6.8976649434848305],[114.01375940781101,-6.8976926787046748],[114.0137684470389,-6.8976926215859278],[114.01376856135029,-6.8977106884062493],[114.01375952212206,-6.8977107455251492],[114.01375963643342,-6.8977288123456058],[114.01376867566199,-6.8977287552265558],[114.01376878997399,-6.8977468220468481],[114.01375975074508,-6.8977468791660481],[114.01375986505705,-6.8977649459864763],[114.0137508258277,-6.8977650031056585],[114.01375088298363,-6.8977740365159406],[114.01375992221315,-6.8977739793966828],[114.01376009368191,-6.8978010796272988]],[[114.01379545041002,-6.8976743834087717],[114.01378641118269,-6.8976744405278811],[114.01378635402693,-6.8976654071178576],[114.01379539325407,-6.8976653499988236],[114.01379545041002,-6.8976743834087717]]],[[[114.01382176790817,-6.8975477443139779],[114.01382182506362,-6.8975567777237341],[114.01383086428844,-6.8975567206049204],[114.01383080713281,-6.8975476871952424],[114.01382176790817,-6.8975477443139779]]],[[[114.01382176790817,-6.8975477443139779],[114.01382171075279,-6.8975387109041852],[114.01381437147811,-6.897538757280774],[114.0138126957245,-6.8975425922512734],[114.01381272868348,-6.8975478014325429],[114.01382176790817,-6.8975477443139779]]],[[[114.01384882842592,-6.8975385395476927],[114.01384877127012,-6.8975295061381399],[114.01383973204599,-6.8975295632570655],[114.01383978920164,-6.8975385966666947],[114.01384882842592,-6.8975385395476927]]],[[[114.01389385307652,-6.8975111537225855],[114.01389379592008,-6.8975021203133995],[114.01388475669685,-6.8975021774329512],[114.01388481385312,-6.8975112108422136],[114.01389385307652,-6.8975111537225855]]],[[[114.01388452807255,-6.8974660437958608],[114.01388464238455,-6.897484110614414],[114.01389368160744,-6.8974840534950115],[114.0138935672951,-6.8974659866766102],[114.01388452807255,-6.8974660437958608]]],[[[114.01388452807255,-6.8974660437958608],[114.01388447091666,-6.897457010386578],[114.01386639247166,-6.8974571246244167],[114.0138662781608,-6.8974390578055385],[114.01385791370791,-6.8974391106602138],[114.01385724854288,-6.897440632894063],[114.01385746755987,-6.8974752485620776],[114.01387554600572,-6.8974751343242779],[114.01387548884993,-6.8974661009149392],[114.01388452807255,-6.8974660437958608]]],[[[114.01399248431952,-6.8973840576780745],[114.01399242716226,-6.897375024269647],[114.01398338794225,-6.8973750813900194],[114.01398344509931,-6.8973841147985233],[114.01399248431952,-6.8973840576780745]]],[[[114.01401868746466,-6.8972393517842665],[114.01402772668179,-6.8972392946643426],[114.01402766952508,-6.8972302612561718],[114.01401863030812,-6.8972303183760193],[114.01401868746466,-6.8972393517842665]]],[[[114.01403659442846,-6.8972121373199489],[114.01403653727182,-6.897203103911842],[114.01402749805544,-6.8972031610316344],[114.0140275552119,-6.8972121944398168],[114.01403659442846,-6.8972121373199489]]],[[[114.01404431905763,-6.8970043118141939],[114.01404426190257,-6.8969952784060728],[114.01402618347775,-6.8969953926423546],[114.01402624063246,-6.8970044260506267],[114.01401720141976,-6.8970044831685868],[114.01401714426524,-6.8969954497602384],[114.01401647307679,-6.8969954540014049],[114.01400833367057,-6.8970316405116225],[114.01400844797999,-6.8970497073284349],[114.01400426044985,-6.8970497337890899],[114.01400018957419,-6.8970678270518277],[114.01400856228972,-6.8970677741452304],[114.01400850513481,-6.8970587407368171],[114.0140175443486,-6.8970586836185745],[114.01401748719361,-6.8970496502102661],[114.01402652640715,-6.8970495930919293],[114.01402641209704,-6.8970315262754198],[114.01401737288384,-6.8970315833936064],[114.01401731572906,-6.8970225499852713],[114.0140263549421,-6.8970224928671602],[114.01402629778724,-6.8970134594588783],[114.01403533700004,-6.8970134023406722],[114.01403527984509,-6.8970043689324951],[114.01404431905763,-6.8970043118141939]]],[[[114.01416160018508,-6.8969674356321775],[114.01416154302811,-6.8969584022250068],[114.01415250381743,-6.8969584593451483],[114.01415256097422,-6.8969674927523963],[114.01416160018508,-6.8969674356321775]]],[[[114.0141793356639,-6.8969131209491303],[114.01417927850706,-6.8969040875421026],[114.01417023929754,-6.8969041446621331],[114.01417029645421,-6.8969131780692363],[114.0141793356639,-6.8969131209491303]]],[[[114.01411588972778,-6.8968864205636127],[114.01410685051808,-6.8968864776822967],[114.0141069648288,-6.8969045444975716],[114.01409792561866,-6.8969046016162379],[114.0140977541532,-6.8968775013930932],[114.01408871494351,-6.8968775585113606],[114.01408854347925,-6.8968504582879397],[114.01407950427,-6.8968505154058102],[114.01407956142451,-6.8968595488137083],[114.01407052221499,-6.8968596059314846],[114.0140705793694,-6.8968686393394378],[114.01406154015966,-6.8968686964571191],[114.01406159731398,-6.8968777298651434],[114.0140706365239,-6.8968776727473866],[114.01407069367846,-6.8968867061553327],[114.01406165446838,-6.8968867632731641],[114.01406182593202,-6.8969138634972023],[114.01407086514261,-6.8969138063791444],[114.01407080798782,-6.8969047729712107],[114.01407984719819,-6.896904715853057],[114.0140797900433,-6.8968956824451944],[114.0140888292534,-6.8968956253269456],[114.01408888640846,-6.8969046587347327],[114.01407984719819,-6.896904715853057],[114.0140799615082,-6.8969227826687689],[114.01407092229749,-6.8969228397870737],[114.01407097945244,-6.8969318731949993],[114.01408001866332,-6.8969318160766191],[114.01408007581851,-6.8969408494844657],[114.01407103660746,-6.8969409066029206],[114.01407097945244,-6.8969318731949993],[114.0140619402415,-6.8969319303132091],[114.01406205455129,-6.8969499971291999],[114.01407109376257,-6.8969499400108383],[114.01407132238374,-6.8969860736424726],[114.01405324395971,-6.8969861878796266],[114.01405335827009,-6.8970042546957222],[114.01404431905763,-6.8970043118141939],[114.01404466198953,-6.8970585122628236],[114.0140175443486,-6.8970586836185745],[114.01401760150368,-6.8970677170269123],[114.01400856228972,-6.8970677741452304],[114.01400861944471,-6.8970768075536224],[114.01401765865883,-6.8970767504352288],[114.01401771581406,-6.8970857838435418],[114.01400867659976,-6.8970858409620108],[114.01400861944471,-6.8970768075536224],[114.01399958023048,-6.8970768646718454],[114.01399969454033,-6.8970949314887697],[114.01399408326058,-6.8970949669460975],[114.01399204782271,-6.8971040135775645],[114.0140087909101,-6.8971039077787761],[114.01400890522075,-6.8971219745955255],[114.01399082679053,-6.897122088832556],[114.01399074895272,-6.8971097864867019],[114.01398187063322,-6.8971492467352302],[114.01399099825605,-6.897149189058104],[114.01399088394562,-6.8971311222410758],[114.0140089623762,-6.8971310080038934],[114.0140090766873,-6.8971490748206206],[114.0140000374717,-6.8971491319394476],[114.01400009462721,-6.8971581653478804],[114.01398201619546,-6.8971582795851738],[114.0139820733507,-6.8971673129937532],[114.01397666491752,-6.8971673471694599],[114.01397308581357,-6.8971755380170334],[114.01397314844492,-6.8971854369295187],[114.01396874819723,-6.8971854647345285],[114.01396417525744,-6.8971959299939209],[114.01396422353868,-6.8972035608654005],[114.01396083147657,-6.8972035822997144],[114.01395526470084,-6.8972163219710092],[114.01395529863196,-6.8972216848013792],[114.01395291475556,-6.8972216998650033],[114.01394499803419,-6.8972398174304441],[114.01395541294255,-6.897239751618951],[114.01395547009795,-6.8972487850277222],[114.01394103967337,-6.8972488762131992],[114.01393744358627,-6.8972571059256014],[114.01393744881719,-6.897257932673738],[114.01394648803536,-6.8972578755551996],[114.01394654519076,-6.8972669089640215],[114.01395558440902,-6.8972668518452371],[114.01395564156465,-6.8972758852540137],[114.01394660234622,-6.8972759423728736],[114.01394654519076,-6.8972669089640215],[114.01393750597241,-6.8972669660826353],[114.01393756312771,-6.897275999491562],[114.01392916459037,-6.8972760525616446],[114.01392853302832,-6.8972774979030884],[114.01392863821962,-6.8972941234280434],[114.01393767743855,-6.8972940663093727],[114.01393773459408,-6.8973030997182727],[114.01392869537497,-6.897303156837018],[114.01392875253042,-6.8973121902459882],[114.01391971331108,-6.8973122473646384],[114.01391988477734,-6.8973393475917542],[114.01391084555739,-6.8973394047104604],[114.01391090271278,-6.8973484381195664],[114.01391994193291,-6.8973483810007856],[114.01392011340009,-6.8973754812278543],[114.01392915262062,-6.8973754241086755],[114.01392920977668,-6.8973844575176324],[114.01396536665875,-6.8973842290389094],[114.01396530950203,-6.8973751956302545],[114.01395627028178,-6.8973752527501162],[114.0139562131253,-6.8973662193413992],[114.01396525234537,-6.8973661622216138],[114.01396519518879,-6.8973571288129669],[114.01397423440859,-6.8973570716930857],[114.01397412009533,-6.8973390048759349],[114.01396508087586,-6.8973390619956643],[114.01396502371952,-6.8973300285870076],[114.01397406293881,-6.8973299714673537],[114.01397412009533,-6.8973390048759349],[114.01398315931472,-6.8973389477560332],[114.01398310215802,-6.8973299143475284],[114.01399214137719,-6.8973298572275326],[114.0139920842204,-6.8973208238190979],[114.0140011234393,-6.8973207666990071],[114.01400100912562,-6.8973026998822782],[114.0140100483441,-6.897302642762166],[114.01400970540388,-6.8972484423123372],[114.01401874462127,-6.8972483851925093],[114.01401868746466,-6.8972393517842665],[114.01400964824744,-6.8972394089040181],[114.01400953393481,-6.8972213420873532],[114.01401857315167,-6.8972212849677517],[114.01401851599529,-6.8972122515595142],[114.0140004375618,-6.8972123657983957],[114.01400038040585,-6.897203332389986],[114.01399134118918,-6.8972033895090954],[114.01399128403347,-6.8971943561006066],[114.01400032324997,-6.8971942989815727],[114.01400026609416,-6.8971852655731549],[114.01400930531044,-6.8971852084540268],[114.01400936246641,-6.8971942418623682],[114.01401840168276,-6.8971941847429932],[114.01401834452662,-6.8971851513347255],[114.01402738374273,-6.8971850942152555],[114.01402726943031,-6.8971670273988641],[114.01401823021456,-6.8971670845181823],[114.01401817305864,-6.8971580511099049],[114.01402721227423,-6.8971579939906604],[114.01402715511823,-6.897148960582455],[114.01403619433358,-6.8971489034631155],[114.01403608002144,-6.8971308366468422],[114.01404511923637,-6.8971307795274841],[114.0140450049242,-6.897112712711345],[114.01405404413872,-6.8971126555919682],[114.01405398698256,-6.897103622183967],[114.01406302619685,-6.8971035650644943],[114.01406296904061,-6.8970945316565677],[114.01407200825462,-6.8970944745369991],[114.01407183678587,-6.8970673743134201],[114.01408087599931,-6.8970673171939065],[114.01408081884304,-6.8970582837860981],[114.01408985805621,-6.8970582266664904],[114.01408980089985,-6.8970491932587858],[114.01408076168686,-6.897049250378319],[114.01408070453073,-6.8970402169705194],[114.01409878295632,-6.8970401027314345],[114.01409866864364,-6.8970220359161249],[114.01411674706826,-6.89702192167666],[114.01411663275519,-6.8970038548616373],[114.01410759354329,-6.8970039119813054],[114.01410747923086,-6.8969858451661157],[114.01411651844245,-6.8969857880465995],[114.01411646128618,-6.8969767546390743],[114.01412550049754,-6.896976697519464],[114.01412561481048,-6.8969947643343579],[114.01413465402207,-6.896994707214426],[114.01413453970879,-6.8969766403996822],[114.01414357891997,-6.896976583279729],[114.01414346460665,-6.8969585164651201],[114.0141253861849,-6.8969586307045523],[114.01412532902869,-6.896949597297092],[114.01414340745009,-6.8969494830578109],[114.01414335029364,-6.8969404496504971],[114.01416142871442,-6.8969403354106849],[114.01416137155769,-6.8969313020035186],[114.01415233234751,-6.8969313591234345],[114.01415221803461,-6.8969132923089367],[114.01416125724444,-6.8969132351891727],[114.01416120008794,-6.8969042017819939],[114.01415216087828,-6.8969042589016833],[114.01415204656585,-6.8968861920871625],[114.01413396814696,-6.8968863063257295],[114.01413391099121,-6.8968772729183128],[114.01411583257236,-6.8968773871560431],[114.01411588972778,-6.8968864205636127],[114.01412492893742,-6.8968863634447573],[114.01412504324884,-6.8969044302597293],[114.01414312166854,-6.8969043160212022],[114.0141431788247,-6.896913349428532],[114.01412510040464,-6.8969134636672083],[114.01412504324884,-6.8969044302597293],[114.01411600403884,-6.8969044873787348],[114.01411588972778,-6.8968864205636127]],[[114.01410707913983,-6.8969226113128315],[114.01411611835022,-6.8969225541938428],[114.01411617550602,-6.896931587601391],[114.01410713629546,-6.8969316447204543],[114.01410707913983,-6.8969226113128315]],[[114.01408036159565,-6.8969860165236394],[114.01408940080746,-6.8969859594046348],[114.0140895151192,-6.8970040262201264],[114.01408047590704,-6.8970040833392812],[114.01408036159565,-6.8969860165236394]],[[114.0140535297362,-6.897031354919835],[114.01406256894911,-6.8970312978009671],[114.01406262610482,-6.8970403312089203],[114.01405358689172,-6.8970403883278664],[114.0140535297362,-6.897031354919835]],[[114.0139827592195,-6.89727571389641],[114.01399179843763,-6.8972756567768663],[114.01399185559403,-6.8972846901853213],[114.01398281637572,-6.8972847473049397],[114.0139827592195,-6.89727571389641]],[[114.01394665950177,-6.8972849757817052],[114.01395569872038,-6.8972849186627698],[114.01395575587617,-6.8972939520715224],[114.0139467166574,-6.8972940091905324],[114.01394665950177,-6.8972849757817052]],[[114.01395587018798,-6.8973120188890142],[114.01397394862599,-6.8973119046501781],[114.01397400578236,-6.8973209380587672],[114.01395592734401,-6.8973210522977553],[114.01395587018798,-6.8973120188890142]],[[114.01393802037286,-6.8973482667627106],[114.01394705959275,-6.8973482096434173],[114.01394711674891,-6.8973572430522179],[114.01393807752886,-6.8973573001715858],[114.01393802037286,-6.8973482667627106]],[[114.01393813468493,-6.8973663335804591],[114.01394717390517,-6.897366276461014],[114.01394723106148,-6.8973753098698065],[114.01393819184108,-6.8973753669893263],[114.01393813468493,-6.8973663335804591]]],[[[114.01423288503102,-6.8968043773457426],[114.01423282787407,-6.8967953439391385],[114.01422378866707,-6.8967954010592871],[114.01422384582385,-6.8968044344659676],[114.01423288503102,-6.8968043773457426]]],[[[114.0142327707172,-6.896786310532514],[114.01423271356039,-6.896777277125886],[114.01422367435373,-6.8967773342458827],[114.01422373151036,-6.8967863676525871],[114.0142327707172,-6.896786310532514]]],[[[114.01420553878397,-6.8967684150785074],[114.01419649957727,-6.8967684721979179],[114.0141966710456,-6.8967955724187098],[114.01421474946,-6.8967954581792661],[114.01421463514701,-6.8967773913657098],[114.01420559594018,-6.8967774484853672],[114.01420553878397,-6.8967684150785074]]],[[[114.01420553878397,-6.8967684150785074],[114.01422361719719,-6.8967683008391756],[114.01422350288432,-6.8967502340257472],[114.0142144636781,-6.8967502911453478],[114.01421452083433,-6.8967593245521561],[114.01420548162784,-6.8967593816716617],[114.01420553878397,-6.8967684150785074]]],[[[114.01437699790104,-6.8967221627501054],[114.01437688358313,-6.8967040959392065],[114.01436784437904,-6.8967041530613313],[114.01436795869661,-6.8967222198723812],[114.01437699790104,-6.8967221627501054]]],[[[114.01425010609383,-6.8966687620073435],[114.0142591452982,-6.8966687048877402],[114.01425908814188,-6.896659671481288],[114.01425004893768,-6.8966597286008158],[114.01425010609383,-6.8966687620073435]]],[[[114.01431320905112,-6.896641261948508],[114.01432224825444,-6.8966412048279357],[114.01432207678285,-6.8966141046101344],[114.01431303758004,-6.8966141617304801],[114.01431320905112,-6.896641261948508]]],[[[114.01432201962579,-6.8966050712041875],[114.01432196246884,-6.8965960377982523],[114.01431292326636,-6.8965960949184471],[114.01431298042316,-6.8966051283244569],[114.01432201962579,-6.8966050712041875]]],[[[114.01434009803089,-6.8966049569631362],[114.01434004087356,-6.896595923557352],[114.01433100167125,-6.8965959806778887],[114.0143310588284,-6.8966050140837467],[114.01434009803089,-6.8966049569631362]]],[[[114.0144217366453,-6.8966496098955004],[114.01442156516784,-6.8966225096801859],[114.01443060436992,-6.8966224525577173],[114.01443031857482,-6.8965772855324925],[114.01442127937359,-6.8965773426545836],[114.01442145084991,-6.8966044428699558],[114.01441241164811,-6.8966044999921037],[114.01441269744265,-6.8966496670180257],[114.0144217366453,-6.8966496098955004]]],[[[114.01430376975077,-6.8965780852262375],[114.01431280895299,-6.896578028106366],[114.01431275179642,-6.8965689947003277],[114.01430371259437,-6.8965690518201237],[114.01430376975077,-6.8965780852262375]]],[[[114.01431275179642,-6.8965689947003277],[114.01432179099838,-6.8965689375803594],[114.01432173384171,-6.896559904174393],[114.01431269463993,-6.8965599612942849],[114.01431275179642,-6.8965689947003277]]],[[[114.01432167668514,-6.8965508707684382],[114.01432161952863,-6.8965418373624479],[114.01431258032717,-6.8965418944821888],[114.01431263748351,-6.8965509278882555],[114.01432167668514,-6.8965508707684382]]],[[[114.01442963267441,-6.8964688846715578],[114.01442957551653,-6.8964598512664548],[114.01442053631753,-6.8964599083875653],[114.01442059347522,-6.8964689417927438],[114.01442963267441,-6.8964688846715578]]],[[[114.01444731096666,-6.8964055365939307],[114.01442923257093,-6.8964056508357556],[114.01442928972834,-6.8964146842408809],[114.0144383289264,-6.89641462711998],[114.01443838608405,-6.8964236605250262],[114.01444742528223,-6.8964236034038766],[114.01444731096666,-6.8964055365939307]]],[[[114.01443821461132,-6.8963965603098734],[114.0144381574539,-6.8963875269048325],[114.01442911825634,-6.8963875840255069],[114.0144291754136,-6.8963966174306242],[114.01443821461132,-6.8963965603098734]]],[[[114.01442894678503,-6.8963604838100654],[114.01442906109916,-6.8963785506203523],[114.01443810029653,-6.8963784934997516],[114.01443798598207,-6.8963604266896157],[114.01442894678503,-6.8963604838100654]]],[[[114.01444691086454,-6.8963423027590105],[114.01444702517905,-6.8963603695689963],[114.01445606437593,-6.8963603124482056],[114.01445595006109,-6.8963422456383716],[114.01444691086454,-6.8963423027590105]]],[[[114.01429295801168,-6.8962979914690212],[114.01428871682833,-6.8963071673237204],[114.01430205509214,-6.8963070830411359],[114.01430199793805,-6.8962980496349067],[114.01429295874107,-6.8962981067522673],[114.01429295801168,-6.8962979914690212]]],[[[114.01441950749206,-6.8962973070936853],[114.01441046829606,-6.8962973642132654],[114.01441041114001,-6.8962883308079368],[114.01440137194409,-6.8962883879272701],[114.01440142909999,-6.8962974213326742],[114.01439238990382,-6.8962974784519115],[114.01439244705963,-6.8963065118573876],[114.01438340786324,-6.8963065689765299],[114.01438346501895,-6.8963156023820762],[114.0143744258223,-6.8963156595011244],[114.01437476875716,-6.8963698599347758],[114.0143657295594,-6.8963699170541064],[114.01436578671532,-6.896378950459777],[114.01437482591325,-6.8963788933403709],[114.01437488306941,-6.8963879267459784],[114.01435680467314,-6.8963880409847702],[114.01435686182903,-6.8963970743904923],[114.01436590102735,-6.8963970172711058],[114.01436595818349,-6.8964060506767648],[114.014356918985,-6.8964061077962269],[114.01435697614104,-6.8964151412019579],[114.01434793694226,-6.896415198321324],[114.01434799409822,-6.896424231727126],[114.01433895489922,-6.8964242888463971],[114.01433901205506,-6.8964333222522542],[114.01432997285582,-6.8964333793714303],[114.01433014432334,-6.8964604795892717],[114.01432110512349,-6.8964605367085037],[114.01432093365648,-6.8964334364904358],[114.01432997285582,-6.8964333793714303],[114.01432991570015,-6.8964243459654977],[114.01433895489922,-6.8964242888463971],[114.01433889774344,-6.8964152554405196],[114.01434793694226,-6.896415198321324],[114.01434787978638,-6.8964061649155175],[114.014356918985,-6.8964061077962269],[114.01435686182903,-6.8963970743904923],[114.01432070503488,-6.8963973028663306],[114.01432059072455,-6.8963792360542451],[114.01432962992286,-6.8963791789356925],[114.01432957276765,-6.8963701455297199],[114.01433861196568,-6.8963700884110724],[114.01433849765513,-6.8963520215992666],[114.01434753685277,-6.8963519644805995],[114.01434742254217,-6.8963338976689288],[114.01433838334488,-6.8963339547874449],[114.01433832618986,-6.8963249213815292],[114.01432928699266,-6.8963249784997993],[114.01432934414751,-6.8963340119057914],[114.01429318735724,-6.8963342403774668],[114.01429307304899,-6.8963161735648741],[114.01428452908833,-6.8963162275528926],[114.01426620553384,-6.8963558707955945],[114.01426629837908,-6.8963705453554747],[114.01425940264615,-6.8963705889285478],[114.01421270056588,-6.8964716294523036],[114.01421280618094,-6.8964883223467126],[114.01422184538221,-6.8964882652293014],[114.01422190253639,-6.8964972986361293],[114.01423094173774,-6.896497241518472],[114.0142308845834,-6.8964882081117205],[114.01423992378453,-6.8964881509939673],[114.01423998093905,-6.8964971844006451],[114.01424902014026,-6.8964971272826467],[114.01424924875975,-6.8965332609090151],[114.01425828796158,-6.8965332037905451],[114.01425834511682,-6.8965422371970524],[114.01424026671278,-6.8965423514339736],[114.01424032386774,-6.8965513848406443],[114.01423128466541,-6.8965514419589251],[114.01423122751061,-6.8965424085521789],[114.01422218830838,-6.8965424656702128],[114.01422207399935,-6.8965243988565916],[114.01419495639327,-6.8965245702092171],[114.01419512785539,-6.8965516704303411],[114.01418608865268,-6.8965517275477684],[114.01418631726924,-6.8965878611761413],[114.01419535647263,-6.8965878040584112],[114.01419524216386,-6.8965697372443753],[114.01421332056972,-6.8965696230087072],[114.01421343487917,-6.8965876898224403],[114.01422247408232,-6.8965876327041995],[114.01422235977252,-6.8965695658906174],[114.01423139897524,-6.8965695087723562],[114.01423157044057,-6.8965966089925148],[114.01422253123734,-6.8965966661110034],[114.01422258839241,-6.8966056995177665],[114.01421354918894,-6.8966057566361592],[114.01421349203402,-6.8965967232293188],[114.01419541362714,-6.8965968374654407],[114.01419552793637,-6.8966149042794376],[114.01418648873246,-6.8966149613973924],[114.01418660304167,-6.8966330282115402],[114.01419564224591,-6.8966329710934344],[114.0141956994008,-6.8966420045004098],[114.01420473860513,-6.896641947382057],[114.01420462429509,-6.8966238805682352],[114.01421366349901,-6.8966238234498629],[114.01421389212008,-6.8966599570772216],[114.01420485291547,-6.8966600141958967],[114.01420491007075,-6.8966690476028019],[114.01419587086592,-6.8966691047213819],[114.01419609948715,-6.8967052383492682],[114.01421417789813,-6.8967051241113335],[114.01421400643108,-6.8966780238908774],[114.01422304563592,-6.8966779667718816],[114.01422298848023,-6.896668933365131],[114.01423202768481,-6.8966688762460402],[114.0142320848407,-6.8966779096527153],[114.01425016325004,-6.8966777954138685],[114.01425010609383,-6.8966687620073435],[114.01424106688937,-6.8966688191267771],[114.01424100973341,-6.8966597857201739],[114.01423197052902,-6.8966598428393597],[114.01423191337331,-6.8966508094326775],[114.01424095257751,-6.8966507523135654],[114.01424100973341,-6.8966597857201739],[114.01425004893768,-6.8966597286008158],[114.01424993462564,-6.8966416617877302],[114.0142680130333,-6.896641547548807],[114.01426807018964,-6.8966505809552077],[114.01425903098566,-6.8966506380748305],[114.01425908814188,-6.896659671481288],[114.01427716655009,-6.8966595572417191],[114.01427722370674,-6.8966685906480212],[114.01426818450253,-6.8966686477679664],[114.01426829881572,-6.8966867145807091],[114.01425022040634,-6.8966868288203882],[114.01425027756271,-6.8966958622269043],[114.01425931676759,-6.8966958051070755],[114.01425937392422,-6.8967048385135117],[114.01422321710349,-6.8967050669921104],[114.01422333141561,-6.896723133805577],[114.01425044903228,-6.8967229624464315],[114.01425050618896,-6.8967319958529316],[114.01423242777757,-6.8967321100926835],[114.01423248493398,-6.896741143499332],[114.01422344572801,-6.8967412006190276],[114.01422350288432,-6.8967502340257472],[114.01424158129655,-6.8967501197860344],[114.01424152413989,-6.8967410863794658],[114.01425960255145,-6.8967409721392201],[114.0142594310809,-6.8967138719199443],[114.01426847028607,-6.8967138147997931],[114.01426852744302,-6.8967228482061458],[114.01427756664826,-6.8967227910857476],[114.01427750949115,-6.8967137576794704],[114.01428654869618,-6.8967137005589771],[114.01428649153897,-6.896704667152771],[114.01429553074372,-6.8967046100321818],[114.01429547358642,-6.8966955766260476],[114.01430451279091,-6.8966955195053625],[114.01430456994841,-6.896704552911423],[114.01431360915301,-6.8967044957904937],[114.01431343768031,-6.8966773955725298],[114.01430439847621,-6.8966774526932326],[114.01430445563354,-6.8966864860993002],[114.01429541642921,-6.8966865432199089],[114.01429530211497,-6.8966684764076192],[114.01431338052291,-6.896668362166535],[114.01431320905112,-6.896641261948508],[114.0143041698477,-6.8966413190689089],[114.01430399837713,-6.8966142188506545],[114.01429495917417,-6.8966142759706575],[114.01429490201762,-6.8966052425644833],[114.01428586281475,-6.896605299684242],[114.01428574850225,-6.896587232871731],[114.01430382690724,-6.8965871186323469],[114.01430376975077,-6.8965780852262375],[114.01429473054847,-6.8965781423459394],[114.0142946162361,-6.8965600755335563],[114.01430365543804,-6.8965600184140055],[114.0143035982818,-6.8965509850079014],[114.01429455908003,-6.8965510421273768],[114.01429438761227,-6.8965239419087458],[114.01430342681351,-6.896523884789497],[114.01430336965758,-6.8965148513833592],[114.01433952646121,-6.8965146229049603],[114.01433941214819,-6.8964965560932789],[114.01433037294775,-6.8964966132129835],[114.01433031579154,-6.8964875798070615],[114.0143393549918,-6.8964875226874316],[114.01433941214819,-6.8964965560932789],[114.01435749054887,-6.8964964418533565],[114.01435754770569,-6.8965054752590484],[114.01436658690606,-6.8965054181387568],[114.01436641543536,-6.8964783179218792],[114.01435737623548,-6.8964783750419452],[114.0143573190789,-6.8964693416362586],[114.0143482798791,-6.8964693987560786],[114.01434822272277,-6.8964603653502952],[114.01436630112194,-6.8964602511106365],[114.0143661868088,-6.896442184299362],[114.01435714760963,-6.8964422414191251],[114.01435709045336,-6.8964332080133888],[114.01436612965236,-6.8964331508937011],[114.01436607249599,-6.8964241174880714],[114.01437511169479,-6.8964240603682878],[114.01437505453832,-6.8964150269627114],[114.01438409373685,-6.8964149698428336],[114.01438397942381,-6.896396903031822],[114.01439301862192,-6.8963968459119238],[114.01439307577857,-6.8964058793173564],[114.01440211497678,-6.8964058221972113],[114.01440194350656,-6.8963787219811294],[114.01441098270416,-6.8963786648610412],[114.01441092554739,-6.8963696314557481],[114.01441996474476,-6.8963695743355649],[114.01441990758791,-6.8963605409303437],[114.01442894678503,-6.8963604838100654],[114.01442883247121,-6.8963424169997785],[114.01444691086454,-6.8963423027590105],[114.0144468537074,-6.8963332693539883],[114.01441069692112,-6.8963334978345374],[114.01441063976475,-6.8963244644292256],[114.01440160056815,-6.8963245215488618],[114.01440165772436,-6.8963335549542482],[114.01439261852751,-6.8963336120737884],[114.01439273283981,-6.8963516788847041],[114.01438369364256,-6.8963517360042248],[114.0143835793306,-6.896333669193158],[114.01439261852751,-6.8963336120737884],[114.01439250421552,-6.8963155452628575],[114.01440154341203,-6.8963154881434692],[114.01440148625598,-6.896306454738073],[114.01441956464838,-6.8963063404989349],[114.01441950749206,-6.8962973070936853]],[[114.01424890583097,-6.8964790604694226],[114.01423986663009,-6.8964791175872699],[114.01423958085907,-6.8964339505538055],[114.01424862005908,-6.8964338934363365],[114.01424890583097,-6.8964790604694226]],[[114.01426686992282,-6.8964608794203128],[114.01427590912311,-6.8964608223021049],[114.01427596627809,-6.8964698557084905],[114.01426692707761,-6.8964699128267757],[114.01426686992282,-6.8964608794203128]],[[114.01430308387904,-6.8964696843526161],[114.0143211622793,-6.8964695701145136],[114.0143212194352,-6.8964786035205021],[114.01430314103459,-6.8964787177587556],[114.01430308387904,-6.8964696843526161]],[[114.0142666984589,-6.8964337792008852],[114.01425765925902,-6.8964338363186961],[114.01425760210469,-6.8964248029121595],[114.0142666413044,-6.8964247457944241],[114.0142666984589,-6.8964337792008852]],[[114.0142664698414,-6.8963976455749663],[114.0142574306422,-6.8963977026924761],[114.01425731633427,-6.8963796358793337],[114.01426635553311,-6.8963795787619757],[114.0142664698414,-6.8963976455749663]],[[114.01429341597463,-6.8963703740026041],[114.0142843767762,-6.896370431120399],[114.01428431962191,-6.8963613977140437],[114.01429335882017,-6.8963613405963251],[114.01429341597463,-6.8963703740026041]],[[114.01426732716334,-6.8965331466719029],[114.014276366365,-6.8965330895530901],[114.01427676645565,-6.8965963233975174],[114.0142677272528,-6.8965963805168569],[114.01426732716334,-6.8965331466719029]]],[[[114.01430188363008,-6.8962799828224348],[114.01430187550336,-6.8962786983604492],[114.01430128004775,-6.8962799866363786],[114.01430188363008,-6.8962799828224348]]],[[[114.01431086567264,-6.8962708922988698],[114.01431079299461,-6.8962594052519748],[114.01430546778738,-6.8962709264073059],[114.01431086567264,-6.8962708922988698]]],[[[114.01441950749206,-6.8962973070936853],[114.01443758588384,-6.8962971928540151],[114.01443752872726,-6.8962881594489147],[114.01445560711839,-6.8962880452087116],[114.01445549280476,-6.8962699783987826],[114.01443741441432,-6.8962700926386828],[114.01443735725796,-6.8962610592335869],[114.01444639645307,-6.8962610021137971],[114.01444622498396,-6.896233901898662],[114.01443718578936,-6.8962339590182244],[114.01443730010169,-6.8962520258284696],[114.0144282609067,-6.8962520829480125],[114.0144283180628,-6.8962611163532053],[114.01441927886755,-6.8962611734726522],[114.01441933602356,-6.8962702068779],[114.01442837521898,-6.8962701497583767],[114.01442843237524,-6.8962791831635784],[114.01441939317967,-6.8962792402831772],[114.01441933602356,-6.8962702068779],[114.01441029682807,-6.8962702639972528],[114.01441041114001,-6.8962883308079368],[114.01441945033582,-6.8962882736884339],[114.01441950749206,-6.8962973070936853]]],[[[114.01444622498396,-6.896233901898662],[114.01445526417845,-6.8962338447789282],[114.01445514986575,-6.896215777968969],[114.0144461106716,-6.8962158350885518],[114.01444622498396,-6.896233901898662]]],[[[114.01450028867831,-6.8962064589638903],[114.01448221029102,-6.8962065732044397],[114.01448226744776,-6.8962156066091991],[114.01450034583539,-6.8962154923684986],[114.01450028867831,-6.8962064589638903]]],[[[114.01447317109726,-6.8962066303244587],[114.014472999628,-6.8961795301099498],[114.01446396043465,-6.8961795872295717],[114.01446413190341,-6.8962066874443071],[114.01447317109726,-6.8962066303244587]]],[[[114.0144819816648,-6.8961704395853669],[114.01448192450842,-6.8961614061805889],[114.01447288531553,-6.8961614633002304],[114.01447294247173,-6.8961704967050839],[114.0144819816648,-6.8961704395853669]]],[[[114.01452677753011,-6.8961069201533398],[114.01452666321683,-6.8960888533444793],[114.01451762402567,-6.8960889104643703],[114.01451773833861,-6.896106977273381],[114.01452677753011,-6.8961069201533398]]],[[[114.01454462728523,-6.8960706722956147],[114.01454457012854,-6.8960616388913056],[114.01453553093805,-6.8960616960113112],[114.01453558809459,-6.8960707294156949],[114.01454462728523,-6.8960706722956147]]],[[[114.01455360931892,-6.8960615817711313],[114.01455355216213,-6.896052548366927],[114.0145445129719,-6.8960526054870277],[114.01454457012854,-6.8960616388913056],[114.01455360931892,-6.8960615817711313]]],[[[114.01453598819255,-6.8961339632461778],[114.01453593103547,-6.8961249298418199],[114.01454497022715,-6.8961248727212867],[114.01454491306997,-6.8961158393170177],[114.01455395226139,-6.8961157821963885],[114.01455378078983,-6.8960886819837857],[114.01456281998068,-6.8960886248632134],[114.01456276282346,-6.8960795914590793],[114.01457180201406,-6.8960795343384111],[114.01457174485677,-6.8960705009343499],[114.01458982323739,-6.8960703866926538],[114.01458976607982,-6.8960613532887223],[114.01459880526984,-6.8960612961676917],[114.01459874811218,-6.8960522627638667],[114.01461682649168,-6.8960521485214485],[114.01461676933374,-6.8960431151177524],[114.0145986909546,-6.8960432293600205],[114.01459857663964,-6.8960251625523146],[114.01460761582894,-6.8960251054314172],[114.0146075586714,-6.896016072027618],[114.01461659786041,-6.8960160149066256],[114.01461654070279,-6.8960069815029312],[114.01462557989156,-6.8960069243818429],[114.01462552273384,-6.8959978909782036],[114.01463456192238,-6.8959978338570211],[114.01463444760685,-6.895979767049881],[114.0146163692304,-6.8959798812917743],[114.01461642638778,-6.8959889146954971],[114.01460738719928,-6.895988971816263],[114.01460744435659,-6.8959980052200578],[114.01459840516782,-6.8959980623407287],[114.01459846232501,-6.8960070957445945],[114.01458942313602,-6.8960071528651703],[114.01458948029313,-6.8960161862690912],[114.01458044110387,-6.8960162433895729],[114.0145804982609,-6.8960252767935986],[114.01458953745032,-6.8960252196730423],[114.01458959460757,-6.8960342530769712],[114.01458055541798,-6.8960343101976029],[114.0145804982609,-6.8960252767935986],[114.01457145907138,-6.8960253339139825],[114.0145715162283,-6.8960343673180642],[114.01456247703857,-6.8960344244383549],[114.01456253419539,-6.8960434578425085],[114.01455349500539,-6.8960435149627024],[114.01455355216213,-6.896052548366927],[114.01456259135229,-6.8960524912466568],[114.01456264850927,-6.8960615246507837],[114.01455360931892,-6.8960615817711313],[114.01455366647581,-6.8960706151753639],[114.01454462728523,-6.8960706722956147],[114.01454468444203,-6.8960797056999033],[114.01453564525121,-6.896079762820059],[114.01453558809459,-6.8960707294156949],[114.01452654890385,-6.8960707865356046],[114.01452666321683,-6.8960888533444793],[114.01453570240791,-6.8960887962244195],[114.01453581672153,-6.8961068630331273],[114.01452677753011,-6.8961069201533398],[114.01452683468686,-6.8961159535577634],[114.01451779549519,-6.89611601067788],[114.01451773833861,-6.896106977273381],[114.01450869914703,-6.8961070343932516],[114.01450875630344,-6.8961160677978253],[114.01449971711163,-6.8961161249176017],[114.01449977426796,-6.8961251583222483],[114.01450881345993,-6.8961251012023972],[114.01450892777315,-6.8961431680115277],[114.01451796696541,-6.8961431108913542],[114.01451802412231,-6.8961521442958373],[114.01450898492988,-6.8961522014160863],[114.01450909924355,-6.8961702682251929],[114.01450006005072,-6.8961703253454214],[114.0145001172075,-6.8961793587500617],[114.01449107801442,-6.8961794158701943],[114.0144911351711,-6.8961884492748728],[114.01450017436436,-6.8961883921546647],[114.01450028867831,-6.8962064589638903],[114.01450932787182,-6.8962064018433598],[114.01450927071464,-6.8961973684388242],[114.01451830990794,-6.8961973113181987],[114.01451825275066,-6.8961882779137333],[114.01452729194368,-6.8961882207930127],[114.01452723478631,-6.8961791873886371],[114.0145362739791,-6.8961791302678206],[114.01453610250694,-6.8961520300548296],[114.01454514169913,-6.896151972934069],[114.0145450273844,-6.8961339061255682],[114.01453598819255,-6.8961339632461778],[114.01453604534971,-6.8961429966504966],[114.01452700615759,-6.8961430537710111],[114.0145269490006,-6.8961340203666159],[114.01453598819255,-6.8961339632461778]]],[[[114.01463444760685,-6.895979767049881],[114.01464348679494,-6.895979709928679],[114.01464342963712,-6.895970676525196],[114.01463439044919,-6.8959707336463225],[114.01463444760685,-6.895979767049881]]],[[[114.01464337247937,-6.8959616431216739],[114.01464331532169,-6.8959526097181669],[114.0146342761341,-6.8959526668391433],[114.01463433329161,-6.8959617002427258],[114.01464337247937,-6.8959616431216739]]],[[[114.01465235450922,-6.89595255259702],[114.01465229735146,-6.8959435191935849],[114.01464325816409,-6.8959435763146555],[114.01464331532169,-6.8959526097181669],[114.01465235450922,-6.89595255259702]]],[[[114.01448942050381,-6.8959174471323417],[114.01449845969195,-6.8959173900143975],[114.0144984025374,-6.8959083566096631],[114.01448936334943,-6.8959084137275299],[114.01448942050381,-6.8959174471323417]]],[[[114.0144984025374,-6.8959083566096631],[114.01450744172527,-6.8959082994916248],[114.01450738457062,-6.8958992660869605],[114.01449834538292,-6.8958993232049233],[114.0144984025374,-6.8959083566096631]]],[[[114.01450738457062,-6.8958992660869605],[114.01451642375828,-6.8958992089688271],[114.01451636660353,-6.895890175564233],[114.01450732741604,-6.8958902326822917],[114.01450738457062,-6.8958992660869605]]],[[[114.01471528586707,-6.8958979523267132],[114.01471522870857,-6.8958889189237826],[114.0147061895228,-6.8958889760455939],[114.01470624668113,-6.8958980094486009],[114.01471528586707,-6.8958979523267132]]],[[[114.01451636660353,-6.895890175564233],[114.01453444497825,-6.8958900613276057],[114.01453433066831,-6.8958719945187115],[114.01452529148132,-6.8958720516369594],[114.01452534863608,-6.8958810850414851],[114.01451630944887,-6.8958811421596371],[114.01451636660353,-6.895890175564233]]],[[[114.01452529148132,-6.8958720516369594],[114.01452523432663,-6.895863018232431],[114.01451619513975,-6.8958630753504329],[114.01451625229427,-6.8958721087550376],[114.01452529148132,-6.8958720516369594]]],[[[114.01453433066831,-6.8958719945187115],[114.0145433698552,-6.8958719374002921],[114.01454331270018,-6.8958629039959156],[114.01453427351345,-6.8958629611142586],[114.01453433066831,-6.8958719945187115]]],[[[114.01513011652064,-6.8957417567441199],[114.01512107734112,-6.8957418138725721],[114.01512113450607,-6.8957508472721658],[114.01513017368578,-6.8957507901436372],[114.01513011652064,-6.8957417567441199]]],[[[114.01513011652064,-6.8957417567441199],[114.01513915570011,-6.8957416996154937],[114.01513909853487,-6.8957326662160474],[114.01513005935558,-6.8957327233445955],[114.01513011652064,-6.8957417567441199]]],[[[114.01513909853487,-6.8957326662160474],[114.01514813771408,-6.8957326090873288],[114.01514808054876,-6.8957235756879527],[114.01513904136972,-6.8957236328165958],[114.01513909853487,-6.8957326662160474]]],[[[114.01454331270018,-6.8958629039959156],[114.01455235188682,-6.8958628468774004],[114.0145522947317,-6.895853813473078],[114.01456133391812,-6.8958537563544695],[114.01456116245271,-6.8958266561417716],[114.01457924082426,-6.8958265419044942],[114.01457918366894,-6.8958175085004001],[114.01457014448336,-6.8958175656190468],[114.0145697443994,-6.8957543317897478],[114.01456070521496,-6.8957543889076964],[114.01456049015816,-6.8957203985343183],[114.01453700100022,-6.895770000999967],[114.01448914272362,-6.8958735431109908],[114.01448919188672,-6.8958813135130734],[114.01448554049534,-6.8958813365857701],[114.01446460181792,-6.895926637725033],[114.01448947765827,-6.8959264805371667],[114.01448942050381,-6.8959174471323417],[114.01448038131559,-6.8959175042501135],[114.01448026700723,-6.8958994374403373],[114.01449834538292,-6.8958993232049233],[114.01449828822849,-6.8958902898001799],[114.01450732741604,-6.8958902326822917],[114.01450715595277,-6.895863132468266],[114.01451619513975,-6.8958630753504329],[114.01451613798531,-6.8958540419458076],[114.01454325554522,-6.895853870591516],[114.01454331270018,-6.8958629039959156]],[[114.01455223757667,-6.8958447800687859],[114.01454319839034,-6.8958448371871475],[114.01454314123555,-6.8958358037827585],[114.01455218042169,-6.8958357466644706],[114.01455223757667,-6.8958447800687859]]],[[[114.01516610174102,-6.8957144280309253],[114.01516604457551,-6.895705394631694],[114.01515700539699,-6.8957054517605281],[114.01515706256231,-6.895714485159834],[114.01516610174102,-6.8957144280309253]]],[[[114.01456951578167,-6.8957181981729176],[114.01456945862743,-6.895709164768701],[114.01457849781099,-6.8957091076509593],[114.01457833088165,-6.8956827239626826],[114.0145615081741,-6.8957182487721544],[114.01456951578167,-6.8957181981729176]]],[[[114.01475790970058,-6.8954911635959766],[114.0147669488784,-6.8954911064764639],[114.01476689172233,-6.8954820730738113],[114.01475785254466,-6.8954821301932494],[114.01475790970058,-6.8954911635959766]]],[[[114.01476689172233,-6.8954820730738113],[114.01477593089989,-6.8954820159542036],[114.01477587374372,-6.895472982551623],[114.01476683456632,-6.8954730396711552],[114.01476689172233,-6.8954820730738113]]],[[[114.01477587374372,-6.895472982551623],[114.01478491292104,-6.8954729254319194],[114.01478485576477,-6.8954638920294107],[114.01477581658763,-6.8954639491490379],[114.01477587374372,-6.895472982551623]]],[[[114.01478485576477,-6.8954638920294107],[114.01480293411883,-6.8954637777896437],[114.01480287696231,-6.8954547443872825],[114.0147847986086,-6.8954548586268976],[114.01478485576477,-6.8954638920294107]]],[[[114.0147757594316,-6.8954549157464493],[114.01477570227567,-6.8954458823438571],[114.0147666630988,-6.8954459394631629],[114.01476672025456,-6.8954549728658305],[114.0147757594316,-6.8954549157464493]]],[[[114.01480287696231,-6.8954547443872825],[114.01481191613907,-6.8954546872672182],[114.01481185898245,-6.8954456538649271],[114.01480281980585,-6.8954457109849159],[114.01480287696231,-6.8954547443872825]]],[[[114.01476683456632,-6.8954730396711552],[114.0147667774104,-6.8954640062684955],[114.01473965987827,-6.8954641776258425],[114.01473954556768,-6.8954461108200578],[114.01473050639046,-6.8954461679386805],[114.01473062070072,-6.8954642347446162],[114.01472158152312,-6.8954642918632212],[114.01472141005837,-6.8954371916540671],[114.01470333170394,-6.8954373058903098],[114.01470338885844,-6.8954463392935272],[114.01469023099438,-6.8954464224371081],[114.0145786712223,-6.8956820052592915],[114.01458736553116,-6.8956819503208244],[114.01458730837687,-6.8956729169167446],[114.01460538674218,-6.8956728026810108],[114.01460532958764,-6.8956637692770775],[114.01461436877,-6.8956637121590294],[114.01461442592469,-6.8956727455628881],[114.01464154347184,-6.895672574207496],[114.01464137200639,-6.8956454739965727],[114.01463233282462,-6.8956455311149796],[114.01463227566981,-6.8956364977112781],[114.01464131485142,-6.8956364405929458],[114.0146412576965,-6.8956274071892958],[114.01465933605918,-6.8956272929522715],[114.01465939321443,-6.8956363263557678],[114.01466843239581,-6.8956362692369249],[114.01466837524039,-6.895627235833504],[114.01467741442154,-6.8956271787145633],[114.01467735726602,-6.8956181453112144],[114.01466831808504,-6.8956182024300778],[114.01466820377456,-6.8956001356231997],[114.01467724295522,-6.8956000785044873],[114.01467718579993,-6.8955910451011428],[114.0146862249803,-6.8955909879823345],[114.01468611066962,-6.8955729211757513],[114.01470418902947,-6.8955728069379258],[114.0147041318739,-6.8955637735347803],[114.01471317105353,-6.8955637164156869],[114.01471311389787,-6.8955546830126284],[114.01472215307727,-6.8955546258934399],[114.01472198161022,-6.895527525684404],[114.01473102078901,-6.8955274685652714],[114.01473096363331,-6.895518435162332],[114.01474000281189,-6.8955183780431044],[114.01473994565609,-6.8955093446402378],[114.01475802401262,-6.8955092304014212],[114.01475790970058,-6.8954911635959766],[114.01473983134474,-6.8954912778344912],[114.01473988850037,-6.8955003112373658],[114.01473084932215,-6.8955003683564424],[114.01473079216667,-6.8954913349534923],[114.01473983134474,-6.8954912778344912],[114.01473977418917,-6.8954822444316122],[114.01475785254466,-6.8954821301932494],[114.01475779538883,-6.8954730967905169],[114.01476683456632,-6.8954730396711552]],[[114.01469503553886,-6.8955547972504938],[114.01469492122844,-6.8955367304440145],[114.01470396040764,-6.8955366733253181],[114.0147040747184,-6.8955547401316464],[114.01469503553886,-6.8955547972504938],[114.01469509269418,-6.8955638306537024],[114.01468605351438,-6.8955638877724548],[114.01468599635923,-6.8955548543691707],[114.01469503553886,-6.8955547972504938]],[[114.01466803230944,-6.8955730354128955],[114.01467707148957,-6.8955729782944095],[114.01467712864471,-6.8955820116977788],[114.01466808946441,-6.8955820688163394],[114.01466803230944,-6.8955730354128955]],[[114.01464102907761,-6.8955912735746683],[114.01465006825831,-6.8955912164565429],[114.0146501254131,-6.8956002498601139],[114.01464108623223,-6.8956003069783147],[114.01464102907761,-6.8955912735746683]],[[114.0146321613604,-6.895618430903828],[114.0146321042058,-6.8956093975000972],[114.01464114338691,-6.8956093403819914],[114.01464120054166,-6.8956183737856467],[114.0146321613604,-6.895618430903828],[114.01463221851506,-6.8956274643075544],[114.01462317933351,-6.8956275214256415],[114.01462312217903,-6.8956184880218379],[114.0146321613604,-6.895618430903828]],[[114.0146051581245,-6.8956366690652509],[114.01462323648809,-6.8956365548294398],[114.01462329364274,-6.8956455882332168],[114.01460521527879,-6.8956457024691797],[114.0146051581245,-6.8956366690652509]]],[[[114.01478468429644,-6.8954367918218429],[114.01478462714049,-6.895427758419336],[114.01477558796401,-6.8954278155386612],[114.0147756451198,-6.8954368489412445],[114.01478468429644,-6.8954367918218429]]],[[[114.01481185898245,-6.8954456538649271],[114.01482089815894,-6.8954455967447688],[114.01482078384558,-6.8954275299403269],[114.01479366631686,-6.8954277012998393],[114.01479372347301,-6.8954367347022707],[114.0148118018259,-6.8954366204626165],[114.01481185898245,-6.8954456538649271]]],[[[114.01532697758816,-6.8954243309475425],[114.01530889924435,-6.8954244452064994],[114.01530895641019,-6.8954334786046259],[114.01531799558232,-6.8954334214751576],[114.01531805274843,-6.8954424548732387],[114.01532709192064,-6.8954423977435244],[114.01532697758816,-6.8954243309475425]]],[[[114.01511901945364,-6.8954166114846016],[114.01511896229152,-6.8954075780848632],[114.01510992311825,-6.8954076352103506],[114.0151099802802,-6.8954166686101654],[114.01511901945364,-6.8954166114846016]]],[[[114.01484767274574,-6.8953912249712399],[114.01484761558898,-6.895382191569241],[114.01483857641391,-6.8953822486893834],[114.01483863357052,-6.8953912820914569],[114.01484767274574,-6.8953912249712399]]],[[[114.01482965155168,-6.8954003726136843],[114.01482976586493,-6.8954184394179983],[114.01486592256782,-6.8954182109358779],[114.01486586541047,-6.8954091775340265],[114.01486610552543,-6.8954091760166802],[114.01487490458582,-6.8954091204131451],[114.01487484742837,-6.8954000870113648],[114.01488388660351,-6.8954000298903884],[114.01488382944598,-6.895390996488663],[114.01489286862083,-6.8953909393675907],[114.01489281146321,-6.8953819059659702],[114.01487473311374,-6.8953820202077907],[114.01487479027102,-6.8953910536095622],[114.01486599121097,-6.8953911092129498],[114.01485671192093,-6.8953911678508515],[114.01485676907795,-6.8954002012528042],[114.01482965155168,-6.8954003726136843]]],[[[114.01482965155168,-6.8954003726136843],[114.0148294800824,-6.8953732724071859],[114.0147933233817,-6.8953735008850634],[114.01479349484894,-6.8954006010924696],[114.01480253402474,-6.8954005439730288],[114.01480264833695,-6.8954186107777948],[114.01481168751303,-6.8954185536580335],[114.0148116303567,-6.8954095202557273],[114.01482066953253,-6.8954094631358709],[114.01482061237611,-6.8954004297336366],[114.01482965155168,-6.8954003726136843]]],[[[114.01486564826942,-6.8953369088017356],[114.01487444732848,-6.8953368531987902],[114.01487439017166,-6.895327819796977],[114.01486559111277,-6.8953278753998495],[114.01485631182396,-6.8953279340372085],[114.01485636898043,-6.8953369674391718],[114.01486564826942,-6.8953369088017356]]],[[[114.01531730959502,-6.8953250206981025],[114.0153172524299,-6.8953159872999876],[114.01530821325998,-6.8953160444284745],[114.01530827042494,-6.8953250778266639],[114.01531730959502,-6.8953250206981025]]],[[[114.0149104325514,-6.8953095245114353],[114.01491037539414,-6.8953004911099134],[114.01489229704804,-6.895300605351057],[114.01489235420497,-6.89530963875273],[114.0149104325514,-6.8953095245114353]]],[[[114.0151099802802,-6.8954166686101654],[114.01507382358558,-6.8954168971107128],[114.01507376642432,-6.8954078637105969],[114.0150828055979,-6.8954078065857916],[114.01508269127525,-6.895389739785684],[114.015073652102,-6.8953897969103375],[114.01507353778001,-6.8953717301100967],[114.01506449860702,-6.8953717872344296],[114.01506444144631,-6.8953627538342195],[114.0150554022734,-6.8953628109583063],[114.01505534511294,-6.8953537775580163],[114.01506438428568,-6.895353720434005],[114.01506432712512,-6.8953446870338038],[114.01507336629757,-6.8953446299096974],[114.01507330913692,-6.8953355965095344],[114.01505523079224,-6.8953357107574247],[114.01505517363199,-6.8953266773571231],[114.01504613445971,-6.8953267344807374],[114.01504624877992,-6.8953448012815031],[114.01502817043443,-6.8953449155285211],[114.01502794179568,-6.8953087819263859],[114.01503698096778,-6.8953087248032636],[114.01503692380813,-6.8952996914028004],[114.0150278846362,-6.8952997485258454],[114.01502777031743,-6.8952816817247555],[114.01501873114579,-6.895281738847479],[114.01501867398669,-6.8952727054468523],[114.0150096348151,-6.8952727625693297],[114.01500957765624,-6.8952637291686241],[114.01501861682766,-6.8952636720462221],[114.01501855966872,-6.8952546386455875],[114.01500952049749,-6.8952546957679139],[114.0150094633388,-6.8952456623671994],[114.01500042416767,-6.8952457194892807],[114.01500048132618,-6.8952547528900707],[114.01498240298334,-6.89525486713387],[114.0149824601416,-6.8952639005348075],[114.01496438179809,-6.8952640147780766],[114.01496432464019,-6.895254981376989],[114.01493720712489,-6.8952551527403863],[114.0149372642823,-6.8952641861417012],[114.01492822511022,-6.8952642432625675],[114.01492828226752,-6.8952732766639526],[114.01491020392277,-6.8952733909053254],[114.01491026107982,-6.8952824243068598],[114.01489218273441,-6.8952825385477006],[114.01489223989118,-6.8952915719493806],[114.01491935740968,-6.8952914005876362],[114.01491941456705,-6.8953004339890862],[114.01492845373991,-6.8953003768680876],[114.01492856805523,-6.8953184436708259],[114.01491952888202,-6.8953185007919737],[114.01491964319729,-6.895336567594847],[114.01489252567623,-6.8953367389577238],[114.0148926399908,-6.8953548057610341],[114.01487456164236,-6.8953549200024007],[114.01487450448538,-6.8953458866006141],[114.01486570542616,-6.8953459422036349],[114.014856426137,-6.8953460008411467],[114.01485654045034,-6.895364067645037],[114.01483846210094,-6.8953641818851903],[114.01483851925738,-6.8953732152872886],[114.01486587689681,-6.895373042409239],[114.01488371513115,-6.8953729296852488],[114.01488365797385,-6.895363896283528],[114.01490173632247,-6.8953637820416684],[114.01490167916492,-6.895354748640095],[114.01491071833894,-6.8953546915189845],[114.01491066118128,-6.8953456581174999],[114.01491970035505,-6.8953456009962943],[114.01491975751287,-6.8953546343977035],[114.01492879668676,-6.8953545772762528],[114.01492885384484,-6.8953636106775988],[114.01491077549666,-6.8953637249204833],[114.01491083265449,-6.8953727583219759],[114.01489275430566,-6.8953728725643284],[114.01489281146321,-6.8953819059659702],[114.01495608568392,-6.8953815061142247],[114.01495614284273,-6.8953905395153159],[114.01501037788708,-6.8953901967781404],[114.015010435047,-6.8953992301788096],[114.01502851339484,-6.8953991159315677],[114.01502857055519,-6.8954081493320638],[114.01503760972916,-6.895408092208112],[114.01503766688975,-6.8954171256085299],[114.01504670606383,-6.8954170684843312],[114.01504676322466,-6.8954261018846692],[114.01505580239883,-6.8954260447602254],[114.0150560310436,-6.8954621783612353],[114.01506507021838,-6.895462121236319],[114.01506518454158,-6.8954801880366494],[114.01507422371661,-6.8954801309114115],[114.01507428087849,-6.8954891643114955],[114.01508332005361,-6.8954891071860098],[114.01508337721575,-6.8954981405860147],[114.01507433804045,-6.8954981977115759],[114.0150744523646,-6.8955162645117252],[114.01506541318888,-6.8955163216372659],[114.015065527513,-6.8955343884375511],[114.01505648833684,-6.8955344455630723],[114.01505654549885,-6.8955434789632841],[114.015038467146,-6.8955435932139677],[114.01503852430774,-6.895552626614343],[114.01506564183742,-6.8955524552378362],[114.01506569899975,-6.8955614886379486],[114.0150747381763,-6.8955614315120295],[114.01507479533889,-6.8955704649120788],[114.01505671698531,-6.8955705791638966],[114.01505677414762,-6.8955796125640942],[114.01502061743891,-6.8955798410659854],[114.01502067460059,-6.8955888744664788],[114.01501163542304,-6.8955889315916004],[114.01501180690808,-6.8956160317932884],[114.01500276772997,-6.8956160889184668],[114.01500288205337,-6.8956341557197227],[114.01498480369619,-6.8956342699698681],[114.01498497518084,-6.8956613701721778],[114.01497593600165,-6.8956614272972212],[114.01497599316316,-6.8956704606980592],[114.01493079726507,-6.8956707463210929],[114.01493085442583,-6.8956797797223048],[114.0149218152458,-6.895679836846476],[114.01492187240646,-6.8956888702477581],[114.01491283322621,-6.8956889273718334],[114.01491294754743,-6.8957069941745388],[114.01490390836675,-6.8957070512985945],[114.01490396552731,-6.8957160847000178],[114.01487684798425,-6.8957162560713883],[114.01487690514438,-6.8957252894730328],[114.01486810607817,-6.8957253450791418],[114.01486786596304,-6.8957253465965582],[114.01486792312308,-6.8957343799982738],[114.0148588839415,-6.8957344371217033],[114.01485894110144,-6.8957434705234917],[114.01486798028317,-6.8957434133999875],[114.01486803744336,-6.8957524468016951],[114.01484091989737,-6.8957526181719251],[114.0148409770571,-6.8957616515738733],[114.01483193787477,-6.8957617086970178],[114.01483199503441,-6.8957707420990042],[114.01481391666923,-6.8957708563449307],[114.01481397382859,-6.8957798897470814],[114.0148049346457,-6.8957799468698635],[114.0148051061238,-6.8958070470765023],[114.01481414530721,-6.8958069899534928],[114.01481420246691,-6.8958160233556445],[114.01480516328331,-6.8958160804787303],[114.0148051061238,-6.8958070470765023],[114.01477798857312,-6.8958072184445074],[114.01477804573211,-6.895816251846961],[114.01476900654825,-6.8958163089693638],[114.01476906370715,-6.8958253423718725],[114.01476002452301,-6.8958253994941794],[114.01476008168183,-6.8958344328967609],[114.01475104249747,-6.8958344900189728],[114.01475109965618,-6.8958435234216253],[114.01474206047158,-6.8958435805437421],[114.01474211763019,-6.8958526139464489],[114.0147330784453,-6.8958526710684707],[114.01473313560385,-6.8958617044712831],[114.01472409641875,-6.8958617615932107],[114.01472415357718,-6.8958707949960782],[114.01471511439179,-6.8958708521179091],[114.01471522870857,-6.8958889189237826],[114.01472426789429,-6.8958888618017999],[114.01472432505297,-6.895897895204655],[114.01471528586707,-6.8958979523267132],[114.01471534302566,-6.8959069857296402],[114.01470630383953,-6.8959070428516043],[114.01470624668113,-6.8958980094486009],[114.01468816830896,-6.8958981236918646],[114.01468822546704,-6.8959071570950181],[114.01467918628069,-6.8959072142164697],[114.01467924343866,-6.8959162476196951],[114.01467020425204,-6.8959163047410508],[114.01467026140993,-6.895925338144365],[114.01466122222308,-6.8959253952656265],[114.01466139369666,-6.8959524954757043],[114.01465235450922,-6.89595255259702],[114.01465241166707,-6.8959615860004533],[114.01464337247937,-6.8959616431216739],[114.01464342963712,-6.895970676525196],[114.01465246882499,-6.8959706194038972],[114.01465252598298,-6.8959796528073065],[114.01467060435881,-6.8959795385640481],[114.01467054720048,-6.8959705051607916],[114.01467958638811,-6.8959704480389812],[114.01467952922968,-6.8959614146357628],[114.01467049004221,-6.8959614717574969],[114.01467037572591,-6.8959434049509305],[114.01468845410007,-6.8959432907075939],[114.01468839694171,-6.8959342573044555],[114.01470647531522,-6.8959341430605878],[114.01470641815658,-6.895925109657612],[114.01472449652945,-6.8959249954132149],[114.01472438221171,-6.8959069286075056],[114.01473342139769,-6.8959068714852005],[114.01473336423877,-6.8958978380824263],[114.01474240342451,-6.8958977809600261],[114.01474246058359,-6.8959068143627267],[114.01476053895516,-6.8959067001172647],[114.01476036747708,-6.8958795999096036],[114.01476940666225,-6.8958795427868438],[114.01476929234357,-6.895861475981869],[114.01477833152832,-6.8958614188590879],[114.01477827436892,-6.8958523854566538],[114.01478731355343,-6.8958523283337794],[114.01478725639394,-6.8958432949314492],[114.01480533476233,-6.8958431806853371],[114.01480527760259,-6.8958341472831393],[114.01481431678651,-6.8958340901599033],[114.01481437394644,-6.8958431235620257],[114.01482341313044,-6.8958430664385437],[114.01482335597035,-6.895834033036496],[114.01483239515412,-6.8958339759129181],[114.01483228083382,-6.8958159091089621],[114.01485035920044,-6.8958157948615977],[114.01485041636089,-6.8958248282634269],[114.01485945554427,-6.8958247711394129],[114.0148593412231,-6.8958067043358842],[114.0148686205212,-6.8958066456944174],[114.01489549795441,-6.8958064758387261],[114.01489544079327,-6.895797442437285],[114.01490447997575,-6.8957973853126449],[114.01490442281451,-6.8957883519112562],[114.01492250117886,-6.8957882376616144],[114.01492244401736,-6.8957792042603741],[114.01493148319926,-6.8957791471353724],[114.01493142603765,-6.895770113734204],[114.01494950440089,-6.8957699994838411],[114.01494933291551,-6.8957428992807648],[114.01497645045824,-6.8957427279046186],[114.01497639329608,-6.8957336945038126],[114.01499447165719,-6.8957335802523465],[114.01499441449477,-6.895724546851687],[114.01500345367502,-6.8957244897257741],[114.0150033965125,-6.8957154563251866],[114.01501243569251,-6.8957153991991778],[114.01501237852992,-6.8957063657986621],[114.01502141770969,-6.8957063086725583],[114.01502130338437,-6.8956882418716656],[114.0150755384593,-6.8956878991123673],[114.01507548129572,-6.8956788657123687],[114.01504836375912,-6.8956790370925587],[114.01504830659614,-6.8956700036923291],[114.01505734577491,-6.8956699465658451],[114.01505717428591,-6.8956428463653436],[114.01506621346412,-6.8956427892389156],[114.01506609913817,-6.8956247224387415],[114.01508417749361,-6.8956246081856758],[114.0150841203304,-6.8956155747857242],[114.01509315950786,-6.8956155176590119],[114.01509310234457,-6.8956064842591331],[114.01510214152177,-6.8956064271323241],[114.01510202719506,-6.8955883603327059],[114.01511106637184,-6.8955883032058773],[114.01511100920843,-6.8955792698061389],[114.01512004838496,-6.8955792126792153],[114.01512010554853,-6.8955882460788809],[114.01512914472515,-6.8955881889517094],[114.01512908756141,-6.8955791555521211],[114.0151471659141,-6.8955790412974221],[114.01514710875007,-6.8955700078979802],[114.01517422627799,-6.8955698365148779],[114.01517428344253,-6.8955788699140932],[114.01518332261854,-6.8955788127859758],[114.01518326545384,-6.8955697793868369],[114.01521038298085,-6.8955696080016864],[114.01521032581572,-6.8955605746027695],[114.01521936499105,-6.895560517474121],[114.01521930782583,-6.8955514840752938],[114.01522834700094,-6.8955514269465494],[114.01522823267038,-6.895533360148983],[114.0152191934956,-6.8955334172775755],[114.01521907916569,-6.895515350479859],[114.0152281183401,-6.8955152933514166],[114.01522823267038,-6.895533360148983],[114.01524631101965,-6.8955332458912846],[114.01524608235808,-6.8954971122967423],[114.01527319987939,-6.8954969409098217],[114.01527314271367,-6.8954879075114039],[114.01526410354013,-6.8954879646404725],[114.01526398920929,-6.8954698978434728],[114.01527302838247,-6.8954698407145552],[114.01527308554803,-6.8954788741129809],[114.01530020306762,-6.8954787027249784],[114.01530008873554,-6.8954606359285755],[114.01526393204396,-6.8954608644449671],[114.01526381771357,-6.8954427976479433],[114.01527285688626,-6.8954427405192531],[114.01527291405158,-6.8954517739176913],[114.01528195322433,-6.8954517167887541],[114.01528172456278,-6.8954155831952813],[114.01529980290672,-6.8954154689374993],[114.01529963141033,-6.8953883687427906],[114.01529059223891,-6.8953884258715394],[114.01529053507377,-6.8953793924732425],[114.01529957424503,-6.8953793353445683],[114.0152995170798,-6.8953703019463264],[114.01531759542172,-6.8953701876886164],[114.01531753825623,-6.895361154290522],[114.01530849908546,-6.8953612114193863],[114.01530844192021,-6.895352178021211],[114.01529940274958,-6.8953522351498293],[114.01529928841965,-6.895334168353318],[114.01526313173763,-6.8953343968654783],[114.01526318890186,-6.8953434302640551],[114.01525414973101,-6.8953434873917452],[114.01525420689515,-6.8953525207903601],[114.01524516772403,-6.8953525779179543],[114.01524528205221,-6.8953706447153573],[114.01523624288069,-6.895370701842932],[114.01523630004472,-6.8953797352417032],[114.01522726087295,-6.8953797923691829],[114.01522731803689,-6.8953888257680083],[114.01521827886485,-6.8953888828953929],[114.01521839319263,-6.8954069496932346],[114.01520935402019,-6.8954070068205997],[114.01520946834792,-6.8954250736185605],[114.01520042917507,-6.8954251307459051],[114.01520048633888,-6.8954341641449384],[114.01519144716576,-6.8954342212721889],[114.01519139000212,-6.8954251878730801],[114.01516427248285,-6.895425359253581],[114.01516432964597,-6.8954343926529162],[114.0151733688193,-6.8954343355261773],[114.01517342598268,-6.8954433689254664],[114.01516438680918,-6.8954434260522817],[114.01516432964597,-6.8954343926529162],[114.01514625129906,-6.8954345069058816],[114.01514619413628,-6.8954254735063945],[114.01512811578939,-6.8954255877585249],[114.01512805862701,-6.8954165543588672],[114.01511901945364,-6.8954166114846016],[114.01511907661585,-6.8954256448843347],[114.01511003744223,-6.8954257020099741],[114.0151099802802,-6.8954166686101654]],[[114.01501935990088,-6.895381106254117],[114.01499224237979,-6.8953812776237582],[114.01499218522036,-6.8953722442229486],[114.01501930274094,-6.895372072853533],[114.01501935990088,-6.895381106254117]],[[114.01498314604667,-6.8953723013457449],[114.01497410687293,-6.8953723584683715],[114.01497404971391,-6.8953633250674056],[114.0149830888875,-6.8953632679448544],[114.01498314604667,-6.8953723013457449]],[[114.0149559713665,-6.8953634393119954],[114.0149378930188,-6.8953635535559021],[114.01493783586055,-6.8953545201546307],[114.01495591420792,-6.895354405910874],[114.0149559713665,-6.8953634393119954]],[[114.01499184226542,-6.8953180438180022],[114.01498280309275,-6.8953181009403455],[114.01498274593403,-6.8953090675394328],[114.01499178510653,-6.8953090104171642],[114.01499184226542,-6.8953180438180022]],[[114.01520969700431,-6.8954612072144341],[114.01521873617777,-6.895461150086617],[114.01521879334223,-6.8954701834854992],[114.01520975416859,-6.8954702406133936],[114.01520969700431,-6.8954612072144341]],[[114.01514688009478,-6.8955338743001775],[114.01514682293116,-6.895524840900717],[114.01516490128148,-6.8955247266462409],[114.01516484411759,-6.8955156932469279],[114.01517388329245,-6.8955156361195096],[114.01517382612846,-6.8955066027202685],[114.0151828653031,-6.8955065455927542],[114.0151829796315,-6.8955246123910836],[114.01517394045652,-6.895524669518748],[114.01517399762066,-6.895533702917982],[114.01518303679582,-6.8955336457902421],[114.01518320828923,-6.8955607459876935],[114.01517416911356,-6.8955608031156599],[114.01517411194918,-6.8955517697164552],[114.01516507277363,-6.8955518268441747],[114.01516495844545,-6.8955337600455513],[114.01514688009478,-6.8955338743001775],[114.01514699442228,-6.8955519410991037],[114.01512891607061,-6.8955520553533498],[114.01512897323414,-6.8955610887529328],[114.01511993405802,-6.8955611458798751],[114.01511999122145,-6.895570179279547],[114.01511095204509,-6.8955702364063951],[114.01511072339254,-6.8955341028073827],[114.01514688009478,-6.8955338743001775]],[[114.01519213313544,-6.8955426220614102],[114.01520117231061,-6.8955425649332529],[114.01520122947541,-6.8955515983322693],[114.01519219030008,-6.8955516554605021],[114.01519213313544,-6.8955426220614102]],[[114.01509287369215,-6.895570350659578],[114.01508383451554,-6.8955704077859146],[114.0150837773528,-6.8955613743859399],[114.01509281652923,-6.8955613172596797],[114.01509287369215,-6.895570350659578]],[[114.01510168421677,-6.8955341599337574],[114.01508360586503,-6.8955342741859953],[114.01508349154024,-6.8955162073860121],[114.01510156989129,-6.8955160931340771],[114.01510168421677,-6.8955341599337574]],[[114.01507490966425,-6.8955885317121668],[114.01508394884125,-6.8955884745858498],[114.01508400600423,-6.8955975079857952],[114.01507496682706,-6.8955975651121868],[114.01507490966425,-6.8955885317121668]],[[114.01502084608616,-6.8956159746679404],[114.01502988526413,-6.895615917542421],[114.01502994242631,-6.8956249509428256],[114.01502090324816,-6.8956250080684196],[114.01502084608616,-6.8956159746679404]],[[114.01482312733076,-6.895797899428266],[114.01483216651383,-6.895797842304991],[114.01483222367378,-6.8958068757069615],[114.01482318449054,-6.8958069328303129],[114.01482312733076,-6.895797899428266]],[[114.01478714207521,-6.8958252281267463],[114.01478708491594,-6.8958161947243877],[114.01479612409968,-6.8958161376016438],[114.0147961812591,-6.8958251710039269],[114.01478714207521,-6.8958252281267463],[114.01478719923453,-6.8958342615290986],[114.01477816005037,-6.8958343186518238],[114.0147781028912,-6.8958252852493942],[114.01478714207521,-6.8958252281267463]],[[114.01476013884073,-6.8958434662993371],[114.01476917802522,-6.8958434091768792],[114.01476923518436,-6.8958524425793586],[114.01476019599971,-6.8958524997018928],[114.01476013884073,-6.8958434662993371]],[[114.01468828262519,-6.8959161904981681],[114.01469732181165,-6.8959161333764705],[114.01469737897004,-6.8959251667795582],[114.0146883397834,-6.8959252239013313],[114.01468828262519,-6.8959161904981681]],[[114.01523652870164,-6.8954158688367482],[114.01522748952917,-6.8954159259645307],[114.01522743236499,-6.8954068925656991],[114.01523647153728,-6.8954068354379929],[114.01523652870164,-6.8954158688367482]]],[[[114.01514442212789,-6.8951454381198687],[114.0151444792883,-6.8951544715194917],[114.0151535184565,-6.895154414395436],[114.01515346129592,-6.8951453809958885],[114.01514442212789,-6.8951454381198687]]],[[[114.01514442212789,-6.8951454381198687],[114.01514436496754,-6.8951364047202572],[114.01513532579963,-6.8951364618439905],[114.01513538295978,-6.8951454952436775],[114.01514442212789,-6.8951454381198687]]]]},"properties":{"FID":0,"Shape_Leng":18102566.929299999,"Shape_Area":236516885.403}}]
}