{
  "type" : "FeatureCollection",
  "features" : [{"type":"Feature","id":0,"geometry":{"type":"MultiPolygon","coordinates":[[[[113.5106013074323,-7.2267237400712148],[113.51060125751758,-7.2267147029346734],[113.51059220804034,-7.2267147527811977],[113.51059225795487,-7.2267237899178012],[113.5106013074323,-7.2267237400712148]]],[[[113.51064655481842,-7.2267234908355924],[113.51064650490281,-7.2267144536993637],[113.51061030699475,-7.2267146530879689],[113.51061035690964,-7.2267236902244489],[113.51064655481842,-7.2267234908355924]]],[[[113.51066465377242,-7.226723391140089],[113.51066460385645,-7.2267143540039864],[113.51067365333317,-7.2267143041560287],[113.51067360341709,-7.2267052670199865],[113.51068265289356,-7.2267052171719115],[113.51068260297735,-7.226696180035928],[113.5106645040247,-7.2266962797317706],[113.51066455394054,-7.2267053168678803],[113.51065550446393,-7.2267053667155956],[113.51065560429545,-7.2267234409879304],[113.51066465377242,-7.226723391140089]]],[[[113.51073679999946,-7.2266778066728756],[113.51073675008239,-7.2266687695372571],[113.51072770060699,-7.2266688193861546],[113.51072775052391,-7.2266778565218361],[113.51073679999946,-7.2266778066728756]]],[[[113.51059165898469,-7.2266153442782732],[113.51058260950936,-7.2266153941239244],[113.51058280916435,-7.2266515426707487],[113.51057375968824,-7.2266515925164736],[113.51057390942962,-7.2266787039267379],[113.51058295890626,-7.2266786540808257],[113.51058300882035,-7.226687691217494],[113.51059205829711,-7.2266876413713392],[113.51059215812586,-7.2267057156445853],[113.51063740551051,-7.2267054664104906],[113.51063735559521,-7.2266964292741909],[113.51062830611859,-7.2266964791213066],[113.51062805654394,-7.2266512934394367],[113.51061900706814,-7.2266513432860568],[113.51061890723911,-7.2266332690131589],[113.51060985776358,-7.2266333188594736],[113.5106099076779,-7.2266423559959705],[113.51059180872636,-7.2266424556881912],[113.51059165898469,-7.2266153442782732]],[[113.51060100794497,-7.2266695172518984],[113.51061005742125,-7.2266694674055092],[113.51061010733581,-7.2266785045420097],[113.51060105785936,-7.2266785543884628],[113.51060100794497,-7.2266695172518984]]],[[[113.51088109240301,-7.2265866377188601],[113.51087204293026,-7.2265866875700588],[113.51087209284945,-7.2265957247047847],[113.51088114232239,-7.2265956748535212],[113.51088109240301,-7.2265866377188601]]],[[[113.51126662000003,-7.2264997429999713],[113.51125661700019,-7.2264564999998644],[113.51125588444945,-7.2264490118219387],[113.51124232236933,-7.2264490865416269],[113.51124237229493,-7.2264581236738135],[113.51123332282725,-7.2264581735312978],[113.51123342267829,-7.2264762477957643],[113.51122437321021,-7.2264762976531944],[113.51122447306113,-7.2264943719178065],[113.51117922571794,-7.2264946212029049],[113.5111792756426,-7.2265036583355107],[113.51117022617358,-7.2265037081920571],[113.51117024467008,-7.2265070563516929],[113.51126662000003,-7.2264997429999713]]],[[[113.5111337287553,-7.2264496848188591],[113.51115182769162,-7.2264495851077797],[113.51115167792059,-7.2264224737093112],[113.51113357898535,-7.2264225734200132],[113.51113362890861,-7.2264316105529485],[113.51112457944069,-7.226431660408096],[113.51112462936383,-7.2264406975411228],[113.5110884314909,-7.2264408969601615],[113.51108848141338,-7.2264499340934227],[113.51110658035034,-7.2264498343841357],[113.51110663027325,-7.2264588715172637],[113.51113377867874,-7.2264587219518006],[113.5111337287553,-7.2264496848188591]]],[[[113.51105198400909,-7.2263959107087183],[113.51104293454134,-7.2263959605619998],[113.51104313422678,-7.2264321090963364],[113.51105218369526,-7.2264320592428035],[113.51105223361694,-7.2264410963763348],[113.51106128308554,-7.2264410465225621],[113.5110613829295,-7.2264591207894551],[113.51105233346054,-7.2264591706433539],[113.51105238338243,-7.2264682077768594],[113.51104333391325,-7.2264682576306418],[113.51104343375685,-7.2264863318977639],[113.51106153269589,-7.2264862321897647],[113.5110614827737,-7.2264771950563143],[113.5110795817121,-7.2264770953477253],[113.5110795317896,-7.2264680582144303],[113.51109763072741,-7.2264679585052498],[113.51109758080463,-7.2264589213720622],[113.51107948186718,-7.2264590210811157],[113.5110793820225,-7.2264409468144741],[113.51107033255406,-7.2264409966686074],[113.51107013286619,-7.2264048481350276],[113.51105203393053,-7.2264049478422514],[113.51105198400909,-7.2263959107087183]]],[[[113.51110628081427,-7.226395611585275],[113.51110623089181,-7.2263865744521327],[113.51109718142462,-7.2263866243064276],[113.51109723134689,-7.2263956614396294],[113.51110628081427,-7.226395611585275]]],[[[113.51115142830351,-7.2263772880451222],[113.51115137838028,-7.2263682509122713],[113.51114232891376,-7.2263683007673336],[113.51114237883681,-7.2263773379002485],[113.51115142830351,-7.2263772880451222]]],[[[113.51070785461728,-7.2263526193277059],[113.51071690408652,-7.2263525694813708],[113.51071680425774,-7.2263344952095974],[113.51065345797431,-7.2263348441292949],[113.51065355780058,-7.2263529184019495],[113.51067165673975,-7.2263528187112511],[113.51067170665333,-7.2263618558474478],[113.51064455824397,-7.2263620053834146],[113.51064460815708,-7.2263710425197969],[113.51066270709708,-7.2263709428292051],[113.51066280692422,-7.2263890171017202],[113.51065375745388,-7.2263890669472302],[113.5106538572809,-7.2264071412198225],[113.51067195622223,-7.2264070415283683],[113.51067185639447,-7.2263889672560291],[113.51068090586466,-7.2263889174101594],[113.5106808559507,-7.2263798802740213],[113.51068990542068,-7.2263798304280344],[113.5106898555066,-7.2263707932919727],[113.51070795444595,-7.2263706935995904],[113.51070785461728,-7.2263526193277059]]],[[[113.51088109240301,-7.2265866377188601],[113.51090824082084,-7.2265864881641892],[113.51090819090098,-7.2265774510297289],[113.51091724037327,-7.2265774011778801],[113.5109171904533,-7.2265683640434775],[113.51094433886931,-7.2265682144870356],[113.51094423902849,-7.226550140218615],[113.51095328849999,-7.2265500903662367],[113.51095323857949,-7.226541053232058],[113.5109803869931,-7.2265409036740342],[113.51098028715121,-7.2265228294060773],[113.51098933662195,-7.2265227795531697],[113.51098923677996,-7.226504705285322],[113.51099828625024,-7.226504655432362],[113.51099818640816,-7.2264865811646262],[113.51098008746824,-7.2264866808701171],[113.51097998762712,-7.2264686066021131],[113.51098903709678,-7.2264685567495839],[113.51098863773349,-7.2263962596779185],[113.51097053879701,-7.2263963593817913],[113.51097038903791,-7.2263692479794726],[113.5109613395701,-7.2263692978309528],[113.51096118981212,-7.2263421864284112],[113.51092499194249,-7.2263423858317761],[113.510924942024,-7.2263333486973371],[113.5108615957509,-7.2263336976458854],[113.51086164566813,-7.2263427347807676],[113.51084354673202,-7.2263428344788654],[113.51084359664894,-7.2263518716138693],[113.51087979452163,-7.2263516722167038],[113.51087989435712,-7.2263697464861947],[113.51088894382548,-7.2263696966363291],[113.51088899374349,-7.2263787337710044],[113.51089804321199,-7.2263786839208963],[113.51089814304859,-7.2263967581901127],[113.51090719251735,-7.2263967083396992],[113.51090714259885,-7.2263876712051731],[113.51092524153586,-7.2263875715039365],[113.51092534137366,-7.2264056457727488],[113.51093439084241,-7.2264055959217348],[113.51093449068082,-7.2264236701904228],[113.51092544121171,-7.226423720041562],[113.51092539129266,-7.2264146829071576],[113.51091634182363,-7.2264147327580535],[113.51091639174251,-7.2264237698925218],[113.51089829280396,-7.2264238695939058],[113.51089844255991,-7.2264509809976634],[113.51088939308997,-7.226451030848275],[113.51088944300858,-7.2264600679829174],[113.51089849247869,-7.2264600181322427],[113.51089854239753,-7.2264690552668158],[113.51088949292723,-7.2264691051175545],[113.51088959276476,-7.2264871793868171],[113.5108986422354,-7.2264871295359523],[113.51089874207354,-7.2265052038050754],[113.51090779154445,-7.2265051539539051],[113.5109078414638,-7.2265141910883974],[113.51089879199269,-7.226514240939629],[113.5108988918312,-7.2265323152087273],[113.51090794130268,-7.2265322653573687],[113.5109079912222,-7.2265413024918495],[113.51091704069378,-7.2265412526402493],[113.51091709061356,-7.2265502897746794],[113.51092614008527,-7.2265502399228367],[113.51092619000529,-7.2265592770571665],[113.51089904158947,-7.2265594266123436],[113.51089909150902,-7.2265684637468759],[113.51089004203675,-7.2265685135983055],[113.51089009195617,-7.2265775507328964],[113.51088104248369,-7.2265776005842106],[113.51088109240301,-7.2265866377188601]],[[113.51098023723038,-7.2265137922720921],[113.51097118775978,-7.2265138421247572],[113.51097123768044,-7.2265228792588054],[113.51096218820959,-7.2265229291113551],[113.5109620883687,-7.2265048548431317],[113.5109801873096,-7.2265047551381061],[113.51098023723038,-7.2265137922720921]],[[113.51095238994088,-7.2263874219507356],[113.51094334047262,-7.2263874718019805],[113.51094329055346,-7.2263784346676694],[113.51095234002155,-7.2263783848164866],[113.51095238994088,-7.2263874219507356]]],[[[113.51110563182735,-7.2262781288539273],[113.51110558190571,-7.2262690917207033],[113.51109653244085,-7.2262691415741767],[113.51109658236228,-7.2262781787074637],[113.51110563182735,-7.2262781288539273]]],[[[113.51123252402827,-7.2263135794148612],[113.51124157349307,-7.2263135295583867],[113.5112415235685,-7.226304492426137],[113.51124174607534,-7.226304491200275],[113.51123732779291,-7.2262593285053596],[113.51122317501911,-7.2262594064768599],[113.51122322494301,-7.2262684436092366],[113.51121417547897,-7.2262684934650405],[113.51121442509849,-7.22631367912728],[113.51120537563351,-7.2263137289832171],[113.51120527578587,-7.2262956547182169],[113.51119622632119,-7.2262957045738485],[113.51119637609222,-7.2263228159715363],[113.51123257395273,-7.2263226165471686],[113.51123252402827,-7.2263135794148612]]],[[[113.51120507609136,-7.2262595061881614],[113.51120502616789,-7.2262504690556399],[113.51119597670412,-7.2262505189109589],[113.51119602662739,-7.2262595560435452],[113.51120507609136,-7.2262595061881614]]],[[[113.51116857869953,-7.2262054828119062],[113.51115047977319,-7.2262055825203033],[113.5111506295396,-7.2262326939190515],[113.51114158007576,-7.2262327437731697],[113.51114162999785,-7.2262417809061414],[113.51112353106966,-7.2262418806139657],[113.51112348114793,-7.2262328434808678],[113.51111443168392,-7.2262328933344486],[113.5111146812923,-7.2262780790002124],[113.51113278022206,-7.2262779792922416],[113.51113273029989,-7.2262689421592059],[113.51114177976449,-7.2262688923050167],[113.51114172984221,-7.2262598551720734],[113.51115982877086,-7.2262597554632793],[113.5111597788483,-7.2262507183304425],[113.51118692724025,-7.2262505687660976],[113.51118687731719,-7.2262415316334456],[113.5112049762445,-7.2262414319231132],[113.51120492632114,-7.226232394790582],[113.51122302524783,-7.2262322950796589],[113.51122307517151,-7.2262413322120631],[113.51123556048064,-7.2262412634272755],[113.51123379316874,-7.2262231983491052],[113.51123202478725,-7.2262232080915654],[113.51123197486349,-7.2262141709592314],[113.51119577701158,-7.2262143703805766],[113.51119582693462,-7.2262234075131619],[113.51116867854446,-7.2262235570774749],[113.51116857869953,-7.2262054828119062]]],[[[113.51060746195176,-7.2261995363021381],[113.51060736212946,-7.2261814620287366],[113.51059831266288,-7.2261815118717223],[113.51059841248482,-7.2261995861452517],[113.51060746195176,-7.2261995363021381]]],[[[113.51037197616472,-7.2261646836114481],[113.51035387722885,-7.2261647832876728],[113.51035397704085,-7.2261828575646518],[113.51031777916695,-7.2261830569154544],[113.51031782907233,-7.2261920940541637],[113.51032687854108,-7.2261920442166696],[113.51032692844669,-7.2262010813553275],[113.51034502738436,-7.2262009816796748],[113.5103450772904,-7.226210018818203],[113.5103541267593,-7.2262099689800454],[113.51035402694694,-7.2261918947031081],[113.51036307641544,-7.2261918448648963],[113.51036312632178,-7.2262008820033037],[113.51037217579038,-7.2262008321648494],[113.51037207597741,-7.2261827578881732],[113.51038112544559,-7.2261827080496657],[113.51038107553903,-7.2261736709113595],[113.51037202607104,-7.226173720749804],[113.51037197616472,-7.2261646836114481]]],[[[113.51114038196496,-7.2260158525806579],[113.51114033204448,-7.2260068154476071],[113.51113128258508,-7.2260068652999694],[113.5111313325054,-7.2260159024330877],[113.51114038196496,-7.2260158525806579]]],[[[113.51114913190148,-7.2259615799299723],[113.51114918182182,-7.2259706170630125],[113.51115823128035,-7.2259705672105436],[113.51115818135985,-7.2259615300775639],[113.51114913190148,-7.2259615799299723]]],[[[113.51114913190148,-7.2259615799299723],[113.5111490819812,-7.2259525427969402],[113.51114003252293,-7.2259525926491088],[113.51114008244303,-7.2259616297821978],[113.51114913190148,-7.2259615799299723]]],[[[113.51096794305424,-7.2259264284033051],[113.51093174521786,-7.2259266277957988],[113.51093179513363,-7.2259356649303523],[113.51094989405232,-7.2259355652343382],[113.51094994396851,-7.2259446023687612],[113.51095899342793,-7.2259445525204207],[113.51095904334437,-7.225953589654778],[113.51094999388478,-7.2259536395031825],[113.51095024346708,-7.2259988251752194],[113.51095929292755,-7.2259987753265031],[113.51095934284439,-7.2260078124608365],[113.51095029338371,-7.2260078623096158],[113.51095034330044,-7.2260168994439917],[113.51094129383952,-7.2260169492926556],[113.51094139367278,-7.2260350235615709],[113.51093234421143,-7.2260350734101815],[113.51093224437852,-7.2260169991411392],[113.51092319491748,-7.2260170489894442],[113.51092324483372,-7.2260260861240395],[113.51091419537242,-7.2260261359722291],[113.51091439503729,-7.226062284510733],[113.51090534557524,-7.2260623343589945],[113.51090539549143,-7.2260713714936964],[113.51088729656674,-7.2260714711898064],[113.5108872466509,-7.2260624340549819],[113.51087819718862,-7.2260624839027052],[113.51087824710429,-7.2260715210375954],[113.5108601481792,-7.2260716207326317],[113.51086019809456,-7.2260806578676267],[113.51084209916887,-7.2260807575620714],[113.51084204925387,-7.2260717204269511],[113.51082395032827,-7.2260718201205556],[113.51082390041368,-7.226062782985287],[113.51081485095096,-7.226062832831758],[113.51081490086537,-7.2260718699670878],[113.51077870301316,-7.2260720693514262],[113.51077865309946,-7.226063032215845],[113.51076960363643,-7.2260630820614189],[113.51076955372298,-7.2260540449258022],[113.51075145479707,-7.2260541446162865],[113.51075140488405,-7.226045107480525],[113.51073330595827,-7.2260452071701655],[113.51073315622065,-7.2260180957624609],[113.51072410675818,-7.2260181456068242],[113.51072405684594,-7.2260091084708762],[113.51071500738362,-7.2260091583149961],[113.51071490755972,-7.2259910840429251],[113.51070585809765,-7.2259911338867413],[113.51070580818597,-7.2259820967506352],[113.51067865979998,-7.2259822462808181],[113.5106788095336,-7.2260093576896844],[113.51066976007094,-7.2260094075329091],[113.51066971015986,-7.2260003703965614],[113.51065161123469,-7.2260004700823472],[113.51065171105621,-7.2260185443552771],[113.51062456266692,-7.2260186938829882],[113.51062466248761,-7.2260367681563125],[113.51061561302404,-7.2260368179986516],[113.51061571284463,-7.2260548922720691],[113.51060666338061,-7.2260549421143541],[113.51060671329083,-7.2260639792511023],[113.51059766382659,-7.2260640290932709],[113.51059771373667,-7.2260730662301134],[113.51062486212979,-7.226072916702881],[113.51062491204048,-7.226081953839512],[113.510615862576,-7.2260820036821656],[113.5106159124866,-7.226091040818857],[113.51059781355708,-7.2260911405037529],[113.51059806310919,-7.2261363261877776],[113.51058901364343,-7.2261363760302721],[113.51058906355385,-7.2261454131671288],[113.51058001408786,-7.2261454630095061],[113.51058016381901,-7.2261725744202394],[113.51059826275201,-7.2261724747349296],[113.51059821284122,-7.2261634375981476],[113.51060726230743,-7.2261633877552853],[113.51060716248566,-7.2261453134818376],[113.51061621195147,-7.2261452636389212],[113.51061641159599,-7.2261814121855688],[113.51062546106245,-7.2261813623422233],[113.51062556088544,-7.2261994366153726],[113.5106346103522,-7.2261993867717216],[113.51063466026397,-7.2262084239082363],[113.51067085813106,-7.2262082245315868],[113.51067090804364,-7.2262172616678457],[113.51066185857678,-7.2262173115123396],[113.51066195840176,-7.2262353857849702],[113.51067100786895,-7.2262353359403502],[113.51067095795626,-7.2262262988040833],[113.51068000742323,-7.226226248959347],[113.51067990759768,-7.2262081746869766],[113.51068895706425,-7.2262081248421879],[113.51068890715138,-7.2261990877060507],[113.51069795661768,-7.2261990378611456],[113.51069800653072,-7.226208074997218],[113.51070705599712,-7.2262080251520713],[113.51070700608392,-7.2261989880160602],[113.51076130288001,-7.2261986889417882],[113.5107613527943,-7.2262077260774218],[113.51077040226028,-7.2262076762310183],[113.51077035234579,-7.2261986390954478],[113.51077940181153,-7.2261985892489298],[113.5107795016409,-7.2262166635199403],[113.51073425430984,-7.2262169127513696],[113.5107343042237,-7.2262259498871675],[113.51074335369022,-7.226225900041177],[113.51074340360435,-7.2262349371769394],[113.51077055200408,-7.2262347876377033],[113.51077060191879,-7.2262438247732579],[113.51079775031846,-7.2262436752322214],[113.51079770040322,-7.2262346380968561],[113.51080674986947,-7.2262345882495467],[113.51080684970043,-7.2262526625201478],[113.51081589916697,-7.2262526126725337],[113.51081594908273,-7.2262616498077659],[113.510806899616,-7.2262616996554412],[113.51080694953164,-7.226270736790716],[113.51083409793216,-7.2262705872469599],[113.5108341478484,-7.2262796243820739],[113.51092464251445,-7.2262791258906125],[113.51092454267845,-7.2262610516216741],[113.51084309748251,-7.2262615002636634],[113.51084304756623,-7.2262524631286196],[113.51085209703253,-7.2262524132802897],[113.51085204711612,-7.2262433761453062],[113.51088824497991,-7.2262431767504474],[113.51088819506286,-7.2262341396157108],[113.51089724452846,-7.22623408976661],[113.51089729444571,-7.2262431269012835],[113.51090634391144,-7.226243077051941],[113.51090629399401,-7.2262340399173333],[113.51092439292492,-7.2262339402182363],[113.51092429308956,-7.226215865949257],[113.51093334255455,-7.2262158160995664],[113.51093329263678,-7.2262067789651345],[113.51092424317198,-7.2262068288147612],[113.51092409341959,-7.2261797174112692],[113.51093314288387,-7.2261796675618317],[113.51093309296637,-7.2261706304273687],[113.51094214243041,-7.2261705805778131],[113.5109419427603,-7.2261344320402339],[113.51095099222356,-7.2261343821907502],[113.51095089238852,-7.2261163079220649],[113.51094184292563,-7.2261163577714216],[113.51094164325706,-7.2260802092337499],[113.51093259379481,-7.2260802590826749],[113.51093264371167,-7.226089296217161],[113.51092359424919,-7.2260893460659723],[113.51092349441589,-7.2260712717968669],[113.51095064280206,-7.2260711222502794],[113.51095054296792,-7.2260530479815381],[113.51095959242949,-7.2260529981324444],[113.51095939276128,-7.2260168495951485],[113.51096844222208,-7.2260167997461275],[113.51096834238801,-7.2259987254776075],[113.51097739184836,-7.2259986756285306],[113.51097734193124,-7.2259896384943207],[113.51098639139138,-7.2259895886451293],[113.51098619172281,-7.2259534401084986],[113.51097714226339,-7.2259534899574369],[113.51097709234658,-7.2259444528232075],[113.5109680428873,-7.2259445026719025],[113.51096794305424,-7.2259264284033051]],[[113.51066125963244,-7.2261088658762249],[113.51065221016766,-7.2261089157197835],[113.51065226007915,-7.2261179528562094],[113.51064321061415,-7.2261180026996534],[113.51064311079159,-7.2260999284266694],[113.51063406132685,-7.226099978269807],[113.51063401141585,-7.2260909411332443],[113.5106430608804,-7.2260908912901707],[113.51064301096928,-7.2260818541536684],[113.51063396150491,-7.2260819039966799],[113.51063391159401,-7.2260728668601111],[113.5106429610582,-7.2260728170171618],[113.5106429111472,-7.2260637798806355],[113.5106338616832,-7.22606382972352],[113.51063376186175,-7.2260457554503805],[113.51065186078897,-7.2260456557646799],[113.51065201052231,-7.2260727671740339],[113.51066105998638,-7.2260727173307266],[113.51066125963244,-7.2261088658762249]],[[113.51090554524042,-7.2260984828977231],[113.51089649577757,-7.2260985327460583],[113.51089644586135,-7.2260894956113235],[113.51090549532402,-7.2260894457630496],[113.51090554524042,-7.2260984828977231],[113.51091459470321,-7.2260984330492084],[113.51091464461985,-7.2261074701838135],[113.51090559515688,-7.2261075200323894],[113.51090554524042,-7.2260984828977231]],[[113.51062531132843,-7.2261542509324279],[113.51064341026006,-7.2261541512455763],[113.51064346017171,-7.2261631883820483],[113.51062536123969,-7.2261632880690234],[113.51062531132843,-7.2261542509324279]],[[113.51082489871759,-7.2262435256895712],[113.51083394818383,-7.2262434758416614],[113.51083399809987,-7.2262525129767701],[113.51082494863346,-7.226252562824742],[113.51082489871759,-7.2262435256895712]]],[[[113.51092264584307,-7.2259176405088548],[113.5109225959276,-7.2259086033742292],[113.51090449700962,-7.2259087030687912],[113.51090454692472,-7.2259177402035402],[113.51092264584307,-7.2259176405088548]]],[[[113.51094059501386,-7.2258904294099429],[113.51093154555538,-7.2258904792575454],[113.51093169530215,-7.2259175906612416],[113.51094074476117,-7.2259175408134491],[113.51094069484533,-7.2259085036789514],[113.51094974430409,-7.2259084538310434],[113.51094969438815,-7.2258994166966035],[113.51094064492958,-7.2258994665444494],[113.51094059501386,-7.2258904294099429]]],[[[113.5110848871585,-7.2257992604887296],[113.51107583770283,-7.2257993103385694],[113.51107593753841,-7.2258173846057661],[113.51106688808234,-7.2258174344555517],[113.51106708775353,-7.225853582990136],[113.51107613721031,-7.2258535331400973],[113.51107603737424,-7.2258354588729468],[113.51108508683062,-7.2258354090228556],[113.5110848871585,-7.2257992604887296]]],[[[113.5110848871585,-7.2257992604887296],[113.51109393661409,-7.2257992106387094],[113.51109388669605,-7.2257901735052315],[113.51108483724063,-7.2257902233551885],[113.5110848871585,-7.2257992604887296]]],[[[113.51109383677806,-7.2257811363717481],[113.51109378686014,-7.225772099238263],[113.51110283631515,-7.2257720493882536],[113.51110273647913,-7.2257539751213944],[113.51108463756981,-7.2257540748209825],[113.51108478732283,-7.2257811862216403],[113.51109383677806,-7.2257811363717481]]],[[[113.51115818135985,-7.2259615300775639],[113.51117628027639,-7.2259614303722115],[113.51117657980264,-7.2260156531691608],[113.51118562926187,-7.2260156033158358],[113.51118592879149,-7.2260698261122975],[113.5112130771721,-7.2260696765501216],[113.51121312709446,-7.226078713682659],[113.51119502817379,-7.2260788133910827],[113.51119507809585,-7.2260878505237409],[113.51120412755641,-7.2260878006695561],[113.51120422740111,-7.2261058749347393],[113.51121327686195,-7.2261058250802499],[113.5112131770169,-7.2260877508151937],[113.51122180051247,-7.2260877033073436],[113.51121988300018,-7.2260235429999451],[113.51120149908661,-7.2257082440266265],[113.51115678361127,-7.2257084903530053],[113.51115683353001,-7.2257175274860792],[113.51114778407647,-7.2257175773367859],[113.5111479837513,-7.2257537258692901],[113.51113893429699,-7.2257537757200678],[113.51113908405324,-7.2257808871195959],[113.51113003459834,-7.2257809369703851],[113.51113013443582,-7.2257990112368411],[113.51112108498047,-7.225799061087578],[113.51112118481782,-7.2258171353541458],[113.51113023427354,-7.2258170855032802],[113.51113028419249,-7.225826122636497],[113.51111218528068,-7.2258262223381671],[113.51111223519933,-7.2258352594715038],[113.51110318574317,-7.225835309322135],[113.51110328558033,-7.2258533835889036],[113.51111233503686,-7.225853333738149],[113.51111238495572,-7.2258623708714911],[113.51109428604222,-7.2258624705729497],[113.51109453563565,-7.2259076562401461],[113.51110358509335,-7.2259076063891907],[113.51110368493153,-7.2259256806559167],[113.5111127343895,-7.2259256308046584],[113.51111268447018,-7.2259165936713607],[113.51112173392791,-7.2259165438199844],[113.51112178384739,-7.2259255809532181],[113.51114893222075,-7.2259254313978278],[113.51114903206098,-7.2259435056639063],[113.51115808151899,-7.2259434558116258],[113.51115818135985,-7.2259615300775639]],[[113.51117608059351,-7.2259252818408237],[113.51118513005096,-7.2259252319881293],[113.51118517997176,-7.225934269120919],[113.51119422942935,-7.2259342192679847],[113.51119427935041,-7.2259432564007078],[113.51118522989263,-7.2259433062537068],[113.51118527981356,-7.2259523433864876],[113.5111671808975,-7.2259524430920727],[113.51116708105641,-7.2259343688262527],[113.51117613051414,-7.2259343189736764],[113.51117608059351,-7.2259252818408237],[113.51116703113597,-7.225925331693337],[113.51116693129528,-7.2259072574274938],[113.51117598075245,-7.2259072075751059],[113.51117608059351,-7.2259252818408237]],[[113.51112168400849,-7.2259075066867471],[113.51111263455094,-7.2259075565380577],[113.51111258463177,-7.2258985194047538],[113.51110353517436,-7.2258985692558237],[113.51110348525542,-7.2258895321224506],[113.51113063362699,-7.2258893825688908],[113.51113068354645,-7.2258984197020739],[113.51112163408914,-7.2258984695535027],[113.51112168400849,-7.2259075066867471]],[[113.5111849303684,-7.2258890834569325],[113.51117588091167,-7.2258891333093729],[113.51117583099136,-7.2258800961765006],[113.51119392990442,-7.2258799964715665],[113.51119402974581,-7.2258980707370535],[113.51118498028895,-7.2258981205897381],[113.5111849303684,-7.2258890834569325]],[[113.51116653193506,-7.2258349603639651],[113.51114843302342,-7.2258350600671948],[113.51114833318472,-7.2258169858010204],[113.51116643209565,-7.2258168860980421],[113.51116653193506,-7.2258349603639651]],[[113.51120262991677,-7.225816686689936],[113.51119358046158,-7.2258167365422308],[113.51119353054143,-7.2258076994094367],[113.51120257999642,-7.2258076495572032],[113.51120262991677,-7.225816686689936]]],[[[113.5111115363439,-7.2257087396044328],[113.51110248689024,-7.2257087894541803],[113.51110243697266,-7.2256997523207236],[113.5110933875191,-7.2256998021702312],[113.51109358718911,-7.2257359507042782],[113.51110263664337,-7.225735900854521],[113.5111025867256,-7.2257268637210785],[113.51111163617962,-7.225726813871205],[113.5111115363439,-7.2257087396044328]]],[[[113.5111115363439,-7.2257087396044328],[113.5111205857975,-7.2257086897545069],[113.51112053587954,-7.225699652621179],[113.51111148642613,-7.225699702471041],[113.5111115363439,-7.2257087396044328]]],[[[113.51112953541487,-7.2256905656378638],[113.51112958533292,-7.2256996027711331],[113.51113863478621,-7.2256995529209114],[113.51113858486796,-7.225690515787706],[113.51112953541487,-7.2256905656378638]]],[[[113.51112953541487,-7.2256905656378638],[113.51112948549687,-7.2256815285045919],[113.51112043604385,-7.2256815783545072],[113.51112048596167,-7.2256906154878457],[113.51112953541487,-7.2256905656378638]]],[[[113.51156035054821,-7.2253899578561604],[113.51154416265945,-7.2253900470406167],[113.51154420334224,-7.2253974113182027],[113.51156035054821,-7.2253899578561604]]],[[[113.51158031014728,-7.2253807446133127],[113.5115802605864,-7.2253717733537197],[113.51157121114271,-7.2253718232104553],[113.51157126106732,-7.225380860340775],[113.51156221162339,-7.2253809101973943],[113.51156225674519,-7.2253890779659935],[113.51158031014728,-7.2253807446133127]]],[[[113.51136297407926,-7.2253548956023526],[113.51135392463439,-7.2253549454546606],[113.51135397455457,-7.2253639825865017],[113.51134492510944,-7.2253640324386943],[113.51134497502949,-7.2253730695705904],[113.51129972780205,-7.2253733188291802],[113.51129967788289,-7.225364281696967],[113.51129062843739,-7.2253643315480849],[113.51129067835637,-7.2253733686803594],[113.51127257946482,-7.2253734683821822],[113.5112726293835,-7.2253825055145828],[113.51126357993745,-7.2253825553652886],[113.51126362985602,-7.2253915924977603],[113.51125458040971,-7.2253916423483533],[113.51125463032817,-7.2254006794808507],[113.51123653143505,-7.2254007791816193],[113.5112365813532,-7.2254098163142579],[113.51124563079998,-7.2254097664638994],[113.51124568071839,-7.2254188035964741],[113.51123663127143,-7.2254188534468913],[113.51123673110807,-7.2254369277121331],[113.51122768166069,-7.2254369775625014],[113.51122778149723,-7.2254550518278871],[113.51121873204943,-7.2254551016782012],[113.5112187819676,-7.2254641388109402],[113.51119163362326,-7.2254642883609952],[113.51119173345874,-7.2254823626268303],[113.51118268401014,-7.2254824124766133],[113.51118278384553,-7.2255004867425905],[113.51117373439651,-7.2255005365923237],[113.51117383423178,-7.2255186108583951],[113.51116478478234,-7.2255186607080724],[113.5111648346999,-7.2255276978411658],[113.51115578525021,-7.2255277476907285],[113.51115583516766,-7.2255367848238805],[113.51114678571771,-7.225536834673326],[113.511147035305,-7.2255820203393375],[113.51113798585409,-7.2255820701889206],[113.5111381356067,-7.2256091815886689],[113.51114718505815,-7.2256091317388984],[113.51114723497599,-7.2256181688720771],[113.51113818552436,-7.2256182187219107],[113.51113823544209,-7.2256272558551498],[113.51112918599023,-7.2256273057048679],[113.51112933574326,-7.2256544171047477],[113.51113838519565,-7.2256543672548394],[113.51113853494981,-7.2256814786544954],[113.51115663385548,-7.2256813789537624],[113.51115653401861,-7.2256633046875836],[113.51116558347097,-7.2256632548370758],[113.51116553355246,-7.2256542177040419],[113.51117458300462,-7.2256541678534179],[113.51117453308598,-7.2256451307204266],[113.51118358253787,-7.225645080869687],[113.51118363245668,-7.2256541180026135],[113.51119833848567,-7.2256540369909885],[113.51119318400002,-7.2255656329999534],[113.51123601400002,-7.2254894899999709],[113.51131215600002,-7.2254371419999712],[113.51143902190283,-7.2253906262819836],[113.51139032209744,-7.2253908945706957],[113.51139017233439,-7.2253637831759407],[113.51136302399961,-7.2253639327341288],[113.51136297407926,-7.2253548956023526]],[[113.51115618459156,-7.2256000447558435],[113.51116523404268,-7.2255999949057772],[113.51116528396081,-7.2256090320388173],[113.51115623450951,-7.2256090818889467],[113.51115618459156,-7.2256000447558435]]],[[[113.51121808311881,-7.2253376189522038],[113.51121803320152,-7.225328581819408],[113.51120898375613,-7.2253286316686598],[113.51120903367325,-7.2253376688015187],[113.51121808311881,-7.2253376189522038]]],[[[113.51150746565052,-7.2252998751563524],[113.51150776518854,-7.2253540979410493],[113.51148966630076,-7.2253541976512201],[113.51148971622364,-7.2253632347821153],[113.51147161733527,-7.2253633344916963],[113.51147171718047,-7.2253814087537265],[113.51148076662504,-7.2253813588988978],[113.51148081654793,-7.2253903960298622],[113.51147643496168,-7.2253904201687682],[113.51149894864777,-7.2253963080986336],[113.51149891543726,-7.2253902963195467],[113.51150796488182,-7.2253902464641175],[113.51150801146129,-7.2253986782658792],[113.51152613708847,-7.2254034185997531],[113.51152606377076,-7.2253901467527255],[113.51153511321513,-7.2253900968967608],[113.51153506329116,-7.2253810597661747],[113.51154411273532,-7.2253810099100928],[113.51154396296329,-7.2253538985185566],[113.51152586407603,-7.2253539982301609],[113.51152581415252,-7.2253449610995295],[113.51154391303942,-7.2253448613880522],[113.51154381319185,-7.2253267871269822],[113.51155286263484,-7.2253267372710983],[113.51155296248275,-7.225344811532044],[113.51156201192606,-7.2253447616758555],[113.51156186215373,-7.2253176502846301],[113.51154376326816,-7.2253177499964494],[113.51154371334454,-7.2253087128659139],[113.51153466390183,-7.2253087627214887],[113.51153461397845,-7.2252997255908866],[113.51150746565052,-7.2252998751563524]]],[[[113.51150746565052,-7.2252998751563524],[113.51150741572775,-7.2252908380255567],[113.51149836628517,-7.2252908878802913],[113.51149841620776,-7.2252999250111518],[113.51150746565052,-7.2252998751563524]]],[[[113.51163350881889,-7.2251816944812033],[113.51163345889442,-7.2251726573512212],[113.51162440945505,-7.225172707207645],[113.51162445937932,-7.2251817443376893],[113.51163350881889,-7.2251816944812033]]],[[[113.51167805706655,-7.225054925380606],[113.51166900762983,-7.2250549752371063],[113.51166920732756,-7.2250911237561386],[113.5116420590149,-7.2250912733253232],[113.51164210893894,-7.2251003104552609],[113.51160591118712,-7.2251005098785823],[113.51160601103399,-7.2251185841389489],[113.51161506047241,-7.2251185342832605],[113.51161511039611,-7.2251275714133749],[113.51160606095753,-7.2251276212691264],[113.51160616080479,-7.2251456955294699],[113.51161521024373,-7.2251456456735914],[113.51161516031989,-7.2251366085435018],[113.51162420975859,-7.2251365586875087],[113.51162415983464,-7.2251275215574458],[113.51163320927311,-7.2251274717013363],[113.51163315934905,-7.2251184345713479],[113.51164220878726,-7.225118384715123],[113.51164235856021,-7.2251454961048873],[113.51165140799891,-7.2251454462482938],[113.51165135807435,-7.2251364091184564],[113.51166040751281,-7.2251363592617466],[113.51166025773897,-7.2251092478723331],[113.51168740605233,-7.2251090983016937],[113.51168735612731,-7.2251000611720757],[113.51169640556479,-7.2251000113149013],[113.51169625578957,-7.2250728999262117],[113.51168720635265,-7.2250729497831987],[113.51168715642788,-7.2250639126535452],[113.51167810699107,-7.2250639625102888],[113.51167805706655,-7.225054925380606]]],[[[113.51145187104959,-7.2250652088706326],[113.51145177120959,-7.2250471346080936],[113.51144272177146,-7.2250471844600543],[113.5114428216111,-7.2250652587227169],[113.51145187104959,-7.2250652088706326]]],[[[113.5116055617251,-7.2250372499671736],[113.51160551180222,-7.2250282128369561],[113.5115964623655,-7.2250282626918354],[113.51159651228821,-7.2250372998221133],[113.5116055617251,-7.2250372499671736]]],[[[113.5116325602652,-7.2250099890111787],[113.5116324604188,-7.2249919147510955],[113.51162341098301,-7.2249919646062599],[113.51162351082905,-7.2250100388664693],[113.5116325602652,-7.2250099890111787]]],[[[113.51145097249879,-7.2249025405070828],[113.51143287362821,-7.2249026402088052],[113.51143292354678,-7.2249116773402724],[113.51144197298231,-7.2249116274894387],[113.51144202290114,-7.224920664620841],[113.51145107233675,-7.2249206147697631],[113.51145097249879,-7.2249025405070828]]],[[[113.51147807088478,-7.224893353821999],[113.51147797104615,-7.2248752795596731],[113.51146892161161,-7.2248753294109713],[113.51146897153072,-7.2248843665421987],[113.51145992209594,-7.2248844163933823],[113.51145997201493,-7.2248934535246701],[113.51147807088478,-7.224893353821999]]],[[[113.51155036652008,-7.2248748807428305],[113.51154131708607,-7.2248749305955622],[113.51154136700661,-7.2248839677262851],[113.51151421870364,-7.2248841172835974],[113.51151426862371,-7.2248931544145085],[113.51149616975437,-7.2248932541186095],[113.51149626959399,-7.2249113283806699],[113.51148722015886,-7.2249113782325809],[113.51148731999837,-7.2249294524947505],[113.51149636943387,-7.2249294026427124],[113.51149661903466,-7.2249745882977701],[113.51152376734341,-7.2249744387396433],[113.51152371742258,-7.2249654016088147],[113.51154181629441,-7.2249653019026292],[113.51154176637328,-7.2249562647719392],[113.51156891468,-7.2249561152115032],[113.51156861515138,-7.224901892428421],[113.51155051628245,-7.2249019921348028],[113.51155036652008,-7.2248748807428305]]],[[[113.5116044634363,-7.2248384331014988],[113.51159541400337,-7.2248384829550556],[113.51159546392475,-7.2248475200854179],[113.51160451335785,-7.2248474702318006],[113.5116044634363,-7.2248384331014988]]],[[[113.5116044634363,-7.2248384331014988],[113.51163161173467,-7.2248382835397589],[113.51163166165675,-7.224847320669868],[113.51166785938771,-7.2248471212514529],[113.51166780946492,-7.2248380841215951],[113.51167685889735,-7.2248380342666083],[113.51167690882032,-7.2248470713964013],[113.51171310654999,-7.2248468719744015],[113.51171335616945,-7.2248920576220579],[113.51170430673623,-7.2248921074781434],[113.51170435666013,-7.224901144607724],[113.51167720835954,-7.2249012941750896],[113.51167725828297,-7.2249103313048568],[113.51166820884912,-7.224910381160349],[113.51166830869582,-7.2249284554199997],[113.51167735813002,-7.2249284055643805],[113.51167740805364,-7.2249374426941353],[113.51161406201163,-7.224937791680146],[113.51161411193407,-7.2249468288103396],[113.51160506249907,-7.2249468786648299],[113.51160511242138,-7.2249559157950802],[113.51158701355082,-7.2249560155036505],[113.51158706347285,-7.2249650526340252],[113.51157801403727,-7.2249651024881052],[113.51157806395918,-7.2249741396185545],[113.51159616283059,-7.2249740399100908],[113.51159621275291,-7.2249830770403785],[113.51160526218871,-7.2249830271858135],[113.51160531211129,-7.2249920643160497],[113.51159626267531,-7.2249921141706785],[113.51159636252028,-7.2250101884312645],[113.51161446139287,-7.2250100887215778],[113.51161431162443,-7.2249829773310719],[113.51162336106009,-7.224982927476149],[113.51162326121442,-7.2249648532159165],[113.51163231064966,-7.2249648033609413],[113.51163226072674,-7.2249557662308828],[113.51164131016174,-7.224955716375792],[113.5116412602387,-7.2249466792457921],[113.51169555684623,-7.2249463801118603],[113.51169560677035,-7.2249554172414818],[113.5117046562049,-7.224955367385137],[113.5117046062806,-7.2249463302555785],[113.51173175458331,-7.2249461806856559],[113.51173170465856,-7.2249371435562812],[113.51174075409247,-7.2249370936993476],[113.51174070416761,-7.2249280565700316],[113.51174975360129,-7.2249280067129797],[113.5117497036763,-7.2249189695837224],[113.51175875310975,-7.224918919726556],[113.51175880303491,-7.2249279568557494],[113.51176785246848,-7.2249279069983379],[113.51176795231937,-7.2249459812565862],[113.51177156227202,-7.2249459613676281],[113.51178329100004,-7.2248755889999599],[113.51177767238534,-7.2248194040460936],[113.51177630279983,-7.2248194115916871],[113.5117762226718,-7.2248049072121718],[113.51177586586225,-7.2248013391906047],[113.51169475806923,-7.2248017860373759],[113.51169465822325,-7.2247837117779952],[113.51168560879205,-7.2247837616329624],[113.51168570863767,-7.2248018358924719],[113.51164951091081,-7.2248020353110585],[113.51164946098868,-7.2247929981810559],[113.51162231269338,-7.2247931477429264],[113.51162241253661,-7.2248112220032912],[113.5116314619688,-7.224811172149388],[113.51163141204698,-7.2248021350192788],[113.51164046147892,-7.2248020851652592],[113.51164051140093,-7.2248111222953053],[113.5116314619688,-7.224811172149388],[113.5116315118907,-7.2248202092795264],[113.51162246245831,-7.2248202591334927],[113.51162241253661,-7.2248112220032912],[113.51161336310436,-7.2248112718570168],[113.51161346294749,-7.2248293461175246],[113.51160441351482,-7.2248293959711978],[113.5116044634363,-7.2248384331014988]],[[113.51174955390172,-7.2248918581959325],[113.51175860333461,-7.2248918083389544],[113.51175865325959,-7.2249008454681585],[113.51174960382652,-7.2249008953251996],[113.51174955390172,-7.2248918581959325]],[[113.51174010507407,-7.2248196110179475],[113.51173105564249,-7.224819660874064],[113.51173100571862,-7.2248106237446201],[113.51174005515004,-7.2248105738885648],[113.51174010507407,-7.2248196110179475]]],[[[113.51034509477773,-7.2245742468538552],[113.51034504488311,-7.2245652097146973],[113.51033599544685,-7.2245652595413956],[113.51033604534129,-7.2245742966806175],[113.51034509477773,-7.2245742468538552]]]]},"properties":{"FID":0,"Shape_Leng":18102566.929299999,"Shape_Area":236516885.403}}]
}