{
  "type" : "FeatureCollection",
  "features" : [{"type":"Feature","id":0,"geometry":{"type":"MultiPolygon","coordinates":[[[[113.15087432515655,-7.1423428764293702],[113.15087428289476,-7.142333836934915],[113.15086523275879,-7.142333879146908],[113.15086527502042,-7.1423429186414191],[113.15087432515655,-7.1423428764293702]]],[[[113.15087419837131,-7.1423157579459886],[113.15087415610968,-7.1423067184515379],[113.15086510597425,-7.1423067606633701],[113.1508651482357,-7.1423158001578742],[113.15087419837131,-7.1423157579459886]]],[[[113.15079232455099,-7.1422257428968727],[113.15078900922549,-7.1422257583595448],[113.15078334136579,-7.1422438641786492],[113.15079240907014,-7.1422438218868454],[113.15079232455099,-7.1422257428968727]]],[[[113.15083757522176,-7.1422255318454582],[113.15082852508772,-7.1422255740560958],[113.15082860960828,-7.1422436530456359],[113.15081050933932,-7.142243737466595],[113.15081046707935,-7.142234697971702],[113.15080141694496,-7.1422347401818627],[113.15080150146458,-7.1422528191717358],[113.15078050743584,-7.1422529170882205],[113.15077444151467,-7.1422722945023649],[113.15077452009778,-7.1422891037817893],[113.15076917171544,-7.1422891287266319],[113.1507655243514,-7.1423007801273561],[113.15076555448096,-7.1423072249818231],[113.15076350385488,-7.14230723454593],[113.15075660718749,-7.1423292657525383],[113.15075663112303,-7.1423343856770094],[113.15075500206352,-7.142334393274929],[113.1507493342023,-7.1423524990943532],[113.15077481591597,-7.1423523802472122],[113.15077485817594,-7.1423614197422385],[113.15078390831297,-7.1423613775318557],[113.15078399283341,-7.1423794565218222],[113.15082019338243,-7.1423792876780849],[113.15082010886056,-7.1423612086885502],[113.15082915899734,-7.142361166477281],[113.1508291167363,-7.142352126982578],[113.15083816687284,-7.1423520847711854],[113.1508381246117,-7.1423430452764993],[113.15084717474798,-7.1423430030649842],[113.15084696344216,-7.142297805591852],[113.15083791330677,-7.1422978478030972],[113.15083782878519,-7.1422797688137107],[113.1508197285149,-7.1422798532354559],[113.15081977077531,-7.1422888927302601],[113.15081072063994,-7.14228893494092],[113.15081076290022,-7.142297974435774],[113.15080171276458,-7.1422980166463104],[113.15080167050446,-7.142288977151404],[113.15079262036896,-7.1422890193617095],[113.15079253584926,-7.142270940371775],[113.15081063611952,-7.1422708559512014],[113.15081055159933,-7.1422527769614677],[113.15082865186865,-7.1422526925404011],[113.15082869412907,-7.1422617320351618],[113.15083774426382,-7.1422616898243092],[113.15083757522176,-7.1422255318454582]],[[113.15077473139621,-7.1423343012570983],[113.15078378153272,-7.1423342590468781],[113.15078373927275,-7.1423252195518776],[113.15079278940901,-7.142325177341533],[113.15079283166916,-7.1423342168364794],[113.1508109319419,-7.1423341324151499],[113.15081097420247,-7.1423431719099844],[113.15077477365607,-7.1423433407521495],[113.15077473139621,-7.1423343012570983]]],[[[113.15079232455099,-7.1422257428968727],[113.15080137468524,-7.1422257006869447],[113.15080133242556,-7.1422166611920073],[113.15079228229149,-7.1422167034018811],[113.15079232455099,-7.1422257428968727]]],[[[113.15079228229149,-7.1422167034018811],[113.15079227583931,-7.1422153232528256],[113.15079184315526,-7.1422167054500107],[113.15079228229149,-7.1422167034018811]]],[[[113.15080133242556,-7.1422166611920073],[113.15081038255961,-7.1422166189819558],[113.15081034029981,-7.1422075794870681],[113.15080129016596,-7.1422076216970654],[113.15080133242556,-7.1422166611920073]]],[[[113.15082848282751,-7.14221653456132],[113.15082831378726,-7.1421803765821785],[113.15081926365403,-7.1421804187923694],[113.15081943269358,-7.1422165767717267],[113.15082848282751,-7.14221653456132]]],[[[113.1508371103606,-7.1421260974033087],[113.15082806022851,-7.1421261396133522],[113.15082814474788,-7.1421442186029935],[113.15081909461536,-7.1421442608129686],[113.15081922139427,-7.1421713792975208],[113.15082827152733,-7.1421713370873841],[113.15082818700763,-7.1421532580977827],[113.15083723714025,-7.1421532158875767],[113.1508371103606,-7.1421260974033087]]],[[[113.1508371103606,-7.1421260974033087],[113.15084616049263,-7.1421260551930876],[113.15084611823268,-7.1421170156983793],[113.15083706810083,-7.1421170579085453],[113.1508371103606,-7.1421260974033087]]],[[[113.15084603371294,-7.1420989367089485],[113.15084590693374,-7.1420718182247738],[113.15083718602264,-7.1420718588991896],[113.15083686163996,-7.1420728951309975],[113.15083698358143,-7.142098978919007],[113.15084603371294,-7.1420989367089485]]],[[[113.15090024997917,-7.142080604456071],[113.15090020771844,-7.1420715649616664],[113.15089115758778,-7.1420716071726273],[113.15089119984835,-7.1420806466670861],[113.15090024997917,-7.142080604456071]]],[[[113.1509182234575,-7.1420534015506068],[113.15090917332734,-7.1420534437618155],[113.15090921558814,-7.142062483256173],[113.1509182657185,-7.1420624410449118],[113.1509182234575,-7.1420534015506068]]],[[[113.1509182234575,-7.1420534015506068],[113.15092727358763,-7.1420533593392213],[113.1509273158488,-7.142062398833473],[113.15093636597904,-7.1420623566218566],[113.1509364505019,-7.1420804356102385],[113.15094550063246,-7.1420803933983361],[113.15094545837081,-7.1420713539042016],[113.15095450850113,-7.1420713116921766],[113.15095442397768,-7.1420532327040025],[113.15094537384773,-7.14205327491592],[113.15094533158627,-7.1420442354217739],[113.15091818119657,-7.1420443620562999],[113.1509182234575,-7.1420534015506068]]],[[[113.15085478802578,-7.1420356180359628],[113.15084852173695,-7.1420356472619879],[113.15084577879819,-7.1420444095070224],[113.15084578015502,-7.1420446997405662],[113.15084568780847,-7.1420447001712706],[113.15084285387991,-7.1420537530805639],[113.15085487254511,-7.1420536970253385],[113.15085478802578,-7.1420356180359628]]],[[[113.15085478802578,-7.1420356180359628],[113.15088193841608,-7.1420354914053235],[113.1508818538959,-7.1420174124162559],[113.15090900428463,-7.142017285784342],[113.15090896202409,-7.1420082462899659],[113.15091801215338,-7.142008204079028],[113.15091792763211,-7.1419901250903708],[113.1508998273742,-7.141990209511853],[113.15089986963444,-7.1419992490062931],[113.15089081950521,-7.1419992912168215],[113.15089077724514,-7.141990251722329],[113.15088172711606,-7.1419902939326265],[113.1508818116359,-7.1420083729217172],[113.15086371137681,-7.1420084573419977],[113.15086379589616,-7.1420265363312714],[113.1508547457662,-7.1420265785412527],[113.15085478802578,-7.1420356180359628]]],[[[113.15094507801862,-7.1419899984568165],[113.15094503575753,-7.1419809589626269],[113.15093598562892,-7.1419810011739351],[113.15093602788983,-7.141990040668178],[113.15094507801862,-7.1419899984568165]]],[[[113.15093594336807,-7.1419719616797215],[113.15093581658586,-7.141944843197007],[113.15092676645791,-7.1419448854079208],[113.15092680871842,-7.1419539249022179],[113.15091775859024,-7.1419539671130092],[113.15091784311106,-7.1419720461016976],[113.15093594336807,-7.1419719616797215]]],[[[113.15097062250179,-7.1416463710465949],[113.15097061894757,-7.1416456107842174],[113.15097038060159,-7.1416463721748213],[113.15097062250179,-7.1416463710465949]]],[[[113.15103363526866,-7.1415737596224087],[113.15105173550859,-7.141573675200573],[113.15105169324791,-7.1415646357068576],[113.15103359300832,-7.141564720128585],[113.15103363526866,-7.1415737596224087]]],[[[113.15103363526866,-7.1415737596224087],[113.15102458514859,-7.1415738018330615],[113.15102445836828,-7.1415466833514669],[113.15104255860729,-7.1415465989303089],[113.15104247408664,-7.141528519942776],[113.15105152420571,-7.1415284777320398],[113.15105148194529,-7.1415194382383378],[113.15104243182641,-7.1415194804490216],[113.1510423473061,-7.1415014014614489],[113.15102424706888,-7.1415014858820678],[113.15102420480916,-7.1414924463881757],[113.15103325492763,-7.1414924041780088],[113.15103321266778,-7.1414833646841682],[113.15104226278601,-7.1414833224738778],[113.15104217826614,-7.1414652434862926],[113.15106027850173,-7.1414651590653957],[113.15106019398137,-7.1414470800780112],[113.15105114386395,-7.141447122288441],[113.15105110160403,-7.1414380827946884],[113.15103556087635,-7.1414381552773056],[113.15100628753903,-7.1415316682965262],[113.15100631586941,-7.1415377282779353],[113.15100438770565,-7.1415377372709372],[113.15098171630396,-7.1416101605399751],[113.15098855370614,-7.141610128650151],[113.15098851144647,-7.1416010891561053],[113.15099756156728,-7.1416010469460014],[113.1509975193075,-7.1415920074519894],[113.15100656942806,-7.1415919652417603],[113.15100644264849,-7.1415648467598487],[113.15101549276851,-7.1415648045496045],[113.15101557728852,-7.1415828835374482],[113.15103367752904,-7.1415827991162129],[113.15103363526866,-7.1415737596224087]],[[113.15103346622764,-7.1415376016471575],[113.15102441610829,-7.1415376438575944],[113.15102437384834,-7.1415286043637183],[113.15103342396755,-7.1415285621533355],[113.15103346622764,-7.1415376016471575]]],[[[113.15104196696743,-7.1414200460172621],[113.15104195612048,-7.1414177258108165],[113.15104122872475,-7.1414200494604456],[113.15104196696743,-7.1414200460172621]]],[[[113.151077660315,-7.1413114032523888],[113.15107762469185,-7.141303783327003],[113.15107523580977,-7.141311414560362],[113.151077660315,-7.1413114032523888]]],[[[113.15110455709844,-7.1412570396604202],[113.15109223934888,-7.1412570971109766],[113.15108657150276,-7.1412752029273827],[113.1510955915045,-7.1412751608577141],[113.15109567602418,-7.1412932398448117],[113.15108090365641,-7.1412933087438386],[113.15107806973312,-7.1413023616520857],[113.15108666816977,-7.1413023215486273],[113.15108679494936,-7.1413294400293958],[113.15110489517909,-7.1413293556083461],[113.15110481065859,-7.1413112766214049],[113.15111386077299,-7.1413112344107219],[113.15111381851267,-7.1413021949172739],[113.15110476839844,-7.1413022371279027],[113.15110455709844,-7.1412570396604202]]],[[[113.15111335365255,-7.141202760489282],[113.15111329466112,-7.141190142012424],[113.15111292100016,-7.1411910299999546],[113.15110924288567,-7.1412027796620619],[113.15111335365255,-7.141202760489282]]],[[[113.15114917375963,-7.1411212362078862],[113.15115822387004,-7.1411211939974519],[113.15115813934995,-7.1411031150109832],[113.15114989903459,-7.1411031534443801],[113.15111940832568,-7.1411756131783433],[113.15113132709702,-7.1411755575885625],[113.15113128483716,-7.1411665180951829],[113.15115843517124,-7.1411663914635977],[113.15115839291089,-7.141157351970377],[113.15114934279976,-7.141157394181028],[113.15114930053966,-7.1411483546877657],[113.15115835065059,-7.141148312477168],[113.15115830839035,-7.1411392729839207],[113.15114925827959,-7.1411393151944651],[113.15114917375963,-7.1411212362078862]]],[[[113.15122070501072,-7.1409348863164235],[113.15121469176847,-7.140949176511791],[113.15124792200547,-7.1409490215213793],[113.15124787974466,-7.1409399820286241],[113.15122072942553,-7.1409401086614777],[113.15122070501072,-7.1409348863164235]]],[[[113.15162443382275,-7.1401788917851388],[113.1516243492956,-7.1401608128034804],[113.15161529920685,-7.1401608550174114],[113.15161538373363,-7.1401789339991781],[113.15162443382275,-7.1401788917851388]]],[[[113.15157897206366,-7.1401339053980379],[113.15156087188662,-7.1401339898236262],[113.15156091414875,-7.1401430293148458],[113.15155186405995,-7.1401430715274294],[113.15155190632196,-7.1401521110186819],[113.15156095641093,-7.1401520688060458],[113.15156104093546,-7.1401701477884849],[113.15157914111393,-7.140170063362465],[113.15157918337663,-7.1401791028535628],[113.15158823346597,-7.1401790606402313],[113.15158819120309,-7.1401700211491885],[113.15160629138123,-7.1401699367221045],[113.15160620685492,-7.1401518577402054],[113.15157905658867,-7.1401519843802408],[113.15157897206366,-7.1401339053980379]]],[[[113.1494644272119,-7.1350092132243281],[113.14945537721147,-7.1350092553656426],[113.14945538271087,-7.1350104336464906],[113.14946447244041,-7.1350189036726803],[113.1494644272119,-7.1350092132243281]]],[[[113.14898454859991,-7.1330227123702965],[113.14898450643089,-7.1330136728609181],[113.14897545646679,-7.133013714981109],[113.14897549863562,-7.1330227544905407],[113.14898454859991,-7.1330227123702965]]],[[[113.14901161415335,-7.1330045069900825],[113.14901152981453,-7.1329864279716659],[113.14900247985113,-7.1329864700922254],[113.1490025641896,-7.1330045491107494],[113.14901161415335,-7.1330045069900825]]],[[[113.14898433775535,-7.1329775148234384],[113.14898437992414,-7.1329865543328141],[113.14894818006955,-7.1329867228118653],[113.14894822223771,-7.1329957623214533],[113.14899347205669,-7.1329955517219261],[113.14899338771868,-7.1329774727032857],[113.14898433775535,-7.1329775148234384]]],[[[113.14898433775535,-7.1329775148234384],[113.1489842955866,-7.1329684753140574],[113.14897524562339,-7.1329685174339792],[113.14897528779196,-7.1329775569434117],[113.14898433775535,-7.1329775148234384]]]]},"properties":{"FID":0,"Shape_Leng":18102566.929299999,"Shape_Area":236516885.403}}]
}