{
  "type" : "FeatureCollection",
  "features" : [{"type":"Feature","id":0,"geometry":{"type":"MultiPolygon","coordinates":[[[[113.0718205320443,-7.1260076860891033],[113.07179851668904,-7.1260077847747816],[113.07179853365403,-7.1260115608178323],[113.07180398600008,-7.1260126239998813],[113.0718205320443,-7.1260076860891033]]],[[[113.07273614132657,-7.1255244534080449],[113.07272854165028,-7.1255244874871551],[113.07272855714713,-7.1255279354408518],[113.07273614132657,-7.1255244534080449]]],[[[113.07227562217672,-7.1254361168478013],[113.07227558155597,-7.1254270768865329],[113.07226653129129,-7.1254271174609141],[113.07226657191187,-7.1254361574222322],[113.07227562217672,-7.1254361168478013]]],[[[113.07230281359224,-7.125445035084554],[113.07230273234966,-7.1254269551623333],[113.07229368208515,-7.1254269957372429],[113.07229376332739,-7.1254450756595666],[113.07230281359224,-7.125445035084554]]],[[[113.07228455057891,-7.1254089563895349],[113.07228450995815,-7.1253999164283073],[113.07227545969408,-7.1253999570027071],[113.07227550031466,-7.1254089969639871],[113.07228455057891,-7.1254089563895349]]],[[[113.07288142094907,-7.125306838548604],[113.07288138031721,-7.1252977985907657],[113.0728904305758,-7.125297758005086],[113.07289038994381,-7.1252887180472984],[113.07287228942694,-7.1252887992183789],[113.07287237069026,-7.1253068791341576],[113.07288142094907,-7.125306838548604]]],[[[113.07314046629421,-7.1252785563783014],[113.07310755549371,-7.1252787039826231],[113.07310759612989,-7.1252877439391504],[113.07309854587274,-7.1252877845290241],[113.07309858650879,-7.1252968244856172],[113.07308953625143,-7.1252968650753647],[113.07308957688737,-7.1253059050320058],[113.07308052662975,-7.1253059456216281],[113.073080485994,-7.1252969056649365],[113.07307143573652,-7.1252969462543332],[113.07307147637211,-7.1253059862110755],[113.07306242611439,-7.1253060268003452],[113.07306238547899,-7.1252969868435496],[113.07305333522139,-7.1252970274325911],[113.07305337585662,-7.1253060673894408],[113.0730443255988,-7.1253061079783562],[113.07304424432876,-7.1252880280645519],[113.07303519407125,-7.1252880686531865],[113.07303523470607,-7.125297108610142],[113.07302618444831,-7.1252971491986532],[113.07302622508301,-7.1253061891556593],[113.07300812456701,-7.1253062703322536],[113.07300808393266,-7.1252972303751436],[113.07298998341682,-7.125297311550927],[113.07299002405081,-7.1253063515081383],[113.07294477275934,-7.1253065544447622],[113.07294481339251,-7.1253155944022311],[113.07292671287519,-7.1253156755757443],[113.07292667224239,-7.1253066356181716],[113.07291762198383,-7.1253066762046116],[113.07291766261646,-7.1253157161622367],[113.07290861235766,-7.1253157567485514],[113.07290853109282,-7.1252976768331937],[113.07289948083435,-7.1252977174192287],[113.07289956209883,-7.1253157973346912],[113.07288146158099,-7.1253158785064352],[113.07288150221297,-7.1253249184642815],[113.07289960273116,-7.1253248372924327],[113.07289984652621,-7.1253790770386871],[113.07289079626608,-7.1253791176250116],[113.07289083689859,-7.125388157582762],[113.07288178663823,-7.1253881981689631],[113.07288182727062,-7.1253972381267623],[113.07289087753117,-7.1253971975405088],[113.07289091816379,-7.1254062374982521],[113.07288186790308,-7.125406278084558],[113.07288198980073,-7.1254333979579201],[113.07286388927807,-7.1254334791303107],[113.07286392991037,-7.125442519088196],[113.0728548796488,-7.1254425596741777],[113.07285492028097,-7.1254515996321084],[113.07282776949538,-7.1254517213891484],[113.07282781012708,-7.1254607613472327],[113.07281875986493,-7.1254608019326122],[113.07281880049651,-7.1254698418907454],[113.07280975023413,-7.1254698824759988],[113.07280970960272,-7.1254608425178123],[113.07280065934046,-7.1254608831028365],[113.07280069997168,-7.1254699230610745],[113.07279164970922,-7.1254699636459753],[113.0727916903403,-7.1254790036042586],[113.07278264007761,-7.1254790441890332],[113.07278268070858,-7.125488084147384],[113.07276458018262,-7.1254881653165061],[113.0727646208133,-7.1254972052749226],[113.07273747002345,-7.1254973270274355],[113.07273755128391,-7.1255154069446052],[113.07274660154759,-7.1255153663605073],[113.07274662076512,-7.1255196421096265],[113.07276212900003,-7.1255125219998954],[113.07286410153405,-7.1254807021464872],[113.07286409244011,-7.1254786789196931],[113.07287068000481,-7.1254786493774382],[113.07297708300007,-7.1254454469999597],[113.07300874953083,-7.125445305083991],[113.0730087340885,-7.1254418696884283],[113.0730177843492,-7.1254418290994401],[113.07301774371389,-7.1254327891424385],[113.07304489449508,-7.1254326673745672],[113.07304485385929,-7.1254236274177201],[113.07306295437948,-7.1254235462383582],[113.0730629137434,-7.1254145062815928],[113.07309006452273,-7.1254143845113793],[113.07309010515935,-7.1254234244679893],[113.07310820567903,-7.1254233432868581],[113.07310816504204,-7.1254143033303521],[113.07312626556113,-7.1254142221486179],[113.07312630619847,-7.1254232621050191],[113.07314333349065,-7.1254231857360164],[113.07314046629421,-7.1252785563783014]],[[113.07295435125521,-7.1254240333039167],[113.07296340151585,-7.1254239927160929],[113.07296344215004,-7.1254330326734081],[113.07295439188923,-7.1254330732612834],[113.07295435125521,-7.1254240333039167]],[[113.07290922185074,-7.1254513561132526],[113.07290017158925,-7.1254513967001705],[113.07290009032317,-7.1254333167848216],[113.07290914058431,-7.1254332761980095],[113.07290922185074,-7.1254513561132526],[113.07291827211219,-7.1254513155261572],[113.07291831274567,-7.1254603554837237],[113.07290926248403,-7.1254603960708707],[113.07290922185074,-7.1254513561132526]]],[[[113.07228398189309,-7.1252823969320307],[113.07228394127308,-7.1252733569707347],[113.07227489101149,-7.1252733975444071],[113.07227493163133,-7.1252824375057546],[113.07228398189309,-7.1252823969320307]]],[[[113.07230200117581,-7.1252642358616782],[113.07230196055555,-7.1252551959004968],[113.07228386003321,-7.1252552770481632],[113.07228390065312,-7.1252643170094503],[113.07230200117581,-7.1252642358616782]]],[[[113.07281794724449,-7.1252800027691805],[113.07281782535325,-7.1252528828945172],[113.07280877509513,-7.1252529234785236],[113.07280889698585,-7.1252800433533414],[113.07281794724449,-7.1252800027691805]]],[[[113.07288121779028,-7.1252616387593823],[113.07289026804816,-7.1252615981739105],[113.07289022741638,-7.1252525582161068],[113.07285402638524,-7.1252527205567269],[113.07285406701632,-7.1252617605147375],[113.07286311727435,-7.1252617199297958],[113.07286319853701,-7.1252797998457211],[113.07288129905365,-7.1252797186750989],[113.07288121779028,-7.1252616387593823]]],[[[113.0723470087555,-7.1252097932235401],[113.07234696813467,-7.1252007532626109],[113.07233791787485,-7.1252007938371067],[113.0723379584955,-7.1252098337980883],[113.0723470087555,-7.1252097932235401]]],[[[113.07290788098169,-7.1251530375097962],[113.07290792161324,-7.1251620774675182],[113.07291697186902,-7.1251620368820889],[113.07291693123729,-7.1251529969244158],[113.07290788098169,-7.1251530375097962]]],[[[113.07290788098169,-7.1251530375097962],[113.07290779971873,-7.1251349575943035],[113.07289874946345,-7.1251349981794005],[113.07289883072603,-7.1251530780949981],[113.07290788098169,-7.1251530375097962]]],[[[113.0726996032062,-7.125126851047856],[113.07269956257893,-7.1251178110889226],[113.07269051232278,-7.1251178516698479],[113.07269055294987,-7.1251268916288346],[113.0726996032062,-7.125126851047856]]],[[[113.07295296972994,-7.1251166747511885],[113.07295292909777,-7.1251076347936717],[113.0729348285887,-7.1251077159651484],[113.07293486922052,-7.1251167559227682],[113.07295296972994,-7.1251166747511885]]],[[[113.07272659146402,-7.1250905694686582],[113.07272655083642,-7.1250815295098464],[113.07271750058115,-7.125081570091095],[113.07271754120856,-7.1250906100499574],[113.07272659146402,-7.1250905694686582]]],[[[113.07276250808843,-7.1250271274313901],[113.07275345783441,-7.1250271680130339],[113.07275349846221,-7.1250362079717098],[113.07274444820796,-7.1250362485532293],[113.07274448883562,-7.125045288511954],[113.07278068985303,-7.1250451261846113],[113.07278064922464,-7.1250360862260935],[113.07276254871641,-7.1250361673900153],[113.07276250808843,-7.1250271274313901]]],[[[113.07252716084345,-7.1250191425366607],[113.07252712022019,-7.1250101025766739],[113.07250901971005,-7.125010183730379],[113.07250906033296,-7.1250192236904697],[113.07252716084345,-7.1250191425366607]]],[[[113.07314056093472,-7.1248988701293801],[113.07314058034488,-7.1248807897648412],[113.07313291830107,-7.1248808241272963],[113.07313299956991,-7.1248989040403989],[113.07314056093472,-7.1248988701293801]]],[[[113.07267107115774,-7.124819614178489],[113.07267098990791,-7.1248015342600155],[113.07266193965781,-7.1248015748385889],[113.07266202090726,-7.1248196547571681],[113.07267107115774,-7.124819614178489]]],[[[113.07269789690658,-7.1247471727686333],[113.07268884665768,-7.124747213347427],[113.07268892790759,-7.1247652932657557],[113.07267987765826,-7.1247653338444765],[113.07267991828311,-7.1247743738036791],[113.07270706903142,-7.1247742520668309],[113.07270698778071,-7.124756172148734],[113.07269793753167,-7.1247562127277551],[113.07269789690658,-7.1247471727686333]]],[[[113.07269785628154,-7.1247381328095409],[113.07269781565654,-7.1247290928504272],[113.07270686590505,-7.1247290522715616],[113.07270682527994,-7.1247200123124959],[113.07268872478325,-7.1247200934699473],[113.07268880603282,-7.1247381733882813],[113.07269785628154,-7.1247381328095409]]],[[[113.07307788541532,-7.1247183484288108],[113.073077844783,-7.1247093084718749],[113.07306879453702,-7.1247093490578894],[113.07306883516917,-7.1247183890148769],[113.07307788541532,-7.1247183484288108]]]]},"properties":{"FID":0,"Shape_Leng":18102566.929299999,"Shape_Area":236516885.403}}]
}