{
  "type" : "FeatureCollection",
  "features" : [{"type":"Feature","id":0,"geometry":{"type":"MultiPolygon","coordinates":[[[[113.48070728900245,-7.2113517647352152],[113.48070723978773,-7.2113427273857527],[113.48069819040886,-7.2113427765349325],[113.48069823962341,-7.2113518138844572],[113.48070728900245,-7.2113517647352152]]],[[[113.47993145019817,-7.2101358988559294],[113.47993140100721,-7.2101268615006546],[113.47992235164716,-7.2101269106262365],[113.47992240083794,-7.2101359479815716],[113.47993145019817,-7.2101358988559294]]],[[[113.47714060837382,-7.2094822553818698],[113.4771405592427,-7.2094732180071572],[113.4771315098764,-7.2094732670730632],[113.47713155900736,-7.2094823044478389],[113.47714060837382,-7.2094822553818698]]]]},"properties":{"FID":0,"Shape_Leng":18102566.929299999,"Shape_Area":236516885.403}}]
}