{
  "type" : "FeatureCollection",
  "features" : [{"type":"Feature","id":0,"geometry":{"type":"MultiPolygon","coordinates":[[[[113.99575718157521,-7.0082455447108858],[113.99575712384133,-7.0082365111926892],[113.99573904085892,-7.0082366265582134],[113.99573909859245,-7.008245660076561],[113.99575718157521,-7.0082455447108858]]],[[[113.99573898312545,-7.0082275930398445],[113.99573892539208,-7.008218559521473],[113.99572988390106,-7.0082186172038243],[113.99572994163428,-7.0082276507222723],[113.99573898312545,-7.0082275930398445]]],[[[113.99577514908933,-7.0082273623084035],[113.99577509135524,-7.0082183287903321],[113.99576604986457,-7.008218386473378],[113.99576610759847,-7.008227419991524],[113.99577514908933,-7.0082273623084035]]],[[[113.99568461871274,-7.008209872094155],[113.99568467644499,-7.0082189056129796],[113.99569371793638,-7.0082188479314969],[113.9956937756689,-7.0082278814502441],[113.99570281716035,-7.0082278237685109],[113.99570270169505,-7.0082097567311621],[113.99568461871274,-7.008209872094155]]],[[[113.99568461871274,-7.008209872094155],[113.99568456098055,-7.0082008385753074],[113.99567551948947,-7.0082008962564677],[113.99567557722148,-7.0082099297753899],[113.99568461871274,-7.008209872094155]]],[[[113.99580192715496,-7.0081729881508625],[113.99580186942082,-7.0081639546329928],[113.99579282793142,-7.0081640123161089],[113.99579288566538,-7.0081730458340532],[113.99580192715496,-7.0081729881508625]]],[[[113.9957293643056,-7.0081373155376232],[113.99572930657315,-7.008128282019138],[113.99572026508385,-7.0081283397005638],[113.99572032281611,-7.0081373732191263],[113.9957293643056,-7.0081373155376232]]],[[[113.99570212437311,-7.0081194215441833],[113.99569308288373,-7.008119479225015],[113.99569319834717,-7.008137546262593],[113.99571128132655,-7.0081374309004554],[113.99571122359445,-7.0081283973818191],[113.99570218210496,-7.0081284550628986],[113.99570212437311,-7.0081194215441833]]],[[[113.9956387184848,-7.0081017582678715],[113.99563877621529,-7.0081107917871197],[113.99564781770495,-7.0081107341074036],[113.9956477599743,-7.0081017005882282],[113.9956387184848,-7.0081017582678715]]],[[[113.9956387184848,-7.0081017582678715],[113.99563860302406,-7.0080836912293609],[113.99562956153486,-7.0080837489086791],[113.99562950380478,-7.0080747153893439],[113.99562046231564,-7.0080747730684116],[113.99562040458582,-7.0080657395489965],[113.99561136309678,-7.0080657972278173],[113.9956112476377,-7.0080477301888253],[113.99560220614896,-7.0080477878673229],[113.99560214841971,-7.0080387543477292],[113.9955840654423,-7.0080388697040519],[113.99558394998472,-7.0080208026646025],[113.99556586700771,-7.0080209180199322],[113.99556569382294,-7.0079938174602709],[113.99555665233486,-7.0079938751374495],[113.99555659460692,-7.0079848416174571],[113.99553591180538,-7.0079849735557165],[113.99556040300001,-7.0082259259999633],[113.99556068805596,-7.0082287304851834],[113.99556719478039,-7.0082286889762884],[113.9955671370503,-7.0082196554564904],[113.99557617854266,-7.008219597777261],[113.9955761208125,-7.008210564257535],[113.99558516230459,-7.008210506578207],[113.99558510457432,-7.0082014730585342],[113.9955760630824,-7.0082015307377858],[113.99557600535236,-7.0081924972180687],[113.9955850468441,-7.0081924395388908],[113.99558510457432,-7.0082014730585342],[113.99561222904966,-7.0082013000197358],[113.99561217131894,-7.0081922665003171],[113.99562121281039,-7.0081922088204456],[113.99562115507958,-7.0081831753010819],[113.99563019657077,-7.0081831176211127],[113.99563002337824,-7.0081560170632402],[113.99563906486884,-7.0081559593833225],[113.99563889167648,-7.0081288588256063],[113.9956298501864,-7.0081289165052985],[113.99562996564754,-7.0081469835439192],[113.99561188266645,-7.008147098903085],[113.99561211358828,-7.0081832329808789],[113.99558498911398,-7.008183406019227],[113.99558493138393,-7.0081743724995595],[113.99559397287526,-7.0081743148203586],[113.99559391514511,-7.0081652813007613],[113.99560295663622,-7.0081652236214618],[113.99560289890597,-7.0081561901019525],[113.99559385741503,-7.0081562477811774],[113.9955935110362,-7.008102046663474],[113.99560255252608,-7.0081019889847003],[113.99560237933719,-7.0080748884260293],[113.99561142082645,-7.0080748307473071],[113.99561153628599,-7.0080928977862742],[113.995629619265,-7.0080927824280099],[113.99562967699524,-7.0081018159473381],[113.9956387184848,-7.0081017582678715]]],[[[113.99328818378724,-7.0074301705635342],[113.99328354476695,-7.0074302001317781],[113.99328363770135,-7.0074447551364125],[113.99328818378724,-7.0074301705635342]]],[[[113.99415993488034,-7.0073252404768809],[113.99415997491769,-7.0073315092236133],[113.99417806924347,-7.0073331713334115],[113.99417801785388,-7.0073251251870294],[113.99415993488034,-7.0073252404768809]]],[[[113.99423226677273,-7.0073247793133131],[113.99420514231366,-7.0073249522509506],[113.99420520001007,-7.0073339857824166],[113.99419615852337,-7.0073340434280249],[113.99419618303347,-7.0073378809820337],[113.99423245688465,-7.007354544831558],[113.99423243986378,-7.0073518799069729],[113.9942414813505,-7.0073518222605218],[113.99424136595604,-7.0073337551982506],[113.99423232446966,-7.0073338128445526],[113.99423226677273,-7.0073247793133131]]],[[[113.99395194559544,-7.0073210753350468],[113.99395192297105,-7.0073175327267556],[113.99393383999401,-7.0073176480077857],[113.99393389598225,-7.007326414892832],[113.99395194559544,-7.0073210753350468]]],[[[113.99415993488034,-7.0073252404768809],[113.99415987718486,-7.0073162069450525],[113.99414179421134,-7.007316322234062],[113.99414185190646,-7.0073253557660395],[113.99415993488034,-7.0073252404768809]]],[[[113.99414179421134,-7.007316322234062],[113.99414173651628,-7.0073072887020791],[113.99411461205597,-7.0073074616340651],[113.99411466975049,-7.0073164951662728],[113.99412371123752,-7.0073164375223742],[113.9941237689323,-7.0073254710545045],[113.99413281041942,-7.0073254134103582],[113.99413275272445,-7.007316379878306],[113.99414179421134,-7.007316322234062]]],[[[113.99387947568118,-7.0072999267783915],[113.99387043419242,-7.0072999844174566],[113.99387049188221,-7.0073090179516937],[113.99385240890415,-7.0073091332294499],[113.99385246659364,-7.0073181667638327],[113.99387054957204,-7.0073180514859255],[113.99387060726195,-7.0073270850201546],[113.99383444130419,-7.0073273155755755],[113.99383449899349,-7.0073363491101182],[113.99384354048323,-7.0073362914714492],[113.99384359817277,-7.0073453250058781],[113.99385263966259,-7.0073452673669587],[113.99385267271447,-7.0073504428964721],[113.99393297472459,-7.0073266874254578],[113.99392485619634,-7.0073267391818206],[113.99392479850538,-7.00731770564804],[113.99390671552791,-7.0073178209280291],[113.99390677321854,-7.0073268544619589],[113.9938886902404,-7.0073269697414045],[113.99388874793075,-7.007336003275495],[113.9938797064414,-7.0073360609150326],[113.99387947568118,-7.0072999267783915]]],[[[113.99264810255903,-7.0070367577661488],[113.99263001957118,-7.0070368729924271],[113.99263009836412,-7.0070492166202838],[113.99264819600253,-7.0070513964500876],[113.99264810255903,-7.0070367577661488]]],[[[113.99311808711759,-7.0070066610176438],[113.99314521158537,-7.0070064881505445],[113.99314526925873,-7.0070155216908949],[113.99317239372634,-7.0070153488220095],[113.99317250907434,-7.0070334159023027],[113.99318155056372,-7.007033358278842],[113.99318166591237,-7.0070514253589504],[113.99319070740206,-7.0070513677351691],[113.9931909957759,-7.0070965354349957],[113.99320003726636,-7.0070964778106655],[113.99320009494153,-7.0071055113505434],[113.9932362609033,-7.0071052808511869],[113.99323614555165,-7.0070872137720261],[113.99325422853137,-7.007087098521608],[113.99325399782761,-7.0070509643638381],[113.99327208080562,-7.0070508491133259],[113.99327202312952,-7.0070418155740244],[113.99328106461826,-7.0070417579485831],[113.99328100694206,-7.0070327244093527],[113.99327196545349,-7.0070327820347194],[113.99327190777753,-7.007023748495409],[113.99328094926594,-7.007023690870116],[113.99328083391391,-7.0070056237916347],[113.99327179242586,-7.0070056814167749],[113.99327173475014,-7.0069966478774548],[113.99328077623802,-7.0069965902523892],[113.9932807185622,-7.0069875567131366],[113.99328976004981,-7.0069874990879724],[113.99328958702229,-7.0069603984704223],[113.99326246256078,-7.0069605713447212],[113.99326252023603,-7.0069696048841514],[113.99325347874853,-7.0069696625086442],[113.99325336339848,-7.0069515954296486],[113.99328048785968,-7.0069514225560949],[113.99328043018424,-7.0069423890168245],[113.99329851315764,-7.0069422737670708],[113.99329845548193,-7.0069332402279478],[113.99330749696837,-7.0069331826028849],[113.99330743929255,-7.0069241490638321],[113.99328935631999,-7.0069242643136329],[113.99328918329407,-7.0068971636959985],[113.99329822477986,-7.0068971060714107],[113.99329816710453,-7.0068880725322664],[113.99328912561892,-7.0068881301567805],[113.99328906794383,-7.0068790966175563],[113.99328002645832,-7.0068791542418225],[113.99328008413322,-7.0068881877811187],[113.99327104264742,-7.0068882454052845],[113.99327110032225,-7.0068972789446544],[113.99324397586392,-7.0068974518163376],[113.99324403353829,-7.0069064853559277],[113.99323499205185,-7.006906542979551],[113.99323510740048,-7.0069246100588689],[113.99321702442667,-7.0069247253058942],[113.99321696675268,-7.0069156917660864],[113.99319888377893,-7.006915807012267],[113.99319882610536,-7.0069067734723074],[113.99318978461856,-7.0069068310950611],[113.99318972694523,-7.0068977975550215],[113.99318068545851,-7.0068978551775283],[113.99318057011244,-7.0068797880972857],[113.99318961159882,-7.0068797304749291],[113.99318949625273,-7.0068616633948215],[113.99323470368168,-7.0068613752811846],[113.99323464600786,-7.0068523417414843],[113.99324368749325,-7.0068522841183114],[113.99324362981935,-7.0068432505787142],[113.9932526713045,-7.0068431929554444],[113.9932526136305,-7.0068341594159014],[113.99324357214552,-7.0068342170390974],[113.99324334145096,-7.0067980828805858],[113.99322525848218,-7.0067981981258569],[113.99322531615536,-7.0068072316656256],[113.99321627467069,-7.0068072892880746],[113.99321633234376,-7.0068163228279463],[113.99320729085885,-7.0068163804502976],[113.99320723318594,-7.0068073469103531],[113.99319819170111,-7.0068074045324558],[113.99319824937383,-7.0068164380724776],[113.99318920788878,-7.0068164956944834],[113.99318915021622,-7.0068074621543879],[113.99318010873122,-7.0068075197761424],[113.9931801664036,-7.0068165533163143],[113.99317112491839,-7.0068166109379728],[113.99317106724618,-7.0068075773977263],[113.99316202576105,-7.0068076350191371],[113.9931619680891,-7.0067986014788461],[113.99313484363374,-7.006798774341811],[113.9931347282911,-7.0067807072607318],[113.99312568680618,-7.0067807648812224],[113.99312562913514,-7.0067717313406019],[113.99310754616542,-7.0067718465809135],[113.99310760383611,-7.006780880121684],[113.99308952086575,-7.0067809953614528],[113.99308957853616,-7.006790028902369],[113.9930805370507,-7.0067900865220683],[113.99308047938045,-7.0067810529810766],[113.9930714378951,-7.006781110600528],[113.99307138022509,-7.0067720770594573],[113.99304425576904,-7.0067722499165432],[113.99304437110807,-7.0067903169991306],[113.99302628813628,-7.0067904322366203],[113.99302634580556,-7.0067994657780579],[113.99308963620666,-7.0067990624432817],[113.99308969387724,-7.006808095984173],[113.99305352793353,-7.0068083264625285],[113.99305358560348,-7.0068173600037511],[113.9930445441172,-7.0068174176229805],[113.99304465945698,-7.0068354847055279],[113.99303561797025,-7.006835542324735],[113.99303567564009,-7.0068445758660785],[113.99304471712699,-7.0068445182467975],[113.99304489013748,-7.0068716188705755],[113.99301776567499,-7.0068717917285781],[113.99301770800528,-7.0068627581870961],[113.99300866651781,-7.0068628158060067],[113.99300860884834,-7.0068537822644306],[113.99299052587352,-7.0068538975015855],[113.99299058354264,-7.0068629310433108],[113.99298154205495,-7.0068629886617018],[113.99298177273151,-7.0068991228288029],[113.99294560677716,-7.0068993533018338],[113.99294566444581,-7.0069083868438984],[113.99295470593468,-7.0069083292258254],[113.99295476360356,-7.0069173627678136],[113.99296380509253,-7.0069173051494911],[113.99296374742347,-7.0069082716075801],[113.99299087188939,-7.0069080987518007],[113.99299110256815,-7.0069442329185225],[113.99297301958957,-7.0069443481564821],[113.99297313492872,-7.0069624152401202],[113.99296409343897,-7.0069624728589899],[113.99296420877806,-7.0069805399427603],[113.99297325026816,-7.0069804823237423],[113.99297319259841,-7.0069714487819494],[113.99298223408827,-7.0069713911628311],[113.99298246476847,-7.0070075253297253],[113.99297342327792,-7.0070075829491429],[113.99297353861814,-7.0070256500327259],[113.99298258010904,-7.0070255924131573],[113.99298281079109,-7.0070617265799573],[113.99297376929948,-7.0070617841998262],[113.99297382697002,-7.0070708177416137],[113.99298286846178,-7.0070707601216675],[113.99298292613257,-7.00707979366336],[113.99297388464061,-7.0070798512833781],[113.99297405765289,-7.00710695190865],[113.99296501616035,-7.0071070095287187],[113.99296513150189,-7.0071250766123656],[113.99295609000893,-7.0071251342324112],[113.9929562630213,-7.0071522348580748],[113.99296530451478,-7.0071521772378036],[113.9929653621859,-7.0071612107796089],[113.99295632069226,-7.0071612683999538],[113.99295643603436,-7.0071793354837197],[113.99292931155188,-7.0071795083441675],[113.99292936922254,-7.0071885418862445],[113.99291128623351,-7.0071886571258251],[113.99291122856322,-7.0071796235835988],[113.99289314557421,-7.0071797388223356],[113.99289279955609,-7.0071255375678776],[113.99288375806252,-7.0071255951865368],[113.992883585055,-7.0070984945590373],[113.99289262654804,-7.0070984369406029],[113.99289245354069,-7.0070713363132935],[113.99290149503314,-7.0070712786949114],[113.99290132202594,-7.0070441780677912],[113.99289228053402,-7.0070442356859486],[113.99289210752805,-7.0070171350585513],[113.99288306603657,-7.0070171926763107],[113.99288289303179,-7.0069900920486852],[113.99285576855843,-7.0069902649002467],[113.99285582622609,-7.0069992984430227],[113.99284678473465,-7.0069993560599366],[113.99284690006985,-7.0070174231456104],[113.99283785857799,-7.0070174807625021],[113.99283791624553,-7.0070265143054327],[113.99281983326122,-7.0070266295388448],[113.99281977559403,-7.0070175959957641],[113.99280169260975,-7.0070177112283325],[113.99280186561053,-7.0070448118579804],[113.99281090710322,-7.0070447542415586],[113.99281102243779,-7.0070628213277928],[113.99278389795845,-7.0070629941769891],[113.99278384029164,-7.0070539606336579],[113.99279288178467,-7.007053903017507],[113.99279270878418,-7.0070268023876627],[113.99278366729168,-7.007026860003589],[113.99278378262491,-7.0070449270903055],[113.99275665814592,-7.0070450999374918],[113.99275660047978,-7.0070360663939111],[113.99274755898682,-7.0070361240092183],[113.99274761665278,-7.0070451575528745],[113.99268432619859,-7.0070455608556923],[113.99268421086919,-7.0070274937673256],[113.99267516937577,-7.0070275513811699],[113.99267522704027,-7.0070365849254301],[113.9926661855466,-7.0070366425391768],[113.99266629364087,-7.0070535762791222],[113.99278269000001,-7.0070675959999642],[113.99285971300003,-7.0070859059998494],[113.99291153800003,-7.0073095279998929],[113.99291159000016,-7.007309753999956],[113.99301875400022,-7.007562994999943],[113.99305615200024,-7.0075846699998641],[113.99312059600004,-7.0075788749999752],[113.99325487800002,-7.0075667999999549],[113.99327431500012,-7.0075226509998751],[113.99327848100006,-7.0074612999999255],[113.99327851300008,-7.007461195999956],[113.99328254074616,-7.0074482743446351],[113.99327461862958,-7.0074483248387232],[113.99327467630911,-7.0074573583778479],[113.99326563481233,-7.0074574160065657],[113.99326557713297,-7.0074483824673663],[113.99325653563629,-7.0074484400958363],[113.99325647795717,-7.0074394065565588],[113.9932383949639,-7.0074395218128265],[113.9932382796066,-7.0074214547339562],[113.99324732110293,-7.0074213971060599],[113.99324726342422,-7.0074123635666945],[113.99323822192807,-7.0074124211945161],[113.99323816424962,-7.0074033876550708],[113.99322912275355,-7.0074034452826464],[113.99322883436328,-7.0073582775849879],[113.99321979286802,-7.0073583352120155],[113.99321973519038,-7.007349301672396],[113.99321069369522,-7.0073493592991749],[113.99321063601781,-7.0073403257594942],[113.99318351153237,-7.0073404986385599],[113.99318356920924,-7.0073495321784653],[113.99317452771378,-7.0073495898045506],[113.99317447003708,-7.0073405562645696],[113.99315638704624,-7.007340671516066],[113.99315632936997,-7.0073316379758976],[113.99316537086524,-7.0073315803503107],[113.99316514016017,-7.0072954461899668],[113.99317418165467,-7.007295388564506],[113.99317400862614,-7.0072682879444157],[113.99314688414398,-7.007268460819601],[113.99314682646848,-7.0072594272793598],[113.99313778497442,-7.0072594849039991],[113.99313772729916,-7.0072504513636629],[113.99315581028682,-7.0072503361143594],[113.99315569493585,-7.0072322690339739],[113.99314665344242,-7.0072323266585625],[113.99314648041707,-7.0072052260377307],[113.99313743892405,-7.0072052836619205],[113.99313720822533,-7.0071691495004558],[113.99312816673296,-7.0071692071241714],[113.99312839743099,-7.0072053412859363],[113.99311935593785,-7.0072053989097798],[113.99311947128697,-7.0072234659907728],[113.99311042979338,-7.0072235236145906],[113.99311019909614,-7.0071873894522749],[113.99311924058902,-7.0071873318287556],[113.99311889454439,-7.0071331305855882],[113.99310985305254,-7.0071331882086572],[113.99310968003178,-7.0071060875867959],[113.9931006385404,-7.0071061452094643],[113.99310023482917,-7.007042910424456],[113.99310927631933,-7.0070428528023108],[113.99310910330087,-7.0070157521803145],[113.99311814479044,-7.0070156945582198],[113.99311808711759,-7.0070066610176438],[113.99310904562819,-7.007006718639663],[113.99310898795559,-7.0069976850989901],[113.99311802944483,-7.0069976274770474],[113.99311808711759,-7.0070066610176438]],[[113.99301845771757,-7.006980194226041],[113.99300941622784,-7.0069802518459277],[113.99300935855737,-7.0069712183044359],[113.99301840004692,-7.0069711606846239],[113.99301845771757,-7.006980194226041]],[[113.99312603283401,-7.0068349661248615],[113.99310794986187,-7.0068350813662237],[113.99310777684865,-7.0068079807439556],[113.99311681833426,-7.0068079231235858],[113.99311687600542,-7.0068169566642817],[113.9931349589767,-7.0068168414228724],[113.9931350166483,-7.0068258749633978],[113.99312597516251,-7.0068259325842641],[113.99312603283401,-7.0068349661248615]]],[[[113.99983236690368,-7.0064127573402084],[113.99982332548154,-7.0064128150865024],[113.99982334149948,-7.0064153186395668],[113.9998323910112,-7.0064165252578814],[113.99983236690368,-7.0064127573402084]]],[[[113.99972375424306,-7.0063953833123822],[113.99971686994429,-7.0063954272797471],[113.99972376334446,-7.0063968058825941],[113.99972375424306,-7.0063953833123822]]],[[[113.9997775982081,-7.0063318024457528],[113.99978663962905,-7.0063317447010016],[113.99978652403807,-7.0063136777300805],[113.99977748261747,-7.0063137354746807],[113.99977754041275,-7.006322768960219],[113.99975945757095,-7.0063228844490508],[113.99975951536595,-7.0063319179347356],[113.99975047394477,-7.0063319756789655],[113.99975053173968,-7.0063410091647214],[113.99975957316104,-7.0063409514204151],[113.99975963095619,-7.0063499849061071],[113.99977771379903,-7.006349869416824],[113.9997775982081,-7.0063318024457528]]],[[[114.00849152184189,-7.005968919970158],[114.0084903311831,-7.0059689275962578],[114.00849152537363,-7.0059694704119142],[114.00849152184189,-7.005968919970158]]],[[[114.00854576988871,-7.0059685725114162],[114.00852768720674,-7.0059686883316923],[114.00852774516756,-7.0059777217445012],[114.00850992929045,-7.0059778358553464],[114.00858348200018,-7.0060112689999601],[114.00860926964756,-7.0060009538273667],[114.00860917519806,-7.0059862339592369],[114.00860013385731,-7.0059862918708262],[114.00860007589502,-7.0059772584586399],[114.00859103455434,-7.0059773163699779],[114.00859109251647,-7.0059863497822423],[114.00858205117555,-7.0059864076934817],[114.00858199321361,-7.0059773742811453],[114.00857295187279,-7.0059774321921386],[114.00857300983455,-7.0059864656045505],[114.00854588581113,-7.0059866393367143],[114.00854576988871,-7.0059685725114162]]],[[[114.0084824225406,-7.0059599444661851],[114.00847073307622,-7.0059600193360643],[114.0084824572138,-7.0059653485075053],[114.0084824225406,-7.0059599444661851]]],[[[114.00846428189845,-7.0059510268705516],[114.00845524055714,-7.0059510847790651],[114.00845525273498,-7.0059529827928131],[114.0084643208945,-7.0059571046979556],[114.00846428189845,-7.0059510268705516]]],[[[114.00839166137678,-7.0059063230640781],[114.00833535431245,-7.005906683689056],[114.00844618746632,-7.00594931143391],[114.00844614125674,-7.0059421092739198],[114.0084370999155,-7.0059421671820097],[114.0084370419567,-7.0059331337684467],[114.00841895927428,-7.0059332495839559],[114.00841890131591,-7.0059242161702215],[114.00840985997476,-7.0059242740776408],[114.00840980201664,-7.005915240663863],[114.0084007606756,-7.0059152985710327],[114.00840081863353,-7.005924331984887],[114.00839177729223,-7.0059243898919608],[114.00839166137678,-7.0059063230640781]]],[[[114.00808309671898,-7.0057276234651242],[114.00808315466922,-7.0057366568817168],[114.00808063254419,-7.0057366730330557],[114.00811038898919,-7.0057536767155577],[114.00811033664063,-7.005745516598779],[114.00810129530036,-7.0057455744987944],[114.00810117939908,-7.0057275076659122],[114.00808309671898,-7.0057276234651242]]],[[[114.0080103024073,-7.0056558193173171],[114.00801024445913,-7.0056467859000859],[114.00800120311992,-7.005646843797364],[114.00800126106792,-7.0056558772146724],[114.0080103024073,-7.0056558193173171]]],[[[114.00808309671898,-7.0057276234651242],[114.00808303876879,-7.0057185900485104],[114.0080739974288,-7.0057186479477789],[114.00807393947888,-7.0057096145311197],[114.008055856799,-7.0057097303289879],[114.0080557988495,-7.0057006969121565],[114.00804675750963,-7.0057007548107553],[114.00804669956037,-7.0056917213938448],[114.00803765822057,-7.0056917792921949],[114.00803748437379,-7.0056646790412129],[114.00801940169505,-7.0056647948369415],[114.00801945964356,-7.0056738282541069],[114.0080104183039,-7.0056738861517864],[114.00801036035556,-7.0056648527345446],[114.00798323633663,-7.0056650264263158],[114.00798317838891,-7.0056559930088627],[114.00796509570958,-7.0056561088023583],[114.00796503776226,-7.0056470753847506],[114.00795599642268,-7.0056471332811627],[114.00795593847562,-7.0056380998634742],[114.00794689713609,-7.0056381577596385],[114.00794695508299,-7.0056471911774016],[114.00792887240343,-7.0056473069693599],[114.00792893035003,-7.0056563403872705],[114.00791988900994,-7.0056563982830653],[114.00791990961298,-7.0056596101419064],[114.00793302465098,-7.0056653479584829],[114.0079380296369,-7.0056653159091331],[114.00793804392877,-7.0056675438875704],[114.00803025700009,-7.0057078869999181],[114.00807408907428,-7.0057329339069527],[114.00807405537881,-7.0057276813644691],[114.00808309671898,-7.0057276234651242]]],[[[114.00862505534631,-7.0056428484782884],[114.00862499738641,-7.0056338150661785],[114.00861595605255,-7.0056338729751735],[114.00861601401228,-7.005642906387358],[114.00862505534631,-7.0056428484782884]]],[[[114.00866122068157,-7.0056426168402739],[114.00866116272097,-7.0056335834284651],[114.00864308005386,-7.0056336992476673],[114.00864313801409,-7.0056427326596262],[114.00866122068157,-7.0056426168402739]]],[[[114.00250324491948,-7.0055555447582174],[114.00248516215264,-7.0055556603393017],[114.00248521999372,-7.0055646938026017],[114.0025033027609,-7.0055645782213665],[114.00250324491948,-7.0055555447582174]]],[[[114.00250324491948,-7.0055555447582174],[114.00251228630279,-7.0055554869674159],[114.00251222846126,-7.005546453504321],[114.00250318707813,-7.0055465112950479],[114.00250324491948,-7.0055555447582174]]],[[[114.00227709463805,-7.0055389225418532],[114.0022680532531,-7.005538980327997],[114.00226799541642,-7.0055299468628798],[114.00222278849141,-7.0055302357906202],[114.00222284632721,-7.005539269256114],[114.0022138049418,-7.0055393270412178],[114.00221386277752,-7.0055483605067641],[114.00220482139187,-7.0055484182917711],[114.00220487922749,-7.0055574517574213],[114.0021958378416,-7.0055575095423279],[114.00219587200851,-7.0055628461549198],[114.00222452700007,-7.0055687589999698],[114.00232262405012,-7.0055890017014626],[114.00232259075138,-7.0055838009318014],[114.00231354936595,-7.005583858719187],[114.00231343369018,-7.005565791789742],[114.00229535091977,-7.0055659073636942],[114.00229529308234,-7.0055568738988159],[114.00228625169721,-7.0055569316854553],[114.00228630953447,-7.005565965150411],[114.00227726814907,-7.0055660229369536],[114.00227721031197,-7.0055569894719243],[114.00228625169721,-7.0055569316854553],[114.00228619386003,-7.0055478982204802],[114.00227715247496,-7.0055479560068727],[114.00227709463805,-7.0055389225418532]]],[[[114.00227709463805,-7.0055389225418532],[114.00229517740772,-7.0055388069690459],[114.00229506173338,-7.0055207400392598],[114.00227697896442,-7.0055208556117661],[114.00227709463805,-7.0055389225418532]]],[[[114.00211423402993,-7.0055218957331142],[114.00212327541584,-7.0055218379500683],[114.00212321758208,-7.0055128044837405],[114.00210513481055,-7.0055129200495081],[114.00210519264395,-7.0055219535159861],[114.00209615125789,-7.0055220112986847],[114.00209620909121,-7.0055310447652346],[114.00209512538744,-7.0055310516910865],[114.00210410205507,-7.0055400281580367],[114.002105308311,-7.0055400204489313],[114.00210531613288,-7.0055412422086665],[114.00210870900027,-7.0055446349999793],[114.00210899300009,-7.0055449189999317],[114.00213249599027,-7.0055497687549808],[114.00213237463565,-7.0055308136330989],[114.00211429186358,-7.0055309291995131],[114.00211423402993,-7.0055218957331142]]],[[[114.00234021081656,-7.0055114176404363],[114.00234032649246,-7.005529484569478],[114.00232224372391,-7.0055296001438681],[114.00232247507526,-7.0055657340025057],[114.00233151646027,-7.0055656762150962],[114.00233157429847,-7.0055747096796699],[114.00234061568358,-7.0055746518920126],[114.00234055784519,-7.0055656184275126],[114.00237672338417,-7.0055653872754462],[114.00237660770627,-7.0055473203470209],[114.00236756632198,-7.0055473781351481],[114.0023675084833,-7.005538344670879],[114.00235846709913,-7.0055384024587566],[114.00235835142237,-7.0055203355300248],[114.00234931003845,-7.0055203933175783],[114.00234925220036,-7.0055113598531316],[114.00234021081656,-7.0055114176404363]],[[114.00233134294614,-7.0055385758213502],[114.00234038433052,-7.0055385180339922],[114.00234050000689,-7.0055565849630099],[114.00233145862215,-7.005556642750518],[114.00233134294614,-7.0055385758213502]]],[[[114.00251211277845,-7.0055283865781712],[114.00251199709594,-7.0055103196519886],[114.00250295571351,-7.0055103774424143],[114.00250307139567,-7.005528444368748],[114.00251211277845,-7.0055283865781712]]],[[[114.00229500389634,-7.0055117065743602],[114.00229488822247,-7.0054936396445511],[114.00228584683855,-7.0054936974306647],[114.00228590467526,-7.0055027308956639],[114.00227686329109,-7.0055027886816799],[114.0022769211277,-7.0055118221467163],[114.00229500389634,-7.0055117065743602]]],[[[114.00232207021119,-7.0055024997498654],[114.00231302882733,-7.0055025575365741],[114.00231297099009,-7.0054935240718024],[114.0023039296063,-7.0054935818582633],[114.00230410311775,-7.0055206822527456],[114.00232218588626,-7.0055205666791993],[114.00232207021119,-7.0055024997498654]]],[[[114.00232195453644,-7.0054844328204826],[114.00232189669917,-7.0054753993557934],[114.00230381393239,-7.0054755149285883],[114.00230387176931,-7.0054845483934276],[114.00232195453644,-7.0054844328204826]]],[[[114.00234021081656,-7.0055114176404363],[114.0023401529787,-7.0055023841759256],[114.00234919436234,-7.0055023263886964],[114.0023491365244,-7.005493292924224],[114.00235817790782,-7.0054932351368961],[114.00235806223182,-7.0054751682081235],[114.00234902084875,-7.0054752259953021],[114.00234907868655,-7.0054842594597648],[114.00233099591989,-7.005484375033749],[114.00233105375742,-7.0054934084983591],[114.00232201237378,-7.0054934662851673],[114.00232207021119,-7.0055024997498654],[114.002331111595,-7.0055024419629826],[114.00233116943267,-7.0055114754275678],[114.00234021081656,-7.0055114176404363]]],[[[114.00241219485071,-7.0054567545535322],[114.00241225268955,-7.0054657880174771],[114.00242129407187,-7.0054657302291607],[114.00242123623285,-7.0054566967652914],[114.00241219485071,-7.0054567545535322]]],[[[114.00242123623285,-7.0054566967652914],[114.00243027761495,-7.0054566389768764],[114.00243033545414,-7.0054656724406712],[114.00245745960046,-7.0054654990741634],[114.00245763312006,-7.0054925994648443],[114.00244859173752,-7.005492657254079],[114.00244864957736,-7.0055016907177237],[114.00245769096007,-7.0055016329284134],[114.00245774880018,-7.0055106663919444],[114.00244870741729,-7.005510724181331],[114.00244893877775,-7.0055468580357694],[114.00243989739405,-7.0055469158252821],[114.00244001307441,-7.0055649827526549],[114.00241288892191,-7.005565156120606],[114.00241306244142,-7.0055922565122684],[114.00240402105659,-7.0055923143014649],[114.00240396321684,-7.0055832808375165],[114.00236779767741,-7.005583511992266],[114.00236773983843,-7.005574478527997],[114.00235869845356,-7.0055745363161748],[114.00235875629235,-7.0055835697805202],[114.00234971490723,-7.0055836275686003],[114.00234979879748,-7.0055967298604607],[114.00236004292172,-7.0056016292250192],[114.00237695474091,-7.0056015211322151],[114.00237700738164,-7.005609742662859],[114.0023786827405,-7.0056105439214322],[114.0024041367363,-7.0056103812293991],[114.0024040788964,-7.0056013477654426],[114.00244024443599,-7.0056011166073171],[114.00244030227658,-7.0056101500709724],[114.00245838504628,-7.0056100344907195],[114.0024584428873,-7.0056190679542203],[114.00246748427219,-7.0056190101637581],[114.00246754211345,-7.0056280436271807],[114.00248562488339,-7.0056279280455858],[114.00248556704176,-7.0056188945823132],[114.00247652565703,-7.0056189523731227],[114.00247640997438,-7.0056008854464178],[114.00248545135877,-7.0056008276557593],[114.00248550920024,-7.0056098611190389],[114.00250359196917,-7.0056097455370514],[114.00250341844398,-7.0055826451476513],[114.00249437706009,-7.0055827029385069],[114.00249431921868,-7.0055736694752904],[114.00248527783486,-7.0055737272658964],[114.0024853356761,-7.0055827607291885],[114.00247629429204,-7.005582818519696],[114.00247600508753,-7.0055376512028245],[114.00248504647071,-7.0055375934126918],[114.00248498862987,-7.0055285599493811],[114.00249403001281,-7.0055285021591516],[114.00249385649022,-7.005501401769437],[114.00250289787255,-7.0055013439792591],[114.00250278219085,-7.0054832770528863],[114.00247565804465,-7.0054834504224477],[114.00247560020443,-7.0054744169590366],[114.00248464158639,-7.0054743591694324],[114.00248458374608,-7.0054653257060941],[114.00246650098239,-7.0054654412849802],[114.00246638530271,-7.0054473743579893],[114.00244830253943,-7.0054474899358814],[114.00244824470005,-7.0054384564722287],[114.00242112055504,-7.0054386298375411],[114.00242106271625,-7.0054295963736601],[114.0024029799529,-7.0054297119495175],[114.00240303779135,-7.0054387454135476],[114.00237591364522,-7.0054389187762585],[114.00237608715945,-7.005466019169007],[114.00236704577672,-7.0054660769564574],[114.00236716145291,-7.0054841438850861],[114.00238524421897,-7.0054840283097128],[114.00238518638049,-7.0054749948455513],[114.0024032691459,-7.0054748792696353],[114.00240315346848,-7.0054568123415999],[114.00241219485071,-7.0054567545535322],[114.00241213701192,-7.0054477210895838],[114.00242117839392,-7.0054476633014184],[114.00242123623285,-7.0054566967652914]]],[[[114.00176034774809,-7.005325412810314],[114.00176028992297,-7.0053163793408899],[114.001751248538,-7.0053164371152699],[114.00175130636296,-7.0053254705847694],[114.00176034774809,-7.005325412810314]]]]},"properties":{"FID":0,"Shape_Leng":18102566.929299999,"Shape_Area":236516885.403}}]
}