{
  "type" : "FeatureCollection",
  "features" : [{"type":"Feature","id":0,"geometry":{"type":"MultiPolygon","coordinates":[[[[113.90677573478625,-7.0480600870844743],[113.90676713277111,-7.0480601406270065],[113.90676725591258,-7.0480782090239922],[113.90677573478625,-7.0480600870844743]]],[[[113.90678482435685,-7.0479967884357606],[113.90677578136852,-7.0479968447227721],[113.9067756686857,-7.0479787762607682],[113.90676662569763,-7.0479788325474599],[113.90676656935651,-7.0479697983163794],[113.90675752636857,-7.0479698546028242],[113.90675758270952,-7.0479788888339767],[113.90674853972131,-7.0479789451203185],[113.90674848338053,-7.0479699108890932],[113.90673944039243,-7.0479699671751872],[113.9067393840519,-7.0479609329438837],[113.90671225508767,-7.0479611018009036],[113.90671231142768,-7.0479701360324247],[113.90670326843927,-7.0479701923178224],[113.90670332477917,-7.0479792265494119],[113.90671236776777,-7.0479791702639423],[113.90671248044814,-7.0479972387269658],[113.90673056642576,-7.0479971261552112],[113.90673062276642,-7.0480061603865707],[113.90673966575528,-7.0480061041003603],[113.90673977843716,-7.0480241725629229],[113.90676690740439,-7.0480240037028024],[113.9067670200876,-7.0480420721649129],[113.90677606307689,-7.0480420158777113],[113.90677616997355,-7.0480591563841459],[113.90688673300008,-7.0478227039999446],[113.90671772500014,-7.0475435009998977],[113.90674568707264,-7.0475215086125731],[113.90674566643607,-7.0475181993227656],[113.90673662345671,-7.0475182556052189],[113.90673651078313,-7.0475001871422158],[113.90672746780405,-7.0475002434243468],[113.90672741146754,-7.0474912091927662],[113.90671836848853,-7.0474912654746511],[113.90671819947998,-7.0474641627796686],[113.90673628543686,-7.0474640502161616],[113.90673634177331,-7.0474730844476801],[113.9067453847518,-7.0474730281655926],[113.90674555376214,-7.0475001308599081],[113.90675459674111,-7.0475000745774281],[113.90675465307821,-7.0475091088087858],[113.90676150695504,-7.0475090661508579],[113.90678466411832,-7.0474908528584432],[113.90678166933992,-7.0474908714977946],[113.90678163432223,-7.0474852560889527],[113.90674454862477,-7.0474278604590808],[113.90672701711409,-7.0474279695715936],[113.90672696077817,-7.0474189353399828],[113.90673873438955,-7.0474188620636147],[113.9067329201546,-7.0474098636679647],[113.9067178614649,-7.0474099573895792],[113.90671771413004,-7.0473863300746453],[113.9066922205174,-7.0473468748938588],[113.90669033818831,-7.0473468866087758],[113.90669039452293,-7.0473559208407117],[113.90667230856951,-7.0473560334007246],[113.90667219590104,-7.0473379649365588],[113.90668123887745,-7.047337908656786],[113.90668118832041,-7.0473298009145431],[113.90668059205203,-7.0473288780997452],[113.90667213956692,-7.0473289307044702],[113.90667208323286,-7.0473198964723958],[113.90666304025675,-7.0473199527518489],[113.90666298392296,-7.0473109185196634],[113.90665394094692,-7.0473109747988696],[113.9066538282799,-7.0472929063343734],[113.90664478530417,-7.0472929626132608],[113.90664489797084,-7.0473110310779008],[113.90659064011274,-7.0473113687484279],[113.90659075277762,-7.047329437213925],[113.90660883873133,-7.0473293246574915],[113.90660878239849,-7.0473202904249055],[113.90663591132795,-7.0473201215891619],[113.9066359676613,-7.0473291558215285],[113.90665405361425,-7.0473290432633489],[113.90665422261578,-7.0473561459600393],[113.90664517963884,-7.0473562022394347],[113.90664512330508,-7.0473471680071365],[113.90659086544279,-7.0473475056794097],[113.90659080911017,-7.04733847144667],[113.90657272315583,-7.0473385840025529],[113.90657266682362,-7.0473295497696631],[113.90656362384652,-7.0473296060472697],[113.90656356751457,-7.0473205718143204],[113.90655452453755,-7.0473206280916809],[113.90655458086933,-7.0473296623247021],[113.90654553789207,-7.0473297186019597],[113.90654559422376,-7.0473387528350679],[113.90653655124625,-7.0473388091122242],[113.90653660757782,-7.0473478433454027],[113.90650947864434,-7.0473480121760428],[113.90650959130666,-7.0473660806428047],[113.90647341939294,-7.0473663057484641],[113.90647353205416,-7.0473843742158273],[113.90644640311702,-7.0473845430436786],[113.90644645944722,-7.0473935772775631],[113.90645550242652,-7.0473935210017151],[113.90645561508749,-7.0474115894693128],[113.90646465806705,-7.0474115331931442],[113.90646482705959,-7.0474386358943342],[113.90648291301956,-7.0474385233410359],[113.90648274402598,-7.0474114206402838],[113.90650082998459,-7.0474113080867253],[113.90650088631607,-7.0474203423201791],[113.90650992929544,-7.0474202860430646],[113.90651004195895,-7.0474383545097812],[113.90651908493861,-7.0474382982323469],[113.90651919760276,-7.0474563666989019],[113.90651015462275,-7.0474564229764827],[113.90651026728686,-7.0474744914431673],[113.9065283532475,-7.0474743788875411],[113.90652840957999,-7.0474834131207507],[113.90653745256037,-7.0474833568426023],[113.90653733989507,-7.0474652883763449],[113.90655542585489,-7.047465175819819],[113.90655553852091,-7.0474832442857842],[113.90656458150106,-7.0474831880071136],[113.90656463783434,-7.0474922222399927],[113.90657368081459,-7.0474921659610743],[113.90657362448113,-7.047483131728268],[113.90658266746112,-7.0474830754492483],[113.90658294913004,-7.0475282466129583],[113.90660103509157,-7.0475281340536675],[113.90660120409486,-7.0475552367513918],[113.90659216111361,-7.0475552930313432],[113.90659238645166,-7.0475914299619022],[113.90657430048753,-7.0475915425218645],[113.90657435682189,-7.0476005767546397],[113.90655627085711,-7.0476006893140513],[113.90655632719118,-7.0476097235469686],[113.90657441315631,-7.0476096109874122],[113.90657458216002,-7.0476367136857023],[113.90655649619386,-7.0476368262456965],[113.90655666519717,-7.047663928944389],[113.90654762221348,-7.0476639852243421],[113.90654767854789,-7.0476730194573047],[113.90652959257989,-7.0476731320168335],[113.90652953624581,-7.0476640977837253],[113.90652049326188,-7.0476641540631544],[113.90652038059432,-7.0476460855967806],[113.90651133761064,-7.04764614187589],[113.90651128127715,-7.0476371076426245],[113.90652032426064,-7.047637051363588],[113.90652026792705,-7.0476280171303909],[113.90650218196033,-7.0476281296881442],[113.90650212562716,-7.047619095454781],[113.90649308264386,-7.0476191517333229],[113.90649302631094,-7.0476101174999162],[113.90645685437775,-7.0476103426120487],[113.90645674171351,-7.0475922741446064],[113.90644769873036,-7.0475923304220576],[113.90644764239855,-7.0475832961882592],[113.90643859941551,-7.0475833524654616],[113.90643854308394,-7.0475743182315691],[113.906429500101,-7.0475743745085255],[113.90642944376968,-7.0475653402745886],[113.90641135780393,-7.0475654528278326],[113.9064110198196,-7.0475112474231576],[113.90640197683766,-7.0475113036990802],[113.90640192050738,-7.0475022694648812],[113.90638383454363,-7.0475023820160585],[113.90638389087357,-7.047511416250404],[113.90639293385564,-7.0475113599748296],[113.90639299018584,-7.0475203942090978],[113.90638394720358,-7.0475204504847424],[113.90638389087357,-7.047511416250404],[113.90636580490919,-7.047511528801027],[113.90636586123884,-7.0475205630355138],[113.90635681825637,-7.0475206193106361],[113.9063569872453,-7.0475477220142917],[113.90637507321121,-7.0475476094634333],[113.90637524220183,-7.0475747121665977],[113.90639332816852,-7.0475745996146042],[113.90639327183789,-7.0475655653803768],[113.90640231482095,-7.0475655091041922],[113.90640242748265,-7.0475835775725306],[113.90641147046597,-7.0475835212960245],[113.9064115267971,-7.047592555530116],[113.90642056978052,-7.047592499253363],[113.9064206261119,-7.0476015334873772],[113.90642966909544,-7.0476014772103763],[113.90642972542709,-7.0476105114443142],[113.90644781139426,-7.0476103988896446],[113.9064478677263,-7.0476194331234145],[113.90645691070996,-7.0476193768457449],[113.9064570797071,-7.0476464795468825],[113.90647516567525,-7.0476463669905831],[113.90647522200811,-7.0476554012241373],[113.90649330797631,-7.0476552886669941],[113.9064933643096,-7.0476643229003972],[113.90650240729376,-7.0476642666214904],[113.90650246362732,-7.0476733008548171],[113.90651150661157,-7.0476732445756642],[113.90651161927923,-7.0476913130421774],[113.90650257629463,-7.0476913693214769],[113.90650274529614,-7.0477184720213923],[113.9064756163403,-7.0477186408588999],[113.90647567267376,-7.0477276750924212],[113.90648471565929,-7.0477276188133544],[113.90648477199299,-7.0477366530468171],[113.90651190094968,-7.0477364842083485],[113.90651195728398,-7.0477455184415554],[113.90650291429833,-7.0477455747212918],[113.90650297063254,-7.0477546089545831],[113.90647584167459,-7.0477547777929637],[113.9064760106761,-7.0477818804934529],[113.90646696768943,-7.0477819367727825],[113.90646702402324,-7.0477909710063669],[113.90645798103634,-7.0477910272855944],[113.90645809370382,-7.0478090957528625],[113.90644905071649,-7.0478091520320616],[113.90644916338393,-7.0478272204994603],[113.90643107740836,-7.0478273330576267],[113.90643113374183,-7.0478363672914659],[113.90641304776562,-7.0478364798490798],[113.90641316043211,-7.0478545483170363],[113.90640411744354,-7.0478546045957273],[113.90640428644329,-7.0478817072978517],[113.90641332943238,-7.0478816510189439],[113.90641344209959,-7.0478997194868782],[113.90640439911016,-7.0478997757659334],[113.90640451177734,-7.0479178442339636],[113.90643164074649,-7.0479176753958379],[113.90643158441235,-7.0479086411620342],[113.90642254142286,-7.0479086974415113],[113.90642248508897,-7.0478996632076489],[113.90643152807827,-7.0478996069282438],[113.90643158441235,-7.0479086411620342],[113.90644062740174,-7.047908584882383],[113.90644057106748,-7.0478995506486664],[113.90644961405661,-7.0478994943689131],[113.90644955772228,-7.0478904601352301],[113.90646764370001,-7.0478903475753452],[113.90646758736538,-7.0478813133418221],[113.90647663035398,-7.0478812570616904],[113.90647657401925,-7.0478722228282358],[113.90648561700756,-7.0478721665480029],[113.90648556067273,-7.0478631323146175],[113.90650364664884,-7.0478630197537733],[113.90650347764375,-7.0478359170540292],[113.90651252063117,-7.0478358607735636],[113.90651257696628,-7.0478448950067438],[113.90652161995381,-7.0478448387260322],[113.90652156361851,-7.0478358044929257],[113.90653060660576,-7.0478357482121119],[113.90653055027035,-7.0478267139790747],[113.90650342130888,-7.0478268828207735],[113.90650330863934,-7.0478088143542488],[113.90652139461305,-7.0478087017935822],[113.90652128194311,-7.0477906333273346],[113.90653032492949,-7.0477905770468849],[113.90653026859447,-7.0477815428138104],[113.9065393115806,-7.0477814865332586],[113.90653925524546,-7.047772452300288],[113.90653021225951,-7.0477725085807661],[113.90653015592463,-7.0477634743477013],[113.90652111293878,-7.0477635306279316],[113.90652105660413,-7.0477544963947896],[113.90653009958982,-7.0477544401146321],[113.90653004325507,-7.0477454058815585],[113.90653908624051,-7.0477453496012989],[113.90653914257543,-7.0477543838342998],[113.90654818556098,-7.0477543275537924],[113.90654835456667,-7.0477814302525337],[113.90657548352441,-7.0477812614093089],[113.90657542718857,-7.0477722271766288],[113.90660255614513,-7.0477720583320531],[113.90660249980886,-7.0477630240995701],[113.90658441383823,-7.0477631366626508],[113.90658435750238,-7.0477541024300185],[113.90657531451714,-7.0477541587112231],[113.90657520184601,-7.0477360902458184],[113.90656615886104,-7.0477361465267032],[113.90656610252576,-7.0477271122938978],[113.90655705954089,-7.0477271685745349],[113.90655683420118,-7.0476910316430637],[113.90656587718536,-7.047690975362717],[113.90656582085045,-7.0476819411298912],[113.9065839068182,-7.0476818285688214],[113.90658396315345,-7.0476908628015025],[113.90659300613741,-7.0476908065206318],[113.90659294980198,-7.0476817722880245],[113.90660199278567,-7.0476817160070526],[113.90660193645013,-7.0476726817745305],[113.90662002241696,-7.0476725692122093],[113.90662013508882,-7.0476906376769746],[113.90662917807245,-7.0476905813954067],[113.90662906540025,-7.047672512930788],[113.90664715136663,-7.0476724003674205],[113.90664720770305,-7.0476814345995775],[113.90667433665259,-7.0476812657529981],[113.90667450566383,-7.0477083684487907],[113.90664737671273,-7.0477085372960255],[113.90664732037608,-7.04769950306388],[113.90662923440867,-7.0476996156276854],[113.90662940341774,-7.0477267183245464],[113.90665653237033,-7.0477265494779227],[113.90665670138165,-7.0477536521740936],[113.90666574436625,-7.0477535958913178],[113.90666580070366,-7.0477626301232936],[113.90662962876421,-7.0477628552536418],[113.90662968510101,-7.0477718894859054],[113.90664777107125,-7.0477717769209347],[113.90664782740848,-7.0477808111530322],[113.90665687039363,-7.047780754870212],[113.90665681405623,-7.0477717206381874],[113.90667490002602,-7.0477716080721704],[113.90667495636376,-7.0477806423040494],[113.90668399934873,-7.0477805860207061],[113.9066839430108,-7.0477715517888999],[113.90669298599549,-7.0477714955054545],[113.90669321134834,-7.0478076324324306],[113.90670225433367,-7.0478075761485197],[113.90670231067224,-7.0478166103801811],[113.90671135365768,-7.0478165540960234],[113.90671140999649,-7.0478255883276075],[113.90672045298201,-7.0478255320432019],[113.90672050932109,-7.0478345662747088],[113.90672955230673,-7.0478345099900563],[113.90672949596748,-7.0478254757586214],[113.90673853895287,-7.0478254194738668],[113.90673887699047,-7.0478796248619799],[113.90674791997682,-7.0478795685766134],[113.90674803265698,-7.0478976370391582],[113.90672090369664,-7.04789780589517],[113.9067209600363,-7.0479068401266298],[113.90673000302334,-7.0479067838413929],[113.90673005936326,-7.0479158180727932],[113.90673910235037,-7.0479157617873112],[113.90673915869053,-7.0479247960186324],[113.90675724466492,-7.0479246834469969],[113.90675741368689,-7.0479517861405041],[113.90676645667449,-7.0479517298542058],[113.90676651301547,-7.0479607640852944],[113.9067845989908,-7.047960651512029],[113.90678482435685,-7.0479967884357606],[113.9067938673451,-7.0479967321485741],[113.90679392368698,-7.0480057663794247],[113.90678488069855,-7.0480058226666831],[113.90678482435685,-7.0479967884357606]],[[113.90675769539165,-7.0479969572962702],[113.90674865240308,-7.0479970135827594],[113.90674859606216,-7.0479879793515243],[113.90675763905054,-7.0479879230651088],[113.90675769539165,-7.0479969572962702]],[[113.90676561156869,-7.0478162163874085],[113.90673848261352,-7.0478163852425002],[113.90673836993506,-7.0477983167797582],[113.90675645590454,-7.047798204210161],[113.90675651224409,-7.047807238441389],[113.90676555522889,-7.047807182156256],[113.90676561156869,-7.0478162163874085]],[[113.90667473101321,-7.0477445053764596],[113.90666568802889,-7.0477445616593366],[113.90666551901727,-7.0477174589633726],[113.90667456200106,-7.0477174026807141],[113.90667473101321,-7.0477445053764596]],[[113.90670180362777,-7.0477353022951048],[113.90671084661163,-7.0477352460116025],[113.90671090294978,-7.0477442802432053],[113.90670185996574,-7.0477443365267805],[113.90670180362777,-7.0477353022951048]],[[113.90670904382981,-7.0474461505976729],[113.90670000085154,-7.0474462068788446],[113.90669994451601,-7.0474371726470215],[113.90669090153784,-7.0474372289279454],[113.90669084520255,-7.047428194696046],[113.9066818022245,-7.047428250976723],[113.90668174588946,-7.0474192167447471],[113.90670887482291,-7.0474190479024115],[113.90670904382981,-7.0474461505976729]],[[113.90669966283943,-7.0473920014878502],[113.90668157688479,-7.0473921140487956],[113.90668152055004,-7.0473830798168038],[113.90669056352723,-7.0473830235364909],[113.90669050719238,-7.0473739893045684],[113.90669955016932,-7.0473739330241534],[113.90669966283943,-7.0473920014878502]],[[113.90651173194719,-7.0477093815086418],[113.90652077493209,-7.0477093252290217],[113.90652083126633,-7.0477183594621824],[113.90651178828128,-7.0477184157418753],[113.90651173194719,-7.0477093815086418]]],[[[113.90660500705307,-7.0472118989216801],[113.90659900528713,-7.0472026102801291],[113.90659906343579,-7.047211935910715],[113.90660500705307,-7.0472118989216801]]],[[[113.90647127985753,-7.0470049356911657],[113.906471165119,-7.0470047581156638],[113.90647116623057,-7.0470049363982499],[113.90647127985753,-7.0470049356911657]]],[[[113.90646546563482,-7.0469959372878135],[113.90646203368334,-7.0469906258150852],[113.90646206693155,-7.0469959584373898],[113.90646546563482,-7.0469959372878135]]],[[[113.90644802296833,-7.046968942076818],[113.90644377081399,-7.0469623612127226],[113.90644381200781,-7.0469689682806784],[113.90644802296833,-7.046968942076818]]],[[[113.90641637651491,-7.046919964306098],[113.90641651411573,-7.0469420343940268],[113.90642555708654,-7.0469419781223426],[113.90642561341276,-7.0469510123565504],[113.90643465638364,-7.0469509560846211],[113.90643471271011,-7.0469599903187854],[113.90644220874671,-7.0469599436728121],[113.90641637651491,-7.046919964306098]]],[[[113.90605637218555,-7.0471972437586601],[113.90605620322258,-7.0471701410473351],[113.90606524620068,-7.0471700847808121],[113.90606518987966,-7.0471610505437514],[113.90607423285752,-7.0471609942771263],[113.90607428917872,-7.0471700285141123],[113.90609237513456,-7.0471699159801933],[113.90609214984885,-7.0471337790328699],[113.90608310687166,-7.0471338352996256],[113.90608305055059,-7.0471248010627114],[113.90606496459634,-7.0471249135955549],[113.90606490827571,-7.0471158793585085],[113.90605586529865,-7.0471159356245954],[113.90605575265793,-7.0470978671502946],[113.90602862372734,-7.0470980359470721],[113.90602873636701,-7.0471161044218089],[113.90603777934429,-7.047116048156246],[113.90603783566442,-7.0471250823935119],[113.90602879268695,-7.0471251386591476],[113.90602884900697,-7.0471341728964978],[113.90601980602926,-7.0471342291620331],[113.90601963706996,-7.0471071264497507],[113.90601059409271,-7.0471071827148926],[113.90601053777326,-7.0470981484773842],[113.90601958075034,-7.0470980922123152],[113.90601929915333,-7.047052921025081],[113.90602834212945,-7.047052864760202],[113.90602822949081,-7.0470347962854261],[113.90601918651504,-7.0470348525501585],[113.90601924283415,-7.0470438867876215],[113.90599211390582,-7.0470440555809937],[113.90599200126874,-7.0470259871056271],[113.90598295829284,-7.0470260433695904],[113.90598301461117,-7.0470350776073483],[113.90597397163501,-7.0470351338712094],[113.90597391531685,-7.0470260996333787],[113.9059648723408,-7.0470261558969929],[113.90596481602289,-7.0470171216590849],[113.90597385899876,-7.0470170653955426],[113.90597374636282,-7.0469989969198457],[113.905946617436,-7.0469991657095088],[113.90594656111867,-7.0469901314714596],[113.90597369004496,-7.0469899626820167],[113.90597363372717,-7.0469809284441656],[113.90598267670228,-7.0469808721807423],[113.90598262038441,-7.0469718379429604],[113.90600070633403,-7.0469717254157356],[113.90600065001586,-7.0469626911780949],[113.90600969299042,-7.0469626349142924],[113.90600963667215,-7.0469536006767051],[113.90600059369778,-7.0469536569404347],[113.90600042474395,-7.0469265542274968],[113.90599138177005,-7.046926610490833],[113.90599126913489,-7.0469085420153812],[113.90598222616126,-7.0469085982783968],[113.90598216984397,-7.0468995640405669],[113.90597312687041,-7.0468996203033338],[113.90597301423638,-7.0468815518275516],[113.90596397126313,-7.0468816080900005],[113.90596385862976,-7.0468635396140558],[113.90595481565677,-7.046863595876184],[113.90595464670777,-7.0468364931620187],[113.90594560373525,-7.0468365494237544],[113.90594554741925,-7.0468275151856181],[113.90592746147431,-7.046827627708419],[113.90592734884321,-7.0468095592318445],[113.90591830587098,-7.0468096154928386],[113.90591824955573,-7.0468005812544723],[113.90590920658359,-7.0468006375152177],[113.90590909395362,-7.0467825690383279],[113.90590005098178,-7.0467826252987535],[113.9058999946671,-7.0467735910602309],[113.90590903763876,-7.0467735347998772],[113.90590898132398,-7.0467645005614239],[113.90589089538091,-7.0467646130818071],[113.90589083906654,-7.0467555788432046],[113.90588179609504,-7.0467556351030627],[113.90588168346689,-7.0467375666256968],[113.90587264049569,-7.0467376228852352],[113.90587252786817,-7.0467195544077077],[113.90586348489722,-7.0467196106669254],[113.90586337227036,-7.046701542189254],[113.90587241524095,-7.046701485930182],[113.90587235892745,-7.0466924516913876],[113.90586331595703,-7.0466925079503868],[113.90586325964378,-7.0466834737115338],[113.90585421667349,-7.0466835299702852],[113.90585416036049,-7.046674495731355],[113.90584511739029,-7.0466745519898595],[113.90584517370311,-7.0466835862288635],[113.90582708776212,-7.0466836987454951],[113.90582703144966,-7.0466746645063454],[113.9058179884792,-7.0466747207643268],[113.90581793216698,-7.0466656865251016],[113.90582697513724,-7.0466656302671931],[113.90582691882491,-7.0466565960280354],[113.90581787585482,-7.0466566522858711],[113.90581781954275,-7.0466476180466371],[113.90580877657278,-7.046647674304225],[113.90580872026095,-7.0466386400649155],[113.90579967729109,-7.0466386963222565],[113.90579962097951,-7.0466296620828679],[113.9057905780097,-7.0466297183399629],[113.90579052169838,-7.0466206841004979],[113.9057814787287,-7.0466207403573451],[113.90578142241762,-7.0466117061178029],[113.90577237944805,-7.0466117623744031],[113.90577249206994,-7.046629830853627],[113.90578153503986,-7.046629774596882],[113.9057815913511,-7.0466388088364145],[113.90579063432112,-7.0466387525794225],[113.90579102850305,-7.0467019922555512],[113.9057819855318,-7.0467020485130538],[113.90578204184364,-7.0467110827525383],[113.90580012778641,-7.0467109702372142],[113.90580001516213,-7.0466929017584983],[113.90580905813304,-7.0466928455007203],[113.90580911444532,-7.0467018797400245],[113.90581815741633,-7.0467018234819996],[113.90581827004146,-7.0467198919603993],[113.90583635598399,-7.0467197794435332],[113.90583641229702,-7.0467288136825905],[113.90584545526836,-7.0467287574238231],[113.90584556789497,-7.0467468259017627],[113.90583652492329,-7.0467468821606758],[113.90583658123653,-7.0467559163997375],[113.9058456242084,-7.0467558601407516],[113.90584568052188,-7.0467648943797192],[113.90585472349383,-7.0467648381204864],[113.90585483612138,-7.0467829065982652],[113.9058638790936,-7.0467828503387118],[113.90586393540767,-7.0467918845775062],[113.90587297838,-7.0467918283177058],[113.90587314732316,-7.0468189310339131],[113.90588219029593,-7.0468188747737193],[113.90588224661064,-7.0468279090123689],[113.9058732036377,-7.0468279652726347],[113.90587337258174,-7.046855067988778],[113.90582815771326,-7.0468553492885864],[113.90582810139936,-7.0468463150495122],[113.90581905842561,-7.0468463713088765],[113.90581900211198,-7.046837337069725],[113.90580091616462,-7.0468374495877866],[113.90580080353828,-7.0468193811091799],[113.90580984651164,-7.0468193248503832],[113.9058097901984,-7.0468102906111465],[113.90581883317152,-7.0468102343522467],[113.90581872054491,-7.0467921658738923],[113.90583680649024,-7.0467920533558619],[113.9058367501767,-7.0467830191168481],[113.90581866423172,-7.0467831316347347],[113.9058186079186,-7.0467740973955557],[113.9058095649462,-7.0467741536541633],[113.90580945232053,-7.046756085175649],[113.90579136637615,-7.0467561976920496],[113.90579131006379,-7.0467471634526229],[113.90580035303586,-7.046747107194582],[113.90580029672338,-7.0467380729552591],[113.90579125375149,-7.0467381292132272],[113.90579119743927,-7.0467290949738102],[113.90576406852374,-7.0467292637464487],[113.90576401221212,-7.0467202295068088],[113.90577305518387,-7.0467201732495086],[113.90577299887214,-7.0467111390099388],[113.90576395590055,-7.0467111952671653],[113.90576389958908,-7.0467021610275351],[113.90575485661762,-7.0467022172845128],[113.9057548003064,-7.0466931830447717],[113.90576384327768,-7.0466931267878659],[113.90576378696635,-7.0466840925482108],[113.90575474399525,-7.0466841488050438],[113.90575468768415,-7.0466751145653124],[113.90574564471314,-7.0466751708218975],[113.9057455884023,-7.0466661365820888],[113.90575463137316,-7.0466660803255756],[113.90575457506223,-7.0466570460858353],[113.90574553209154,-7.0466571023422766],[113.90574547578086,-7.0466480681024599],[113.90570930389815,-7.0466482931261831],[113.90570936020812,-7.0466573273662911],[113.90570031723708,-7.0466573836218593],[113.90570014830787,-7.0466302809013044],[113.90570919127839,-7.0466302246459547],[113.90570913496863,-7.046621190405836],[113.90571817793889,-7.046621134150385],[113.90571812162904,-7.0466120999103339],[113.90572716459906,-7.0466120436547817],[113.90572705197921,-7.0465939751748143],[113.90571800900953,-7.0465940314302209],[113.90571789639031,-7.0465759629500919],[113.90570885342093,-7.0465760192051778],[113.90570890973032,-7.046585053445301],[113.90569082379096,-7.0465851659550962],[113.90569088010008,-7.0465942001953943],[113.90568183713012,-7.0465942564501027],[113.90568189343914,-7.0466032906904532],[113.9056728504689,-7.0466033469450604],[113.90567290677782,-7.0466123811854784],[113.90565482083682,-7.0466124936943153],[113.90565510238076,-7.0466576648970793],[113.90564605940928,-7.0466577211515995],[113.90564611571811,-7.0466667553922138],[113.9056370727464,-7.0466668116466327],[113.90563701643774,-7.0466577774059456],[113.9056098875226,-7.0466579461679375],[113.90561000013895,-7.0466760146497442],[113.90561904311109,-7.0466759583957757],[113.90561909941955,-7.0466849926366004],[113.90562814239176,-7.046684936382384],[113.90562819870048,-7.0466939706231315],[113.90563724167284,-7.0466939143686691],[113.90563735429082,-7.046711982850006],[113.90564639726341,-7.0467119265952238],[113.90564645357269,-7.0467209608358132],[113.90565549654539,-7.0467209045807833],[113.90565555285492,-7.0467299388212963],[113.90566459582774,-7.0467298825660185],[113.90566465213752,-7.046738916806456],[113.90567369511042,-7.0467388605509305],[113.90567375142045,-7.0467478947912738],[113.90569183736639,-7.0467477822795539],[113.90569194998737,-7.0467658507599884],[113.90570099296056,-7.0467657945037212],[113.90570104927134,-7.0467748287438514],[113.90571009224468,-7.0467747724873355],[113.90571014855568,-7.0467838067273894],[113.90571919152909,-7.0467837504706283],[113.90571924784035,-7.0467927847105862],[113.90572829081388,-7.0467927284535774],[113.9057283471254,-7.0468017626934936],[113.90573739009901,-7.0468017064362387],[113.9057375027226,-7.0468197749158792],[113.90573439736536,-7.0468197942346906],[113.90574674513331,-7.0468377865977079],[113.90575570129492,-7.0468377308798855],[113.90575575760734,-7.0468467651195477],[113.90577384355579,-7.0468466526030848],[113.90577389986862,-7.0468556868425969],[113.9057829428429,-7.046855630584032],[113.905782999156,-7.0468646648234667],[113.90579204213037,-7.046864608564654],[113.90579226738416,-7.0469007455220627],[113.90579034756057,-7.0469007574658846],[113.90579436017582,-7.0469097670918313],[113.90580136667297,-7.046909723502071],[113.90580142298687,-7.0469187577413193],[113.90581950893736,-7.0469186452219468],[113.90581956525166,-7.0469276794610627],[113.90582860822698,-7.046927623201042],[113.90582866454153,-7.0469366574400816],[113.90583770751695,-7.0469366011798131],[113.90583782014662,-7.046954669657719],[113.90585590609793,-7.0469545571363668],[113.90585596241323,-7.0469635913751931],[113.90586500538893,-7.0469635351141831],[113.9058651180201,-7.0469816035916431],[113.90587416099611,-7.0469815473303132],[113.90587427362792,-7.0469996158075965],[113.90588331660418,-7.0469995595459451],[113.90588337292037,-7.0470085937845326],[113.90589241589674,-7.0470085375226343],[113.9058924722132,-7.0470175717611303],[113.90590151518965,-7.0470175154989851],[113.90590157150633,-7.0470265497374029],[113.90591061448291,-7.0470264934750091],[113.90591072711685,-7.0470445619516875],[113.9059197700937,-7.0470445056889739],[113.90591993904572,-7.0470716084037592],[113.90592898202298,-7.0470715521406539],[113.90592909465838,-7.0470896206169833],[113.90593813763597,-7.0470895643535583],[113.90593819395394,-7.0470985985916528],[113.90594723693161,-7.0470985423279791],[113.90594734956814,-7.0471166108040286],[113.90595639254607,-7.0471165545400352],[113.90595644886463,-7.0471255887779556],[113.90596549184269,-7.0471255325137152],[113.90596554816149,-7.0471345667515761],[113.90597459113962,-7.0471345104870879],[113.90597464745866,-7.0471435447248716],[113.90598369043694,-7.0471434884601374],[113.90598363411772,-7.0471344542224257],[113.90599267709571,-7.0471343979575893],[113.90599273341512,-7.0471434321952273],[113.90600177639321,-7.0471433759301432],[113.90600183271285,-7.0471524101677039],[113.90599278973458,-7.0471524664328609],[113.90599301501319,-7.0471886033833577],[113.90600205799217,-7.0471885471179094],[113.90600211431219,-7.0471975813554515],[113.90601115729127,-7.0471975250897554],[113.90601121361152,-7.0472065593272042],[113.90602025659071,-7.0472065030612612],[113.90602036923178,-7.0472245715360495],[113.90602941221124,-7.0472245152697859],[113.90602935589048,-7.0472154810324747],[113.9060383988697,-7.0472154247661107],[113.90603856783271,-7.0472425274778141],[113.90604761081237,-7.0472424712110566],[113.9060477234551,-7.04726053968536],[113.90605676643504,-7.0472604834182819],[113.90605693540023,-7.0472875861294888],[113.90608406434114,-7.0472874173265527],[113.90608417698603,-7.0473054858002353],[113.90609321996652,-7.0473054295320949],[113.90609333261203,-7.0473234980056318],[113.90610237559284,-7.0473234417371726],[113.90610243191588,-7.0473324759738363],[113.90611147489675,-7.0473324197051284],[113.90611158754341,-7.047350488178334],[113.90612063052457,-7.0473504319093063],[113.90612068684818,-7.0473594661458305],[113.90612972982944,-7.0473594098765551],[113.90612978615331,-7.047368444112986],[113.90613882913468,-7.0473683878434619],[113.90613888545879,-7.0473774220798502],[113.90614792844026,-7.0473773658100809],[113.90614798476462,-7.0473864000463742],[113.90615702774618,-7.047386343776358],[113.90615714039546,-7.0474044122487864],[113.90616618337729,-7.0474043559784487],[113.90616623970224,-7.0474133902145688],[113.90617528268417,-7.0474133339439842],[113.90617533900937,-7.0474223681800598],[113.90618438199139,-7.0474223119092292],[113.90618443831683,-7.0474313461452116],[113.90619348129897,-7.0474312898741314],[113.90619359395042,-7.0474493583459399],[113.90620263693282,-7.0474493020745399],[113.90620269325882,-7.0474583363103651],[113.90621173624133,-7.0474582800387182],[113.90621179256758,-7.047467314274467],[113.90624796449761,-7.0474670891858437],[113.90624790817066,-7.0474580549503862],[113.90623886518843,-7.0474581112227312],[113.90623880886172,-7.0474490769871974],[113.90628402377119,-7.047448795624093],[113.90628396744368,-7.0474397613889197],[113.9062930104252,-7.0474397051158473],[113.90629323573634,-7.0474758420562269],[113.90626610678954,-7.0474760108757923],[113.90626627577211,-7.0475031135816906],[113.90627531875496,-7.0475030573084574],[113.90627537508281,-7.0475120915436769],[113.90629346104869,-7.0475119789965435],[113.90629340472049,-7.0475029447614705],[113.90631149068571,-7.0475028322137838],[113.90631154701425,-7.0475118664487102],[113.90632058999692,-7.0475118101745329],[113.90632064632571,-7.0475208444093838],[113.90632968930849,-7.0475207881349586],[113.90632974563752,-7.0475298223697491],[113.9063478316032,-7.0475297098202292],[113.9063477189445,-7.0475116413509529],[113.90635676192689,-7.0475115850760774],[113.90635653660966,-7.0474754481378001],[113.90632940766439,-7.0474756169610302],[113.90632935133578,-7.0474665827262335],[113.90633839431746,-7.0474665264520704],[113.90633828166014,-7.0474484579826093],[113.90632019569745,-7.0474485705304684],[113.90632008304112,-7.0474305020607009],[113.90633816900311,-7.0474303895131323],[113.9063381126747,-7.047421355278388],[113.90634715565541,-7.0474212990044149],[113.90634709932691,-7.0474122647697239],[113.90635614230737,-7.0474122084956496],[113.90635574800872,-7.0473489688533393],[113.90633766205018,-7.0473490814002924],[113.90633771837797,-7.0473581156350686],[113.90634676135745,-7.0473580593616054],[113.90634687401365,-7.0473761278309999],[113.9063287880539,-7.0473762403780427],[113.9063286753984,-7.0473581719083578],[113.90631963241879,-7.0473582281814711],[113.90631957609132,-7.04734919394655],[113.90629244715252,-7.0473493627646269],[113.90629233449887,-7.0473312942943345],[113.90628329151946,-7.047331350566532],[113.90628312254006,-7.047304247860847],[113.90627407956111,-7.0473043041326511],[113.90627396690891,-7.0472862356620292],[113.90626492393024,-7.0472862919335126],[113.90626481127867,-7.0472682234627291],[113.90625576830026,-7.0472682797338937],[113.90625571197477,-7.0472592454984229],[113.90624666899647,-7.0472593017693397],[113.90624655634605,-7.0472412332982408],[113.90623751336801,-7.0472412895688379],[113.90623745704308,-7.0472322553332098],[113.90622841406517,-7.0472323116035582],[113.90622824509137,-7.0472052088964148],[113.90623728806875,-7.0472051526262849],[113.90623723174413,-7.0471961183906586],[113.90621914578962,-7.0471962309305995],[113.90621903314127,-7.0471781624590077],[113.90620999016424,-7.047178218728571],[113.90620993384036,-7.0471691844926978],[113.90620089086343,-7.0471692407620123],[113.9062008345398,-7.047160206526045],[113.90619179156297,-7.0471602627951135],[113.9061917352396,-7.0471512285591036],[113.90618269226286,-7.0471512848279243],[113.90618263593973,-7.0471422505918202],[113.9061735929631,-7.047142306860394],[113.90617331134941,-7.047097135679449],[113.90616426837357,-7.0470971919474836],[113.90616438101848,-7.0471152604200364],[113.90614629506592,-7.047115372955874],[113.90614618242172,-7.0470973044830307],[113.90613713944566,-7.0470973607505423],[113.9061370268021,-7.0470792922775534],[113.90612798382634,-7.0470793485447452],[113.90612792750484,-7.0470703143081899],[113.90610984155342,-7.0470704268419038],[113.90610978523235,-7.0470613926051628],[113.90609169928098,-7.0470615051380339],[113.90609153031924,-7.0470344024274061],[113.90608248734399,-7.0470344586933606],[113.90608243102373,-7.0470254244564039],[113.90607338804855,-7.0470254807221124],[113.90607333172855,-7.0470164464850784],[113.90605524577836,-7.047016559015824],[113.90605530209803,-7.0470255932530037],[113.90604625912262,-7.0470256495181873],[113.9060463717618,-7.0470437179926799],[113.90605541473755,-7.0470436617273498],[113.90605547105744,-7.0470526959645179],[113.90606451403326,-7.0470526396989408],[113.90606457035338,-7.0470616739360308],[113.90607361332931,-7.0470616176702068],[113.9060736696497,-7.0470706519072372],[113.90608271262575,-7.0470705956411654],[113.90608282526706,-7.0470886641150186],[113.90609186824338,-7.047088607848627],[113.90609192456432,-7.0470976420854843],[113.90610096754075,-7.0470975858188432],[113.90610102386195,-7.047106620055624],[113.90611006683845,-7.0471065637887369],[113.90611012315989,-7.0471155980254565],[113.90611916613651,-7.0471155417583233],[113.90611922245819,-7.0471245759949328],[113.90612826543493,-7.0471245197275509],[113.90612832175687,-7.0471335539641],[113.90613736473368,-7.0471334976964712],[113.90613742105586,-7.0471425319329448],[113.9061464640328,-7.0471424756650682],[113.90614663300035,-7.0471695783742438],[113.9061556759777,-7.0471695221059756],[113.90615573230053,-7.0471785563422866],[113.906164775278,-7.0471785000737706],[113.90616488792423,-7.0471965685462346],[113.90618297387967,-7.047196456008388],[113.90618291755615,-7.0471874217723016],[113.90619196053359,-7.0471873655031905],[113.90619201685726,-7.0471963997392013],[113.90618297387967,-7.047196456008388],[113.90618303020324,-7.0472054902444512],[113.90619207318102,-7.0472054339751935],[113.90619212950484,-7.0472144682112141],[113.90620117248271,-7.0472144119417086],[113.90620122880679,-7.047223446177636],[113.90621027178476,-7.0472233899078836],[113.90621032810908,-7.0472324241437336],[113.90620128513095,-7.0472324804135589],[113.90620134145519,-7.0472415146494791],[113.90621038443349,-7.0472414583795802],[113.90621044075796,-7.0472504926154231],[113.90621948373639,-7.0472504363452764],[113.90621954006112,-7.0472594705810421],[113.90623762601807,-7.0472593580400815],[113.90623768234323,-7.0472683922756989],[113.90624672532179,-7.0472683360048833],[113.90624683797266,-7.0472864044759582],[113.90623779499374,-7.0472864607469186],[113.90623785131912,-7.0472954949825235],[113.90622880833997,-7.0472955512533817],[113.90622892099059,-7.0473136197247248],[113.90621987801103,-7.0473136759955555],[113.90621993433626,-7.0473227102313105],[113.906228977316,-7.0473226539604079],[113.90622903364149,-7.0473316881960519],[113.90623807662132,-7.0473316319249015],[113.90623813294707,-7.047340666160486],[113.90627430486641,-7.0473404410738478],[113.90627458649973,-7.0473856122502569],[113.90623841457688,-7.0473858373383518],[113.90623830192473,-7.0473677688672014],[113.90622021596359,-7.0473678814099099],[113.90622004698697,-7.0473407787027584],[113.90621100400679,-7.0473408349736335],[113.90621077870637,-7.0473046980303957],[113.90619269274721,-7.0473048105710383],[113.90619274907186,-7.0473138448069994],[113.90618370609199,-7.047313901077132],[113.90618364976753,-7.047304866841098],[113.90617460678776,-7.0473049231109828],[113.90617455046353,-7.0472958888748725],[113.90614742152432,-7.0472960576832619],[113.9061473652007,-7.0472870234469287],[113.90613832222097,-7.0472870797159697],[113.90613815325108,-7.0472599770067292],[113.90612911027182,-7.0472600332753785],[113.90612905394885,-7.0472509990388827],[113.90613809692792,-7.0472509427703081],[113.90613798428183,-7.0472328742974533],[113.90612894130311,-7.0472329305658823],[113.90612877233507,-7.0472058278563363],[113.90611972935676,-7.0472058841243728],[113.9061196730344,-7.0471968498877997],[113.90611063005623,-7.0471969061555892],[113.90611051741207,-7.0471788376822504],[113.90610147443417,-7.0471788939497193],[113.90610153075603,-7.0471879281864629],[113.90606535884292,-7.0471881532548863],[113.90606541516416,-7.0471971874919177],[113.90605637218555,-7.0471972437586601],[113.90605642850669,-7.0472062779957447],[113.90604738552778,-7.047206334262385],[113.90604732920683,-7.0471973000252284],[113.90605637218555,-7.0471972437586601]],[[113.9059462232162,-7.0469359260429876],[113.90593718024168,-7.0469359823053486],[113.90593706760845,-7.0469179138290148],[113.90592802463419,-7.046917970091056],[113.90592791200163,-7.0468999016145606],[113.90593695497553,-7.046899845352665],[113.90593701129197,-7.0469088795908581],[113.90594605426597,-7.0469088233287147],[113.9059462232162,-7.0469359260429876]],[[113.90575530711011,-7.0467744912021484],[113.90577339305577,-7.0467743786868509],[113.90577350568033,-7.0467924471659167],[113.90576446270718,-7.0467925034237977],[113.90576440639504,-7.0467834691842013],[113.905755363422,-7.0467835254418372],[113.90575530711011,-7.0467744912021484],[113.90574626413715,-7.0467745474595338],[113.9057462078255,-7.0467655132197686],[113.90575525079828,-7.0467654569624552],[113.90575530711011,-7.0467744912021484]],[[113.90569144319532,-7.0466845425979887],[113.90569149950525,-7.0466935768382273],[113.90568245653337,-7.0466936330937369],[113.90568240022361,-7.0466845988534255],[113.90569144319532,-7.0466845425979887],[113.90569138688547,-7.0466755083577475],[113.90570042985692,-7.0466754521022086],[113.90570048616695,-7.046684486342377],[113.90569144319532,-7.0466845425979887]],[[113.90567335725181,-7.0466846551086881],[113.90565527130801,-7.0466847676186903],[113.90565521499886,-7.0466757333781569],[113.9056733009423,-7.0466756208683012],[113.90567335725181,-7.0466846551086881]],[[113.90573660174203,-7.0466752270783077],[113.90572755877089,-7.0466752833345447],[113.90572750246041,-7.0466662490945913],[113.90573654543138,-7.0466661928384271],[113.90573660174203,-7.0466752270783077]],[[113.90569127426596,-7.0466574398772517],[113.90568223129479,-7.0466574961324699],[113.90568211867594,-7.0466394276518125],[113.90569116164677,-7.0466393713967399],[113.90569127426596,-7.0466574398772517]],[[113.90612023626132,-7.0472871922535294],[113.9061292792412,-7.0472871359848366],[113.90612933556447,-7.0472961702213155],[113.90612029258442,-7.0472962264900803],[113.90612023626132,-7.0472871922535294]],[[113.90622049759276,-7.0474130525884444],[113.90622954057424,-7.0474129963168135],[113.90622959690047,-7.0474220305524513],[113.90622055391881,-7.0474220868241559],[113.90622049759276,-7.0474130525884444]],[[113.9063295203218,-7.0474936854306138],[113.90634760628608,-7.0474935728816765],[113.90634766261526,-7.0475026071163169],[113.90632957665062,-7.0475027196653999],[113.9063295203218,-7.0474936854306138]]],[[[113.90611528011848,-7.0464921794216293],[113.90611683681837,-7.0464921697363794],[113.90609702411803,-7.0464650090826275],[113.90609719418929,-7.0464922919456718],[113.90610623715392,-7.0464922356837372],[113.90610629347033,-7.0465012699206921],[113.90611533643508,-7.0465012136585097],[113.90611528011848,-7.0464921794216293]]],[[[113.90608403369512,-7.0464472008873393],[113.90607878159823,-7.0464400009388442],[113.90607882668147,-7.0464472332829962],[113.90608403369512,-7.0464472008873393]]],[[[113.90607747307133,-7.0464382071169389],[113.90606966033913,-7.0464274968663592],[113.9060697274022,-7.0464382553067573],[113.90607747307133,-7.0464382071169389]]],[[[113.90606435182461,-7.0464202195755385],[113.90606053908063,-7.0464149927935233],[113.90606057180834,-7.0464202430928289],[113.90606435182461,-7.0464202195755385]]],[[[113.90605779120169,-7.0464112258045404],[113.90605141782267,-7.0464024887203029],[113.90605147253004,-7.0464112651158644],[113.90605779120169,-7.0464112258045404]]],[[[113.9060446699567,-7.0463932382619463],[113.90604229656525,-7.0463899846466633],[113.9060423169377,-7.0463932529010522],[113.9060446699567,-7.0463932382619463]]],[[[113.90603810933465,-7.0463842444903513],[113.90603317530841,-7.0463774805726738],[113.90603321766034,-7.0463842749233638],[113.90603810933465,-7.0463842444903513]]],[[[113.90600581154118,-7.0463399683483479],[113.90600591983035,-7.0463573409883526],[113.90601496279311,-7.0463572847292566],[113.9060150754203,-7.0463753532047511],[113.90603154871286,-7.0463752507185404],[113.90600581154118,-7.0463399683483479]]],[[[113.90591459161421,-7.0462137394501161],[113.90591470184359,-7.0462314242294877],[113.90592374480464,-7.0462313679731556],[113.90592380111541,-7.0462404022116951],[113.90593284407657,-7.0462403459551162],[113.9059329003876,-7.0462493801935793],[113.90594007522316,-7.0462493355584943],[113.90591459161421,-7.0462137394501161]]],[[[113.90588723510109,-7.0461773875643612],[113.90588856103828,-7.0461773793158455],[113.90588722340387,-7.0461755108756545],[113.90588723510109,-7.0461773875643612]]],[[[113.90587568249491,-7.0461593902532469],[113.90586897793315,-7.0461500251573979],[113.90586903656207,-7.0461594315965659],[113.90587568249491,-7.0461593902532469]]],[[[113.90584168244784,-7.046123463403215],[113.90584992541154,-7.0461234121257421],[113.90584160973134,-7.0461117965770717],[113.90584168244784,-7.046123463403215]]],[[[113.90580534168649,-7.0460965856990763],[113.90580528537917,-7.046087551459526],[113.90582416833273,-7.0460874339951038],[113.90581128979503,-7.046069444928631],[113.90580517276477,-7.0460694829804114],[113.90580511880357,-7.0460608251312129],[113.90580485052659,-7.0460604503951041],[113.90579607349898,-7.0460605049935303],[113.90579601719213,-7.0460514707538913],[113.90578697423352,-7.0460515270063242],[113.90578719946065,-7.0460876639651477],[113.90579624241997,-7.0460876077124235],[113.9057962987271,-7.0460966419520474],[113.90580534168649,-7.0460965856990763]]],[[[113.90550600665161,-7.0455925104960793],[113.90550375177806,-7.0455894054191051],[113.90550377121419,-7.0455925243995319],[113.90550600665161,-7.0455925104960793]]],[[[113.90549947532709,-7.0455835165257241],[113.90549463020201,-7.0455768445384663],[113.90549467196489,-7.0455835464004393],[113.90549947532709,-7.0455835165257241]]],[[[113.90575125284825,-7.046124025934243],[113.90574220988786,-7.0461240821863873],[113.90574209727531,-7.0461060137062681],[113.90573305431522,-7.0461060699580917],[113.90573299800924,-7.0460970357179624],[113.90572395504924,-7.0460970919695374],[113.90572384243782,-7.0460790234891384],[113.9057147994781,-7.0460790797403945],[113.90571468686733,-7.0460610112598001],[113.90570564390791,-7.0460610675107347],[113.9057055876028,-7.0460520332703682],[113.90569654464345,-7.0460520895210559],[113.90569643203382,-7.046034021040164],[113.90568738907477,-7.0460340772905319],[113.90568727646578,-7.0460160088094783],[113.90567823350699,-7.0460160650595265],[113.90567812089866,-7.0459979965783122],[113.90566907794015,-7.0459980528280397],[113.90566896533244,-7.0459799843466637],[113.90565087941589,-7.0459800968453044],[113.90565076680919,-7.0459620283636042],[113.90564172385116,-7.0459620846125173],[113.9056416112451,-7.0459440161306892],[113.90563256828734,-7.0459440723792826],[113.90563234307683,-7.0459079354152543],[113.90560521420518,-7.0459081041591132],[113.90560510160141,-7.0458900356766385],[113.90559605864441,-7.0458900919240968],[113.90559600234282,-7.0458810576827799],[113.90558695938591,-7.0458811139299913],[113.9055866778799,-7.045835942722988],[113.90557763492377,-7.0458359989696611],[113.90557757862297,-7.0458269647281755],[113.90556853566696,-7.0458270209746008],[113.90556847936641,-7.0458179867330388],[113.90555943641051,-7.0458180429792163],[113.90555932380997,-7.0457999744959174],[113.90555028085433,-7.0458000307417761],[113.90555016825442,-7.0457819622583493],[113.90554112529907,-7.0457820185038882],[113.9055408438015,-7.0457368472948483],[113.90553180084693,-7.0457369035398472],[113.90553174454782,-7.0457278692979539],[113.90551365863884,-7.0457279817872838],[113.90551348974297,-7.0457008790611457],[113.90549540383472,-7.0457009915493387],[113.9054953475366,-7.0456919573071399],[113.90548630458252,-7.0456920135509025],[113.90548624828466,-7.0456829793086264],[113.9054500764684,-7.0456832042816409],[113.90545002017129,-7.045674170039069],[113.9054409772172,-7.0456742262818137],[113.90544092092036,-7.0456651920391824],[113.90541379205821,-7.0456653607661517],[113.90541373576194,-7.0456563265232637],[113.90540469280793,-7.0456563827651646],[113.90540418614653,-7.0455750745784966],[113.90544035795588,-7.0455748496124668],[113.90544030165985,-7.045565815369776],[113.90543125870779,-7.0455658716114709],[113.90543114611629,-7.0455478031259133],[113.90545827497118,-7.0455476344007373],[113.90545838756374,-7.0455657028858587],[113.90546743051559,-7.0455656466436398],[113.90546748681216,-7.0455746808861122],[113.90547652976407,-7.0455746246436455],[113.90547658606089,-7.0455836588860423],[113.90548562901292,-7.0455836026433278],[113.90548557271593,-7.0455745684010038],[113.90549294400287,-7.045574522555154],[113.90537939600016,-7.0454181609999331],[113.90526673993918,-7.0452867290745944],[113.90526674052045,-7.0452868223638996],[113.90525769757241,-7.0452868786000238],[113.90525775386266,-7.0452959128443098],[113.90526679681088,-7.0452958566081119],[113.90526685310138,-7.0453048908522895],[113.9052758960497,-7.0453048346158447],[113.90527600863128,-7.0453229031040729],[113.9052669656826,-7.0453229593406634],[113.90526702197333,-7.0453319935848437],[113.90525797902441,-7.045332049821333],[113.90525803531503,-7.0453410840655666],[113.90526707826412,-7.0453410278290036],[113.90526713455499,-7.0453500620731955],[113.90527617750418,-7.0453500058363865],[113.90527623379531,-7.0453590400804833],[113.905303362643,-7.0453588713687916],[113.90530341893471,-7.0453679056126655],[113.90531246188395,-7.0453678493750118],[113.90531251817593,-7.0453768836188111],[113.90532156112528,-7.0453768273809114],[113.90532195517234,-7.045440067086874],[113.90530386927112,-7.045440179563518],[113.90530381297883,-7.0454311453196743],[113.90528572707764,-7.0454312577954754],[113.90528561449395,-7.0454131893074869],[113.90527657154358,-7.0454132455449789],[113.90527651525201,-7.0454042113009061],[113.90526747230179,-7.0454042675381521],[113.90526741601047,-7.0453952332940011],[113.90523124420943,-7.0453954582409493],[113.90523113162843,-7.0453773897520549],[113.90522208867834,-7.0453774459882093],[113.90522203238812,-7.0453684117436834],[113.90519490353793,-7.0453685804508837],[113.90519484724831,-7.0453595462061358],[113.90518580429827,-7.0453596024414464],[113.9051857480089,-7.0453505681966231],[113.90516766210894,-7.0453506806665764],[113.90516760582,-7.0453416464215843],[113.90515856287007,-7.0453417026562279],[113.90515850658137,-7.0453326684111923],[113.90514946363156,-7.0453327246455881],[113.90514963249737,-7.0453598273809481],[113.90514058954697,-7.0453598836153866],[113.90514064583554,-7.0453689178605705],[113.90513160288488,-7.0453689740949095],[113.90513171546191,-7.0453870425853964],[113.90514075841291,-7.0453869863509127],[113.90514087099059,-7.0454050548412717],[113.90514991394186,-7.0454049986064691],[113.90514997023098,-7.0454140328515615],[113.90515901318236,-7.0454139766165103],[113.90515906947172,-7.0454230108615263],[113.90516811242323,-7.0454229546262281],[113.90516816871283,-7.0454319888711661],[113.90517721166441,-7.0454319326356218],[113.90517726795427,-7.0454409668804843],[113.90518631090598,-7.0454409106446922],[113.90518636719609,-7.0454499448894774],[113.90519541014787,-7.0454498886534385],[113.90519546643823,-7.0454589228981463],[113.90521355234192,-7.0454588104253988],[113.90521366492356,-7.0454768789145135],[113.90522270787565,-7.045476822677732],[113.90522276416677,-7.0454858569222099],[113.90523180711894,-7.0454858006851824],[113.90523186341031,-7.0454948349295821],[113.90524090636259,-7.0454947786923077],[113.90524107523764,-7.0455218814252687],[113.90525916114305,-7.0455217689497589],[113.90525921743522,-7.0455308031939259],[113.90527730334065,-7.0455306907175705],[113.90527741592594,-7.0455487592055857],[113.90530454478463,-7.0455485904893074],[113.90530465737125,-7.0455666589769033],[113.90531370032433,-7.0455666027376491],[113.90531375661791,-7.0455756369813596],[113.90533184252423,-7.0455755245021834],[113.90533189881826,-7.0455845587457455],[113.90535902767769,-7.0455843900254518],[113.905359140267,-7.0456024585121257],[113.90536818322033,-7.045602402271534],[113.90536835210537,-7.0456295050012976],[113.90537739505918,-7.0456294487603133],[113.90537745135452,-7.0456384830034864],[113.90536840840053,-7.0456385392445435],[113.90536846469577,-7.0456475734877868],[113.905395593558,-7.0456474047638711],[113.90539564985384,-7.0456564390068923],[113.90537756394541,-7.0456565514898228],[113.9053776765366,-7.0456746199761415],[113.90539576244572,-7.0456745074929197],[113.9053958750379,-7.0456925759789337],[113.90540491799268,-7.0456925197369156],[113.90540497428907,-7.0457015539798427],[113.90541401724396,-7.0457014977375776],[113.90541424243091,-7.0457376347089582],[113.90540519947531,-7.0457376909515146],[113.90540525577208,-7.0457467251944221],[113.90539621281623,-7.0457467814368773],[113.90539615651966,-7.045737747193896],[113.90537807060809,-7.0457378596781375],[113.90537801431194,-7.045728825435007],[113.90536897135621,-7.0457288816767933],[113.90536891506032,-7.0457198474335856],[113.9053598721047,-7.0457199036751241],[113.90535981580905,-7.0457108694318578],[113.90537790171987,-7.0457107569487514],[113.90537784542394,-7.0457017227055925],[113.90538688837904,-7.0457016664638505],[113.90538683208302,-7.0456926322207778],[113.90535066026281,-7.045692857186407],[113.90535077285354,-7.0457109256731476],[113.90533268694229,-7.0457110381552077],[113.9053327995326,-7.0457291066421917],[113.90532375657651,-7.0457291628831058],[113.90532381287161,-7.0457381971266733],[113.90533285582789,-7.0457381408856872],[113.90533302471417,-7.0457652436161471],[113.90535111062752,-7.0457651311332139],[113.90535116692344,-7.045774165376546],[113.90536020988017,-7.0457741091347463],[113.90536015358407,-7.0457650748914844],[113.90536919654055,-7.0457650186495826],[113.90536930913316,-7.0457830871359546],[113.90538739504663,-7.0457829746513339],[113.90538733874995,-7.0457739404082957],[113.90540542466276,-7.0457738279231243],[113.90540559355411,-7.0458009306517715],[113.90541463651091,-7.0458008744087053],[113.90541474910587,-7.0458189428943339],[113.90542379206298,-7.045818886650947],[113.90542401725446,-7.0458550236218329],[113.90543306021218,-7.0458549673779807],[113.90543311651042,-7.0458640016206191],[113.90544215946824,-7.0458639453765199],[113.90544227206526,-7.0458820138616396],[113.9054332291071,-7.0458820701058844],[113.90543339800269,-7.0459091728337526],[113.90542435504393,-7.045909229078041],[113.90542452393966,-7.0459363318060921],[113.90541548098028,-7.0459363880504267],[113.90541559357746,-7.0459544565359202],[113.90540655061768,-7.0459545127802246],[113.9054066069162,-7.0459635470230211],[113.90539756395617,-7.0459636032672233],[113.90539762025459,-7.0459726375101228],[113.9053885772943,-7.0459726937542237],[113.90538863359262,-7.0459817279971757],[113.90537959063209,-7.0459817842411736],[113.90537970322862,-7.0459998527272116],[113.90537066026764,-7.045999908971182],[113.90537071656584,-7.0460089432142512],[113.90538880248803,-7.0460088307259898],[113.90538868989101,-7.0459907622401232],[113.90539773285165,-7.0459907059958775],[113.90539767655309,-7.0459816717530019],[113.90540671951346,-7.0459816155086541],[113.90540666321479,-7.0459725812658478],[113.90541570617494,-7.0459725250213978],[113.90541564987616,-7.0459634907786439],[113.90542469283606,-7.0459634345340918],[113.90542463653718,-7.0459544002914409],[113.90543367949681,-7.0459543440467884],[113.90543362319784,-7.0459453098041891],[113.90544266615721,-7.0459452535594345],[113.90544260985814,-7.0459362193169035],[113.90545165281731,-7.0459361630720476],[113.90545154021903,-7.0459180945871376],[113.90546058317774,-7.0459180383422524],[113.90546052687854,-7.0459090040998387],[113.90546956983702,-7.0459089478548522],[113.90546951353772,-7.0458999136125247],[113.90547855649594,-7.0458998573674361],[113.90547833129877,-7.0458637203983772],[113.90546928834127,-7.0458637766431753],[113.90546911944469,-7.0458366739161207],[113.90544199057322,-7.0458368426488098],[113.90544193427503,-7.0458278084062336],[113.90543289131791,-7.0458278646500405],[113.90543283501999,-7.045818830407387],[113.90545996389061,-7.0458186616756571],[113.90545990759222,-7.0458096274332176],[113.90547799350524,-7.0458095149446711],[113.90547804980397,-7.0458185491869658],[113.90548709276055,-7.0458184929423586],[113.90548720535858,-7.0458365614267882],[113.90549624831546,-7.0458365051818612],[113.90549630461476,-7.0458455394239978],[113.90548726165773,-7.0458455956689985],[113.90548754315449,-7.0458907668799862],[113.90549658611242,-7.0458907106346222],[113.90549669871199,-7.0459087791188439],[113.90550574167015,-7.0459087228731594],[113.90550585427037,-7.0459267913572203],[113.90551489722884,-7.0459267351112151],[113.90551506613025,-7.0459538378370583],[113.90552410908914,-7.0459537815906605],[113.90552416538993,-7.045962815832512],[113.90553320834893,-7.0459627595858665],[113.90553326464996,-7.0459717938276727],[113.9055242216908,-7.0459718500743911],[113.90552427799173,-7.0459808843162515],[113.90551523503233,-7.0459809405628668],[113.90551529133317,-7.0459899748047947],[113.90553337725228,-7.0459898623112434],[113.90553332095108,-7.0459808280694602],[113.90554236391037,-7.0459807718224949],[113.90554242021173,-7.0459898060642043],[113.90555146317111,-7.0459897498169921],[113.90555157577441,-7.0460078183002359],[113.90556061873407,-7.046007762052704],[113.905560675036,-7.046016796294273],[113.90556971799575,-7.0460167400464933],[113.90556988690251,-7.0460438427709082],[113.90557892986271,-7.0460437865227359],[113.90557904246795,-7.0460618550055143],[113.90558808542843,-7.0460617987570195],[113.90558814173134,-7.0460708329983301],[113.90559718469191,-7.0460707767495903],[113.9055972972983,-7.0460888452320525],[113.90560634025914,-7.0460887889829928],[113.90560639656262,-7.0460978232241445],[113.90561543952357,-7.0460977669748379],[113.9056155521311,-7.0461158354569857],[113.90563363805349,-7.0461157229575555],[113.9056336943577,-7.0461247571984948],[113.90564273731896,-7.0461247009484458],[113.90564279362343,-7.0461337351892741],[113.90565183658478,-7.0461336789389781],[113.90565189288948,-7.0461427131797469],[113.90566093585095,-7.0461426569292023],[113.90566104846097,-7.0461607254105827],[113.90567009142269,-7.0461606691597201],[113.90567020403334,-7.0461787376409379],[113.90567924699536,-7.0461786813897538],[113.90567941591242,-7.0462057841113337],[113.90567037294987,-7.0462058403627363],[113.90567042925554,-7.0462148746033293],[113.90568851518087,-7.0462147621002025],[113.90568862779313,-7.0462328305810837],[113.90569767075601,-7.0462327743291135],[113.90569778336889,-7.0462508428098323],[113.90571586929521,-7.0462507303050774],[113.90571598190907,-7.0462687987854906],[113.90572502487248,-7.046268742532706],[113.9057250811797,-7.0462777767728335],[113.90574316710656,-7.0462776642665936],[113.90574322341422,-7.046286698506588],[113.90575226637775,-7.0462866422531345],[113.90575232268564,-7.0462956764930178],[113.90574327972195,-7.0462957327465441],[113.90574339233761,-7.0463138012264812],[113.90576147826562,-7.0463136887189615],[113.90576175980782,-7.0463588599180049],[113.90577984573727,-7.0463587474090588],[113.90578001466454,-7.0463858501280008],[113.90578905762966,-7.0463857938730472],[113.90578900132033,-7.0463767596334597],[113.90582517317944,-7.046376534612194],[113.90582528579957,-7.046394603090766],[113.90583432876451,-7.0463945468348674],[113.9058344413853,-7.0464126153132591],[113.90584348435053,-7.0464125590570417],[113.90584354066121,-7.0464215932961594],[113.90585258362651,-7.046421537039695],[113.90585263993745,-7.0464305712787345],[113.90586168290285,-7.0464305150220223],[113.90586173921403,-7.0464395492609855],[113.90587078217956,-7.0464394930040255],[113.90587089480249,-7.0464575614817972],[113.90587993776826,-7.0464575052245166],[113.90588010670373,-7.0464846079409247],[113.90588914966999,-7.0464845516832515],[113.90588920598213,-7.046493585921989],[113.90589824894846,-7.0464935296640698],[113.90589836157334,-7.0465115981413398],[113.90588931860665,-7.0465116543994046],[113.90588943123146,-7.0465297228768229],[113.90590751716545,-7.0465296103602233],[113.90590746085265,-7.0465205761216634],[113.90591650381938,-7.0465205198631748],[113.90591656013235,-7.0465295541016637],[113.90592560309916,-7.0465294978429265],[113.90592565941238,-7.046538532081323],[113.90593470237931,-7.0465384758223397],[113.90593481500632,-7.0465565442990208],[113.9059438579735,-7.0465564880397178],[113.90594408322907,-7.0465926249927087],[113.90595312619689,-7.0465925687329403],[113.90595318251114,-7.0466016029711058],[113.90596222547907,-7.0466015467110896],[113.90596228179358,-7.046610580949177],[113.90597132476159,-7.0466105246889148],[113.90597138107636,-7.0466195589269258],[113.90598042404449,-7.0466195026664149],[113.90598048035949,-7.0466285369043495],[113.9059895233277,-7.0466284806435917],[113.90598957964295,-7.04663751488145],[113.90599862261126,-7.0466374586204452],[113.90599867892676,-7.0466464928582262],[113.90601676486354,-7.0466463803355461],[113.90601693381153,-7.046673483048429],[113.90603501974907,-7.0466733705246156],[113.90603513238213,-7.0466914389995594],[113.90604417535113,-7.0466913827372455],[113.90604423166793,-7.0467004169746552],[113.90605327463705,-7.0467003607120926],[113.90605344358846,-7.0467274634240145],[113.90606248655801,-7.0467274071610602],[113.90606259919301,-7.0467454756355039],[113.90607164216281,-7.0467454193722281],[113.90607175479848,-7.0467634878465439],[113.90608079776858,-7.0467634315829493],[113.90608085408668,-7.0467724658200206],[113.90608989705687,-7.0467724095561763],[113.90608995337524,-7.0467814437931704],[113.90609899634555,-7.0467813875290801],[113.90609905266415,-7.0467904217659809],[113.90610809563455,-7.0467903655016446],[113.90610837722956,-7.0468355366858244],[113.90611742020076,-7.0468354804209472],[113.90611747652015,-7.0468445146576961],[113.90610843354878,-7.0468445709226453],[113.90610848986807,-7.0468536051594617],[113.90612657581111,-7.0468534926292437],[113.90612663213082,-7.0468625268659109],[113.90614471807393,-7.0468624143348499],[113.90614483071428,-7.0468804828078806],[113.90615387368607,-7.046880426541942],[113.90615398632706,-7.0468984950148128],[113.90616302929911,-7.0468984387485545],[113.90616314194077,-7.0469165072212636],[113.90618122788536,-7.0469163946879316],[113.90618128420664,-7.0469254289241343],[113.90619032717902,-7.0469253726571344],[113.90619043982215,-7.0469434411293816],[113.90619948279478,-7.046943384862062],[113.90619953911663,-7.0469524190980906],[113.90620858208936,-7.0469523628305231],[113.90620863841147,-7.0469613970665081],[113.90621768138432,-7.0469613407986929],[113.9062178503516,-7.0469884435063559],[113.90623593629809,-7.0469883309697661],[113.90623616159023,-7.0470244679126779],[113.90622711861633,-7.0470245241813529],[113.90622700597045,-7.0470064557097576],[113.90620892002312,-7.0470065682462915],[113.90620897634567,-7.0470156024822366],[113.90618184742358,-7.0470157712859454],[113.90618196006785,-7.0470338397582601],[113.90619100304231,-7.0470337834903862],[113.90619105936473,-7.0470428177264655],[113.90620010233928,-7.0470427614583429],[113.90620004601669,-7.0470337272223373],[113.90622717493937,-7.0470335584171435],[113.90622723126249,-7.0470425926529314],[113.90626340315909,-7.0470423675766058],[113.90626329051153,-7.04702429910561],[113.90624520456407,-7.0470244116438296],[113.90624509191751,-7.0470063431725283],[113.9062541348909,-7.0470062869036489],[113.90625419121433,-7.0470153211392308],[113.90628132013464,-7.0470151523313334],[113.90628143278276,-7.0470332208020467],[113.90629047575641,-7.0470331645322517],[113.90629053208076,-7.0470421987675298],[113.90629957505449,-7.0470421424974887],[113.90629963137908,-7.0470511767326913],[113.90630867435293,-7.0470511204624016],[113.90630878700269,-7.047069188932662],[113.9063178299768,-7.0470691326620543],[113.90631788630196,-7.0470781668970801],[113.90632692927618,-7.0470781106262246],[113.90632698560158,-7.0470871448611909],[113.90633602857591,-7.0470870885900867],[113.90633631020496,-7.0471322597644974],[113.90634535318007,-7.047132203492855],[113.90634540950627,-7.0471412377276517],[113.90637253843171,-7.0471410689114613],[113.90637259475849,-7.047150103146036],[113.90638163773369,-7.0471500468735506],[113.90638169406074,-7.047159081108032],[113.90637265108539,-7.0471591373805902],[113.90637270741233,-7.0471681716151737],[113.90638175038788,-7.0471681153425427],[113.90638180671506,-7.047177149577033],[113.90639084969068,-7.0471770933041533],[113.90639090601813,-7.0471861275385672],[113.90639994899387,-7.0471860712654415],[113.90640000532156,-7.0471951054997781],[113.90639096234565,-7.0471951617729767],[113.90639101867326,-7.0472041960073648],[113.90640006164932,-7.0472041397340943],[113.90640028696117,-7.0472402766714026],[113.90640932993786,-7.047240220397665],[113.90640944259457,-7.047258288866141],[113.90641848557152,-7.0472582325920827],[113.90641865455767,-7.0472853352945499],[113.90640961158019,-7.0472853915688258],[113.90640966790887,-7.0472944258030461],[113.90640062493114,-7.0472944820772199],[113.90640068125973,-7.0473035163115103],[113.90637355232552,-7.0473036851332047],[113.90637360865365,-7.0473127193677092],[113.90636456567528,-7.0473127756413305],[113.90636462200331,-7.0473218098759212],[113.90637366498187,-7.0473217536022261],[113.90637377763851,-7.0473398220711978],[113.90638282061737,-7.0473397657971821],[113.90638293327464,-7.047357834266009],[113.9064010192328,-7.0473577217171641],[113.9064010755619,-7.0473667559514102],[113.90641916152009,-7.0473666434017197],[113.90641910519064,-7.0473576091676202],[113.9064371911482,-7.0473574966173791],[113.90643724747801,-7.047366530851332],[113.90645533343563,-7.0473664183002471],[113.90645527710548,-7.047357384066439],[113.90646432008398,-7.0473573277907082],[113.90646420742355,-7.0473392593231923],[113.9064913363576,-7.047339090495389],[113.90649128002698,-7.0473300562618437],[113.90650032300469,-7.0473299999856325],[113.90650026667396,-7.0473209657521734],[113.90651835262879,-7.0473208531993734],[113.90651829629779,-7.0473118189660218],[113.90652733927492,-7.047311762689433],[113.90652722661277,-7.0472936942228976],[113.90653626958947,-7.0472936379462805],[113.90653615692727,-7.0472755694798925],[113.90651807097451,-7.0472756820326605],[113.90651801464386,-7.0472666477992902],[113.90650897166753,-7.0472667040753398],[113.9065088026766,-7.0472396013750354],[113.90649975970071,-7.0472396576506924],[113.90649970337073,-7.0472306234171773],[113.90649066039492,-7.0472306796925865],[113.90649049140593,-7.0472035769917802],[113.9064995343812,-7.0472035207165895],[113.9064994780515,-7.0471944864830753],[113.90650852102651,-7.0471944302077825],[113.9065084646967,-7.0471853959743198],[113.906481335772,-7.0471855647994559],[113.90648139210127,-7.0471945990331371],[113.90646330615074,-7.0471947115825015],[113.90646324982181,-7.0471856773486738],[113.90645420684662,-7.0471857336230208],[113.90645409418936,-7.0471676651552109],[113.9064450512144,-7.0471677214292381],[113.90644499488606,-7.0471586871952372],[113.90643595191123,-7.0471587434690166],[113.90643583925511,-7.0471406750009074],[113.906453925204,-7.0471405624534658],[113.90645386887569,-7.0471315282195413],[113.90644482590145,-7.0471315844932771],[113.9064447695734,-7.047122550259278],[113.90642668362509,-7.047122662806081],[113.90642651464242,-7.04709556010362],[113.90640842869483,-7.047095672649287],[113.90640825971387,-7.0470685699463722],[113.90639921674051,-7.0470686262187252],[113.90639916041386,-7.0470595919843166],[113.90640820338704,-7.0470595357120365],[113.90640803440698,-7.0470324330090568],[113.9063989914343,-7.0470324892811185],[113.90639893510794,-7.0470234550467117],[113.90640797808044,-7.0470233987747219],[113.90640792175397,-7.0470143645403835],[113.90641696472622,-7.0470143082682926],[113.90641702105285,-7.0470233425025581],[113.90643510699748,-7.0470232299577074],[113.90643482536328,-7.0469780587870678],[113.90641673942038,-7.0469781713311912],[113.90641690839965,-7.0470052740340234],[113.9063807365109,-7.047005499121048],[113.90638056753373,-7.0469783964173418],[113.90638961050551,-7.0469783401460662],[113.90638966683133,-7.0469873743805653],[113.90639870980321,-7.0469873181090419],[113.90639865347721,-7.0469782838746156],[113.90640769644884,-7.04697822760299],[113.90640758379672,-7.0469601591342705],[113.90639854082544,-7.0469602154057496],[113.90639820287191,-7.0469060099990743],[113.90638915990159,-7.0469060662699423],[113.90638910357644,-7.0468970320353908],[113.90637101763595,-7.046897144576457],[113.90637107396076,-7.0469061788111542],[113.90636203099024,-7.0469062350814982],[113.9063619746656,-7.0468972008467281],[113.9063529316952,-7.0468972571168242],[113.9063528753708,-7.0468882228819947],[113.90636191834105,-7.0468881666119714],[113.90636180569216,-7.0468700981424428],[113.90635276272225,-7.0468701544123222],[113.90635265007401,-7.0468520859426329],[113.90637073601303,-7.0468519734029931],[113.90637090498656,-7.046879076107083],[113.90638899092635,-7.0468789635663081],[113.90638910357644,-7.0468970320353908],[113.90639814654658,-7.0468969757645956],[113.90639820287191,-7.0469060099990743],[113.90640724584213,-7.0469059537280323],[113.90640730216771,-7.0469149879624018],[113.90641313764255,-7.0469149516502716],[113.90631928300002,-7.0467696969999389],[113.90628857070996,-7.0467275944994272],[113.90628867341647,-7.0467440690012797],[113.90629771638443,-7.0467440127336429],[113.90629777270659,-7.0467530469689894],[113.90630681567467,-7.0467529907011048],[113.90630692831955,-7.0467710591716086],[113.90631597128788,-7.0467710029034043],[113.9063160839334,-7.0467890713737296],[113.90632512690203,-7.0467890151052046],[113.90632529587137,-7.0468161178104864],[113.90630720993302,-7.0468162303477984],[113.9063069846421,-7.0467800934068556],[113.90629794167347,-7.0467801496749569],[113.90629788535111,-7.046771115439638],[113.90628884238262,-7.0467711717074941],[113.90628878606049,-7.0467621374720997],[113.90627070012361,-7.0467622500071414],[113.90627058748029,-7.046744181536031],[113.90626154451209,-7.0467442378031446],[113.90626143186941,-7.0467261693319063],[113.90622525999726,-7.0467263943980329],[113.90622514735628,-7.04670832592618],[113.90621610438842,-7.0467083821921292],[113.9062160480682,-7.0466993479561397],[113.90622509103589,-7.0466992916902633],[113.90622503471559,-7.0466902574543102],[113.90621599174807,-7.0466903137201138],[113.90621571014852,-7.0466451425400072],[113.90622475311515,-7.0466450862745669],[113.90622486575511,-7.0466631547464749],[113.90623390872202,-7.0466630984807166],[113.9062341340035,-7.0466992354242119],[113.90626126290594,-7.0466990666250098],[113.90626131922703,-7.0467081008606343],[113.90627036219452,-7.0467080445938119],[113.90627041851586,-7.0467170788293769],[113.90627946148344,-7.0467170225623068],[113.90627951780502,-7.0467260567977954],[113.90628741317481,-7.0467260076710918],[113.9061243879019,-7.0465025212954],[113.9061244920335,-7.0465192258697922],[113.90613353499842,-7.0465191696071168],[113.90613359131558,-7.0465282038438568],[113.90614263428064,-7.0465281475809318],[113.90614280323307,-7.0465552502909103],[113.90612471730186,-7.0465553628170197],[113.90612460466753,-7.0465372943433957],[113.90611556170215,-7.0465373506060427],[113.90611550538526,-7.0465283163691783],[113.90607933352376,-7.0465285414177306],[113.90607927720767,-7.0465195071805526],[113.90610640610338,-7.046519338394619],[113.90610634978681,-7.0465103041576569],[113.90607922089164,-7.0465104729433721],[113.90607910825979,-7.0464924044690154],[113.90607006529491,-7.046492460730426],[113.90607012161063,-7.0465014949676705],[113.90605203568033,-7.0465016074901135],[113.90605209199578,-7.0465106417275161],[113.90607017792641,-7.0465105292049284],[113.9060704031903,-7.0465466661539198],[113.90606136022431,-7.0465467224155915],[113.9060613039084,-7.0465376881782609],[113.90605226094253,-7.0465377444396866],[113.90605220462687,-7.0465287102023115],[113.90604316166109,-7.0465287664634886],[113.90604304903033,-7.0465106979885492],[113.90602496309924,-7.0465108105100906],[113.90602490678432,-7.0465017762724687],[113.90601586381885,-7.046501832532905],[113.9060157511896,-7.0464837640575038],[113.9060067082244,-7.0464838203176203],[113.9060065955958,-7.0464657518420575],[113.90599755263085,-7.0464658081018543],[113.90599744000288,-7.0464477396261307],[113.90598839703823,-7.046447795885606],[113.90598834072455,-7.0464387616476651],[113.90597025479535,-7.0464388741659478],[113.90597014216888,-7.0464208056897633],[113.90596109920453,-7.0464208619484969],[113.90596098657871,-7.0464027934721507],[113.90595194361461,-7.0464028497305646],[113.90595183098944,-7.0463847812540576],[113.90596087395318,-7.0463847249957894],[113.90596081764052,-7.0463756907575856],[113.90595177467696,-7.0463757470157811],[113.90595171836455,-7.0463667127775347],[113.90593363243758,-7.0463668252932559],[113.90593357612559,-7.0463577910548425],[113.90592453316216,-7.0463578473123691],[113.90592442053877,-7.0463397788353861],[113.90591537757562,-7.0463398350925921],[113.90591532126422,-7.0463308008540047],[113.90590627830115,-7.0463308571109629],[113.90590622198999,-7.0463218228723328],[113.90589717902705,-7.0463218791290441],[113.90589712271614,-7.0463128448903207],[113.90587903679035,-7.0463129574030736],[113.90587886785912,-7.0462858546864577],[113.90586982489664,-7.0462859109423546],[113.90586976858654,-7.0462768767033808],[113.90586072562417,-7.0462769329590289],[113.90586055669486,-7.0462498302419121],[113.90587864261848,-7.0462497177308769],[113.90587875523865,-7.0462677862086665],[113.90588779820071,-7.0462677299527412],[113.90588796713203,-7.0462948326691786],[113.90589701009453,-7.0462947764128598],[113.9058970664053,-7.0463038106515921],[113.90591515233044,-7.0463036981382876],[113.90591520864162,-7.0463127323768679],[113.90592425160425,-7.0463126761198813],[113.90592430791567,-7.0463217103583862],[113.90593335087841,-7.0463216541011517],[113.9059334071901,-7.0463306883395633],[113.90592436422719,-7.0463307445968706],[113.90592442053877,-7.0463397788353861],[113.90596963535342,-7.0463394975467386],[113.90596957904096,-7.0463304633085881],[113.90594245015292,-7.0463306320820811],[113.90594228121756,-7.0463035293670195],[113.90595132417978,-7.0463034731095808],[113.90595138049167,-7.0463125073478716],[113.90596042345402,-7.046312451090186],[113.90596047976615,-7.0463214853284004],[113.90597856569094,-7.0463213728123595],[113.9059786220035,-7.0463304070504078],[113.90599670792834,-7.0463302945335249],[113.90599676424132,-7.0463393287714569],[113.90600530622862,-7.046339275629391],[113.90595998500011,-7.0462771459998885],[113.90594195982966,-7.0462519680211129],[113.90594205597145,-7.0462673924135251],[113.90595109893297,-7.0462673361563759],[113.90595121155623,-7.0462854046330046],[113.90596025451805,-7.0462853483755374],[113.90596031082997,-7.0462943826137465],[113.90594222490593,-7.0462944951286515],[113.90594211228286,-7.0462764266519038],[113.90593306932109,-7.046276482908949],[113.90593301300986,-7.0462674486704975],[113.90590588412458,-7.0462676174403658],[113.90590577150336,-7.0462495489630133],[113.90589672854182,-7.0462496052191428],[113.90589655961107,-7.0462225025028653],[113.90590560257209,-7.0462224462469534],[113.90590554626182,-7.0462134120082593],[113.90589650330097,-7.0462134682640967],[113.90589639068099,-7.0461953997865505],[113.90590143958281,-7.0461953683776697],[113.90589500031039,-7.0461863738468544],[113.90588729141072,-7.0461864218032169],[113.90588723510109,-7.0461773875643612],[113.90585106325942,-7.0461776125841027],[113.90585100695056,-7.0461685783449344],[113.90586004991091,-7.0461685220903325],[113.90585999360195,-7.0461594878512681],[113.90585095064178,-7.0461595441057963],[113.90585089433307,-7.0461505098666368],[113.90584185137301,-7.0461505661209189],[113.90584168244784,-7.046123463403215],[113.90582359652851,-7.0461235759108174],[113.90582342760507,-7.046096473192609],[113.90580534168649,-7.0460965856990763],[113.90580539799389,-7.0461056199386221],[113.90579635503431,-7.0461056761916661],[113.9057962987271,-7.0460966419520474],[113.90577821280807,-7.0460967544574657],[113.90577815650128,-7.046087720217697],[113.90576911354185,-7.0460877764700722],[113.90576916984847,-7.0460968107099147],[113.90575108392899,-7.0460969232142867],[113.90575125284825,-7.046124025934243],[113.90577838172889,-7.0461238571767666],[113.90577843803598,-7.0461328914165042],[113.90578748099624,-7.046132835163589],[113.90578759361097,-7.0461509036429382],[113.90579663657151,-7.0461508473897041],[113.90579669287918,-7.0461598816293005],[113.90581477880032,-7.0461597691221636],[113.9058150040331,-7.0461959060799249],[113.90580596107186,-7.0461959623338721],[113.90580590476372,-7.0461869280943654],[113.90579686180259,-7.0461869843480649],[113.90579680549472,-7.0461779501084809],[113.90578776253365,-7.0461780063619335],[113.90578770622602,-7.0461689721222562],[113.90577866326508,-7.0461690283754601],[113.9057785506504,-7.0461509598959973],[113.90576046472897,-7.0461510724015932],[113.90576035211527,-7.0461330039218071],[113.90575130915482,-7.0461330601741992],[113.90575125284825,-7.046124025934243]],[[113.90545075203939,-7.0457916151921927],[113.90544170908304,-7.0457916714358833],[113.90544165278523,-7.0457826371932866],[113.90545069574141,-7.0457825809496679],[113.90545075203939,-7.0457916151921927]],[[113.90538604394639,-7.0455661528173374],[113.90535891508868,-7.0455663215387618],[113.90535897138314,-7.0455753557821099],[113.90534992843027,-7.0455754120223082],[113.90534981584175,-7.0455573435354646],[113.90533172993644,-7.0455574560150485],[113.90533167364262,-7.0455484217714588],[113.90535880249996,-7.045548253052039],[113.90535885879429,-7.0455572872954111],[113.90536790174676,-7.0455572310551835],[113.90536773286348,-7.0455301283253267],[113.90537677581538,-7.0455300720851417],[113.90537683210991,-7.0455391063283583],[113.90538587506187,-7.0455390500879274],[113.90538593135665,-7.0455480843310516],[113.90539497430873,-7.0455480280903728],[113.90539503060376,-7.0455570623334527],[113.90538598765148,-7.0455571185742043],[113.90538604394639,-7.0455661528173374]],[[113.90535874620572,-7.045539218808698],[113.90534066030125,-7.0455393312883396],[113.90534054771368,-7.0455212628013193],[113.90534959066561,-7.0455212065617312],[113.90534964695954,-7.0455302408051699],[113.90535868991155,-7.0455301845653349],[113.90535874620572,-7.045539218808698]],[[113.90542199057366,-7.0455297908816057],[113.90543103352508,-7.0455297346403754],[113.90543108982064,-7.045538768883155],[113.90542204686905,-7.0455388251244591],[113.90542199057366,-7.0455297908816057]],[[113.90541289132699,-7.0455208128797304],[113.90539480542412,-7.0455209253611759],[113.9053947491294,-7.0455118911180961],[113.90538570617801,-7.0455119473584835],[113.90538564988353,-7.0455029131153442],[113.90536756398089,-7.0455030255954494],[113.90536750768685,-7.0454939913521279],[113.9053584647356,-7.0454940475918457],[113.9053584084418,-7.0454850133484639],[113.90534936549066,-7.0454850695879347],[113.90534930919711,-7.0454760353444739],[113.90532218034372,-7.0454762040616234],[113.90532206775788,-7.0454581355742549],[113.90536728251138,-7.0454578543788662],[113.90536733880514,-7.0454668886221876],[113.9053763817558,-7.0454668323825134],[113.90537649434388,-7.045484900868999],[113.9053855372948,-7.045484844629005],[113.90538559358913,-7.0454938788721684],[113.90540367949112,-7.0454937663915098],[113.90540373578587,-7.0455028006345417],[113.90541277873692,-7.045502744393878],[113.90541289132699,-7.0455208128797304]],[[113.90526792263498,-7.0454765414912082],[113.90525887968326,-7.0454765977288609],[113.90525882339153,-7.0454675634846708],[113.90526786634307,-7.04546750724709],[113.90526792263498,-7.0454765414912082]],[[113.90529493890489,-7.0454583042893972],[113.90527685300252,-7.0454584167652854],[113.90527674041873,-7.0454403482771752],[113.9052948263204,-7.0454402358015775],[113.90529493890489,-7.0454583042893972]],[[113.90536711363056,-7.0454307516488788],[113.90534902773045,-7.0454308641271215],[113.9053489151443,-7.0454127956401527],[113.90535795809404,-7.0454127394012644],[113.90535801438726,-7.0454217736446774],[113.9053670573371,-7.0454217174055431],[113.90536711363056,-7.0454307516488788]],[[113.90534885885134,-7.0454037613966616],[113.90533077295196,-7.0454038738737692],[113.90533071665942,-7.0453948396301298],[113.90534880255845,-7.0453947271531678],[113.90534885885134,-7.0454037613966616]],[[113.90586027514748,-7.046204659046639],[113.90586931810847,-7.0462046027915726],[113.90586937441796,-7.0462136370305624],[113.90586033145681,-7.0462136932857007],[113.90586027514748,-7.046204659046639]],[[113.90583325888178,-7.0462228962893514],[113.90582421592018,-7.0462229525438644],[113.90582415961147,-7.0462139183045158],[113.90583320257291,-7.0462138620500738],[113.90583325888178,-7.0462228962893514],[113.90584230184335,-7.0462228400346616],[113.90584241446167,-7.0462409085130577],[113.90583337149977,-7.0462409647678932],[113.90583325888178,-7.0462228962893514]],[[113.906170101084,-7.0465821842097096],[113.90617914404979,-7.0465821279456522],[113.90617920036833,-7.0465911621820165],[113.90618824333424,-7.0465911059177113],[113.90618858124813,-7.0466453113352809],[113.90619762421498,-7.046645255070362],[113.90619779317346,-7.0466723577788768],[113.90618875020607,-7.0466724140440125],[113.90618869388668,-7.0466633798077725],[113.90617965091938,-7.0466634360726603],[113.90617925668697,-7.0466001964183604],[113.90617021372081,-7.0466002526825626],[113.906170101084,-7.0465821842097096]],[[113.90627075644538,-7.0467712842426833],[113.90627979941402,-7.0467712279751762],[113.90627985573606,-7.0467802622106399],[113.90627081276723,-7.0467803184782207],[113.90627075644538,-7.0467712842426833]],[[113.90631636554849,-7.0468342425495321],[113.90633445148742,-7.0468341300115807],[113.90633462045841,-7.0468612327165667],[113.90632557748845,-7.0468612889858493],[113.90632552116489,-7.0468522547507844],[113.90631647819505,-7.04685231101982],[113.90631636554849,-7.0468342425495321]],[[113.90631664716544,-7.0468794137252209],[113.9063256901358,-7.0468793574559667],[113.90632563381209,-7.0468703232209098],[113.90633467678222,-7.0468702669515553],[113.9063348457541,-7.0468973696564952],[113.90632580278344,-7.0468974259260682],[113.90632574645959,-7.0468883916910201],[113.90631670348905,-7.0468884479603462],[113.90631664716544,-7.0468794137252209]],[[113.90636208731495,-7.0469152693162318],[113.90638017325628,-7.0469151567752224],[113.90638028590661,-7.0469332252444188],[113.90637124293562,-7.0469332815151571],[113.9063713555859,-7.0469513499844672],[113.90638039855723,-7.0469512937135841],[113.90638045488267,-7.0469603279481845],[113.90636236893957,-7.0469604404899213],[113.90636208731495,-7.0469152693162318]],[[113.90640994955342,-7.0473395969740888],[113.90641899253195,-7.047339540699376],[113.90641904886125,-7.0473485749335003],[113.90641000588255,-7.0473486312082869],[113.90640994955342,-7.0473395969740888]]]]},"properties":{"FID":0,"Shape_Leng":18102566.929299999,"Shape_Area":236516885.403}}]
}