{
  "type" : "FeatureCollection",
  "features" : [{"type":"Feature","id":0,"geometry":{"type":"MultiPolygon","coordinates":[[[[113.85951127776941,-7.087193108763155],[113.85951116629458,-7.0871750395758202],[113.85949307803801,-7.0871751509326355],[113.85949318951215,-7.0871932201202572],[113.85951127776941,-7.087193108763155]]],[[[113.85952903160066,-7.0871387898441585],[113.8595291430756,-7.0871568590312375],[113.8595381872033,-7.0871568033523591],[113.85953829867888,-7.08717487253928],[113.85955638693471,-7.0871747611807088],[113.85955644267297,-7.0871837957740196],[113.85956548680096,-7.0871837400943996],[113.85956537532417,-7.0871656709079334],[113.85955633119652,-7.0871657265874104],[113.85955627545842,-7.0871566919940747],[113.85954723133089,-7.0871567476733048],[113.85954711985524,-7.0871386784865109],[113.85952903160066,-7.0871387898441585]]],[[[113.85942055780241,-7.087148492569697],[113.85942044633181,-7.0871304233808887],[113.85940235807557,-7.0871305347334763],[113.85940246954546,-7.0871486039225715],[113.85942055780241,-7.087148492569697]]],[[[113.85952903160066,-7.0871387898441585],[113.85952897586328,-7.0871297552506123],[113.85951088760876,-7.0871298666074134],[113.85951094334578,-7.0871389012011035],[113.85952903160066,-7.0871387898441585]]],[[[113.85951088760876,-7.0871298666074134],[113.85951083187183,-7.0871208320137207],[113.85949274361739,-7.0871209433696762],[113.85949279935397,-7.0871299779635129],[113.85951088760876,-7.0871298666074134]]],[[[113.8594565671076,-7.0871211660794806],[113.85945651137177,-7.0871121314853536],[113.85944746724432,-7.0871121871622949],[113.85944752297998,-7.0871212217564938],[113.8594565671076,-7.0871211660794806]]],[[[113.859311693858,-7.0870949531047689],[113.85932978211432,-7.0870948417562634],[113.85932972638118,-7.087085807161138],[113.85925737335556,-7.0870862525503719],[113.85925742908729,-7.087095287146072],[113.85927551734449,-7.0870951757996723],[113.85927562880887,-7.0871132449908218],[113.85925754055097,-7.0871133563375066],[113.8592574848191,-7.0871043217417995],[113.85923939656128,-7.0871044330876387],[113.85923934082983,-7.0870953984917673],[113.85923029670097,-7.0870954541643512],[113.85923035243223,-7.0871044887602954],[113.85922130830315,-7.0871045444327772],[113.85922147549689,-7.0871316482207494],[113.85923051962651,-7.0871315925480527],[113.85923057535808,-7.0871406271439641],[113.85924866361746,-7.0871405157979019],[113.85924883081366,-7.0871676195851974],[113.85925787494376,-7.0871675639116889],[113.85925793067615,-7.0871765985073534],[113.85926697480637,-7.0871765428335953],[113.85926708627173,-7.0871946120248008],[113.85927613040221,-7.0871945563507257],[113.85927618613516,-7.0872035909462507],[113.85928523026577,-7.0872035352719287],[113.85928528599898,-7.0872125698673942],[113.85929433012967,-7.0872125141928253],[113.85929438586312,-7.0872215487881824],[113.85930342999391,-7.0872214931133657],[113.85930348572761,-7.0872305277086634],[113.85933061812011,-7.0872303606829439],[113.85933078532325,-7.0872574644681539],[113.85934887358559,-7.0872573531163656],[113.85934892932045,-7.0872663877113071],[113.85935797345171,-7.0872663320350782],[113.85935825212803,-7.0873115050092812],[113.85936729626007,-7.0873114493325193],[113.85936746346728,-7.087338553116779],[113.85937650759978,-7.0873384974396263],[113.85937667480816,-7.0873656012236363],[113.85938571894113,-7.087365545546092],[113.85938577467758,-7.0873745801406987],[113.85939481881063,-7.0873745244629092],[113.8593949302841,-7.0873925936519164],[113.85940397441745,-7.0873925379738072],[113.85940403015447,-7.0874015725682424],[113.85942211842125,-7.0874014612113525],[113.85942217415869,-7.0874104958056403],[113.8594493065589,-7.0874103287687751],[113.85944936229696,-7.0874193633628275],[113.85945840643036,-7.08741930768345],[113.85945846216866,-7.0874283422774598],[113.8595097712418,-7.0874280263941261],[113.85951267353896,-7.0874193479519274],[113.8595126712294,-7.0874189736034969],[113.85951279899386,-7.0874189728169092],[113.85956729852157,-7.0872560084315266],[113.85956593271105,-7.0872560168401559],[113.85956587697204,-7.087246982246965],[113.85955683284281,-7.0872470379270869],[113.85955672136535,-7.0872289687405159],[113.85950245659065,-7.0872293028167039],[113.85950240085309,-7.0872202682229828],[113.85947526846527,-7.0872204352584927],[113.85947521272831,-7.0872114006645672],[113.8594390362109,-7.0872116233758353],[113.8594389247386,-7.087193554187353],[113.85942988060943,-7.0871936098645882],[113.85942982487354,-7.0871845752702773],[113.85941173661531,-7.0871846866240773],[113.85941168087986,-7.087175652029619],[113.85940263675083,-7.0871757077061845],[113.85940258101563,-7.0871666731116676],[113.85937544862855,-7.0871668401400942],[113.85937539289397,-7.087157805545325],[113.85935730463594,-7.0871579168965884],[113.85935724890176,-7.0871488823016886],[113.85933916064377,-7.0871489936521064],[113.85933910491002,-7.0871399590570592],[113.85931197252303,-7.0871401260811551],[113.85931191678988,-7.0871310914858885],[113.85930287266089,-7.0871311471601652],[113.85930276119515,-7.0871130779694775],[113.85929371706648,-7.0871131336434345],[113.85929366133389,-7.0871040990480143],[113.85931174959086,-7.0871039877000674],[113.859311693858,-7.0870949531047689]]],[[[113.8594472443025,-7.0870760487854607],[113.85942011192179,-7.0870762158143705],[113.85942016765661,-7.0870852504087996],[113.85943825591083,-7.0870851390562244],[113.85943831164609,-7.0870941736504909],[113.85945639990037,-7.0870940622970711],[113.85945634416477,-7.0870850277029493],[113.85944730003784,-7.0870850833796748],[113.8594472443025,-7.0870760487854607]]],[[[113.85923911790475,-7.0870592601083242],[113.85922102964837,-7.0870593714527441],[113.85922108537918,-7.0870684060487594],[113.85920299712217,-7.0870685173926224],[113.85920294139171,-7.0870594827964641],[113.85919389726328,-7.0870595384680595],[113.85919400872392,-7.0870776076605146],[113.85920305285269,-7.0870775519887754],[113.8592031085833,-7.0870865865849257],[113.85923928509844,-7.0870863638959252],[113.85923911790475,-7.0870592601083242]]],[[[113.85932961491513,-7.087067737970842],[113.8593295591822,-7.0870587033756873],[113.85932051505478,-7.0870587590497403],[113.85932057078752,-7.0870677936449669],[113.85932961491513,-7.087067737970842]]],[[[113.85933849184357,-7.0870405785112816],[113.85934753597049,-7.0870405228370208],[113.85934736877155,-7.0870134190519405],[113.85932928051871,-7.087013530399858],[113.85932939198389,-7.0870315995902011],[113.85932034785698,-7.0870316552640391],[113.85932040358951,-7.0870406898592782],[113.85932944771659,-7.0870406341853673],[113.85932950344936,-7.0870496687805131],[113.85933854757653,-7.0870496131063545],[113.85933849184357,-7.0870405785112816]]],[[[113.85966363445529,-7.0869662973870806],[113.85966357871668,-7.0869572627945514],[113.85965453459389,-7.08695731847431],[113.85965459033233,-7.0869663530669103],[113.85966363445529,-7.0869662973870806]]],[[[113.85967326977404,-7.0869391332604978],[113.85967629752309,-7.086930079684624],[113.85967245562344,-7.0869301033371546],[113.85967251136202,-7.0869391379296394],[113.85967326977404,-7.0869391332604978]]],[[[113.8592111495693,-7.0869239081829312],[113.85921109383982,-7.0869148735867808],[113.85920204971428,-7.0869149292574063],[113.85920210544357,-7.0869239638536268],[113.8592111495693,-7.0869239081829312]]],[[[113.85913868510536,-7.0869062843501407],[113.85913862937744,-7.0868972497534104],[113.85911149699987,-7.0868974167601166],[113.85911155272726,-7.0869064513570619],[113.85913868510536,-7.0869062843501407]]],[[[113.85969015369716,-7.0868667498306825],[113.85968110957636,-7.0868668055102519],[113.8596812210529,-7.0868848746951141],[113.85969026517407,-7.0868848190154017],[113.85969015369716,-7.0868667498306825]]],[[[113.85969015369716,-7.0868667498306825],[113.85969749176506,-7.0868667046541933],[113.85969916697852,-7.0868616954299863],[113.85969914207939,-7.0868576595586363],[113.85969009795882,-7.0868577152383088],[113.85969015369716,-7.0868667498306825]]],[[[113.85943619375797,-7.0867508590650283],[113.8594361380255,-7.0867418244705798],[113.85942709390511,-7.0867418801442303],[113.85942714963741,-7.0867509147387509],[113.85943619375797,-7.0867508590650283]]],[[[113.85930036475246,-7.0867245903658906],[113.85929132063133,-7.0867246460367666],[113.85929137636084,-7.086733680632352],[113.85928233223947,-7.0867337363031231],[113.85928238796889,-7.0867427708987778],[113.85929143209044,-7.0867427152279356],[113.85929159927967,-7.08676981901466],[113.85930064340167,-7.086769763343427],[113.85930058767168,-7.0867607287479268],[113.85930963179345,-7.0867606730765891],[113.85930946460341,-7.0867335692902831],[113.85930042048216,-7.0867336249614059],[113.85930036475246,-7.0867245903658906]]],[[[113.85908325009967,-7.0867168918212116],[113.85908319437435,-7.0867078572239688],[113.85907415025181,-7.0867079128904882],[113.85907420597698,-7.086716947487802],[113.85908325009967,-7.0867168918212116]]],[[[113.8591103267415,-7.0867076902233572],[113.8590922384968,-7.0867078015572726],[113.85909234994789,-7.0867258707516125],[113.8591194823159,-7.0867257037500444],[113.85911942658979,-7.0867166691530921],[113.85911038246736,-7.0867167248203851],[113.8591103267415,-7.0867076902233572]]],[[[113.85923694444627,-7.086706910866285],[113.85920981208216,-7.0867070778742676],[113.85920986780995,-7.0867161124705076],[113.8592279560531,-7.0867160011318848],[113.85922801178133,-7.0867250357279765],[113.85923705590299,-7.0867249800583307],[113.85923694444627,-7.086706910866285]]],[[[113.8589382655157,-7.0866726094736192],[113.85893820979355,-7.0866635748752103],[113.85892012154783,-7.0866636862017414],[113.85892017726964,-7.0866727208002933],[113.8589382655157,-7.0866726094736192]]],[[[113.85917330123466,-7.0866530929698808],[113.85917324550809,-7.0866440583733263],[113.8591642013875,-7.0866441140410998],[113.85916425711389,-7.0866531486377253],[113.85917330123466,-7.0866530929698808]]],[[[113.85872098367234,-7.0866378069468103],[113.85872103939008,-7.086646841546969],[113.85873008351422,-7.0866467858877966],[113.85873013923219,-7.0866558204878611],[113.85873918335643,-7.086655764828441],[113.85873907192021,-7.0866376956284327],[113.85872098367234,-7.0866378069468103]]],[[[113.85872098367234,-7.0866378069468103],[113.85872087223711,-7.0866197377465339],[113.85869373986583,-7.0866199047223546],[113.85869379558288,-7.0866289393227184],[113.85870283970691,-7.0866288836642157],[113.8587028954242,-7.0866379182644863],[113.85872098367234,-7.0866378069468103]]],[[[113.85877519269638,-7.086628438389873],[113.85877513697774,-7.0866194037901549],[113.85875704873116,-7.0866195151096498],[113.85875710444944,-7.0866285497095118],[113.85877519269638,-7.086628438389873]]],[[[113.85868458430839,-7.0866018911797273],[113.85868452859174,-7.0865928565792959],[113.85867548446828,-7.0865929122371627],[113.85867554018475,-7.0866019468376633],[113.85868458430839,-7.0866018911797273]]],[[[113.85868441715866,-7.0865747873783747],[113.85869346128167,-7.0865747317204768],[113.85869340556506,-7.086565697120089],[113.85866627319626,-7.0865658640930391],[113.85866632891236,-7.0865748986936419],[113.85864824066579,-7.0865750100082092],[113.85864818495006,-7.0865659754074626],[113.85860296433322,-7.0865662536904495],[113.85860307576301,-7.0865843228926542],[113.85862116401067,-7.0865842115796989],[113.85862121972602,-7.0865932461806684],[113.85864835209748,-7.086593079209706],[113.85864829638159,-7.0865840446089514],[113.85868447287515,-7.0865838219788291],[113.85868441715866,-7.0865747873783747]]],[[[113.8589012532091,-7.0865373131454117],[113.85889220908845,-7.0865373688070594],[113.85889237624946,-7.0865644726035155],[113.85888333212817,-7.0865645282652023],[113.85888338784848,-7.0865735628640856],[113.85889243196992,-7.0865735072023268],[113.85889248769048,-7.0865825418011337],[113.85890153181199,-7.086582486139128],[113.8589012532091,-7.0865373131454117]]],[[[113.85913645604549,-7.0865449004778771],[113.85913640032048,-7.086535865880971],[113.85912735620174,-7.086535921547183],[113.85912741192656,-7.0865449561441585],[113.85913645604549,-7.0865449004778771]]],[[[113.85911825635833,-7.0865269426161825],[113.85910921223959,-7.0865269982819719],[113.85910915651526,-7.0865179636848605],[113.85910011239665,-7.0865180193504012],[113.85910022384503,-7.0865360885447624],[113.85911831208291,-7.0865359772132175],[113.85911825635833,-7.0865269426161825]]],[[[113.85911825635833,-7.0865269426161825],[113.85912730047698,-7.08652688695022],[113.85912724475229,-7.0865178523532517],[113.85911820063383,-7.0865179080191432],[113.85911825635833,-7.0865269426161825]]],[[[113.85916347695087,-7.0865266642846096],[113.85916342122547,-7.08651762968793],[113.8591543771073,-7.0865176853545231],[113.8591544328325,-7.0865267199512765],[113.85916347695087,-7.0865266642846096]]],[[[113.8577163613888,-7.0865265341105088],[113.8577163056916,-7.086517499502361],[113.85769821743217,-7.0865176107790671],[113.85769827312903,-7.0865266453873588],[113.8577163613888,-7.0865265341105088]]],[[[113.85885592116621,-7.0865195222536643],[113.85885586544687,-7.0865104876545422],[113.85884682132638,-7.0865105433150974],[113.85884687704554,-7.0865195779142907],[113.85885592116621,-7.0865195222536643]]],[[[113.85891024160915,-7.0865282228849056],[113.85891013016828,-7.0865101536875263],[113.85890108604822,-7.086510209349135],[113.85890119748872,-7.0865282785466572],[113.85891024160915,-7.0865282228849056]]],[[[113.85909106827793,-7.0865180750157668],[113.85909101255403,-7.086509040418508],[113.85908196843543,-7.0865090960836268],[113.85908202415918,-7.0865181306809575],[113.85909106827793,-7.0865180750157668]]],[[[113.85900961548406,-7.0865095413982546],[113.8590095597618,-7.0865005068003475],[113.85900051564271,-7.0865005624638151],[113.8590005713648,-7.0865095970617933],[113.85900961548406,-7.0865095413982546]]],[[[113.85884670988827,-7.0864924741167004],[113.85883766576805,-7.0864925297769368],[113.85883772148689,-7.086501564376209],[113.8588467656073,-7.0865015087159016],[113.85884670988827,-7.0864924741167004]]],[[[113.85891007444798,-7.0865011190888323],[113.85891001872773,-7.0864920844901329],[113.85890097460801,-7.0864921401515968],[113.85890103032808,-7.0865011747503681],[113.85891007444798,-7.0865011190888323]]],[[[113.85900961548406,-7.0865095413982546],[113.85900967120638,-7.0865185759961564],[113.85900062708694,-7.0865186316597679],[113.85900068280917,-7.0865276662577381],[113.85899163868949,-7.0865277219212448],[113.85899141580174,-7.0864915835290523],[113.85898237168271,-7.0864916391920962],[113.85898242740436,-7.0865006737902227],[113.85896433916569,-7.086500785115927],[113.85896445060851,-7.0865188543124535],[113.8589554064887,-7.0865189099751866],[113.85895562937452,-7.0865550483684796],[113.85894658525396,-7.0865551040313228],[113.85894686386199,-7.0866002770232077],[113.85893781974048,-7.0866003326862348],[113.85893798690564,-7.0866274364815345],[113.85892894278352,-7.0866274921446006],[113.85892905422698,-7.0866455613415891],[113.85895618659416,-7.086645394351434],[113.85895624231652,-7.086654428949708],[113.85896528643896,-7.0866543732859002],[113.85896550932985,-7.0866905116786691],[113.85901072994439,-7.0866902333555641],[113.85901061849705,-7.0866721641599053],[113.85902870674167,-7.0866720528297211],[113.85902887391384,-7.0866991566227746],[113.85901982979105,-7.0866992122881696],[113.85901994123917,-7.0867172814836632],[113.8590380294854,-7.0867171701524114],[113.85903797376095,-7.0867081355548107],[113.85904701788377,-7.086708079888993],[113.85904690643473,-7.0866900106939212],[113.85908308292389,-7.0866897880294699],[113.85908302719878,-7.0866807534321987],[113.85907398307678,-7.0866808090985032],[113.85907392735191,-7.0866717745011893],[113.85905583910802,-7.0866718858331286],[113.85905578338358,-7.0866628512356513],[113.8590467392617,-7.0866629069012861],[113.8590466835375,-7.0866538723037316],[113.85905572765921,-7.0866538166381696],[113.85905567193491,-7.0866447820406844],[113.85904662781338,-7.0866448377061744],[113.85904651636537,-7.0866267685110484],[113.85903747224413,-7.0866268241762214],[113.85903741652041,-7.0866177895785807],[113.85902837239927,-7.0866178452435067],[113.85902831667579,-7.0866088106457896],[113.85901927255473,-7.0866088663104678],[113.85901916110835,-7.0865907971148969],[113.8590101169876,-7.0865908527792545],[113.8590099498191,-7.0865637489856139],[113.85901899393932,-7.0865636933214686],[113.85901893821645,-7.0865546587236574],[113.85902798233646,-7.0865546030594091],[113.85902787089059,-7.0865365338639164],[113.85901882677094,-7.0865365895280226],[113.85901871532573,-7.0865185203323717],[113.85902775944501,-7.0865184646684094],[113.85902770372233,-7.0865094300706497],[113.85900961548406,-7.0865095413982546]]],[[[113.85901854815845,-7.0864914165388653],[113.8590186038808,-7.0865004511367049],[113.85902764799974,-7.0865003954728865],[113.8590275922772,-7.0864913608751188],[113.85901854815845,-7.0864914165388653]]],[[[113.85901854815845,-7.0864914165388653],[113.85901849243616,-7.086482381941023],[113.85900944831752,-7.0864824376045217],[113.85900950403963,-7.0864914722024377],[113.85901854815845,-7.0864914165388653]]],[[[113.85890979584747,-7.0864559460952972],[113.85889170760939,-7.086456057417478],[113.85889187476842,-7.0864831612140406],[113.85891900712699,-7.0864829942298613],[113.85891889568651,-7.086464925032586],[113.8589098515674,-7.0864649806940117],[113.85890979584747,-7.0864559460952972]]],[[[113.85884670988827,-7.0864924741167004],[113.8588557540084,-7.086492418456289],[113.85885569828929,-7.0864833838571561],[113.858873786529,-7.0864832725359488],[113.85887356365184,-7.0864471341399513],[113.85886451953273,-7.0864471898003556],[113.85886463097081,-7.0864652589985058],[113.85885558685126,-7.0864653146588781],[113.85885564257023,-7.0864743492580011],[113.85884659845047,-7.0864744049182695],[113.85884670988827,-7.0864924741167004]]],[[[113.85887356365184,-7.0864471341399513],[113.85888260777088,-7.0864470784793703],[113.8588825520516,-7.0864380438804329],[113.85887350793274,-7.0864380995409419],[113.85887356365184,-7.0864471341399513]]],[[[113.85857510768261,-7.0864489708406291],[113.85858415180405,-7.0864489151858416],[113.85858404037715,-7.0864308459832159],[113.85859308449818,-7.0864307903283947],[113.85859302878467,-7.0864217557271747],[113.85856589642191,-7.086421922690894],[113.8585660635611,-7.0864490264952424],[113.8585570194395,-7.0864490821496799],[113.85855690801365,-7.0864310129466244],[113.85853881977097,-7.0864311242546858],[113.8585388754835,-7.0864401588563677],[113.85852983136185,-7.0864402145102057],[113.8585299427868,-7.0864582837136672],[113.85854803103069,-7.0864581724055267],[113.85854808674362,-7.0864672070071082],[113.85855713086563,-7.0864671513527027],[113.85855707515252,-7.086458116751194],[113.85857516339598,-7.0864580054420001],[113.85857510768261,-7.0864489708406291]]],[[[113.85891867280642,-7.0864287866379732],[113.85891861708659,-7.0864197520393306],[113.85890957296836,-7.0864198077003984],[113.85890962868802,-7.086428842299112],[113.85891867280642,-7.0864287866379732]]],[[[113.85877457979544,-7.0865290577927489],[113.85877446835984,-7.0865109885932211],[113.85880160072284,-7.0865108216152404],[113.85880148928649,-7.0864927524161274],[113.85877435692454,-7.0864929193936756],[113.85877430120702,-7.086483884793898],[113.85876525708638,-7.0864839404526583],[113.8587652013691,-7.0864749058527874],[113.85877424548956,-7.0864748501940991],[113.85877418977215,-7.0864658155943303],[113.85876514565187,-7.0864658712529476],[113.85876503421765,-7.0864478020532209],[113.85878312245742,-7.0864476907360974],[113.85878317817483,-7.0864567253358191],[113.85879222229478,-7.0864566696769229],[113.85879238944801,-7.0864837734758517],[113.85880143356843,-7.0864837178165638],[113.85880126641466,-7.0864566140178509],[113.85881031053445,-7.0864565583586039],[113.8588102548165,-7.0864475237590963],[113.85882834305555,-7.0864474124402186],[113.85882828733732,-7.0864383778408504],[113.85881924321802,-7.0864384335003052],[113.85881918750003,-7.0864293989008447],[113.85880109926156,-7.0864295102190855],[113.85880104354401,-7.0864204756195122],[113.85879199942482,-7.0864205312782982],[113.85879194370752,-7.0864114966786316],[113.85872863487253,-7.0864118862847132],[113.85872869058861,-7.0864209208848816],[113.85871060234902,-7.0864210321994676],[113.85871065806482,-7.0864300667997586],[113.85871970218483,-7.0864300111424807],[113.85871975790086,-7.08643904574273],[113.8587107137807,-7.0864391014000789],[113.85871099236115,-7.0864842744015357],[113.85868385999754,-7.0864844413736048],[113.85868374856621,-7.0864663721726044],[113.8586023514746,-7.086466873078046],[113.85860224004672,-7.0864488038757383],[113.85859319592544,-7.0864488595308783],[113.85859330735298,-7.0864669287333273],[113.85858426323124,-7.0864669843884345],[113.85858431894495,-7.0864760189897096],[113.85859336306686,-7.0864759633345304],[113.85859341878081,-7.086484997935762],[113.85861150702473,-7.0864848866247341],[113.85861156273911,-7.0864939212258022],[113.85862060686115,-7.0864938655699534],[113.85862066257576,-7.0865029001709461],[113.85864779494194,-7.0865027332021322],[113.85864785065716,-7.0865117678029064],[113.85866593890128,-7.0865116564893427],[113.85866605033266,-7.0865297256905899],[113.85868413857719,-7.0865296143760386],[113.8586840828611,-7.0865205797755593],[113.85870217110499,-7.0865204684604493],[113.85870228253792,-7.0865385376611165],[113.8587113266601,-7.0865384820031547],[113.85871138237684,-7.0865475166034271],[113.85872947062134,-7.0865474052868338],[113.85872952633852,-7.0865564398869259],[113.85873857046083,-7.0865563842282944],[113.85873862617824,-7.086565418828326],[113.85874767030064,-7.0865653631694476],[113.85874778173607,-7.0865834323693591],[113.85873873761329,-7.0865834880283813],[113.85873879333093,-7.0865925226284201],[113.85874783745388,-7.086592466969325],[113.85874789317175,-7.0866015015692545],[113.85875693729481,-7.0866014459099134],[113.85875688157675,-7.0865924113100567],[113.85876592569954,-7.0865923556506116],[113.85876586998138,-7.0865833210507878],[113.85877491410395,-7.0865832653912388],[113.85877485838569,-7.0865742307915003],[113.85878390250798,-7.0865741751318483],[113.85878395822643,-7.0865832097315149],[113.85879300234882,-7.0865831540716151],[113.85879294663019,-7.0865741194720195],[113.85881103487444,-7.0865740081518371],[113.85881086771796,-7.0865469043534741],[113.85881991183946,-7.0865468486933345],[113.8588198561206,-7.0865378140939219],[113.85878367963493,-7.086538036733141],[113.85878362391685,-7.0865290021334548],[113.85877457979544,-7.0865290577927489],[113.85877463551334,-7.086538092392507],[113.85876559139166,-7.0865381480516971],[113.85876553567392,-7.086529113451868],[113.85877457979544,-7.0865290577927489]],[[113.85875626868288,-7.0864930307111651],[113.85873818044094,-7.0864931420279511],[113.85873812472408,-7.0864841074278857],[113.8587562129657,-7.0864839961112436],[113.85875626868288,-7.0864930307111651]],[[113.85864768351172,-7.0864846640005741],[113.85862959526837,-7.0864847753130054],[113.85862953955372,-7.0864757407120598],[113.85864762779671,-7.0864756293997724],[113.85864768351172,-7.0864846640005741]]],[[[113.85674763688269,-7.0863698633508427],[113.85655771004356,-7.0863710313013177],[113.85655776571703,-7.0863800659187017],[113.85649445676228,-7.086380455218829],[113.85649450209624,-7.0863878121081756],[113.85651262717168,-7.0863919118489154],[113.85651370574537,-7.0864358738496938],[113.85651134496322,-7.0864459731891163],[113.85651059697551,-7.0864556587483838],[113.85649929835871,-7.0864569389108318],[113.8564961821338,-7.0864755140743876],[113.85645903084578,-7.0864753386619057],[113.85645905410509,-7.0865447215941737],[113.8564593580751,-7.0865555951068853],[113.85645928231536,-7.0865433007985823],[113.85646832645541,-7.0865432451842176],[113.85646838212853,-7.086552279802242],[113.85647742626868,-7.0865522241876304],[113.85647749179066,-7.086562857029489],[113.85649557816714,-7.0865624368156448],[113.85649557022251,-7.0865611475757042],[113.85651365850268,-7.0865610363451097],[113.85651382552527,-7.0865881401980566],[113.85655904622708,-7.0865878621174243],[113.85655910190231,-7.0865968967347124],[113.85653196948091,-7.0865970635838327],[113.85653202515569,-7.086606098201349],[113.85652298101489,-7.086606153817443],[113.85652303668957,-7.0866151884349931],[113.85651591261968,-7.0866152322437239],[113.85651607049307,-7.0866242662328824],[113.85656831306926,-7.0866239449696158],[113.85656832449878,-7.0866257996658932],[113.85659544455849,-7.0866236267431093],[113.85659538981521,-7.0866147435007534],[113.85663156637628,-7.086614521029424],[113.85663160463675,-7.0866207295104608],[113.85673018500017,-7.0866128309999725],[113.85712532400009,-7.0866104009999678],[113.85761986000034,-7.0867059649999602],[113.85804090400018,-7.0869005789999653],[113.85841324100021,-7.087206415999928],[113.85884854300014,-7.0877090719999307],[113.85888642600003,-7.0877733469999367],[113.85921043700023,-7.0883230969999369],[113.85944855100003,-7.0888885939998874],[113.8595009070001,-7.0893689579999641],[113.85948062800014,-7.0900839439999581],[113.85931110500006,-7.0906272919999607],[113.85918716556942,-7.0910259180191257],[113.85920028145031,-7.0910258372395329],[113.85920022568848,-7.0910168026448686],[113.85921831409954,-7.0910166912394192],[113.85921820257536,-7.0909986220504004],[113.85922724678043,-7.0909985663475554],[113.85922719101828,-7.0909895317531122],[113.85923623522308,-7.0909894760501633],[113.85923606793654,-7.0909623722670245],[113.85928128895689,-7.0909620937507212],[113.85928112166837,-7.0909349899686207],[113.85930825427815,-7.0909348228573776],[113.85930814275179,-7.0909167536697213],[113.85931718695453,-7.0909166979657643],[113.85931713119128,-7.0909076633719863],[113.85932617539378,-7.0909076076679263],[113.85932600810392,-7.0908805038868463],[113.85933505230584,-7.0908804481828263],[113.85933494077929,-7.0908623789955367],[113.85934398498077,-7.0908623232914838],[113.85934381769096,-7.090835219510776],[113.85935286189185,-7.090835163806763],[113.85935275036532,-7.0908170946197542],[113.85936179456576,-7.0908170389157075],[113.85936168303918,-7.0907989697287928],[113.8593707272392,-7.090798914024715],[113.85937061571255,-7.0907808448379432],[113.85937965991218,-7.0907807891338344],[113.85937954838546,-7.0907627199471905],[113.85938859258464,-7.0907626642430479],[113.85938853682121,-7.0907536296497922],[113.85939758102013,-7.0907535739455456],[113.85939752525661,-7.0907445393523574],[113.85940656945532,-7.0907444836480069],[113.85940651369168,-7.0907354490548871],[113.8594246020885,-7.0907353376458024],[113.85942437903331,-7.0906991992738382],[113.85943342323088,-7.090699143569319],[113.8594333674671,-7.0906901089764105],[113.85944241166445,-7.0906900532717883],[113.85944235590054,-7.0906810186789313],[113.85945140009765,-7.0906809629742042],[113.85945128856973,-7.0906628937886209],[113.85946033276639,-7.0906628380838628],[113.85946027700236,-7.0906538034911195],[113.8594693211988,-7.0906537477862566],[113.85946926543467,-7.0906447131936154],[113.85947830963083,-7.0906446574886486],[113.85947808657434,-7.0906085191182804],[113.85948713076972,-7.0906084634134254],[113.85948701924157,-7.090590394228335],[113.85949606343655,-7.0905903385234472],[113.85949595190833,-7.0905722693385016],[113.85950499610287,-7.0905722136335818],[113.85950488457458,-7.090554144448765],[113.85951392876872,-7.0905540887438123],[113.85951376147632,-7.0905269849667709],[113.85952280566984,-7.0905269292618582],[113.85952274990566,-7.0905178946695742],[113.85953179409894,-7.0905178389645576],[113.85953173833467,-7.0905088043723437],[113.8595407825277,-7.0905087486672222],[113.85954072676334,-7.0904997140750741],[113.85954977095609,-7.0904996583698487],[113.85954965942723,-7.0904815891856856],[113.8595587036196,-7.0904815334804283],[113.85955859209066,-7.0904634642963913],[113.85956763628258,-7.0904634085911029],[113.8595674689892,-7.0904363048152339],[113.85957651318051,-7.0904362491099846],[113.85957634588728,-7.0904091453342941],[113.859585390078,-7.0904090896290848],[113.85958522278489,-7.0903819858535746],[113.85959426697499,-7.0903819301484035],[113.85959421121059,-7.0903728955566301],[113.85960325540047,-7.0903728398513559],[113.85960303234287,-7.090336701484512],[113.85961207653199,-7.0903366457793489],[113.85961185347487,-7.0903005074127288],[113.85962089766318,-7.0903004517076749],[113.85962067460652,-7.0902643133412786],[113.85962971879407,-7.0902642576363375],[113.85962966302992,-7.0902552230448004],[113.8596387072172,-7.0902551673397536],[113.85963859568875,-7.0902370981568277],[113.85964763987562,-7.0902370424517498],[113.8596474168189,-7.0902009040860863],[113.859656461005,-7.0902008483811194],[113.85965612642103,-7.0901466408329616],[113.85966517060599,-7.0901465851282488],[113.85966489178715,-7.090101412171701],[113.85968298015513,-7.0901013007624663],[113.85968292439122,-7.0900922661712888],[113.85969196857492,-7.0900922104664801],[113.85969180128311,-7.0900651066931371],[113.85970084546622,-7.0900650509883674],[113.85970051088354,-7.0900108434420046],[113.85970955506551,-7.0900107877374898],[113.85970938777463,-7.0899836839644879],[113.859718431956,-7.0899836282600122],[113.85971809737514,-7.0899294207142791],[113.85972714155538,-7.0899293650100601],[113.85972686273914,-7.0898841920555471],[113.85973590691842,-7.0898841363515084],[113.85973579539207,-7.0898660671698028],[113.85972675121313,-7.0898661228736986],[113.85972663968744,-7.0898480536918651],[113.85973568386602,-7.0898479979881142],[113.85973440133736,-7.0896402023973737],[113.85974344551185,-7.0896401466950953],[113.85974160542359,-7.0893420051940597],[113.8597325612549,-7.0893420608939728],[113.85973228246145,-7.0892968879385379],[113.85974132662926,-7.0892968322389827],[113.8597411035951,-7.0892606938748512],[113.85975014776211,-7.089260638175408],[113.85975009200358,-7.0892516035844384],[113.85974104783675,-7.0892516592838088],[113.85974093632025,-7.0892335901017107],[113.85973189215369,-7.0892336458007632],[113.85973155760701,-7.0891794382539457],[113.85972251344143,-7.0891794939523916],[113.85972212314152,-7.0891162518137572],[113.85971307897711,-7.0891163075115253],[113.85971257716976,-7.0890349961894783],[113.85970353300684,-7.0890350518864285],[113.85970325422841,-7.0889898789292793],[113.85969421006631,-7.0889899346256948],[113.85969415431103,-7.0889809000341577],[113.859685110149,-7.0889809557303254],[113.85968460835625,-7.088899644405827],[113.85967556419574,-7.088899700101174],[113.85967528542542,-7.0888545271426233],[113.85965719710596,-7.088854638532073],[113.85965714135247,-7.0888456039402064],[113.85964809719282,-7.0888456596345959],[113.85964798568639,-7.0888275904507276],[113.85965702984569,-7.0888275347564811],[113.85965691833921,-7.0888094655727061],[113.85964787418027,-7.0888095212668087],[113.85964770692162,-7.0887824174909433],[113.8596386627631,-7.088782473184656],[113.85963838400103,-7.0887373002243983],[113.85962933984334,-7.0887373559175764],[113.85962911683569,-7.0887012175490263],[113.85962007267862,-7.0887012732417425],[113.85961990542418,-7.0886741694650732],[113.85961086126757,-7.0886742251573986],[113.85961063826338,-7.0886380867881646],[113.85960159410739,-7.0886381424800282],[113.85960148260608,-7.0886200732952611],[113.85959243845036,-7.0886201289868058],[113.85959193669964,-7.0885388176544195],[113.85958289254546,-7.0885388733451435],[113.85958261379849,-7.0884937003822213],[113.85956452549163,-7.088493811762425],[113.85956446974281,-7.0884847771696844],[113.85955542558946,-7.088484832859451],[113.85955514684731,-7.088439659895335],[113.85954610269476,-7.0884397155845678],[113.85954587970306,-7.0884035772129161],[113.85953683555113,-7.0884036329016871],[113.85953650106683,-7.0883494253436634],[113.8595274569159,-7.0883494810318277],[113.85952740116893,-7.0883404464387381],[113.85951835701808,-7.0883405021266563],[113.8595181340317,-7.0883043637539727],[113.85950908988148,-7.0883044194414273],[113.85950897838909,-7.0882863502549176],[113.85949993423917,-7.0882864059420543],[113.85949982274741,-7.0882683367553874],[113.85949077859773,-7.0882683924422043],[113.85949066710663,-7.0882503232553598],[113.85948162295725,-7.0882503789418596],[113.85948156721197,-7.0882413443483845],[113.85947252306269,-7.0882414000346357],[113.85947235582783,-7.0882142962539234],[113.85946331167902,-7.0882143519397838],[113.85946325593439,-7.0882053173461506],[113.85945421178569,-7.088205373031764],[113.85945398880858,-7.0881692346568199],[113.8594449446605,-7.0881692903419706],[113.85944477742896,-7.0881421865605185],[113.85943573328134,-7.0881422422452802],[113.85943567753782,-7.0881332076513823],[113.85942663339029,-7.0881332633358971],[113.85942652190381,-7.0881151941479477],[113.85941747775658,-7.0881152498321427],[113.85941731052793,-7.088088146049957],[113.85940826638115,-7.0880882017337612],[113.8594081548961,-7.0880701325455036],[113.85939911074958,-7.0880701882289889],[113.8593989435231,-7.0880430844463147],[113.85938989937704,-7.0880431401294093],[113.8593898436352,-7.0880341055351277],[113.85938079948923,-7.0880341612179754],[113.85938074374764,-7.0880251266236014],[113.85937169960179,-7.0880251823062013],[113.85937158811917,-7.088007113117297],[113.8593625439736,-7.0880071687995789],[113.85936243249164,-7.0879890996105157],[113.85935338834632,-7.0879891552924787],[113.85935327686499,-7.0879710861032565],[113.85934423271998,-7.0879711417848998],[113.8593441769796,-7.0879621071902115],[113.85933513283469,-7.0879621628716087],[113.85933502135451,-7.0879440936820748],[113.85932597720985,-7.0879441493631532],[113.8593258657303,-7.0879260801734612],[113.85931682158596,-7.0879261358542198],[113.85931671010704,-7.0879080666643688],[113.85930766596296,-7.0879081223448095],[113.85930761022379,-7.0878990877498067],[113.85929856607981,-7.0878991434299996],[113.85929851034091,-7.0878901088349204],[113.85928946619703,-7.0878901645148655],[113.85928929898124,-7.0878630607293927],[113.85928025483781,-7.087863116408947],[113.85928019909953,-7.0878540818137097],[113.85927115495622,-7.0878541374930162],[113.85927104348023,-7.0878360683023702],[113.85926199933718,-7.0878361239813588],[113.85926183212429,-7.0878090201951851],[113.85924374383906,-7.0878091315522056],[113.85924368810193,-7.0878000969566584],[113.85923464395937,-7.0878001526348324],[113.85923447674891,-7.0877730488479509],[113.85922543260682,-7.0877731045257351],[113.85922532113392,-7.0877550353343173],[113.85921627699209,-7.0877550910117835],[113.85921610978379,-7.0877279872244117],[113.85919802150099,-7.0877280985783875],[113.85919796576539,-7.0877190639824459],[113.85918892162404,-7.0877191196590985],[113.8591888101534,-7.0877010504670599],[113.85917976601235,-7.0877011061433937],[113.85917965454236,-7.0876830369511961],[113.85917061040158,-7.0876830926272101],[113.85917049893223,-7.0876650234348544],[113.85916145479173,-7.0876650791105495],[113.85916139905734,-7.0876560445142935],[113.85915235491694,-7.0876561001897427],[113.85915224344875,-7.0876380309970761],[113.8591431993086,-7.0876380866722055],[113.85914308784103,-7.0876200174793791],[113.85913404370122,-7.0876200731541905],[113.85913387650095,-7.0875929693647066],[113.85912483236156,-7.0875930250391264],[113.85912472089542,-7.0875749558459749],[113.85910663261713,-7.0875750671940025],[113.85910657688451,-7.0875660325972776],[113.85909753274544,-7.0875660882709566],[113.85909742128078,-7.0875480190773503],[113.859088377142,-7.0875480747507105],[113.85908832140996,-7.0875390401538301],[113.85907927727128,-7.0875390958269424],[113.85907911007614,-7.0875119920360623],[113.85906102179956,-7.0875121033813313],[113.85906091033721,-7.0874940341871051],[113.85905186619915,-7.0874940898593328],[113.85905181046826,-7.0874850552621416],[113.85904276633033,-7.0874851109341233],[113.8590426548691,-7.0874670417395684],[113.85903361073147,-7.0874670974112313],[113.85903355500113,-7.0874580628139014],[113.85901546672594,-7.0874581741565548],[113.85901541099605,-7.0874491395590615],[113.85900636685851,-7.0874491952300538],[113.85900619966976,-7.0874220914373192],[113.85899715553271,-7.0874221471079206],[113.85899704407426,-7.0874040779126286],[113.85898799993748,-7.0874041335829103],[113.85898794420855,-7.0873950989851782],[113.8589698559351,-7.0873952103250737],[113.85896974447815,-7.0873771411293269],[113.85896070034164,-7.0873771967988688],[113.85896064461345,-7.0873681622008942],[113.85895160047708,-7.0873682178701882],[113.85895154474913,-7.0873591832721541],[113.85894250061287,-7.0873592389411995],[113.85894244488517,-7.0873502043430898],[113.85892435661275,-7.0873503156805135],[113.85892424515828,-7.087332246483995],[113.85891520102233,-7.0873323021522996],[113.85891514529537,-7.0873232675539626],[113.85890610115949,-7.0873233232220212],[113.8589060454328,-7.0873142886236078],[113.85889700129704,-7.0873143442914186],[113.85889694557059,-7.0873053096929306],[113.85888790143493,-7.0873053653604954],[113.85888784570872,-7.087296330761931],[113.85887880157317,-7.087296386429248],[113.85887874584722,-7.087287351830609],[113.85886970171177,-7.0872874074976773],[113.85886964598606,-7.0872783728989628],[113.85885155771528,-7.0872784842324315],[113.85885144626478,-7.0872604150346854],[113.85883335799443,-7.0872605263671664],[113.85883330226964,-7.0872514917681695],[113.85882425813453,-7.0872515474340734],[113.85882414668552,-7.0872334782358903],[113.85880605841577,-7.0872335895668881],[113.85880600269174,-7.0872245549676487],[113.85879695855692,-7.087224610632811],[113.85879690283313,-7.0872155760335129],[113.85878785869843,-7.0872156316984283],[113.8587878029749,-7.087206597099021],[113.8587787588403,-7.0872066527636894],[113.85877870311701,-7.0871976181642227],[113.8587696589825,-7.0871976738286442],[113.85876960325945,-7.0871886392291028],[113.85876055912506,-7.0871886948932756],[113.85876039195689,-7.0871615910944108],[113.85874230368893,-7.0871617024218025],[113.8587422479667,-7.0871526678220302],[113.85873320383281,-7.0871527234853913],[113.85873314811083,-7.0871436888855426],[113.85872410397701,-7.0871437445486567],[113.85872399253361,-7.0871256753488039],[113.85871494840011,-7.0871257310115992],[113.85871489267869,-7.0871166964115959],[113.85869680441176,-7.0871168077365159],[113.85869674869078,-7.0871077731363643],[113.8586877045574,-7.0871078287984899],[113.85868764883665,-7.0870987941982468],[113.85867860470334,-7.0870988498601246],[113.85867854898287,-7.0870898152598398],[113.85866950484969,-7.0870898709214698],[113.85866944912944,-7.0870808363210926],[113.85866040499636,-7.0870808919824766],[113.85866034927638,-7.0870718573820222],[113.85865130514337,-7.0870719130431592],[113.85865124942363,-7.0870628784426302],[113.85864220529076,-7.0870629341035194],[113.85864214957125,-7.087053899502898],[113.85862406130563,-7.0870540108240068],[113.85862394986756,-7.0870359416225162],[113.85859681746963,-7.087036108602434],[113.85859676175124,-7.0870270740014591],[113.8585877176186,-7.0870271296610081],[113.85858766190046,-7.0870180950599577],[113.85857861776796,-7.0870181507192598],[113.85857850633224,-7.0870000815170044],[113.85856946220001,-7.0870001371759876],[113.85856940648243,-7.0869911025747827],[113.85855131821808,-7.0869912138920803],[113.85855120678384,-7.0869731446893711],[113.85854216265194,-7.0869732003476127],[113.85854210693509,-7.0869641657461973],[113.85852401867137,-7.0869642770620116],[113.85852396295496,-7.086955242460415],[113.85851491882318,-7.0869552981179877],[113.858514863107,-7.0869462635163334],[113.85850581897532,-7.0869463191736575],[113.8585057632594,-7.0869372845719267],[113.85849671912784,-7.0869373402290048],[113.85849666341217,-7.0869283056271977],[113.85848761928068,-7.0869283612840297],[113.85848756356526,-7.0869193266821471],[113.85846947530241,-7.0869194379951388],[113.85846941958742,-7.0869104033931105],[113.85846037545609,-7.0869104590492702],[113.85846031974134,-7.0869014244471664],[113.85844223147878,-7.0869015357588179],[113.85844206433605,-7.08687443195205],[113.85839684368096,-7.0868747102270344],[113.8583967322546,-7.0868566410217859],[113.85837864399276,-7.0868567523302648],[113.85837858828003,-7.0868477177274736],[113.8583695441492,-7.0868477733813782],[113.85836948843674,-7.0868387387785461],[113.85836044430599,-7.0868387944322038],[113.85836038859377,-7.0868297598292784],[113.8583423003324,-7.0868298711359232],[113.85834224462059,-7.0868208365328522],[113.85832415635929,-7.0868209478386515],[113.85832410064791,-7.0868119132354312],[113.85830601238666,-7.0868120245403849],[113.85830590096484,-7.0867939553336488],[113.85829685683447,-7.0867940109857193],[113.85829680112383,-7.0867849763822734],[113.85826966873277,-7.0867851433372158],[113.85826961302276,-7.0867761087335515],[113.85826056889242,-7.0867761643847773],[113.85826051318264,-7.0867671297810357],[113.85823338079179,-7.0867672967334432],[113.85823332508259,-7.0867582621295009],[113.85821523682199,-7.0867583734300839],[113.85821512540456,-7.0867403042218511],[113.85818799301418,-7.0867404711709803],[113.85818793730608,-7.0867314365666507],[113.85816984904582,-7.0867315478650479],[113.85816979333816,-7.0867225132605736],[113.85814266094776,-7.0867226802066403],[113.85814260524069,-7.0867136456019448],[113.85813356111059,-7.0867137012502104],[113.85813350540377,-7.0867046666454394],[113.85812446127377,-7.0867047222934589],[113.85812440556721,-7.0866956876886125],[113.85807014078668,-7.0866960215726111],[113.85807008508125,-7.0866869869673144],[113.8580610409511,-7.0866870426139617],[113.85806098524591,-7.0866780080086222],[113.8580248087252,-7.0866782305931686],[113.8580247530208,-7.0866691959875237],[113.85800666476037,-7.0866693072785996],[113.85800660905637,-7.0866602726728063],[113.85799756492624,-7.0866603283180103],[113.8579975092225,-7.0866512937121415],[113.85797942096234,-7.0866514050018781],[113.85797936525903,-7.0866423703958459],[113.857970321129,-7.0866424260403784],[113.85797026542595,-7.0866333914343036],[113.85795217716604,-7.0866335027227016],[113.85795212146341,-7.0866244681164634],[113.85794307733353,-7.0866245237603271],[113.85794302163113,-7.0866154891540125],[113.85792493337151,-7.0866156004410712],[113.85792487766952,-7.0866065658346082],[113.85789774528007,-7.0866067327636646],[113.85789768957871,-7.086597698157],[113.85787055718912,-7.0865978650842614],[113.85787050148834,-7.0865888304773446],[113.8578433690986,-7.0865889974028118],[113.85784331339843,-7.0865799627956951],[113.85781618100857,-7.0865801297193673],[113.85781612530901,-7.0865710951120304],[113.85779803704909,-7.0865712063934581],[113.85779798134995,-7.0865621717859737],[113.85775276069977,-7.0865624499861131],[113.85775270500157,-7.0865534153782832],[113.85773461674137,-7.0865535266569655],[113.8577345610436,-7.0865444920489571],[113.85769838452295,-7.0865447146039315],[113.85769832882596,-7.0865356799956478],[113.85768024056556,-7.0865357912719382],[113.85768018486898,-7.0865267566635071],[113.85766209660865,-7.0865268679389528],[113.85766204091252,-7.0865178333303742],[113.85759873200026,-7.0865182227884054],[113.85759867630541,-7.0865091881793214],[113.85757154391389,-7.0865093550870588],[113.85757148821963,-7.0865003204777555],[113.85753531169728,-7.0865005430186621],[113.8575352560038,-7.0864915084090683],[113.85750812361181,-7.0864916753126908],[113.85750806791893,-7.0864826407028607],[113.85748997965759,-7.0864827519709221],[113.85748992396513,-7.0864737173609793],[113.8574627915731,-7.0864738842615385],[113.85746284726501,-7.0864829188716945],[113.85743571487178,-7.0864830857708894],[113.8574356591804,-7.0864740511605175],[113.85741757091823,-7.0864741624256267],[113.85741762660928,-7.0864831970361415],[113.85740858247792,-7.0864832526685051],[113.85740852678705,-7.0864742180579183],[113.85735426199837,-7.0864745518479797],[113.85735420630863,-7.0864655172369426],[113.85730898565028,-7.0864657953901427],[113.85730892996149,-7.0864567607787432],[113.857290841698,-7.0864568720386512],[113.85729078600964,-7.0864478374271025],[113.85728174187794,-7.0864478930567234],[113.85728168618982,-7.086438858445085],[113.8572364655312,-7.0864391365901902],[113.85723640984403,-7.0864301019782232],[113.85713692439059,-7.0864307138812217],[113.85713686870544,-7.0864216792684447],[113.85707355977715,-7.0864220686497061],[113.85707350409329,-7.0864130340364246],[113.85703732756195,-7.0864132565358542],[113.85703727187888,-7.0864042219222814],[113.85701918361312,-7.0864043331708002],[113.85701912793046,-7.0863952985570986],[113.85700103966477,-7.0863954098047719],[113.85700098398253,-7.0863863751908882],[113.85683818958131,-7.0863873763870693],[113.85683824526038,-7.0863964110022408],[113.85681111285736,-7.0863965778629563],[113.8568110571788,-7.0863875432475689],[113.85676583650653,-7.0863878213448945],[113.85676578082894,-7.0863787867291625],[113.85674769255985,-7.0863788979667222],[113.85674763688269,-7.0863698633508427]],[[113.85652264696843,-7.0865519461119399],[113.85653169110816,-7.0865518904962768],[113.85653174678258,-7.0865609251138126],[113.85654079092239,-7.0865608694979008],[113.85654084659706,-7.0865699041153292],[113.85653180245706,-7.0865699597313103],[113.8565318581316,-7.0865789943488213],[113.85652281399133,-7.0865790499647012],[113.85652264696843,-7.0865519461119399]]],[[[113.85850214188149,-7.0863500354509803],[113.85850208617038,-7.0863410008489893],[113.8584930420504,-7.0863410565013378],[113.85849309776133,-7.0863500911033999],[113.85850214188149,-7.0863500354509803]]],[[[113.85859286164455,-7.0863946519234338],[113.85861094988499,-7.0863945406138393],[113.85861100559863,-7.0864035752149466],[113.85862004971889,-7.0864035195598154],[113.85861999400507,-7.0863944849587792],[113.85862903812509,-7.0863944293035441],[113.85862875955618,-7.0863492562986652],[113.85860162719852,-7.0863494232627708],[113.85860157148549,-7.0863403886615677],[113.8585925273663,-7.086340444315848],[113.85859247165352,-7.0863314097145693],[113.85857438341527,-7.0863315210224584],[113.85857432770291,-7.0863224864210341],[113.8585562394647,-7.0863225977280777],[113.85855618375277,-7.0863135631265051],[113.85854713963374,-7.0863136187796911],[113.85854719534552,-7.0863226533813357],[113.85852910710689,-7.0863227646873259],[113.85852916281837,-7.0863317992891099],[113.85852011869878,-7.0863318549419132],[113.85852023012161,-7.0863499241456127],[113.85851118600158,-7.0863499797983849],[113.85851124171292,-7.0863590144002986],[113.85850219759267,-7.0863590700529668],[113.85850225330391,-7.0863681046549498],[113.85851129742434,-7.0863680490022105],[113.85851135313585,-7.086377083604118],[113.85852039725641,-7.0863770279511309],[113.85852045296816,-7.0863860625529798],[113.85853854120938,-7.0863859512463359],[113.85853859692156,-7.0863949858480035],[113.85854764104224,-7.0863949301943476],[113.85854769675466,-7.0864039647959567],[113.85858387323735,-7.0864037421792903],[113.85858392895054,-7.0864127767806089],[113.85859297307123,-7.0864127211259316],[113.85859286164455,-7.0863946519234338],[113.85858381752422,-7.086394707577969],[113.85858376181118,-7.0863856729766583],[113.85859280593132,-7.086385617322196],[113.85859286164455,-7.0863946519234338]]],[[[113.84948652226092,-7.0615771968554863],[113.84946843484181,-7.0615773074235921],[113.84946849018097,-7.0615863421066312],[113.84945040276122,-7.0615864526741809],[113.84945056877805,-7.0616135567237022],[113.84943248135696,-7.0616136672909802],[113.84943253669572,-7.0616227019742892],[113.8494234929849,-7.0616227572577372],[113.84942360366223,-7.061640826624485],[113.8494326473734,-7.0616407713408957],[113.84943275805139,-7.0616588407074854],[113.84945084547422,-7.0616587301394924],[113.84945090081368,-7.0616677648226389],[113.8494780319479,-7.061667598969124],[113.84947797660791,-7.0616585642861924],[113.84952319516263,-7.0616582878605278],[113.84952308448115,-7.0616402184953655],[113.8495140407707,-7.0616402737807054],[113.84951376406913,-7.0615951003673754],[113.84950472035948,-7.0615951556521832],[113.84950466501955,-7.0615861209694346],[113.84948657760042,-7.0615862315383824],[113.84948652226092,-7.0615771968554863]]],[[[113.84961130794285,-7.0612782783543766],[113.84960226424013,-7.0612783336386071],[113.84960231957952,-7.0612873683207198],[113.84955710106395,-7.0612876447396129],[113.84955715640253,-7.0612966794220631],[113.84953906899544,-7.0612967899885382],[113.84953923501057,-7.0613238940362928],[113.84953019130639,-7.0613239493194833],[113.84953035732163,-7.0613510533674173],[113.84952131361685,-7.0613511086506469],[113.84952136895522,-7.0613601433333546],[113.84953041266019,-7.0613600880500549],[113.84953057867631,-7.061387192097941],[113.84953962238168,-7.0613871368142513],[113.84953956704275,-7.0613781021316981],[113.84955765445298,-7.0613779915639361],[113.84955743309649,-7.0613418528342544],[113.8495664768008,-7.0613417975503987],[113.84956642146169,-7.0613327628680373],[113.84957546516576,-7.0613327075840786],[113.84957552050506,-7.0613417422663645],[113.84960265161732,-7.0613415764132199],[113.84960276229717,-7.0613596457773529],[113.84962989340981,-7.0613594799222046],[113.84962978272893,-7.0613414105584988],[113.84964787013631,-7.0613412999878111],[113.84964759343359,-7.061296126579192],[113.84962950602795,-7.0612962371491648],[113.84962945068798,-7.0612872024672875],[113.84961136328241,-7.0612873130364182],[113.84961130794285,-7.0612782783543766]]],[[[113.85134743951872,-7.0597497809044416],[113.85133839585941,-7.0597498362104183],[113.85133845122039,-7.059758870879385],[113.85132940756084,-7.0597589261852587],[113.85132979508838,-7.0598221688684113],[113.85133883874914,-7.0598221135620376],[113.85133872802626,-7.0598040442241565],[113.85134777168663,-7.0598039889177517],[113.85134766096371,-7.0597859195799977],[113.85135670462363,-7.0597858642735609],[113.85135653853926,-7.0597587602671137],[113.85134749487986,-7.0597588155733364],[113.85134743951872,-7.0597497809044416]]]]},"properties":{"FID":0,"Shape_Leng":18102566.929299999,"Shape_Area":236516885.403}}]
}