{
  "type" : "FeatureCollection",
  "features" : [{"type":"Feature","id":0,"geometry":{"type":"MultiPolygon","coordinates":[[[[113.1727071950796,-7.183234920762855],[113.17270715214204,-7.1832258814152707],[113.17269810133071,-7.1832259242983234],[113.17269814426808,-7.18323496364596],[113.1727071950796,-7.183234920762855]]],[[[113.17530464672296,-7.1831954879469206],[113.17530460373435,-7.1831864486149968],[113.17529555293946,-7.1831864915490558],[113.17529559592791,-7.1831955308810347],[113.17530464672296,-7.1831954879469206]]],[[[113.17268883583418,-7.1831807704427648],[113.17268879289732,-7.1831717310950651],[113.17267974208694,-7.1831717739774339],[113.17267978502362,-7.1831808133251869],[113.17268883583418,-7.1831807704427648]]],[[[113.17327636533672,-7.1830152745075031],[113.17326731453301,-7.1830153174005336],[113.17326735748036,-7.1830243567448226],[113.17327640828424,-7.183024313851738],[113.17327636533672,-7.1830152745075031]]],[[[113.17327636533672,-7.1830152745075031],[113.1732854161404,-7.183015231614295],[113.17328537319275,-7.1830061922701267],[113.17327632238926,-7.1830062351632797],[113.17327636533672,-7.1830152745075031]]],[[[113.17046083354973,-7.1828749365048807],[113.17046079065871,-7.1828658971436301],[113.17045173984096,-7.182865939980231],[113.17045178273177,-7.1828749793415358],[113.17046083354973,-7.1828749365048807]]],[[[113.17047880651147,-7.1828477327476339],[113.17047876362028,-7.1828386933864961],[113.17046971280317,-7.1828387362232906],[113.1704697556942,-7.1828477755844817],[113.17047880651147,-7.1828477327476339]]],[[[113.17046061909524,-7.1828297396986729],[113.1704605762045,-7.1828207003374045],[113.17045152538763,-7.1828207431737319],[113.17045156827818,-7.1828297825350562],[113.17046061909524,-7.1828297396986729]]],[[[113.17292209575919,-7.1827457668114247],[113.17292205282035,-7.1827367274649792],[113.17293110362064,-7.1827366845804139],[113.17293101774277,-7.1827186058875832],[113.17292196694284,-7.1827186487720391],[113.17292200988157,-7.1827276881185114],[113.1729129590814,-7.182727731002843],[113.17291304495866,-7.1827458096958656],[113.17292209575919,-7.1827457668114247]]],[[[113.17128973292033,-7.1820755314076665],[113.17127163132602,-7.182075617104017],[113.17127167422828,-7.1820846564606624],[113.17128072502562,-7.1820846136125223],[113.17128085373325,-7.182111731682344],[113.17128990453111,-7.1821116888338619],[113.17128994743393,-7.1821207281904007],[113.17129899823189,-7.1821206853416868],[113.17129886952303,-7.1820935672722213],[113.1712898187256,-7.1820936101207717],[113.17128973292033,-7.1820755314076665]]],[[[113.17159728835541,-7.1820379170417912],[113.171597245447,-7.1820288776870527],[113.17158819465264,-7.1820289205411054],[113.17158823756087,-7.1820379598958981],[113.17159728835541,-7.1820379170417912]]],[[[113.17202237521923,-7.1819726272324464],[113.17201332442858,-7.1819726700945514],[113.17201336734486,-7.1819817094467879],[113.17200431655394,-7.1819817523087686],[113.17200435947009,-7.1819907916610566],[113.17201341026119,-7.1819907487990227],[113.17201345317758,-7.1819997881512512],[113.17200440238631,-7.1819998310133411],[113.17200444530258,-7.1820088703656211],[113.17201349609402,-7.1820088275034761],[113.17201353901052,-7.1820178668557002],[113.17202258980208,-7.1820178239933226],[113.17202237521923,-7.1819726272324464]]],[[[113.1719768637731,-7.1819186054263566],[113.17196781298321,-7.1819186482872412],[113.17196785589827,-7.1819276876397922],[113.17195880510815,-7.1819277305005542],[113.17195889093806,-7.1819458092057165],[113.17196794172855,-7.1819457663448452],[113.17196798464376,-7.1819548056973668],[113.17197703543435,-7.1819547628362628],[113.17197699251895,-7.1819457234837962],[113.17199509409961,-7.1819456377611628],[113.17199505118391,-7.1819365984088011],[113.1719860003938,-7.181936641270152],[113.17198595747834,-7.1819276019177334],[113.17197690668831,-7.1819276447788516],[113.1719768637731,-7.1819186054263566]]],[[[113.1719768637731,-7.1819186054263566],[113.17198591456292,-7.1819185625652908],[113.17198587164756,-7.1819095232128802],[113.17197682085791,-7.181909566073891],[113.1719768637731,-7.1819186054263566]]],[[[113.17196759840877,-7.1818734515245541],[113.17195854761971,-7.1818734943849902],[113.17195859053432,-7.1818825337375802],[113.17194953974504,-7.1818825765978929],[113.17194949683062,-7.1818735372452469],[113.17194044604148,-7.1818735801053268],[113.17194053187002,-7.181891658810736],[113.17193148108045,-7.1818917016707458],[113.17193143816633,-7.181882662317979],[113.17187713342885,-7.1818829194739671],[113.17187709051586,-7.1818738801208877],[113.17184931046009,-7.1818740116685955],[113.17183186211952,-7.1818794769339309],[113.17183187947943,-7.1818831337657203],[113.17182000788954,-7.1818831899807121],[113.17179571189855,-7.18189080010292],[113.17179571923032,-7.1818923445494987],[113.17179070531728,-7.1818923682913196],[113.17178667434293,-7.1818936308947974],[113.1717867113512,-7.1819014267602892],[113.17177766056052,-7.1819014696173236],[113.17177770347172,-7.1819105089710078],[113.17175055109878,-7.1819106375412014],[113.1717505940095,-7.1819196768950286],[113.17173249242694,-7.1819197626077109],[113.17173253533736,-7.1819288019616767],[113.17170538296253,-7.1819289305295237],[113.17170534005265,-7.1819198911753936],[113.17170279759038,-7.1819199032139824],[113.17162896000004,-7.1819430309998937],[113.171515445878,-7.1819571243356526],[113.17151548794985,-7.181965987880524],[113.17150643715625,-7.1819660307325917],[113.1715064002119,-7.1819582473983186],[113.17146804000004,-7.1819630099999454],[113.17142494940212,-7.1819599674771046],[113.171425022916,-7.1819754557489537],[113.17144312450451,-7.1819753700477422],[113.17144316740954,-7.1819844094034124],[113.17147031979241,-7.1819842808500933],[113.1714704056037,-7.1820023595610953],[113.17151565957582,-7.1820021453014533],[113.17151570248244,-7.1820111846566776],[113.17152475327688,-7.1820111418041597],[113.17152479618375,-7.1820201811593227],[113.17163340571476,-7.1820196669145524],[113.17163336280576,-7.1820106275600413],[113.1716424135995,-7.182010584705206],[113.17164245650868,-7.1820196240596639],[113.17166055809631,-7.1820195383493495],[113.17166051518674,-7.1820104989950018],[113.17169671836059,-7.1820103275724518],[113.17169667545039,-7.1820012882183191],[113.17172382782967,-7.1820011596497002],[113.171723784919,-7.1819921202957264],[113.17173283571181,-7.1819920774392161],[113.17173274989025,-7.181973998731368],[113.17174180068264,-7.1819739558747893],[113.17174175777177,-7.1819649165209141],[113.17177796094006,-7.181964745093036],[113.17177791802854,-7.1819557057393739],[113.17178696882029,-7.1819556628820136],[113.17178692590863,-7.1819466235284022],[113.17177787511706,-7.1819466663857083],[113.17177783220563,-7.1819376270320383],[113.17178688299704,-7.1819375841747881],[113.17178684008549,-7.1819285448211687],[113.17179589087665,-7.1819285019637942],[113.17179580505338,-7.181910423256654],[113.17189536374862,-7.1819099518149594],[113.17189532083511,-7.1819009124619821],[113.17192247320483,-7.1819007838833935],[113.17192251611888,-7.1819098232362064],[113.17193156690885,-7.1819097803762668],[113.17193152399463,-7.1819007410235081],[113.17194962557406,-7.1819006553032017],[113.17194966848864,-7.1819096946558512],[113.17195871927845,-7.1819096517953751],[113.17195867636369,-7.1819006124427816],[113.17196772715327,-7.181900569582182],[113.17196759840877,-7.1818734515245541]]],[[[113.17198565707162,-7.1818643264506852],[113.17197660628284,-7.1818643693114232],[113.17197664919775,-7.1818734086639413],[113.17198569998668,-7.1818733658031491],[113.17198565707162,-7.1818643264506852]]],[[[113.17198565707162,-7.1818643264506852],[113.17199470786029,-7.1818642835897704],[113.17199466494509,-7.181855244237374],[113.17198561415658,-7.1818552870982364],[113.17198565707162,-7.1818643264506852]]],[[[113.17209405194701,-7.1818186153489121],[113.17209400903012,-7.1818095759970948],[113.17208495824312,-7.1818096188596439],[113.17208500115983,-7.1818186582115153],[113.17209405194701,-7.1818186153489121]]],[[[113.17270036870512,-7.1817976644520147],[113.17270032577638,-7.1817886251038443],[113.17269127499343,-7.1817886679782283],[113.17269131792199,-7.1817977073264547],[113.17270036870512,-7.1817976644520147]]],[[[113.17283613044529,-7.1817970213140407],[113.17283608751387,-7.1817879819666874],[113.17281798594961,-7.1817880677206256],[113.17281802888067,-7.181797107068089],[113.17283613044529,-7.1817970213140407]]],[[[113.17268209542563,-7.1817615928075709],[113.17267304464309,-7.1817616356814336],[113.17267308757113,-7.1817706750297789],[113.17266403678838,-7.1817707179035208],[113.1726640797163,-7.1817797572519178],[113.17269123206492,-7.1817796286299984],[113.17269118913647,-7.181770589281764],[113.17268213835384,-7.1817706321558621],[113.17268209542563,-7.1817615928075709]]],[[[113.17254624783109,-7.1817441571985849],[113.17254620490571,-7.1817351178494642],[113.17253715412291,-7.1817351607204918],[113.17253719704811,-7.1817442000696659],[113.17254624783109,-7.1817441571985849]]],[[[113.17208500115983,-7.1818186582115153],[113.17207595037259,-7.1818187010739409],[113.17207599328917,-7.1818277404258772],[113.17205789171413,-7.1818278261503039],[113.17205793463043,-7.1818368655023139],[113.17202173147899,-7.1818370369492444],[113.17202177439464,-7.1818460763014844],[113.17200367281822,-7.18184616202399],[113.17200375864893,-7.181864240728677],[113.17201280943753,-7.1818641978674034],[113.17201276652196,-7.1818551585151162],[113.17203991888685,-7.1818550299303938],[113.17203996180295,-7.1818640692825166],[113.17206711416787,-7.1818639406960258],[113.17206715708456,-7.1818729800479986],[113.17207620787295,-7.1818729371854237],[113.17207616495608,-7.1818638978335061],[113.1720942665323,-7.1818638121079319],[113.17209418069801,-7.1818457334043355],[113.17211228227332,-7.1818456476782648],[113.17211219643853,-7.1818275689748878],[113.17212124722576,-7.1818275261116939],[113.17212111847348,-7.1818004080567208],[113.1721301692601,-7.1818003651935127],[113.17213012634259,-7.1817913258419068],[113.17213917712897,-7.1817912829785744],[113.17213913421136,-7.18178224362702],[113.17214818499751,-7.181782200763565],[113.17214814207978,-7.1817731614120612],[113.17215719286568,-7.181773118548481],[113.17215714994782,-7.1817640791970279],[113.17218430230469,-7.1817639506053847],[113.17218434522309,-7.1817729899566745],[113.17219339600879,-7.1817729470923801],[113.17219343892742,-7.1817819864436121],[113.17220248971323,-7.1817819435790877],[113.1722025326321,-7.1817909829302593],[113.17221158341802,-7.1817909400655022],[113.17221162633713,-7.181799979416617],[113.17223877869515,-7.1817998508211085],[113.17223882161485,-7.1818088901720563],[113.17224787240092,-7.1818088473064758],[113.17224782948104,-7.181799807955584],[113.17226593105266,-7.1817997222239978],[113.17226584521239,-7.1817816435224167],[113.17227489599776,-7.1817816006564668],[113.17227485307751,-7.1817725613057259],[113.17228390386266,-7.1817725184396508],[113.172283818022,-7.1817544397382509],[113.17229286880672,-7.1817543968721056],[113.17229274729212,-7.1817288049941794],[113.17224312000008,-7.1817329709999331],[113.17216614988158,-7.1817533259429203],[113.17216615781551,-7.1817549969819057],[113.1721597156491,-7.1817550274914055],[113.17214807060364,-7.1817581070518521],[113.17214809916209,-7.1817641220605539],[113.17213904837629,-7.1817641649239006],[113.17213903096442,-7.1817604976060858],[113.17212999132509,-7.1817628881601667],[113.17213004050778,-7.1817732471386853],[113.17212098972171,-7.1817732900017299],[113.17212103263891,-7.181782329353398],[113.17211198185258,-7.1817823722163192],[113.17211202476966,-7.1817914115680361],[113.17210297398313,-7.1817914544308339],[113.17210301690008,-7.1818004937826023],[113.17209396611329,-7.1818005366452757],[113.17209400903012,-7.1818095759970948],[113.17210305981709,-7.1818095331343681],[113.17210310273416,-7.1818185724861268],[113.17209405194701,-7.1818186153489121],[113.17209409486395,-7.1818276547007391],[113.1720850440766,-7.1818276975633983],[113.17208500115983,-7.1818186582115153]]],[[[113.17279992731581,-7.1817971928214215],[113.17280897809826,-7.1817971499448445],[113.17280880637507,-7.1817609925547536],[113.17281785715677,-7.181760949678214],[113.17281768543376,-7.1817247922882785],[113.17279958387175,-7.1817248780407414],[113.17279966973243,-7.1817429567359339],[113.17279061895097,-7.1817429996120072],[113.17279066188122,-7.1817520389596359],[113.17278161109957,-7.1817520818355849],[113.17278169695986,-7.1817701605309896],[113.17277264617778,-7.1817702034068693],[113.17277268910783,-7.1817792427546134],[113.17276363832549,-7.1817792856303688],[113.17276372418542,-7.1817973643259521],[113.1727727749681,-7.1817973214500874],[113.1727728608286,-7.1818154001455472],[113.1727909623945,-7.1818153143930639],[113.17279100532518,-7.1818243537406961],[113.17280910689122,-7.1818242679873894],[113.17280906396019,-7.1818152286398664],[113.17280001317738,-7.1818152715165553],[113.17279992731581,-7.1817971928214215]]],[[[113.17281759957258,-7.1817067135932717],[113.17281755664209,-7.1816976742457896],[113.17280850586164,-7.1816977171219456],[113.17280854879196,-7.1817067564694828],[113.17281759957258,-7.1817067135932717]]],[[[113.17277227811624,-7.1816927039290643],[113.17268179665486,-7.181698680643791],[113.17268192371333,-7.1817254354143643],[113.17269097449507,-7.1817253925405398],[113.17269093156696,-7.1817163531922832],[113.17270903312993,-7.1817162674442088],[113.17270907605841,-7.1817253067923561],[113.17272717762152,-7.1817252210434583],[113.17272713469269,-7.1817161816954211],[113.17271808391133,-7.1817162245699038],[113.17271804098273,-7.1817071852217893],[113.17274519332611,-7.1817070565979693],[113.17274515039703,-7.1816980172500502],[113.17275420117785,-7.1816979743751403],[113.1727542441071,-7.1817070137230061],[113.17277234566895,-7.1817069279725452],[113.17277227811624,-7.1816927039290643]]],[[[113.17659129720366,-7.1815893861048981],[113.17659125419934,-7.181580346780108],[113.176582203444,-7.181580389729997],[113.17658224644815,-7.181589429054843],[113.17659129720366,-7.1815893861048981]]],[[[113.17349499084177,-7.181405199034832],[113.17350404161229,-7.181405156146873],[113.17350395572787,-7.1813870774598865],[113.17351300649798,-7.1813870345718573],[113.17351296355568,-7.1813779952284209],[113.17352201432554,-7.1813779523402692],[113.17352192844073,-7.1813598736534949],[113.1735309792102,-7.181359830765274],[113.17353093626771,-7.1813507914219343],[113.17352787452387,-7.1813508059303999],[113.1734858942208,-7.1813955903256881],[113.17348589712935,-7.1813962025790046],[113.17348531772892,-7.1813962053245293],[113.17347680636892,-7.1814052852031915],[113.17348594007123,-7.1814052419226124],[113.17348598301317,-7.1814142812661839],[113.17349503378389,-7.1814142383783492],[113.17349499084177,-7.181405199034832]]],[[[113.1735399440943,-7.1813417091903036],[113.17353992623208,-7.1813379492213265],[113.17353638588185,-7.1813417260513939],[113.1735399440943,-7.1813417091903036]]],[[[113.17426293153355,-7.1811122940751675],[113.17426288857807,-7.1811032547361435],[113.174271939338,-7.1811032118348326],[113.17427189638244,-7.1810941724958601],[113.17428094714209,-7.1810941295944248],[113.17428090418639,-7.1810850902555048],[113.17426280266734,-7.1810851760580849],[113.17426284562269,-7.1810942153971169],[113.17424474410305,-7.1810943011990949],[113.17424483001319,-7.1811123798773631],[113.17426293153355,-7.1811122940751675]]],[[[113.17385543253567,-7.1810690277446945],[113.17383733101212,-7.1810691135303015],[113.17383737395896,-7.181078152871887],[113.17384642472094,-7.1810781099791177],[113.17384646766801,-7.1810871493206774],[113.17385551843013,-7.1810871064276762],[113.17385543253567,-7.1810690277446945]]],[[[113.17423543561516,-7.1810401080645896],[113.17422638485628,-7.1810401509648063],[113.17422642781064,-7.1810491903040754],[113.17420832629234,-7.1810492761040807],[113.1742083692464,-7.1810583154434546],[113.17419931848697,-7.181058358343245],[113.1741993614409,-7.1810673976826696],[113.1742265137195,-7.1810672689825994],[113.17422655667401,-7.1810763083218392],[113.1742356074336,-7.1810762654214058],[113.17423543561516,-7.1810401080645896]]],[[[113.17399994406722,-7.1810050660497105],[113.17399990111761,-7.1809960267090602],[113.17399085035817,-7.1809960696043698],[113.1739908933076,-7.1810051089450742],[113.17399994406722,-7.1810050660497105]]],[[[113.17399985816805,-7.1809869873684047],[113.17399981521855,-7.1809779480277447],[113.17399076445946,-7.1809779909229459],[113.17399080740879,-7.1809870302636583],[113.17399985816805,-7.1809869873684047]]],[[[113.17500419131616,-7.180918949544921],[113.17498608981242,-7.1809190353740577],[113.17498613278103,-7.1809280747087927],[113.17499518353311,-7.1809280317942594],[113.17499522650198,-7.1809370711289358],[113.17498617574971,-7.1809371140435232],[113.17498621871844,-7.1809461533782502],[113.17500432022325,-7.1809460675487875],[113.17500419131616,-7.180918949544921]]],[[[113.17498604684384,-7.1809099960393024],[113.17498600387533,-7.1809009567045754],[113.1749679023721,-7.1809010425327822],[113.17496794534026,-7.1809100818676166],[113.17498604684384,-7.1809099960393024]]],[[[113.1740628269265,-7.1809053330340058],[113.17406278397625,-7.1808962936936949],[113.17405373321917,-7.1808963365896528],[113.17405377616925,-7.1809053759300179],[113.1740628269265,-7.1809053330340058]]],[[[113.1741985023729,-7.1808866108934613],[113.17419854532577,-7.1808956502329577],[113.1742166468381,-7.180895564435164],[113.17421660388489,-7.1808865250957741],[113.1741985023729,-7.1808866108934613]]],[[[113.17410799480973,-7.1808870398711973],[113.1741079518587,-7.180878000531151],[113.17409890110225,-7.1808780434278905],[113.17409894405311,-7.18088708276799],[113.17410799480973,-7.1808870398711973]]],[[[113.17416212754023,-7.1808506251277979],[113.17416208458835,-7.1808415857880634],[113.17415778218992,-7.1808416061800324],[113.17415304173343,-7.1808432913718372],[113.17415307678466,-7.1808506680254416],[113.17416212754023,-7.1808506251277979]]],[[[113.17420733836451,-7.1808413712974399],[113.17419828760937,-7.1808414141959203],[113.17419824465684,-7.1808323748564025],[113.17418355409799,-7.1808324444857776],[113.17418014882212,-7.180833655032508],[113.17418018609898,-7.180841499992348],[113.17417113534368,-7.1808415428902954],[113.17417126420003,-7.1808686609093053],[113.17415316268823,-7.1808687467049896],[113.17415311973642,-7.1808597073652258],[113.17413501822475,-7.1808597931600904],[113.1741350611762,-7.1808688324999626],[113.17412601042008,-7.1808688753971817],[113.17412605337141,-7.1808779147371391],[113.1741532056401,-7.1808777860447837],[113.17415324859203,-7.1808868253845572],[113.1741985023729,-7.1808866108934613],[113.17419845942008,-7.1808775715539612],[113.1741894086642,-7.1808776144524824],[113.17418936571163,-7.180868575112906],[113.174207467223,-7.1808684893157944],[113.17420751017593,-7.1808775286552615],[113.17421656093171,-7.1808774857563833],[113.17421643207251,-7.180850367738187],[113.17420738131729,-7.1808504106369009],[113.17420733836451,-7.1808413712974399]]],[[[113.17421643207251,-7.180850367738187],[113.17423453358285,-7.1808502819402245],[113.17423457653621,-7.1808593212795184],[113.17424362729145,-7.1808592783802139],[113.1742435843379,-7.1808502390409759],[113.17425263509294,-7.1808501961415496],[113.17425267804667,-7.1808592354807335],[113.1742617288018,-7.1808591925810736],[113.17426177175577,-7.1808682319201829],[113.17425272100046,-7.1808682748198969],[113.17425280690816,-7.1808863534982637],[113.17427090841947,-7.1808862676984395],[113.17427095137377,-7.180895307037499],[113.17428000212952,-7.1808952641372654],[113.17427995917504,-7.1808862247982592],[113.17429806068601,-7.1808861389973657],[113.17429801773123,-7.1808770996584643],[113.17430706848646,-7.1808770567578053],[113.17430685371249,-7.1808318600635195],[113.17431590446677,-7.1808318171629528],[113.17431586151197,-7.1808227778241562],[113.17430681075787,-7.1808228207246678],[113.17430676780329,-7.180813781385778],[113.17432486931108,-7.1808136955846873],[113.17432474044664,-7.1807865775683748],[113.1743337911999,-7.1807865346677255],[113.17433375562845,-7.1807790490856958],[113.1742524343843,-7.1808079581214121],[113.17425246327862,-7.1808140387847734],[113.17424341252429,-7.1808140816839821],[113.17424339868963,-7.1808111702357982],[113.17422532729979,-7.1808175944641288],[113.1742253539685,-7.1808232068212448],[113.17421630321383,-7.1808232497199729],[113.17421634616667,-7.1808322890593699],[113.17420729541179,-7.1808323319579763],[113.17420733836451,-7.1808413712974399],[113.17421638911956,-7.1808413283987802],[113.17421643207251,-7.180850367738187]]],[[[113.17434279899807,-7.1807774524282273],[113.17434279132139,-7.1807758369699064],[113.17433818551667,-7.1807774742962556],[113.17434279899807,-7.1807774524282273]]],[[[113.1744331776552,-7.1807499053963024],[113.1744331742828,-7.1807491957438829],[113.17443057991392,-7.1807499177101386],[113.1744331776552,-7.1807499053963024]]]]},"properties":{"FID":0,"Shape_Leng":18102566.929299999,"Shape_Area":236516885.403}}]
}