{
  "type" : "FeatureCollection",
  "features" : [{"type":"Feature","id":0,"geometry":{"type":"MultiPolygon","coordinates":[[[[113.53267803172685,-7.1982516967673478],[113.53267798157397,-7.1982426597739373],[113.53266893281662,-7.1982427098615007],[113.53266898296931,-7.1982517468549743],[113.53267803172685,-7.1982516967673478]]],[[[113.5327051278456,-7.1982425095101821],[113.53270507769226,-7.1982334725169421],[113.53269602893528,-7.1982335226049736],[113.53269607908844,-7.1982425595982793],[113.5327051278456,-7.1982425095101821]]],[[[113.5326778812684,-7.1982245857871039],[113.53267793142115,-7.1982336227805064],[113.53268698017824,-7.1982335726928293],[113.53268693002531,-7.1982245356994898],[113.5326778812684,-7.1982245857871039]]],[[[113.53256924602974,-7.198216149830353],[113.53256019727215,-7.1982161999155796],[113.53256024742252,-7.1982252369098303],[113.53255119866468,-7.1982252869949441],[113.53255124881494,-7.1982343239892357],[113.53256029757296,-7.198234273904057],[113.53256034772346,-7.1982433108983166],[113.53256939648156,-7.1982432608128972],[113.53256924602974,-7.198216149830353]]],[[[113.5326778812684,-7.1982245857871039],[113.53267783111571,-7.1982155487936792],[113.53265973360202,-7.198215648968243],[113.53265978375435,-7.1982246859617938],[113.5326778812684,-7.1982245857871039]]],[[[113.53270477677347,-7.1981792505575282],[113.53270468942667,-7.1981635116314919],[113.53270305348903,-7.198161185554695],[113.53269562771217,-7.1981612266585433],[113.53269572801756,-7.1981793006451777],[113.53270477677347,-7.1981792505575282]]],[[[113.53223063120619,-7.1975311911168198],[113.53223058106722,-7.1975221541199854],[113.53222153232103,-7.197522204193719],[113.5322215824598,-7.1975312411906209],[113.53223063120619,-7.1975311911168198]]],[[[113.53224720096469,-7.1975130248745449],[113.53223453841539,-7.197495020398029],[113.53223043065074,-7.1974950431294538],[113.53223053092833,-7.1975131171231448],[113.53224720096469,-7.1975130248745449]]],[[[113.53222820714117,-7.1974860181595055],[113.53222187586725,-7.1974770159208008],[113.53221223288271,-7.1974770692823995],[113.53221228302098,-7.1974861062793822],[113.53222820714117,-7.1974860181595055]]],[[[113.53210805353029,-7.1954623333408314],[113.53210151789494,-7.1954623694957087],[113.53210153235365,-7.1954649764082586],[113.53210805353029,-7.1954623333408314]]],[[[113.53155650312705,-7.1918233602842765],[113.53154745448896,-7.1918234103052754],[113.53154750457429,-7.1918324473091486],[113.53155655321257,-7.1918323972880875],[113.53155650312705,-7.1918233602842765]]],[[[113.53153830568068,-7.1918053863182116],[113.53152925704281,-7.1918054363387265],[113.53152930712767,-7.191814473342717],[113.53152025848958,-7.1918145233631146],[113.53152030857431,-7.1918235603671992],[113.53152935721259,-7.1918235103467367],[113.53152940729757,-7.191832547350737],[113.53153845593597,-7.1918324973300312],[113.53153830568068,-7.1918053863182116]]],[[[113.53155650312705,-7.1918233602842765],[113.53157460040302,-7.1918232602417467],[113.53157465048889,-7.1918322972454289],[113.53158369912697,-7.1918322472238314],[113.53158349878315,-7.1917960992093359],[113.53156540150836,-7.1917961992518418],[113.53156525125225,-7.1917690882405312],[113.53155620261531,-7.1917691382613249],[113.53155610244524,-7.1917510642536664],[113.53154705380857,-7.1917511142741564],[113.53154680338544,-7.1917059292545806],[113.53153775474961,-7.1917059792745759],[113.53153760449705,-7.1916788682625929],[113.53152855586167,-7.1916789182822187],[113.53152845569397,-7.1916608442740833],[113.53151940705891,-7.1916608942934026],[113.53151925680838,-7.19163378328098],[113.5315102081738,-7.1916338332999326],[113.5315101580906,-7.19162479629572],[113.53151920672499,-7.1916247462768323],[113.53151915664168,-7.1916157092726811],[113.53150105937314,-7.1916158093101501],[113.53150095920742,-7.1915977353015794],[113.53149191057342,-7.19159778531992],[113.53149155999667,-7.1915345262893569],[113.53148251136385,-7.191534576307073],[113.53148236111818,-7.191507465293725],[113.5314733124858,-7.1915075153110743],[113.53147326240422,-7.1914984783065554],[113.53146421377198,-7.1914985283236605],[113.53146416369066,-7.1914894913190741],[113.53147321232269,-7.1914894413020303],[113.53147311215984,-7.1914713672929693],[113.53145501489638,-7.1914714673266236],[113.53145491473451,-7.1914533933172935],[113.53144586610304,-7.1914534433337263],[113.53144576594177,-7.1914353693242532],[113.5314367173106,-7.1914354193403804],[113.53143676739103,-7.1914444563451845],[113.53142771875959,-7.1914445063611971],[113.53142766867934,-7.19143546935633],[113.53141862004804,-7.1914355193721011],[113.53141856996805,-7.1914264823671692],[113.53143666723025,-7.1914263823355755],[113.53143661714996,-7.1914173453307644],[113.53142756851906,-7.1914173953465887],[113.53142746835903,-7.1913993213368128],[113.53139127383626,-7.1913995213978117],[113.53139132391554,-7.1914085584029639],[113.5313732266534,-7.1914086584325219],[113.53137327673237,-7.191417695437778],[113.5313370822066,-7.1914178954950065],[113.53133713228493,-7.191426932500514],[113.53136427817988,-7.1914267824576701],[113.5313643783378,-7.1914448564682951],[113.53135532970586,-7.1914449064828814],[113.53135537978474,-7.1914539434882512],[113.53134633115256,-7.1914539935027211],[113.53134628107387,-7.1914449564972882],[113.53132818380965,-7.1914450565255708],[113.53132823388799,-7.1914540935311306],[113.53126489345998,-7.1914544436249423],[113.53126494353714,-7.1914634806309428],[113.5312739921701,-7.1914634306180121],[113.53127404224749,-7.1914724676239459],[113.53126499361434,-7.1914725176369387],[113.53126509376898,-7.19149059164892],[113.53127414240248,-7.1914905416357993],[113.53127419248007,-7.1914995786417206],[113.53125609521268,-7.1914996786679106],[113.53125614528997,-7.1915087156739546],[113.531247096656,-7.1915087656868453],[113.53124734704258,-7.1915539507173252],[113.53123829840766,-7.1915540007303562],[113.53123834848499,-7.1915630377364872],[113.53124739712008,-7.191562987723394],[113.53124774766445,-7.1916262467658933],[113.53125679630075,-7.1916261967521766],[113.53125684637897,-7.1916352337581664],[113.53124779774248,-7.1916352837719462],[113.53124784782057,-7.1916443207779945],[113.53123879918385,-7.1916443707916606],[113.53123889933988,-7.1916624448038737],[113.53124794797694,-7.1916623947900824],[113.53124799805522,-7.191671431796121],[113.53123894941798,-7.1916714818099763],[113.53123909965269,-7.1916985928282555],[113.53124814829046,-7.1916985428142093],[113.531248198369,-7.191707579820231],[113.53125724700691,-7.1917075298059432],[113.5312572970857,-7.1917165668118983],[113.53126634572369,-7.1917165167973689],[113.53126654604019,-7.1917526648208954],[113.53127559467887,-7.1917526148059334],[113.53127569483786,-7.1917706888175275],[113.53129379211568,-7.1917705887868166],[113.53129394235573,-7.1917976998038409],[113.53131203963437,-7.1917975997720349],[113.53131229003753,-7.1918427847996691],[113.53134848459764,-7.1918425847326466],[113.53134858476079,-7.1918606587431642],[113.53139382796124,-7.1918604086547377],[113.53139377787873,-7.1918513716497987],[113.53140282651844,-7.191851321631642],[113.53140272635329,-7.1918332476218767],[113.53141177499258,-7.1918331976036711],[113.53141172490993,-7.1918241605988449],[113.53142077354899,-7.1918241105805212],[113.53142072346623,-7.1918150735757402],[113.53146596665962,-7.1918148234817663],[113.53146576632561,-7.1917786754639543],[113.53147481496337,-7.1917786254448801],[113.53147486504696,-7.1917876624492791],[113.53148391368487,-7.1917876124299616],[113.53148396376868,-7.1917966494342949],[113.53150206104461,-7.191796549394998],[113.53150211112886,-7.1918055863991999],[113.53152020840491,-7.1918054863590619],[113.53152010823575,-7.1917874123509087],[113.53155630278563,-7.191787212269003],[113.53155650312705,-7.1918233602842765]],[[113.53131943564738,-7.1914993285731246],[113.53129228974717,-7.1914994786148174],[113.53129223966923,-7.1914904416090231],[113.53131938556889,-7.1914902915675212],[113.53131943564738,-7.1914993285731246]],[[113.53140057286492,-7.1914446564081658],[113.53139152423324,-7.1914447064234652],[113.53139147415372,-7.191435669418345],[113.53140052278523,-7.1914356194031095],[113.53140057286492,-7.1914446564081658]],[[113.5313575332375,-7.1918425347154438],[113.53136658187729,-7.1918424846980651],[113.53136663195919,-7.1918515217031986],[113.53135758331922,-7.1918515717206413],[113.5313575332375,-7.1918425347154438]]],[[[113.53181563229705,-7.1910627962991818],[113.53182530768187,-7.1910446682551763],[113.5318146060453,-7.1910447274139733],[113.53181470621564,-7.1910628014185756],[113.53181563229705,-7.1910627962991818]]],[[[113.53187624059042,-7.1908365292817615],[113.5318586971877,-7.1908366262610146],[113.53185884744154,-7.1908637372672288],[113.53184979882458,-7.190863787287558],[113.53184984890915,-7.190872824289686],[113.53180460582247,-7.1908730743889793],[113.5318046559062,-7.1908821113914199],[113.53177751005286,-7.1908822614490466],[113.53177745996967,-7.1908732244464151],[113.53175936273418,-7.1908733244838148],[113.53175941281701,-7.1908823614865716],[113.53175036419897,-7.1908824115050685],[113.53175046436449,-7.1909004855106993],[113.53174141574604,-7.1909005355291438],[113.53174146582872,-7.1909095725320187],[113.53177766030285,-7.1909093724569173],[113.53177771038631,-7.190918409459532],[113.53185009933291,-7.1909180093002618],[113.53185014941788,-7.1909270463023649],[113.53185919803607,-7.1909269962815907],[113.53185914795095,-7.1909179592795507],[113.53186819656891,-7.190917909258661],[113.53186824665423,-7.190926946260638],[113.53187340219449,-7.1909269177606214],[113.53187624059042,-7.1908365292817615]]],[[[113.53189270300004,-7.190559427999978],[113.53186597240651,-7.1905165869925041],[113.53186599287936,-7.1905202811678439],[113.53185694426925,-7.1905203311859403],[113.53185699435154,-7.1905293681881357],[113.53184794574119,-7.1905294182061157],[113.53184804590559,-7.1905474922106549],[113.5318389972948,-7.1905475422285852],[113.53183914754136,-7.1905746532355526],[113.53184819615269,-7.190574603217434],[113.53184854673152,-7.1906378622331149],[113.53183949811894,-7.1906379122516801],[113.5318395482017,-7.190646949253968],[113.53183049958892,-7.1906469992724169],[113.53183069991992,-7.1906831472818009],[113.53183974853343,-7.1906830972630971],[113.53184014919998,-7.190755393281119],[113.53184919781486,-7.1907553432617295],[113.53184934806643,-7.1907824542682395],[113.53185839668177,-7.1907824042484814],[113.53185844676592,-7.1907914412505791],[113.53186749538139,-7.1907913912305794],[113.5318675454658,-7.1908004282326106],[113.5318765940814,-7.1908003782123693],[113.53187671135233,-7.190821537924414],[113.53188214900003,-7.1906483769998895],[113.53189270300004,-7.190559427999978]]],[[[113.53103926486678,-7.1899283895526303],[113.53101211905397,-7.1899285395451358],[113.53101216911539,-7.1899375765535103],[113.53099407190615,-7.1899376765477498],[113.53099402184509,-7.1899286395392492],[113.53098497324054,-7.1899286895360373],[113.53098512342339,-7.1899558005617195],[113.53099417202847,-7.1899557505647405],[113.53099412196728,-7.1899467135562301],[113.53100317057209,-7.1899466635591347],[113.53100322063347,-7.189955700567582],[113.53101226923842,-7.1899556505702469],[113.53101231930003,-7.189964687578609],[113.53100327069491,-7.1899647375760081],[113.53100332075641,-7.1899737745844305],[113.53102141796694,-7.1899736745893259],[113.53102131784328,-7.1899556005727314],[113.53103941505285,-7.1899555005771694],[113.53103936499076,-7.1899464635689769],[113.53104841359526,-7.1899464135709898],[113.53104836353306,-7.1899373765628916],[113.53103931492873,-7.1899374265608129],[113.53103926486678,-7.1899283895526303]]],[[[113.53031187314903,-7.1892997978657016],[113.53031182310595,-7.1892907608521623],[113.53030277450924,-7.1892908108310749],[113.53030282455215,-7.1892998478446755],[113.53031187314903,-7.1892997978657016]]],[[[113.53031152284873,-7.1892365387708512],[113.53029342565742,-7.1892366387277349],[113.53029347569978,-7.1892456757414225],[113.53028442710382,-7.1892457257196618],[113.53028452718836,-7.1892637997471533],[113.53029357578467,-7.1892637497687879],[113.53029362582721,-7.1892727867824648],[113.53031172301993,-7.189272686825074],[113.53031167297705,-7.1892636498115241],[113.53032072157316,-7.1892635998326249],[113.53032077161623,-7.1892726368461117],[113.53032982021244,-7.1892725868669709],[113.53032967008288,-7.1892454758266897],[113.53031157289143,-7.1892455757844136],[113.53031152284873,-7.1892365387708512]]],[[[113.53034701662951,-7.189109820668226],[113.5303289194437,-7.1891099206247606],[113.53032916965513,-7.1891551056921665],[113.53032012106125,-7.1891551556704831],[113.53032022114593,-7.1891732296975466],[113.53032926974016,-7.1891731797191021],[113.53032951995387,-7.189218364786373],[113.53032047135873,-7.1892184147651337],[113.53032057144431,-7.1892364887921429],[113.53034771723063,-7.1892363388549443],[113.53034781731752,-7.1892544128815556],[113.53035686591318,-7.189254362902008],[113.5303569660007,-7.1892724369284764],[113.53037230900708,-7.1892723521813862],[113.53034960175934,-7.1891188436794353],[113.53034706667204,-7.1891188576816063],[113.53034701662951,-7.189109820668226]]],[[[113.53028317606892,-7.189019800374691],[113.53028312602837,-7.1890107633608427],[113.53027407743701,-7.1890108133372514],[113.5302741274774,-7.1890198503511638],[113.53028317606892,-7.189019800374691]]],[[[113.53031932039318,-7.1890105634534214],[113.53031027180207,-7.1890106134305443],[113.53031037188431,-7.1890286874578591],[113.53031942047578,-7.1890286374806083],[113.53031947051718,-7.1890376744941964],[113.53032851910875,-7.1890376245167049],[113.53032841902566,-7.189019550489653],[113.53031937043444,-7.1890196004670175],[113.53031932039318,-7.1890105634534214]]],[[[113.53031927035197,-7.1890015264398048],[113.53031902014691,-7.1889563413717488],[113.53030997155686,-7.1889563913484897],[113.53031012167916,-7.1889835023895419],[113.53030107308855,-7.188983552366297],[113.53030117317005,-7.1890016263937451],[113.53031927035197,-7.1890015264398048]]]]},"properties":{"FID":0,"Shape_Leng":18102566.929299999,"Shape_Area":236516885.403}}]
}