{
  "type" : "FeatureCollection",
  "features" : [{"type":"Feature","id":0,"geometry":{"type":"MultiPolygon","coordinates":[[[[113.87245412858178,-7.1337871814164089],[113.87244508364466,-7.1337872377125562],[113.87244510924474,-7.1337913412945584],[113.87245415461707,-7.1337913547491931],[113.87245412858178,-7.1337871814164089]]],[[[113.83778782621536,-7.1330981365977593],[113.83776973581863,-7.1330982478214642],[113.83776973813136,-7.1330986231174798],[113.83778784403917,-7.1331010289135728],[113.83778782621536,-7.1330981365977593]]],[[[113.83721731060207,-7.13299322278211],[113.83718112979859,-7.1329934451808752],[113.83718113197446,-7.1329937983440397],[113.83719823500009,-7.1329969589999136],[113.83721733772278,-7.1329976246803852],[113.83721731060207,-7.13299322278211]]]]},"properties":{"FID":0,"Shape_Leng":18102566.929299999,"Shape_Area":236516885.403}}]
}