{
  "type" : "FeatureCollection",
  "features" : [{"type":"Feature","id":0,"geometry":{"type":"MultiPolygon","coordinates":[[[[113.75105473312438,-7.1177203407089404],[113.75105424492553,-7.1177203436124765],[113.75105473485354,-7.1177206307973373],[113.75105473312438,-7.1177203407089404]]],[[[113.75079154993463,-7.1175773339396198],[113.75079149608248,-7.11756829851221],[113.75078245051388,-7.1175683523038655],[113.75078248540751,-7.1175742068486105],[113.75078601649672,-7.1175773668456062],[113.75079154993463,-7.1175773339396198]]],[[[113.75064606694167,-7.1174516985865006],[113.75064601309332,-7.1174426631579157],[113.75063696752606,-7.1174427169457841],[113.75063697510447,-7.1174439885617655],[113.750645593686,-7.1174517014006407],[113.75064606694167,-7.1174516985865006]]],[[[113.75041890471236,-7.1172813700558049],[113.75041358465265,-7.1172814016873032],[113.75041469500013,-7.1172834499998885],[113.750418935181,-7.11728648305367],[113.75041890471236,-7.1172813700558049]]],[[[113.75049832261323,-7.1169465751046515],[113.75049826877164,-7.1169375396747769],[113.75048922321314,-7.1169375934559618],[113.75048927705456,-7.1169466288859065],[113.75049832261323,-7.1169465751046515]]],[[[113.75015421449223,-7.1168853706406932],[113.75015034657572,-7.116885393634715],[113.75015422387447,-7.1168869453319621],[113.75015421449223,-7.1168853706406932]]],[[[113.75018135117206,-7.1168852093174211],[113.75017230561217,-7.116885263092021],[113.75017235887768,-7.1168942029703111],[113.75019049388122,-7.1169014606077265],[113.75019045056703,-7.1168941909749055],[113.75018140500705,-7.1168942447497505],[113.75018135117206,-7.1168852093174211]]],[[[113.7500181542628,-7.1168229291981282],[113.74999461352327,-7.1168230691346785],[113.75001821136129,-7.1168325130146153],[113.7500181542628,-7.1168229291981282]]],[[[113.75004529094208,-7.1168227678842397],[113.75003624538242,-7.1168228216557132],[113.75003634636195,-7.1168397706599587],[113.75003910867852,-7.1168408761417199],[113.75005444416584,-7.1168407849792477],[113.75005439033374,-7.1168317495459297],[113.75004534477395,-7.1168318033176474],[113.75004529094208,-7.1168227678842397]]],[[[113.75000894720986,-7.1167958766680659],[113.75000889337899,-7.1167868412343838],[113.74999984781972,-7.1167868950048758],[113.74999990165043,-7.1167959304386263],[113.75000894720986,-7.1167958766680659]]],[[[113.75002709215983,-7.1168048045599575],[113.75002698449731,-7.116786733692873],[113.7500179389382,-7.1167867874637158],[113.75001804660036,-7.1168048583309389],[113.75002709215983,-7.1168048045599575]]],[[[113.74902965873193,-7.1164041234564577],[113.74902892547033,-7.1164041278134853],[113.74902966107243,-7.1164045164652743],[113.74902965873193,-7.1164041234564577]]],[[[113.74917428004727,-7.1163851925763328],[113.74917433385875,-7.1163942280165324],[113.74918337941664,-7.1163941742651211],[113.74918332560499,-7.116385138824989],[113.74917428004727,-7.1163851925763328]]],[[[113.74917428004727,-7.1163851925763328],[113.74917422623587,-7.116376157136127],[113.74916518067828,-7.1163762108872266],[113.74916523448951,-7.1163852463274999],[113.74917428004727,-7.1163851925763328]]],[[[113.74918332560499,-7.116385138824989],[113.74920141672018,-7.116385031321772],[113.74920136290824,-7.1163759958817749],[113.7491832717934,-7.1163761033848525],[113.74918332560499,-7.116385138824989]]],[[[113.74901135238029,-7.1163680891874579],[113.74896612458622,-7.1163683579249755],[113.74896616807689,-7.116375660979787],[113.74897976100011,-7.1163781519999736],[113.74901151220952,-7.1163949276012204],[113.74901145999669,-7.1163861600703706],[113.74902050555566,-7.1163861063222003],[113.74902045174726,-7.1163770708808247],[113.74901140618846,-7.1163771246289258],[113.74901135238029,-7.1163680891874579]]],[[[113.74914698194132,-7.1163582475080602],[113.74914692813066,-7.1163492120676368],[113.74913788257339,-7.1163492658179992],[113.74913793638389,-7.1163583012584919],[113.74914698194132,-7.1163582475080602]]],[[[113.74898405428158,-7.1163411441055233],[113.74899309983988,-7.1163410903582269],[113.74899304603235,-7.1163320549166231],[113.74894781824109,-7.1163323236509992],[113.74894797966124,-7.1163594299768302],[113.74900225301371,-7.1163591074938095],[113.74900219920588,-7.1163500720522839],[113.74898410808902,-7.1163501795471911],[113.74898405428158,-7.1163411441055233]]],[[[113.74873040200566,-7.1162794008529469],[113.74872135644658,-7.1162794545946486],[113.74872141024839,-7.1162884900383423],[113.74871236468907,-7.1162885437799348],[113.74871231088743,-7.1162795083361736],[113.74869421976891,-7.1162796158186916],[113.74869427357019,-7.116288651262594],[113.74870331912966,-7.1162885975213532],[113.74870337293119,-7.116297632965181],[113.74871241849077,-7.1162975792236933],[113.74871247229255,-7.1163066146674501],[113.74873960897141,-7.1163064534417275],[113.74873966277376,-7.116315488885272],[113.74874870833341,-7.1163154351429423],[113.74874865453086,-7.1163063996994671],[113.74875770009025,-7.1163063459570299],[113.74875759248501,-7.1162882750702057],[113.74873045580765,-7.1162884362965713],[113.74873040200566,-7.1162794008529469]]],[[[113.74891152839514,-7.1163144677508665],[113.74891142078376,-7.1162963968663933],[113.74892046634173,-7.1162963431208519],[113.74892041253597,-7.1162873076786779],[113.74891136697816,-7.1162873614241491],[113.74891131317264,-7.1162783259819031],[113.7488841764994,-7.1162784872170555],[113.74888439171977,-7.1163146289868466],[113.7488663006025,-7.1163147364766184],[113.74886640821241,-7.1163328073617658],[113.74887545377145,-7.1163327536168284],[113.74887550757667,-7.1163417890593283],[113.74889359869485,-7.1163416815687892],[113.74889365250051,-7.1163507170111471],[113.7489207891778,-7.1163505557738116],[113.74892084298406,-7.1163595912159581],[113.74892988854319,-7.1163595374697586],[113.74892967331787,-7.1163233957014418],[113.74894776443452,-7.1163232882090641],[113.74894771062802,-7.1163142527670926],[113.7489386650699,-7.1163143065132992],[113.74893861126364,-7.1163052710712726],[113.74892956570564,-7.116305324817235],[113.74892961951173,-7.1163143602593326],[113.74891152839514,-7.1163144677508665],[113.74891158220095,-7.1163235031931142],[113.74889349108375,-7.1163236106840815],[113.74889343727828,-7.1163145752416952],[113.74891152839514,-7.1163144677508665]]],[[[113.74869416596771,-7.1162705803747892],[113.74869411216656,-7.1162615449308797],[113.74868506660754,-7.1162615986717377],[113.7486851204085,-7.1162706341157156],[113.74869416596771,-7.1162705803747892]]],[[[113.7485763584978,-7.1162351372138417],[113.74856731293841,-7.1162351909522013],[113.74856742053539,-7.1162532618419672],[113.74858551165482,-7.1162531543647969],[113.74858545785594,-7.1162441189200534],[113.74857641229644,-7.1162441726586572],[113.7485763584978,-7.1162351372138417]]],[[[113.74848590290073,-7.1162356745894968],[113.74848584910391,-7.1162266391439877],[113.748467757984,-7.1162267466168654],[113.74846779798892,-7.1162334656909323],[113.74847355993461,-7.1162357479148159],[113.74848590290073,-7.1162356745894968]]],[[[113.7483137144873,-7.1161824828736968],[113.74830597829208,-7.1161825288285918],[113.74831372847119,-7.1161848317047394],[113.7483137144873,-7.1161824828736968]]],[[[113.74784302255331,-7.1161310640445761],[113.74783397699038,-7.1161311177678268],[113.74783397998551,-7.1161316209437508],[113.74784303627241,-7.1161333688085842],[113.74784302255331,-7.1161310640445761]]],[[[113.74833148284857,-7.1161281627272217],[113.74831339173016,-7.1161282701925872],[113.74831349931559,-7.1161463410863055],[113.74830445375594,-7.1161463948188626],[113.74830434617087,-7.1161283239250057],[113.7482953006115,-7.1161283776572484],[113.74829540819621,-7.1161464485512438],[113.74828636263641,-7.1161465022834474],[113.74828641642868,-7.1161555377305081],[113.74829546198868,-7.1161554839982344],[113.74829551578122,-7.1161645194452383],[113.74831360690131,-7.1161644119800256],[113.74831355310842,-7.1161553765331602],[113.74833164422787,-7.1161552690673799],[113.74833148284857,-7.1161281627272217]]],[[[113.74779774095532,-7.1161222972082907],[113.74778603087972,-7.1161223667553015],[113.74779775483792,-7.1161246294824574],[113.74779774095532,-7.1161222972082907]]],[[[113.74800573510129,-7.116112026097495],[113.74801478066254,-7.1161119723710344],[113.74801472687589,-7.1161029369218873],[113.74796949906974,-7.1161032055520934],[113.74796960664135,-7.1161212764510875],[113.74799674332631,-7.1161211152730797],[113.74799679711275,-7.1161301507223405],[113.74798775155098,-7.1161302044485888],[113.7479878053373,-7.1161392398979313],[113.74797875977531,-7.1161392936240704],[113.74797870598915,-7.1161302581746586],[113.74795156930325,-7.1161304193518173],[113.74795162308887,-7.1161394548014343],[113.74792448640179,-7.1161396159772101],[113.7479244326167,-7.1161305805273871],[113.74788825036701,-7.1161307954256783],[113.7478883041514,-7.1161398308757793],[113.74787687032615,-7.1161398987845272],[113.74792171600018,-7.1161485539999569],[113.7481236296382,-7.116162098761162],[113.74812359633714,-7.1161565048812703],[113.74810550521444,-7.1161566123389406],[113.74810545142569,-7.1161475768905023],[113.74802404137174,-7.1161480604406675],[113.74802398758463,-7.1161390249916066],[113.74800589646111,-7.1161391324451211],[113.74800573510129,-7.116112026097495]]],[[[113.7476618423822,-7.1160869612169178],[113.74765279681876,-7.1160870149362969],[113.74765285059819,-7.116096050388208],[113.74764977171047,-7.1160960686729489],[113.74776152969038,-7.1161176380179016],[113.74776150492062,-7.116113476645344],[113.74774341379411,-7.1161135840882199],[113.74774336001276,-7.1161045486370051],[113.74770717775958,-7.1161047635203651],[113.747707123979,-7.1160957280688724],[113.74766189616183,-7.1160959966687596],[113.7476618423822,-7.1160869612169178]]],[[[113.74778810379074,-7.116022960970839],[113.74776096710676,-7.1160231221344068],[113.74776102088782,-7.1160321575855177],[113.7477519753262,-7.1160322113064254],[113.74775202910716,-7.1160412467576011],[113.74776107466896,-7.116041193036625],[113.74776112845018,-7.1160502284877305],[113.74777017401212,-7.1160501747665093],[113.74777022779357,-7.1160592102175411],[113.74775213666931,-7.1160593176599427],[113.74775219045047,-7.116068353111106],[113.74777932713729,-7.1160681919470337],[113.74777921957396,-7.116050121045113],[113.74778826513575,-7.1160500673235401],[113.74778810379074,-7.116022960970839]]],[[[113.74710037209611,-7.1159818660114063],[113.74708204955233,-7.1159819748004676],[113.74710039512121,-7.1159857352829636],[113.74710037209611,-7.1159818660114063]]],[[[113.74715459171995,-7.1159725083062222],[113.74714554615487,-7.1159725620148331],[113.74714559992351,-7.1159815974706531],[113.74711846322728,-7.1159817585956331],[113.74711850898699,-7.1159894482700352],[113.74745962400016,-7.1160593699999595],[113.74764379796123,-7.116094915735526],[113.7476437512552,-7.116087068655502],[113.7476347056916,-7.1160871223745295],[113.74763465191258,-7.116078086922478],[113.7476165607855,-7.1160781943598641],[113.7476165070069,-7.1160691589076697],[113.74760746144345,-7.116069212626031],[113.74760751522187,-7.1160782480782947],[113.74759846965813,-7.1160783017965477],[113.74759841587989,-7.1160692663442138],[113.74758032475263,-7.1160693737800553],[113.74758027097481,-7.116060338327582],[113.74756217984759,-7.116060445762578],[113.74756212607021,-7.1160514103099617],[113.74752594381565,-7.1160516251775636],[113.74752599759233,-7.1160606606304535],[113.74750790646428,-7.1160607680633348],[113.74750785268795,-7.1160517326103063],[113.74747167043172,-7.116051947473677],[113.74747161665617,-7.1160429120203688],[113.74746257109211,-7.1160429657357014],[113.7474626248675,-7.1160520011890789],[113.74744453373881,-7.1160521086193533],[113.74744447996379,-7.1160430731658391],[113.74741734327078,-7.1160432343097222],[113.74741728949635,-7.1160341988559956],[113.74739919836767,-7.1160343062842317],[113.74739914459366,-7.1160252708303657],[113.74739009902939,-7.1160253245441503],[113.74739015280322,-7.1160343599980855],[113.74738110723872,-7.1160344137117635],[113.74738099969147,-7.1160163428037491],[113.74736290856295,-7.1160164502302994],[113.74736285478978,-7.1160074147761332],[113.74735380922559,-7.1160074684890757],[113.74735386299858,-7.1160165039433094],[113.74734481743413,-7.1160165576561436],[113.74734476366132,-7.1160075222018389],[113.74733571809701,-7.1160075759144279],[113.74733566432444,-7.115998540460085],[113.74732661876021,-7.1159985941724289],[113.7473265649879,-7.1159895587179944],[113.74727229160213,-7.1159898809879421],[113.74727234537339,-7.1159989164427886],[113.74726329980868,-7.1159989701538979],[113.74726319226657,-7.1159808992440627],[113.74724510113765,-7.1159810066654785],[113.74724515490831,-7.1159900421205347],[113.74723610934358,-7.1159900958310462],[113.74723616311412,-7.115999131286169],[113.74720902641894,-7.115999292416852],[113.74720897264891,-7.1159902569615241],[113.7471818359536,-7.1159904180904148],[113.74718178218417,-7.1159813826348746],[113.74715464548878,-7.1159815437619711],[113.74715459171995,-7.1159725083062222]]],[[[113.74730842008769,-7.1159806306874405],[113.74730836631586,-7.1159715952328622],[113.74729027518798,-7.1159717026559033],[113.74729032895947,-7.1159807381106184],[113.74730842008769,-7.1159806306874405]]],[[[113.74689189395978,-7.1159108175800174],[113.7468647572619,-7.1159109786885351],[113.74686486478736,-7.1159290496044934],[113.7468558192209,-7.1159291033071188],[113.74685583560449,-7.1159318567686523],[113.74696232700012,-7.1159574339999505],[113.74706416738974,-7.115978309306338],[113.74706413606584,-7.1159730453843988],[113.74705509050007,-7.1159730990912458],[113.74705503673324,-7.1159640636347516],[113.74704599116757,-7.1159641173413544],[113.747045937401,-7.1159550818847528],[113.74702784626976,-7.1159551892972912],[113.74702779250362,-7.1159461538405653],[113.74701874693807,-7.1159462075465019],[113.74701863940633,-7.1159281366328999],[113.74700959384107,-7.1159281903385221],[113.7470095400755,-7.1159191548816638],[113.74700049451035,-7.1159192085870391],[113.74700054827575,-7.1159282440439675],[113.74699150271034,-7.1159282977492371],[113.74699155647565,-7.1159373332062472],[113.74698251091,-7.1159373869114084],[113.74698245714487,-7.1159283514543308],[113.74695532044804,-7.1159285125685505],[113.74695526668351,-7.1159194771112775],[113.746891947723,-7.1159198530378074],[113.74689189395978,-7.1159108175800174]]],[[[113.74681952943071,-7.1159112471992074],[113.7468194219073,-7.115893176282543],[113.7468103763412,-7.1158932299840121],[113.74681048386425,-7.1159113009008124],[113.74681952943071,-7.1159112471992074]]],[[[113.74652964122282,-7.1158406818787538],[113.7465115500882,-7.1158407892694022],[113.74651159999367,-7.1158491776423762],[113.74655094241325,-7.1158586269910122],[113.74656593100393,-7.115858538015905],[113.74656587724755,-7.1158495025556068],[113.74652969497842,-7.1158497173392954],[113.74652964122282,-7.1158406818787538]]],[[[113.74661099756808,-7.1158311631521602],[113.74659290643507,-7.1158312705458462],[113.74659296019182,-7.1158403060059277],[113.74660200575853,-7.1158402523091047],[113.74660205951554,-7.1158492877690991],[113.74661110508238,-7.1158492340720292],[113.74661099756808,-7.1158311631521602]]],[[[113.74666548599855,-7.1158669828049792],[113.74666537848185,-7.1158489118859194],[113.74665633291546,-7.1158489655840444],[113.74665627915739,-7.1158399301244639],[113.74664723359108,-7.1158399838223465],[113.74664717983325,-7.1158309483626772],[113.74662004313447,-7.115831109455053],[113.74662009689176,-7.1158401449149311],[113.74662914245827,-7.1158400912175788],[113.74662919621582,-7.1158491266773636],[113.74663824178243,-7.1158490729797679],[113.74663829554022,-7.1158581084395136],[113.74665638667359,-7.1158580010436534],[113.74665644043179,-7.1158670365032419],[113.74666548599855,-7.1158669828049792]]],[[[113.74666548599855,-7.1158669828049792],[113.746665539757,-7.115876018264494],[113.74667458532387,-7.1158759645659861],[113.74667465896339,-7.1158883414769356],[113.74679242377914,-7.1159166264261264],[113.74679233896994,-7.1159023728449569],[113.74680138453634,-7.1159023191437729],[113.74680133077503,-7.1158932836853017],[113.74679228520881,-7.1158933373864164],[113.74679223144774,-7.1158843019278741],[113.74675604918279,-7.1158845167302953],[113.7467559954225,-7.1158754812714724],[113.74674694985627,-7.1158755349715674],[113.74674684233626,-7.1158574640537706],[113.74672875120427,-7.1158575714531578],[113.74672869744474,-7.1158485359941004],[113.74669251518064,-7.1158487507904837],[113.74669240766316,-7.1158306798718547],[113.74667431653143,-7.1158307872687114],[113.74667453156525,-7.115866929106538],[113.74666548599855,-7.1158669828049792]]],[[[113.74646621474191,-7.1158229868208407],[113.74646616098775,-7.1158139513597858],[113.7464571154205,-7.1158140050537586],[113.74645716917448,-7.1158230405148828],[113.74646621474191,-7.1158229868208407]]],[[[113.7464028420156,-7.1158143272138865],[113.74640278826276,-7.1158052917523298],[113.74639374269519,-7.1158053454449997],[113.74639379644786,-7.1158143809066239],[113.7464028420156,-7.1158143272138865]]],[[[113.74633036996902,-7.1157966858266652],[113.74630323326498,-7.1157968468997046],[113.7463032468758,-7.1157991348656235],[113.74633042336882,-7.1158056621906409],[113.74633036996902,-7.1157966858266652]]],[[[113.74514437915003,-7.1156320439193443],[113.74514091800734,-7.1156320644540925],[113.7451443818364,-7.1156324956957873],[113.74514437915003,-7.1156320439193443]]],[[[113.74525292602959,-7.1156313999041645],[113.74521674373754,-7.115631614578712],[113.74521681592455,-7.1156437542358439],[113.74527114355541,-7.1156525454341137],[113.74527112463406,-7.1156493635062601],[113.74526207906094,-7.1156494171756508],[113.74526202533166,-7.1156403817053802],[113.74525297975862,-7.1156404353745248],[113.74525292602959,-7.1156313999041645]]],[[[113.74512623427599,-7.1156231157814096],[113.74511718870225,-7.1156231694477725],[113.74511722405299,-7.11562911459042],[113.7451262766475,-7.1156302416257535],[113.74512623427599,-7.1156231157814096]]],[[[113.74514437915003,-7.1156320439193443],[113.74517151587088,-7.1156318829179304],[113.74517154289859,-7.1156364282317801],[113.74519831058352,-7.1156407597336289],[113.74520775189249,-7.1156407037176139],[113.74520769816434,-7.115631668246909],[113.74519865259109,-7.1156317219149265],[113.74519859886318,-7.1156226864441487],[113.7451443254232,-7.1156230084481518],[113.74514437915003,-7.1156320439193443]]],[[[113.74507174593161,-7.1155872958899415],[113.74508079150499,-7.115587242224735],[113.74508073777972,-7.1155782067530424],[113.74508978335282,-7.1155781530877276],[113.74508972962745,-7.1155691176160998],[113.74506259290844,-7.1155692786113089],[113.74506264663329,-7.1155783140831428],[113.74505360105996,-7.1155783677479292],[113.7450537085095,-7.115596438691723],[113.74502657178803,-7.1155965996854356],[113.74502662551237,-7.1156056351575172],[113.74500853436405,-7.1156057424859149],[113.74500859291734,-7.1156155901515064],[113.74509911886393,-7.1156268605192192],[113.74509909755461,-7.1156232767799725],[113.7450900519807,-7.115623330445807],[113.74508999825498,-7.1156142949741987],[113.74508095268116,-7.1156143486397898],[113.74508084523031,-7.1155962776964241],[113.74507179965676,-7.1155963313617008],[113.74507174593161,-7.1155872958899415]]],[[[113.74474556805997,-7.1154988729774225],[113.74473652248579,-7.1154989266354178],[113.74473657620372,-7.1155079621097626],[113.74472753062928,-7.1155080157676505],[113.74472747691152,-7.11549898029324],[113.74470034018836,-7.1154991412656399],[113.74470039390557,-7.1155081767402582],[113.74469134833087,-7.1155082303974417],[113.74469140204799,-7.1155172658721408],[113.74468235647302,-7.1155173195292161],[113.74468241019002,-7.1155263550039489],[113.74466431903956,-7.1155264623177095],[113.74466448018993,-7.1155535687423415],[113.74467352576572,-7.1155535150853453],[113.74467357948282,-7.1155625505601616],[113.74466453390686,-7.1155626042172289],[113.74466455044971,-7.1155653868117898],[113.74475859000029,-7.1155844649999329],[113.7447822780409,-7.1155874141472113],[113.7447821801084,-7.115570942135558],[113.74475504338226,-7.1155711031127842],[113.74475472107072,-7.1155168902676733],[113.74476376664509,-7.1155168366091885],[113.74476371292657,-7.1155078011350383],[113.74474562177807,-7.115507908451697],[113.74474556805997,-7.1154988729774225]]],[[[113.7442388546738,-7.1154747711192901],[113.7442284249626,-7.1154748329762718],[113.74423886873727,-7.1154771370681047],[113.7442388546738,-7.1154747711192901]]],[[[113.74426599140607,-7.1154746101744806],[113.74424790025131,-7.115474717471197],[113.74424792651199,-7.1154791353821949],[113.74426604206141,-7.1154831320097855],[113.74426599140607,-7.1154746101744806]]],[[[113.74451016825515,-7.1154641261237286],[113.74450112267986,-7.1154641797768647],[113.7445013375325,-7.1155003216814325],[113.74449229195642,-7.1155003753346691],[113.74449223824332,-7.1154913398584636],[113.74448319266737,-7.115491393511455],[113.7444833538063,-7.1155184999402818],[113.74447430822973,-7.1155185535933017],[113.74447435726069,-7.1155268014737754],[113.74461020953824,-7.1155543624387452],[113.74461015301785,-7.1155448552053437],[113.74460110744172,-7.1155449088610396],[113.74460105372619,-7.1155358733856797],[113.74458296257409,-7.1155359806964045],[113.74458290885896,-7.1155269452209042],[113.74457386328299,-7.1155269988759322],[113.74457391699795,-7.1155360343515026],[113.74455582584544,-7.1155361416611678],[113.74455577213084,-7.1155271061854606],[113.74454672655466,-7.115527159839961],[113.74454667284031,-7.1155181243641978],[113.74452858168809,-7.1155182316725316],[113.74452847426028,-7.1155001607206678],[113.74453751983607,-7.1155001070667261],[113.74453746612211,-7.1154910715908661],[113.74452842054649,-7.1154911252447377],[113.74452831311912,-7.1154730542928668],[113.74451926754377,-7.1154731079464257],[113.74451937497079,-7.1154911788984334],[113.74451032939506,-7.1154912325519533],[113.74451016825515,-7.1154641261237286]],[[113.74451038310849,-7.115500268028021],[113.74451942868441,-7.1155002143744328],[113.7445194823981,-7.1155092498504269],[113.744510436822,-7.1155093035040844],[113.74451038310849,-7.115500268028021]]],[[[113.74428381401721,-7.1154293254880265],[113.74426572286445,-7.115429432784758],[113.74426577657265,-7.1154384682627105],[113.74427482214924,-7.1154384146143634],[113.74427487585767,-7.1154474500922262],[113.74428392143435,-7.1154473964436349],[113.74428381401721,-7.1154293254880265]]],[[[113.74433814118338,-7.1154380390709999],[113.7443471867594,-7.1154379854212433],[113.74434713304962,-7.1154289499439098],[113.74430190516968,-7.115429218190588],[113.74430201258753,-7.1154472891459219],[113.74429296701098,-7.1154473427948659],[113.74429302071984,-7.1154563782726221],[113.74430206629656,-7.1154563246236089],[113.74430222742407,-7.1154834310565942],[113.74428413626948,-7.115483538354856],[113.74428415761092,-7.1154871286365617],[113.74434536900014,-7.1155006329998889],[113.74438378907654,-7.1155084274714708],[113.74438369132714,-7.1154919836827171],[113.74439273690386,-7.1154919300316664],[113.7443926831928,-7.1154828945546997],[113.74437459203961,-7.1154830018564894],[113.74437464575033,-7.1154920373335919],[113.74435655459651,-7.1154921446348132],[113.74435650088614,-7.115483109157573],[113.74434745530931,-7.115483162807851],[113.74434750901951,-7.1154921982851604],[113.74433846344243,-7.1154922519353292],[113.74433840973241,-7.1154832164579522],[113.74432936415542,-7.1154832701078767],[113.74432920302633,-7.1154561636755114],[113.74433824860277,-7.1154561100257929],[113.74433830231258,-7.1154651455031832],[113.74434734788913,-7.1154650918532196],[113.74434724046922,-7.1154470208985554],[113.74433819489305,-7.1154470745483813],[113.74433814118338,-7.1154380390709999]]],[[[113.74422948685073,-7.1154206118978749],[113.74421139569748,-7.115420719192354],[113.74421144940455,-7.1154297546707239],[113.74420240382766,-7.1154298083177681],[113.74420245753461,-7.115438843796202],[113.74419341195744,-7.1154388974431377],[113.74419346566428,-7.1154479329216187],[113.7441844200869,-7.1154479865684488],[113.74418447379364,-7.1154570220470292],[113.74414865612137,-7.1154572344703144],[113.74421169541326,-7.1154711421245382],[113.74421166423346,-7.1154658965841611],[113.744220709811,-7.1154658429366648],[113.74422065610349,-7.115456807458381],[113.74422970168078,-7.1154567538107782],[113.74422959426562,-7.1154386828543341],[113.74423863984246,-7.1154386292066931],[113.74423858613481,-7.1154295937285337],[113.74422954055814,-7.1154296473761072],[113.74422948685073,-7.1154206118978749]]],[[[113.74186724747933,-7.1152087204627383],[113.74186726434662,-7.1152115606731741],[113.74187631101995,-7.1152116894221678],[113.74187629306967,-7.1152086668629675],[113.74186724747933,-7.1152087204627383]]],[[[113.74190342984029,-7.1152085060625962],[113.74188533865996,-7.1152086132630199],[113.74188535769323,-7.1152118181709794],[113.74190345103956,-7.1152120756681008],[113.74190342984029,-7.1152085060625962]]],[[[113.74186724747933,-7.1152087204627383],[113.7418671938198,-7.1151996849664725],[113.74185814822954,-7.1151997385659982],[113.74185820188889,-7.1152087740623333],[113.74186724747933,-7.1152087204627383]]],[[[113.73873712745741,-7.1151696744610984],[113.73873704023906,-7.1151549712398463],[113.73872799462588,-7.1151550247778932],[113.73872804822368,-7.1151640602980422],[113.73871900261027,-7.1151641138359842],[113.73871904459445,-7.1151711915485167],[113.73873712745741,-7.1151696744610984]]],[[[113.7387007505916,-7.1151371143502518],[113.73870069699454,-7.1151280788298834],[113.73868260576863,-7.1151281859039788],[113.73868265936534,-7.1151372214244848],[113.7387007505916,-7.1151371143502518]]],[[[113.7395600835178,-7.115132027511903],[113.73956002990398,-7.1151229919980592],[113.73955098429769,-7.1151230455519432],[113.73955103791135,-7.1151320810658563],[113.7395600835178,-7.115132027511903]]],[[[113.73965043234753,-7.1151134209363622],[113.73963234113663,-7.1151135280473428],[113.73963239475179,-7.1151225635606412],[113.73964144035746,-7.11512251000517],[113.73964149151675,-7.1151311315998926],[113.73965957490941,-7.1151297068429713],[113.73965953156856,-7.1151224028937001],[113.73965048596305,-7.115122456449523],[113.73965043234753,-7.1151134209363622]]],[[[113.7397771169526,-7.1151204459066983],[113.73977707081605,-7.1151126711397543],[113.73976802521159,-7.1151127246978012],[113.73976807525753,-7.1151211582874208],[113.7397771169526,-7.1151204459066983]]],[[[113.74033795178379,-7.1151183857045215],[113.74033789815485,-7.1151093501965814],[113.74032885255473,-7.1151094037655573],[113.74032890618348,-7.1151184392735676],[113.74033795178379,-7.1151183857045215]]],[[[113.73961430354025,-7.1151226706710542],[113.7396141963107,-7.1151045996441766],[113.73958705949393,-7.1151047603080597],[113.73958711310814,-7.1151137958217063],[113.73957806750225,-7.1151138493760522],[113.73957812111635,-7.1151228848897627],[113.73961430354025,-7.1151226706710542]]],[[[113.73948745060275,-7.1150872783665813],[113.7394964962088,-7.1150872248142063],[113.73949638898439,-7.1150691537855133],[113.73948734337868,-7.1150692073377506],[113.73948739699068,-7.1150782428521673],[113.73947835138472,-7.1150782964042971],[113.7394785658327,-7.1151144384622027],[113.73946047461912,-7.1151145455664819],[113.73946052823095,-7.1151235810810869],[113.73947861944487,-7.1151234739766682],[113.73947867305709,-7.1151325094911311],[113.73948771866411,-7.1151324559385891],[113.73948745060275,-7.1150872783665813]]]]},"properties":{"FID":0,"Shape_Leng":18102566.929299999,"Shape_Area":236516885.403}}]
}