{
  "type" : "FeatureCollection",
  "features" : [{"type":"Feature","id":0,"geometry":{"type":"MultiPolygon","coordinates":[[[[113.06609719164048,-7.1583609614107608],[113.06610624258816,-7.1583609207711758],[113.06610623819681,-7.1583599451326441],[113.06600658341414,-7.1583394278502306],[113.06600672284794,-7.1583704077812094],[113.06601577379632,-7.1583703671433492],[113.0660158551709,-7.158388447111963],[113.06602490611958,-7.1583884064738221],[113.06602498749471,-7.1584064864423489],[113.06603403844372,-7.1584064458039265],[113.06603420119534,-7.1584426057406967],[113.06604325214498,-7.1584425651018897],[113.06604313008063,-7.1584154451494726],[113.06605218102968,-7.1584154045106425],[113.0660521403415,-7.1584063645265479],[113.06608834413646,-7.1584062019696582],[113.06608822207009,-7.1583790820179747],[113.06609727301816,-7.1583790413784634],[113.06609719164048,-7.1583609614107608]]],[[[113.06719223379466,-7.1583289227979154],[113.06719219308452,-7.1583198828203214],[113.06718314214388,-7.1583199234810246],[113.06718318285384,-7.158328963458672],[113.06719223379466,-7.1583289227979154]]],[[[113.06776817700018,-7.1583138379999705],[113.06766280779611,-7.1583101914967537],[113.06766284192443,-7.1583177682187822],[113.06768999473776,-7.158317646207875],[113.06769003545767,-7.158326686182618],[113.0677352901464,-7.1583264828272961],[113.0677352494256,-7.1583174428528142],[113.06774430036302,-7.158317402181269],[113.06774438180504,-7.1583354821301093],[113.06775343274275,-7.1583354414582816],[113.06775351418534,-7.1583535214070375],[113.06776256512335,-7.1583534807349292],[113.06776244295899,-7.1583263608119694],[113.06785295233092,-7.1583259540826658],[113.06785292020218,-7.1583188219464153],[113.06776817700018,-7.1583138379999705]]],[[[113.06718299959569,-7.1582882693958547],[113.06712869652719,-7.1582890846472216],[113.06712871437267,-7.1582930475076401],[113.06715586719375,-7.1582929255286611],[113.06715590790301,-7.1583019655064577],[113.06719211166443,-7.15830180286512],[113.06719207095445,-7.1582927628875286],[113.06718302001434,-7.1582928035480791],[113.06718299959569,-7.1582882693958547]]],[[[113.06504344905956,-7.1568017417239629],[113.06504024655308,-7.1568017560930635],[113.06504025153069,-7.1568028627968214],[113.06504344905956,-7.1568017417239629]]],[[[113.06506703600009,-7.1567934719999489],[113.06506956799329,-7.15679258435914],[113.06504925681689,-7.1567926754925875],[113.06504928838594,-7.1567996944209398],[113.06506703600009,-7.1567934719999489]]],[[[113.06507636892539,-7.1567835136713409],[113.06507624694673,-7.1567563937003635],[113.06506719602477,-7.1567564343106422],[113.0650673180029,-7.1567835542817759],[113.06507636892539,-7.1567835136713409]]],[[[113.06586268770207,-7.1565329955573826],[113.06586266009757,-7.1565268602791079],[113.06582645644558,-7.1565270227758093],[113.06582649711852,-7.1565360627619334],[113.06581744620522,-7.1565361033857151],[113.06581749603133,-7.15654717779202],[113.06586268770207,-7.1565329955573826]]],[[[113.06588252182497,-7.1565267711303937],[113.06587171101044,-7.1565268196544869],[113.06587172603572,-7.1565301591100141],[113.06588252182497,-7.1565267711303937]]],[[[113.06625943571541,-7.1561996332143858],[113.06625939503587,-7.1561905932306109],[113.06625034413183,-7.1561906338609527],[113.0662503848112,-7.1561996738447773],[113.06625943571541,-7.1561996332143858]]],[[[113.06627741548412,-7.1561724320020419],[113.06627737480439,-7.1561633920183585],[113.06628642570772,-7.1561633513876384],[113.06628630366829,-7.1561362314367267],[113.0662772527655,-7.1561362720672905],[113.06627729344507,-7.1561453120509668],[113.06626824254204,-7.1561453526814063],[113.06626836458057,-7.1561724726326359],[113.06627741548412,-7.1561724320020419]]],[[[113.06606529939685,-7.1552964879103964],[113.06606521805584,-7.1552784079399121],[113.06605616716867,-7.1552784485612877],[113.06605624850933,-7.1552965285318759],[113.06606529939685,-7.1552964879103964]]],[[[113.06584681745224,-7.1550172231941058],[113.06584677678761,-7.1550081832075056],[113.06583772590453,-7.1550082238230637],[113.06583776656898,-7.1550172638097145],[113.06584681745224,-7.1550172231941058]]],[[[113.06603908226855,-7.1549892398645509],[113.06603675464525,-7.1549871744413913],[113.06603676398377,-7.1549892502687404],[113.06603908226855,-7.1549892398645509]]],[[[113.06602894574127,-7.1549802451879287],[113.06602766730502,-7.1549791107637999],[113.06602767243413,-7.1549802509023488],[113.06602894574127,-7.1549802451879287]]],[[[113.06596405593197,-7.1549226650130526],[113.06595799006095,-7.1549172824420495],[113.06595498071587,-7.154917295946972],[113.06595510271474,-7.1549444159049926],[113.06598225535807,-7.1549442940519494],[113.06598229602498,-7.1549533340378169],[113.06599134690616,-7.1549532934197284],[113.06599138757332,-7.1549623334055221],[113.06600043845464,-7.1549622927872054],[113.06600047912202,-7.1549713327729449],[113.06601880921436,-7.154971250510969],[113.06596812658557,-7.1549262771210529],[113.06596407226291,-7.1549262953155903],[113.06596405593197,-7.1549226650130526]]],[[[113.06587913337464,-7.1548362747971277],[113.06587312590041,-7.154829430482267],[113.06587315680851,-7.1548363016165917],[113.06587913337464,-7.1548362747971277]]],[[[113.06582763747377,-7.1547776055105157],[113.06582769909464,-7.1547913047564027],[113.06583674997351,-7.1547912641422675],[113.06583679063671,-7.1548003041290116],[113.0658458415157,-7.1548002635146455],[113.06584588217912,-7.1548093035013336],[113.06585493305825,-7.1548092628867392],[113.06585501438559,-7.1548273428600009],[113.06587122965989,-7.1548272700955247],[113.06582763747377,-7.1547776055105157]]],[[[113.06474588940003,-7.1537384573676883],[113.0647458487644,-7.153729417374282],[113.0647367979002,-7.1537294579609894],[113.06473683853565,-7.1537384979544463],[113.06474588940003,-7.1537384573676883]]],[[[113.06370128111797,-7.1517633407216374],[113.06369614618238,-7.1517633637303515],[113.06369617588938,-7.1517699776899279],[113.06370128111797,-7.1517633407216374]]],[[[113.06370825897524,-7.1517542692729767],[113.06370515641002,-7.1517542831750447],[113.06370517435924,-7.1517582793773435],[113.06370825897524,-7.1517542692729767]]],[[[113.06373206527851,-7.1516999215086603],[113.06373202467452,-7.151690881508654],[113.06372297384463,-7.1516909220639437],[113.06372301444844,-7.1516999620640007],[113.06373206527851,-7.1516999215086603]]],[[[113.06234619211263,-7.1514620441958998],[113.06234615153726,-7.1514530041878714],[113.0623371007041,-7.1514530447145965],[113.0623371412793,-7.1514620847226764],[113.06234619211263,-7.1514620441958998]]],[[[113.06349520091293,-7.1509144868467907],[113.06348411219848,-7.150903687435596],[113.06348416091591,-7.150914536304251],[113.06349520091293,-7.1509144868467907]]],[[[113.06326661659575,-7.1508431893363946],[113.06325756577988,-7.1508432298777622],[113.06325764695953,-7.1508613098838483],[113.06324859614328,-7.1508613504251421],[113.06324863673299,-7.1508703904282394],[113.06325768754942,-7.150870349886894],[113.06325772813939,-7.1508793898899352],[113.06326677895598,-7.1508793493483616],[113.06326661659575,-7.1508431893363946]]]]},"properties":{"FID":0,"Shape_Leng":18102566.929299999,"Shape_Area":236516885.403}}]
}