{
  "type" : "FeatureCollection",
  "features" : [{"type":"Feature","id":0,"geometry":{"type":"MultiPolygon","coordinates":[[[[113.04025324450222,-7.2125191898386136],[113.04025226565949,-7.212519194210806],[113.04025324642025,-7.212519618101596],[113.04025324450222,-7.2125191898386136]]],[[[113.04009903379115,-7.2124475562939399],[113.04008664436078,-7.2124476116288916],[113.04009905806599,-7.2124529769146566],[113.04009903379115,-7.2124475562939399]]],[[[113.04007183680964,-7.2124386374718679],[113.04006516715611,-7.2124386672601721],[113.04006910500003,-7.2124400309999261],[113.04007184835986,-7.2124412166984486],[113.04007183680964,-7.2124386374718679]]],[[[113.0401533467864,-7.2124473137116762],[113.04015330630159,-7.212438273601351],[113.04014425413602,-7.2124383140321262],[113.04014429462066,-7.2124473541425029],[113.0401533467864,-7.2124473137116762]]],[[[113.04005369199474,-7.2124296782191539],[113.04004463982876,-7.2124297186479085],[113.04004464807977,-7.2124315611677652],[113.04005371448744,-7.212434701013489],[113.04005369199474,-7.2124296782191539]]],[[[113.0401533467864,-7.2124473137116762],[113.04015346824112,-7.2124744340425835],[113.0401487523433,-7.212474455105891],[113.04023510661216,-7.2125117779653305],[113.04023497822196,-7.2124831102655493],[113.04024403038788,-7.2124830698327269],[113.04024398990107,-7.2124740297229453],[113.04023493773532,-7.2124740701557162],[113.04023489724875,-7.2124650300458795],[113.04024394941432,-7.2124649896131601],[113.04024390892762,-7.2124559495033704],[113.04022580459676,-7.2124560303685268],[113.04022576411046,-7.2124469902586306],[113.04020765977975,-7.2124470711229662],[113.04020761929388,-7.2124380310129492],[113.04019856712863,-7.2124380714447947],[113.04019852664298,-7.2124290313347572],[113.04018947447787,-7.2124290717663753],[113.04018943399245,-7.2124200316562641],[113.04016227749729,-7.2124201529498899],[113.04016239895208,-7.2124472732806719],[113.0401533467864,-7.2124473137116762]],[[113.0401624799222,-7.2124653535011785],[113.04017153208821,-7.2124653130698926],[113.04017157257353,-7.2124743531800881],[113.04016252040734,-7.2124743936114246],[113.0401624799222,-7.2124653535011785]]],[[[113.03995395624361,-7.2123939624798066],[113.03993630826801,-7.2123940412947292],[113.03995398400748,-7.2124001626987271],[113.03995395624361,-7.2123939624798066]]],[[[113.03998111274076,-7.212393841198999],[113.03996300840939,-7.2123939220530495],[113.03996304889016,-7.2124029621644343],[113.03996208004432,-7.2124029664912896],[113.0400083824499,-7.2124190017827496],[113.04000835020081,-7.2124118001388497],[113.03999024586903,-7.2124118809941828],[113.03999020538767,-7.2124028408829348],[113.03998115322189,-7.2124028813102816],[113.03998111274076,-7.212393841198999]]],[[[113.03989956228907,-7.2123761248130354],[113.03989958556799,-7.2123813236069596],[113.03993585119402,-7.2123938830023393],[113.03993581143176,-7.2123850032212049],[113.03992675926601,-7.2123850436473731],[113.03992671878605,-7.2123760035357583],[113.03989956228907,-7.2123761248130354]]],[[[113.03989956228907,-7.2123761248130354],[113.0398995218097,-7.2123670847012615],[113.03989046964411,-7.2123671251266108],[113.03989042916498,-7.2123580850147855],[113.0398813769995,-7.2123581254399038],[113.03988141747847,-7.2123671655517816],[113.03987236531277,-7.2123672059767738],[113.03987238634932,-7.2123719040581653],[113.0398905191617,-7.2123781837575871],[113.0398905101233,-7.2123761652384362],[113.03989956228907,-7.2123761248130354]]],[[[113.03796146749869,-7.2121768489436002],[113.03796140423736,-7.2121627071732402],[113.03795932400011,-7.2121646149999448],[113.03795970894923,-7.2121768567893136],[113.03796146749869,-7.2121768489436002]]],[[[113.03797043879153,-7.2121587283120032],[113.03797041960382,-7.2121544390021608],[113.03796571971201,-7.2121587493660479],[113.03797043879153,-7.2121587283120032]]],[[[113.0379885026959,-7.2121496074168672],[113.03798846225571,-7.2121405672941856],[113.03799751442756,-7.2121405269077723],[113.03799747398726,-7.212131486785152],[113.03800652615887,-7.2121314463986135],[113.03800648106625,-7.2121213663170733],[113.03797562517468,-7.2121496648698979],[113.0379885026959,-7.2121496074168672]]],[[[113.03801549744929,-7.2121133257668513],[113.03801549643104,-7.212113098145549],[113.03801524702138,-7.2121133268841469],[113.03801549744929,-7.2121133257668513]]],[[[113.03810516988121,-7.2119230793276827],[113.03810215227986,-7.2119230927910927],[113.03810518530619,-7.2119265273868516],[113.03810516988121,-7.2119230793276827]]],[[[113.03521494152166,-7.2113573849383634],[113.03521490114098,-7.2113483447997213],[113.03520584896914,-7.2113483851266071],[113.03520588934964,-7.2113574252653017],[113.03521494152166,-7.2113573849383634]]],[[[113.03253452848271,-7.2111523502026449],[113.03252547629961,-7.2111523904753536],[113.03252555695215,-7.2111704707831263],[113.03251650476861,-7.2111705110557578],[113.03251654509478,-7.2111795512097059],[113.03254370164571,-7.2111794303911205],[113.03254362099237,-7.2111613500835414],[113.03253456880913,-7.2111613903564837],[113.03253452848271,-7.2111523502026449]]],[[[113.03451699569776,-7.2111525663084048],[113.03451695533208,-7.2111435261657428],[113.03450790316032,-7.2111435664776655],[113.03450794352582,-7.2111526066203799],[113.03451699569776,-7.2111525663084048]]],[[[113.03239870540703,-7.211143914119873],[113.03239866508342,-7.2111348739652632],[113.03238056071633,-7.2111349545049279],[113.03238060103959,-7.211143994659639],[113.03239870540703,-7.211143914119873]]],[[[113.03270639896269,-7.2111244645285248],[113.03270631830351,-7.2111063842227558],[113.03269726612228,-7.2111064244986123],[113.03269730645167,-7.2111154646515496],[113.0326792020887,-7.2111155452028264],[113.03267924241779,-7.2111245853558623],[113.03270639896269,-7.2111244645285248]]],[[[113.0290810136302,-7.2101280611929948],[113.0290809733781,-7.2101190210193016],[113.02907192119605,-7.2101190612178785],[113.02907196144795,-7.2101281013916241],[113.0290810136302,-7.2101280611929948]]],[[[113.02908077211842,-7.2100738201507824],[113.02907171993726,-7.2100738603491061],[113.02907180044062,-7.2100919406966266],[113.02908990480361,-7.2100918602995945],[113.02908986455155,-7.2100828201259217],[113.02908081237025,-7.2100828603244755],[113.02908077211842,-7.2100738201507824]]],[[[113.02894498939555,-7.2100744231068514],[113.02894494914646,-7.2100653829323722],[113.0289358969647,-7.2100654231279622],[113.02893593721362,-7.2100744633024911],[113.02894498939555,-7.2100744231068514]]],[[[113.02905369607741,-7.2100920210929438],[113.02906274825905,-7.2100919808948731],[113.02906262750462,-7.2100648603734339],[113.0290445231424,-7.2100649407690858],[113.02904460364459,-7.2100830211169038],[113.02903555146302,-7.2100830613145632],[113.02903559171401,-7.2100921014885433],[113.0289993829866,-7.2100922622775938],[113.0289994634873,-7.2101103426259137],[113.02903567221615,-7.2101101818364564],[113.02903571246729,-7.2101192220104071],[113.02905381683176,-7.2101191416145003],[113.02905369607741,-7.2100920210929438]]],[[[113.02911686008522,-7.2100465388351456],[113.02911673932834,-7.2100194183145669],[113.02912579150818,-7.2100193781156525],[113.02912571100349,-7.2100012977686809],[113.02913476318291,-7.2100012575696901],[113.02913472293048,-7.2099922173962652],[113.02911661857193,-7.2099922977939688],[113.02911669907617,-7.210010378141031],[113.02910764689645,-7.2100104183397153],[113.02910780790479,-7.2100465790340333],[113.02911686008522,-7.2100465388351456]]],[[[113.02907087466451,-7.2098840166992186],[113.02907079416353,-7.2098659363515232],[113.02906174198642,-7.2098659765484978],[113.02906182248704,-7.2098840568962945],[113.02907087466451,-7.2098840166992186]]],[[[113.02917032785572,-7.209856453999695],[113.02917028760339,-7.2098474138263979],[113.02916123542724,-7.2098474540252395],[113.02916127567939,-7.2098564941985872],[113.02917032785572,-7.209856453999695]]],[[[113.02919720261545,-7.209793052189851],[113.02918815044053,-7.2097930923889262],[113.02918819069291,-7.2098021325621442],[113.02917913851775,-7.2098021727610888],[113.0291792190223,-7.2098202531076154],[113.02918827119781,-7.2098202129085669],[113.02918823094532,-7.2098111727353569],[113.02919728312061,-7.2098111325361813],[113.02919720261545,-7.209793052189851]]],[[[113.02919720261545,-7.209793052189851],[113.02920625479034,-7.2097930119905991],[113.02920621453765,-7.2097839718174956],[113.0292152667123,-7.209783931618114],[113.02921522645948,-7.2097748914450248],[113.02922427863389,-7.2097748512455171],[113.02922423838095,-7.20976581107249],[113.02921518620673,-7.2097658512719489],[113.02921514595401,-7.2097568110988677],[113.02920609377991,-7.2097568512980956],[113.02920617428501,-7.209774931644354],[113.02919712211049,-7.2097749718435056],[113.02919720261545,-7.209793052189851]]],[[[113.02921514595401,-7.2097568110988677],[113.02922419812806,-7.2097567708994612],[113.02922415787523,-7.2097477307264262],[113.02921510570135,-7.2097477709257829],[113.02921514595401,-7.2097568110988677]]],[[[113.02930514438847,-7.2096388868529697],[113.0293051846423,-7.2096479270255918],[113.02931423681368,-7.209647886825004],[113.02931419655967,-7.2096388466524353],[113.02930514438847,-7.2096388868529697]]],[[[113.02936826805644,-7.209584364411799],[113.02936822780173,-7.2095753242395277],[113.02937727997131,-7.2095752840380927],[113.02937723971647,-7.2095662438658339],[113.02938629188584,-7.2095662036642745],[113.02938621137594,-7.2095481233198777],[113.02937715920693,-7.209548163521335],[113.02937719946168,-7.2095572036935875],[113.02936814729244,-7.2095572438949178],[113.02936818754706,-7.2095662840672148],[113.02935913537759,-7.2095663242684171],[113.02935921588661,-7.2095844046131035],[113.02936826805644,-7.209584364411799]]],[[[113.02945830667711,-7.2094754803272894],[113.0294673588442,-7.2094754401246268],[113.02946731858815,-7.2094663999528512],[113.02947637075501,-7.2094663597500599],[113.02947633049881,-7.2094573195783145],[113.02945822616539,-7.2094573999836147],[113.02945830667711,-7.2094754803272894]]],[[[113.02936766424109,-7.2094487618270424],[113.02936762398714,-7.2094397216546966],[113.02935857182018,-7.2094397618551866],[113.02935861207393,-7.2094488020275858],[113.02936766424109,-7.2094487618270424]]],[[[113.02940383265444,-7.2094395608509503],[113.02940379239983,-7.2094305206788025],[113.02939474023327,-7.209430560879956],[113.02939478048769,-7.2094396010521544],[113.02940383265444,-7.2094395608509503]]],[[[113.02945822616539,-7.2094573999836147],[113.02945818590959,-7.2094483598117964],[113.02946723807615,-7.2094483196092858],[113.02946715756437,-7.2094302392657079],[113.02942189673281,-7.2094304402759564],[113.02942193698779,-7.209439480448002],[113.02940383265444,-7.2094395608509503],[113.0294039131638,-7.2094576411952165],[113.0293948609967,-7.2094576813965228],[113.02939490125129,-7.2094667215687274],[113.02938584908397,-7.2094667617699066],[113.02938588933841,-7.2094758019421405],[113.02937683717083,-7.2094758421431919],[113.02937687742516,-7.2094848823154711],[113.02936782525737,-7.2094849225163946],[113.02936794602014,-7.2095120430333681],[113.02935889385174,-7.2095120832342658],[113.02935893410591,-7.209521123406633],[113.02934082976864,-7.2095212038079923],[113.02934091027643,-7.2095392841529211],[113.02933185810734,-7.2095393243534334],[113.02933189836114,-7.2095483645259435],[113.02932284619182,-7.2095484047263261],[113.02932292669922,-7.2095664850714352],[113.02930482235972,-7.209566565471869],[113.02930490286658,-7.2095846458171682],[113.02929585069641,-7.2095846860172177],[113.02929589094975,-7.2095937261899126],[113.02928683877931,-7.2095937663898368],[113.02928687903253,-7.2096028065625779],[113.02926877469118,-7.2096028869619859],[113.02926881494409,-7.2096119271348265],[113.02927786711497,-7.2096118869351598],[113.0292779073681,-7.2096209271079275],[113.02926885519703,-7.2096209673076457],[113.02926881494409,-7.2096119271348265],[113.02925976277315,-7.2096119673343138],[113.02925980302592,-7.2096210075071836],[113.02925075085477,-7.209621047706543],[113.02925071060217,-7.2096120075336225],[113.02924165843113,-7.2096120477327519],[113.02924173893602,-7.2096301280787252],[113.02922363459307,-7.209630208476649],[113.02922367484523,-7.209639248649732],[113.02921462267351,-7.2096392888484777],[113.02921466292554,-7.2096483290216087],[113.02918750640951,-7.209648449616922],[113.02918754666106,-7.2096574897901986],[113.02917849448878,-7.2096575299883296],[113.02917853474021,-7.2096665701616391],[113.02915137822245,-7.2096666907551104],[113.02915141847338,-7.2096757309286019],[113.02914236630053,-7.2096757711261183],[113.02914240655134,-7.2096848112996419],[113.02913335437826,-7.2096848514970295],[113.0291335153813,-7.2097210121912809],[113.02912446320742,-7.2097210523886961],[113.02912458395971,-7.2097481729094977],[113.02911553178527,-7.2097482131068853],[113.02911557203595,-7.2097572532805296],[113.02910651986126,-7.2097572934777885],[113.02910664061308,-7.2097844139988672],[113.02909758843782,-7.2097844541961003],[113.02909762868836,-7.2097934943698148],[113.02908857651286,-7.2097935345669191],[113.02908881801608,-7.2098477756095312],[113.02907071366276,-7.2098478560038126],[113.02907075391312,-7.2098568961776692],[113.02907980608997,-7.2098568559805676],[113.02907984634057,-7.2098658961543691],[113.02908889851756,-7.2098658559570374],[113.02908893876838,-7.2098748961307688],[113.02907988659121,-7.209874936328152],[113.02908000734344,-7.2099020568495416],[113.02907095516569,-7.209902097046899],[113.02907099541636,-7.2099111372207343],[113.02908004759428,-7.2099110970233253],[113.02908008784519,-7.2099201371971047],[113.02907103566707,-7.2099201773945643],[113.02907099541636,-7.2099111372207343],[113.02906194323836,-7.2099111774179629],[113.02906202373948,-7.2099292577657215],[113.02908012809614,-7.2099291773708805],[113.02908028910046,-7.2099653380659481],[113.02908934127943,-7.2099652978680551],[113.02908938153082,-7.2099743380417607],[113.02908032935169,-7.2099743782397034],[113.02908040985426,-7.2099924585872239],[113.02907135767471,-7.2099924987850885],[113.0290713979259,-7.2100015389588696],[113.02906234574611,-7.2100015791566072],[113.02906238599718,-7.2100106193304523],[113.02905333381716,-7.210010659528062],[113.02905353507235,-7.2100558603974783],[113.02906258725325,-7.2100558201996137],[113.02906254700193,-7.2100467800257881],[113.02907159918261,-7.2100467398277956],[113.02907167968566,-7.2100648201753383],[113.02908073186664,-7.2100647799770652],[113.02908077211842,-7.2100738201507824],[113.02908982429955,-7.2100737799522774],[113.02908974379568,-7.2100556996049452],[113.02908069161491,-7.2100557398033462],[113.0290806111116,-7.2100376594558799],[113.02908966329201,-7.2100376192575792],[113.02908962304026,-7.210028579083918],[113.02909867522041,-7.2100285388854894],[113.02909847396153,-7.20998333801729],[113.02910752614073,-7.209983297818936],[113.02910740538549,-7.2099561772981229],[113.02909835320682,-7.2099562174963232],[113.02909831295536,-7.209947177322662],[113.02910736513384,-7.2099471371245123],[113.02910712362505,-7.2098928960827608],[113.02911617580244,-7.2098928558847382],[113.02911585379219,-7.2098205344959343],[113.02912490596808,-7.2098204942981399],[113.02912482546567,-7.2098024139510022],[113.02910672111456,-7.2098024943462073],[113.0291066808638,-7.2097934541725319],[113.02912478521455,-7.2097933737774271],[113.02912474496347,-7.2097843336038654],[113.0291337971386,-7.2097842934060958],[113.02913375688739,-7.2097752532325492],[113.0291518612371,-7.209775172836574],[113.02915190148866,-7.2097842130100211],[113.02916095366362,-7.2097841728117142],[113.029160792657,-7.2097480121181592],[113.02916984483117,-7.2097479719198789],[113.0291697643278,-7.2097298915731889],[113.0291788165016,-7.2097298513748322],[113.02917885675345,-7.2097388915481266],[113.029206013275,-7.2097387709518221],[113.02920597302263,-7.209729730778677],[113.0292240773697,-7.209729650380349],[113.02922415787523,-7.2097477307264262],[113.02923321004907,-7.2097476905268918],[113.02923312954319,-7.2097296101809158],[113.02925123388998,-7.2097295297815123],[113.0292511533836,-7.2097114494357255],[113.02926020555654,-7.2097114092358572],[113.02926016530326,-7.2097023690630078],[113.02924206095764,-7.2097024494624637],[113.02924210121057,-7.2097114896354144],[113.02922399686439,-7.2097115700342567],[113.02922395661182,-7.2097025298612021],[113.02924206095764,-7.2097024494624637],[113.02924202070476,-7.2096934092895104],[113.02925107287741,-7.2096933690899228],[113.02925095211853,-7.2096662485711729],[113.02926000429058,-7.2096662083715586],[113.02925996403755,-7.2096571681987074],[113.02926901620937,-7.2096571279989661],[113.0292689357031,-7.2096390476533214],[113.02927798787452,-7.2096390074535019],[113.02927810863456,-7.2096661279717935],[113.02926000429058,-7.2096662083715586],[113.0292600847968,-7.2096842887173009],[113.02928724131375,-7.2096841681170778],[113.02928716080645,-7.2096660877716436],[113.02929621297832,-7.2096660475713126],[113.02929617272456,-7.2096570073986657],[113.02928712055288,-7.2096570475989443],[113.02928704004589,-7.2096389672535039],[113.02930514438847,-7.2096388868529697],[113.02930510413469,-7.2096298466803468],[113.02929605196361,-7.2096298868806512],[113.02929601171007,-7.2096208467079554],[113.02928695953911,-7.2096208869080325],[113.02928691928578,-7.2096118467353154],[113.02931407579796,-7.2096117261347041],[113.02931403554416,-7.2096026859621194],[113.0293230877146,-7.2096026457616098],[113.0293231279686,-7.2096116859341421],[113.02931407579796,-7.2096117261347041],[113.02931419655967,-7.2096388466524353],[113.02932324873083,-7.2096388064517205],[113.02932320847671,-7.2096297662791988],[113.02933226064762,-7.2096297260783571],[113.02933222039336,-7.2096206859058629],[113.02934127256408,-7.2096206457048932],[113.02934107129265,-7.2095754448427485],[113.02935012346238,-7.2095754046418525],[113.02935004295381,-7.2095573242970401],[113.02935909512316,-7.2095572840960678],[113.02935901461443,-7.2095392037513575],[113.02937711895223,-7.2095391233490789],[113.02937707869759,-7.2095300831768219],[113.02939518303484,-7.2095300027739304],[113.02939522328984,-7.2095390429460862],[113.02940427545856,-7.2095390027443207],[113.02940407418318,-7.2094938018837542],[113.02943123068634,-7.2094936812781478],[113.02943119043088,-7.2094846411061768],[113.02944024259833,-7.209484600904001],[113.02944028285397,-7.2094936410759214],[113.02944933502152,-7.2094936008735155],[113.0294492947657,-7.2094845607016449],[113.02945834693305,-7.2094845204991111],[113.02945830667711,-7.2094754803272894],[113.02944925450994,-7.2094755205297707],[113.02944917399857,-7.2094574401859939],[113.02945822616539,-7.2094573999836147]],[[113.02943110992011,-7.2094665607622206],[113.02944016208721,-7.209466520560146],[113.02944020234274,-7.2094755607320744],[113.02943115017548,-7.2094756009342014],[113.02943110992011,-7.2094665607622206]],[[113.02931395503671,-7.2095846056169384],[113.02933205937683,-7.2095845252159414],[113.02933209963088,-7.2095935653884329],[113.02931399529041,-7.2095936457895329],[113.02931395503671,-7.2095846056169384]]],[[[113.02949439457554,-7.2094481990006836],[113.02949431406267,-7.2094301186574139],[113.02948526189664,-7.2094301588603571],[113.02948534240913,-7.2094482392037298],[113.02949439457554,-7.2094481990006836]]],[[[113.02936754347941,-7.209421641309989],[113.02935849131281,-7.209421681510376],[113.02935853156647,-7.2094307216827831],[113.02936758373325,-7.2094306814823454],[113.02936754347941,-7.209421641309989]]],[[[113.02936754347941,-7.209421641309989],[113.02937659564596,-7.2094216011094243],[113.02937655539199,-7.2094125609370998],[113.02936750322563,-7.2094126011376156],[113.02936754347941,-7.209421641309989]]],[[[113.02948518138435,-7.2094120785169507],[113.02948510087228,-7.209393998173562],[113.02947604870687,-7.209394038376125],[113.02947612921859,-7.2094121187196132],[113.02948518138435,-7.2094120785169507]]],[[[113.02951225736811,-7.2093938775648025],[113.02951217685516,-7.2093757972216883],[113.02950312469029,-7.2093758374246857],[113.02950320520289,-7.2093939177679012],[113.02951225736811,-7.2093938775648025]]],[[[113.0295302006713,-7.2093576364722303],[113.02953016041465,-7.2093485963007629],[113.02951205608612,-7.2093486767069885],[113.02951209634242,-7.209357716878559],[113.0295302006713,-7.2093576364722303]]],[[[113.02945766258907,-7.2093308375776033],[113.02945762233401,-7.2093217974057167],[113.02944857016989,-7.2093218376073347],[113.02944861042477,-7.2093308777792737],[113.02945766258907,-7.2093308375776033]]],[[[113.02957534072009,-7.2093303149396251],[113.0295753004627,-7.2093212747684019],[113.02956624829925,-7.2093213149723461],[113.02956628855647,-7.2093303551436225],[113.02957534072009,-7.2093303149396251]]],[[[113.02150972213215,-7.2093389450694358],[113.02148256550456,-7.2093390652019043],[113.02148260560159,-7.2093481054185782],[113.02146450118258,-7.2093481855060961],[113.02146454127929,-7.2093572257228686],[113.02145548906954,-7.2093572657664096],[113.021455448973,-7.2093482255495882],[113.02142829234393,-7.209348345678988],[113.02142841263212,-7.2093754663298961],[113.02143746484239,-7.2093754262867904],[113.02143748700908,-7.2093804240419157],[113.02143900000033,-7.209380999999949],[113.02145044622296,-7.2093844092566126],[113.02145560935951,-7.2093843864168514],[113.02145561629085,-7.2093859491608789],[113.02159998618684,-7.2094289496917261],[113.02160064521675,-7.2094289467761961],[113.02160064610156,-7.209429146247003],[113.02161877482901,-7.2094345458790006],[113.02161874963745,-7.2094288666823942],[113.02162780184771,-7.2094288266352242],[113.02162776174735,-7.2094197864193967],[113.02161870953726,-7.2094198264665161],[113.02161866943713,-7.2094107862506354],[113.02159151280709,-7.2094109063907679],[113.02159143260805,-7.2093928259586875],[113.02160048481774,-7.2093927859122573],[113.02160044471813,-7.2093837456962619],[113.02159139250861,-7.2093837857426424],[113.0215913524092,-7.2093747455265929],[113.0215823001998,-7.2093747855727424],[113.02158226010063,-7.2093657453566395],[113.02156415568206,-7.2093658254483008],[113.0215641155833,-7.2093567852320914],[113.02155506337409,-7.2093568252776015],[113.02155502327557,-7.2093477850613397],[113.02150976222971,-7.2093479852859552],[113.02150972213215,-7.2093389450694358]],[[113.02148264569868,-7.2093571456352459],[113.02151885453681,-7.2093569854578572],[113.02151889463467,-7.2093660256743197],[113.02152794684423,-7.2093659856294741],[113.02152798694232,-7.2093750258458824],[113.02153703915204,-7.2093749858008067],[113.02153707925034,-7.2093840260171591],[113.02152802704046,-7.2093840660622854],[113.02152810723689,-7.2094021464951004],[113.0215190550266,-7.2094021865401476],[113.02151897483053,-7.2093841061072323],[113.02150992262052,-7.2093841461519999],[113.02150988252275,-7.2093751059354947],[113.02150083031289,-7.209375145980033],[113.02150087041049,-7.2093841861965888],[113.0214918182004,-7.2093842262410002],[113.02149177810298,-7.2093751860243938],[113.02148272589301,-7.2093752260685742],[113.02148264569868,-7.2093571456352459]],[[113.02157332818848,-7.2093929060510114],[113.02158238039829,-7.2093928660049391],[113.02158242049759,-7.2094019062210464],[113.0215733682876,-7.2094019462671719],[113.02157332818848,-7.2093929060510114]],[[113.02147367368299,-7.2093752661125752],[113.0214646214729,-7.2093753061563977],[113.02146458137608,-7.2093662659396349],[113.02147363358598,-7.2093662258958631],[113.02147367368299,-7.2093752661125752]]],[[[113.02957526020535,-7.2093122345971716],[113.02957521994807,-7.2093031944259387],[113.02956616778498,-7.2093032346297807],[113.02956620804208,-7.2093122748010652],[113.02957526020535,-7.2093122345971716]]],[[[113.02139196321887,-7.2093213851974633],[113.02138291100941,-7.20932142523937],[113.02138287091452,-7.2093123850221286],[113.02137381870517,-7.2093124250638043],[113.0213738587999,-7.2093214652810982],[113.02136480659036,-7.2093215053226469],[113.02136476649579,-7.2093124651053024],[113.02134666207687,-7.2093125451877613],[113.02134674226531,-7.2093306256226484],[113.02133769005542,-7.2093306656637104],[113.02133774233643,-7.2093424537179143],[113.02138308082257,-7.2093597129593983],[113.02138299119939,-7.2093395056738423],[113.02139204340921,-7.2093394656318353],[113.02139196321887,-7.2093213851974633]]],[[[113.02948461780413,-7.2092855161128151],[113.0294845775488,-7.2092764759410599],[113.02947552538572,-7.2092765161429613],[113.02947556564089,-7.2092855563147653],[113.02948461780413,-7.2092855161128151]]],[[[113.02139196321887,-7.2093213851974633],[113.02141911984694,-7.2093212650706677],[113.02141903965574,-7.2093031846365854],[113.02139188302876,-7.2093033047630772],[113.02139196321887,-7.2093213851974633]]],[[[113.02141903965574,-7.2093031846365854],[113.02142809186465,-7.2093031445940632],[113.02142805176895,-7.2092941043770669],[113.02141899956023,-7.2092941444195393],[113.02141903965574,-7.2093031846365854]]],[[[113.02133720893005,-7.2092221830535577],[113.02132815672223,-7.2092222230938328],[113.02132839728291,-7.2092764643992799],[113.0213374494918,-7.209276424358702],[113.0213374895856,-7.2092854645761957],[113.0213465417946,-7.2092854245353868],[113.02134650170062,-7.2092763843179437],[113.02137365832677,-7.2092762641945951],[113.02137369842129,-7.2092853044118872],[113.02140085504755,-7.2092851842867729],[113.02140077485745,-7.2092671038524756],[113.0213736182323,-7.2092672239772817],[113.02137353804351,-7.2092491435426478],[113.02136448583539,-7.2092491835837897],[113.02136452592958,-7.2092582238011618],[113.02135547372121,-7.2092582638421758],[113.02135539353326,-7.2092401834073465],[113.02134634132518,-7.2092402234480817],[113.02134630123146,-7.2092311832305862],[113.02133724902355,-7.2092312232710887],[113.02133720893005,-7.2092221830535577]]],[[[113.0295567130554,-7.2092128731198866],[113.02955659228647,-7.2091857526057481],[113.02954754012563,-7.2091857928085696],[113.02954762063784,-7.2092038731514529],[113.02953856847658,-7.2092039133541981],[113.02953860873258,-7.2092129535256602],[113.0295567130554,-7.2092128731198866]]],[[[113.02958370851196,-7.2091765918249697],[113.02958366825527,-7.2091675516537315],[113.02957461609495,-7.2091675918569891],[113.02957465635146,-7.209176632028278],[113.02958370851196,-7.2091765918249697]]],[[[113.02970134633492,-7.2091670289950907],[113.02968324201554,-7.2091671094060805],[113.02968328227419,-7.209176149576761],[113.02966517795427,-7.2091762299871354],[113.02966521821263,-7.2091852701579118],[113.02967427037279,-7.2091852299527623],[113.02967435089002,-7.2092033102942219],[113.02965624656889,-7.2092033907045439],[113.02965628682723,-7.2092124308753451],[113.02964723466641,-7.2092124710802876],[113.02964727492463,-7.2092215112511502],[113.02963822276357,-7.2092215514559683],[113.02963830327978,-7.209239631797784],[113.02962925111832,-7.209239672002524],[113.02962930994217,-7.2092528812382008],[113.02962933163437,-7.2092577523444286],[113.02964743595797,-7.2092576719345676],[113.02964741426557,-7.2092528008283949],[113.02964739569956,-7.2092486317637023],[113.02966550002257,-7.2092485513532267],[113.02966545976385,-7.209239511182493],[113.02967451192509,-7.2092394709770362],[113.02967443140746,-7.2092213906356273],[113.02968348356829,-7.2092213504300959],[113.02968344330937,-7.2092123102594368],[113.02970154763054,-7.2092122298479362],[113.02970146711213,-7.2091941495068088],[113.0297105192723,-7.2091941093008902],[113.02971047901299,-7.2091850691303732],[113.0297195311729,-7.2091850289243276],[113.02971957143238,-7.209194069094794],[113.02972862359242,-7.2091940288885201],[113.02972854307315,-7.2091759485476841],[113.02970138659393,-7.2091760691656654],[113.02970134633492,-7.2091670289950907]]],[[[113.02130096000582,-7.209213302995841],[113.02130087982052,-7.2091952225603659],[113.02129182761306,-7.2091952625997724],[113.0212918677055,-7.2092043028175548],[113.02128281549781,-7.2092043428568306],[113.02128285559013,-7.2092133830746779],[113.02130096000582,-7.209213302995841]]],[[[113.02127372319796,-7.209195342678048],[113.02127364301394,-7.2091772622422194],[113.02126459080668,-7.2091773022809882],[113.02126467099035,-7.2091953827169171],[113.02127372319796,-7.209195342678048]]],[[[113.02961975612419,-7.2091402703257819],[113.029619715867,-7.2091312301547301],[113.02961066370757,-7.2091312703585011],[113.02961070396458,-7.2091403105296026],[113.02961975612419,-7.2091402703257819]]],[[[113.02094776352,-7.2091787035250858],[113.0209477234345,-7.2091696633053495],[113.0209567756434,-7.2091696232728975],[113.02095673555779,-7.2091605830532064],[113.02093863114034,-7.2091606631178298],[113.02093871131089,-7.20917874355741],[113.02094776352,-7.2091787035250858]]],[[[113.02130071945054,-7.20915906168932],[113.02130059917359,-7.2091319410360066],[113.02129154696739,-7.2091319810750587],[113.02129166724379,-7.2091591017285221],[113.02130071945054,-7.20915906168932]]],[[[113.02963769941329,-7.2091040292337851],[113.02963765915592,-7.2090949890628213],[113.02962860699735,-7.2090950292667468],[113.02962864725451,-7.2091040694377604],[113.02963769941329,-7.2091040292337851]]],[[[113.02965576347296,-7.2090949086544374],[113.02965564270013,-7.2090677881418284],[113.02964659054219,-7.2090678283459582],[113.02964671131448,-7.2090949488587173],[113.02965576347296,-7.2090949086544374]]],[[[113.02090218179868,-7.2091065819248774],[113.02090222188288,-7.2091156221448953],[113.02089316967476,-7.2091156621759689],[113.02089320975887,-7.209124702396017],[113.02091131417539,-7.209124622333591],[113.02091135425991,-7.2091336625535671],[113.0209294586766,-7.2091335824903231],[113.02092949876153,-7.2091426227101776],[113.02094760317839,-7.2091425426461138],[113.02094756309312,-7.2091335024263632],[113.02095661530129,-7.2091334623941128],[113.02095665538673,-7.2091425026138127],[113.02096570759505,-7.2091424625813367],[113.02096578776647,-7.2091605430206256],[113.02099294439212,-7.209160422921812],[113.02099282413347,-7.2091333022633277],[113.0209837719255,-7.2091333422962922],[113.02098369175368,-7.209115261857181],[113.02096558733831,-7.2091153419223719],[113.02096554725283,-7.2091063017027102],[113.02094744283761,-7.2091063817670822],[113.02094740275254,-7.209097341547313],[113.02092024612988,-7.2090974616423766],[113.02092028621441,-7.2091065018622977],[113.02090218179868,-7.2091065819248774]],[[113.02092032629899,-7.2091155420822144],[113.02095653513054,-7.2091153819546987],[113.02095657521588,-7.2091244221743906],[113.02092036638361,-7.2091245823021097],[113.02092032629899,-7.2091155420822144]],[[113.02097475980328,-7.2091424225486778],[113.02098381201149,-7.2091423825158421],[113.02098385209753,-7.2091514227353866],[113.02097479988915,-7.2091514627682747],[113.02097475980328,-7.2091424225486778]]],[[[113.02966465460037,-7.2090587077666939],[113.02966461434274,-7.2090496675958633],[113.02965556218517,-7.2090497078000704],[113.02965560244263,-7.2090587479709498],[113.02966465460037,-7.2090587077666939]]],[[[113.02090218179868,-7.2091065819248774],[113.02090210163037,-7.2090885014848336],[113.0208930494228,-7.2090885415157544],[113.02089300933891,-7.2090795012956583],[113.02082964388562,-7.2090797815067384],[113.02082968396824,-7.2090888217271889],[113.02083873617619,-7.2090887816975213],[113.02083877625904,-7.2090978219179016],[113.02089308950673,-7.2090975817358309],[113.02089312959073,-7.2091066219559021],[113.02090218179868,-7.2091065819248774]]],[[[113.02080240709797,-7.2090618211533499],[113.02080236701603,-7.2090527809327511],[113.02078426260111,-7.2090528609900701],[113.02078430268269,-7.2090619012107693],[113.02080240709797,-7.2090618211533499]]],[[[113.02074797360905,-7.2090349406607608],[113.02072081698675,-7.2090350607429468],[113.02072093722757,-7.209062181406102],[113.02073904164358,-7.2090621013511891],[113.02073908172432,-7.2090711415721378],[113.02074813393241,-7.2090711015443611],[113.02074809385149,-7.2090620613234631],[113.0207661982672,-7.2090619812674737],[113.0207661181048,-7.2090439008258693],[113.02074801368981,-7.2090439808816535],[113.02074797360905,-7.2090349406607608]]],[[[113.02068460815629,-7.2090352208500166],[113.02068452799743,-7.209017140407461],[113.02066642358258,-7.20901722045972],[113.02066650374073,-7.2090353009024781],[113.02068460815629,-7.2090352208500166]]],[[[113.01949664560659,-7.2085613306892675],[113.01949660555334,-7.2085522904611565],[113.01947850114367,-7.2085523704612431],[113.01947854119655,-7.2085614106894544],[113.01949664560659,-7.2085613306892675]]],[[[113.01933358575876,-7.2085349299781063],[113.01932037185709,-7.208534988363148],[113.01933360615244,-7.2085395333250597],[113.01933358575876,-7.2085349299781063]]],[[[113.01940600340006,-7.2085346099971863],[113.01939695119508,-7.2085346499954301],[113.01939691114396,-7.2085256097667489],[113.0193788067342,-7.2085256897625944],[113.01937888683575,-7.2085437702201505],[113.0193607824251,-7.2085438502154826],[113.01936070232425,-7.2085257697577223],[113.01934259791406,-7.2085258497521343],[113.0193426379641,-7.2085348899811184],[113.01935169016939,-7.2085348499839501],[113.01935173850498,-7.2085457603918011],[113.01938800321103,-7.2085582145227063],[113.01938797909207,-7.2085527704509369],[113.01939703129746,-7.2085527304527748],[113.01939699124624,-7.2085436902241025],[113.01940604345141,-7.2085436502258107],[113.01940600340006,-7.2085346099971863]]],[[[113.01940600340006,-7.2085346099971863],[113.01941505560498,-7.2085345699987657],[113.01941501555352,-7.2085255297701902],[113.01940596334877,-7.2085255697685593],[113.01940600340006,-7.2085346099971863]]],[[[113.01927010017427,-7.2085080892638231],[113.01924294355847,-7.2085082092494979],[113.01924294439453,-7.2085083979784468],[113.01931547380022,-7.2085333062574586],[113.01931544129843,-7.2085259697424116],[113.01929733688773,-7.2085260497350365],[113.01929729683864,-7.2085170095057949],[113.01927014022277,-7.2085171294932344],[113.01927010017427,-7.2085080892638231]]],[[[113.01923357097266,-7.208435927407459],[113.01923361102003,-7.2084449676370888],[113.01924266322416,-7.2084449276425762],[113.01924262317661,-7.2084358874129988],[113.01923357097266,-7.208435927407459]]],[[[113.01923357097266,-7.208435927407459],[113.01923353092533,-7.2084268871778283],[113.01921542651765,-7.2084269671661128],[113.01921546656462,-7.2084360073958473],[113.01923357097266,-7.208435927407459]]],[[[113.01901619793379,-7.2084097665282929],[113.01898904131959,-7.2084098864972619],[113.01898908136197,-7.2084189267282861],[113.01898002915692,-7.2084189667176357],[113.01897998911473,-7.20840992648656],[113.01894996629945,-7.2084100591149873],[113.01901055800009,-7.2084285909999259],[113.01902535620805,-7.2084336730589049],[113.01902529018152,-7.2084187667691015],[113.01901623797671,-7.2084188067591679],[113.01901619793379,-7.2084097665282929]]],[[[113.01910663988858,-7.2083912861593875],[113.01912474429604,-7.2083912061758033],[113.01912470425113,-7.2083821659455438],[113.0190341822135,-7.2083825658558007],[113.0190342622998,-7.2084006463173296],[113.01904331450415,-7.2084006063270065],[113.01904335454755,-7.2084096465577145],[113.01906145895646,-7.2084095665764334],[113.01906149900029,-7.2084186068070526],[113.01904339459099,-7.2084186867884359],[113.0190434346345,-7.2084277270191199],[113.01905248683934,-7.2084276870284665],[113.01905252688307,-7.2084367272591123],[113.01903448172192,-7.2084368069785905],[113.0190616209026,-7.2084461272207596],[113.01906157908806,-7.2084366872682297],[113.01907063129298,-7.2084366472771695],[113.01907059124888,-7.2084276070466231],[113.01907964345355,-7.2084275670554341],[113.01907968349782,-7.2084366072859272],[113.01908873570265,-7.2084365672945108],[113.01908877574715,-7.2084456075249497],[113.01910688015698,-7.2084455275414712],[113.0191069517726,-7.2084616949182321],[113.0191124517509,-7.2084635837410014],[113.0191341168623,-7.2084634880252585],[113.01913415029554,-7.208471035534143],[113.01913844176187,-7.2084725093249631],[113.0191884701384,-7.2084722882965906],[113.01918830995218,-7.2084361273770856],[113.0191973621564,-7.2084360873835189],[113.01919732210979,-7.2084270471536822],[113.01917016549757,-7.2084271671336957],[113.01917008540559,-7.2084090866737105],[113.01915198099793,-7.2084091666592878],[113.01915194095238,-7.208400126429189],[113.01910667993319,-7.2084003263897456],[113.01910663988858,-7.2083912861593875]],[[113.01914308897602,-7.2084453675723719],[113.01917929779425,-7.2084452076004064],[113.01917933784061,-7.2084542478303364],[113.01914312902166,-7.2084544078025026],[113.01914308897602,-7.2084453675723719]],[[113.01912502461187,-7.2084544877875132],[113.01911597240691,-7.2084545277797494],[113.01911593236183,-7.2084454875494659],[113.0191249845666,-7.2084454475572795],[113.01912502461187,-7.2084544877875132]]],[[[113.01897986898842,-7.2083828057933612],[113.01897982894644,-7.2083737655622881],[113.01897077674226,-7.2083738055512043],[113.01897081678408,-7.2083828457823289],[113.01897986898842,-7.2083828057933612]]],[[[113.0189435000059,-7.2083468048230257],[113.0189525522097,-7.2083467648348005],[113.01895251216844,-7.2083377246035587],[113.01893440776115,-7.2083378045797337],[113.01893444780205,-7.2083468448110777],[113.0189072911902,-7.2083469647741483],[113.01890733123061,-7.208356005005637],[113.018934487843,-7.2083558850424136],[113.01893452788399,-7.2083649252737496],[113.01892547567974,-7.208364965261719],[113.01892551572061,-7.2083740054931011],[113.01894362012942,-7.2083739255168799],[113.0189435000059,-7.2083468048230257]]],[[[113.01886199012996,-7.2083381244772706],[113.01886191005121,-7.2083200440137656],[113.01885285784745,-7.2083200840000501],[113.01885293792584,-7.2083381644636573],[113.01886199012996,-7.2083381244772706]]],[[[113.01888005449831,-7.2083290042723123],[113.0188800144586,-7.2083199640406566],[113.01887096225494,-7.2083200040273008],[113.01887100229447,-7.2083290442590062],[113.01888005449831,-7.2083290042723123]]],[[[113.01887997441894,-7.2083109238089991],[113.01887993437933,-7.2083018835773212],[113.01887088217603,-7.2083019235638632],[113.01887092221546,-7.2083109637955927],[113.01887997441894,-7.2083109238089991]]],[[[113.01822765526677,-7.2081872390915001],[113.01822761524079,-7.2081781988561389],[113.01820951083171,-7.2081782788018502],[113.0182095343835,-7.208183598240347],[113.01822152687819,-7.2081872661534421],[113.01822765526677,-7.2081872390915001]]],[[[113.01823658739306,-7.2081600784123818],[113.01822753518897,-7.208160118385404],[113.01822757521485,-7.208169158620775],[113.01823662741913,-7.2081691186477004],[113.01823658739306,-7.2081600784123818]]],[[[113.01818219411787,-7.2081422377765794],[113.01816408970971,-7.2081423177200952],[113.01816412973423,-7.2081513579558267],[113.01817318193851,-7.2081513179841075],[113.01817322196325,-7.2081603582197848],[113.01818227416769,-7.2081603182478364],[113.01818219411787,-7.2081422377765794]]],[[[113.01823658739306,-7.2081600784123818],[113.01824563959713,-7.2081600384391802],[113.01824555954481,-7.2081419579686328],[113.01823650734109,-7.2081419979417349],[113.01823658739306,-7.2081600784123818]]],[[[113.01817302184001,-7.2081151570413651],[113.01817298181551,-7.2081061168056664],[113.01816392961213,-7.2081061567771352],[113.01816396963645,-7.2081151970128809],[113.01817302184001,-7.2081151570413651]]],[[[113.01822733506033,-7.2081149172085031],[113.01822729503476,-7.2081058769731117],[113.01821824283168,-7.2081059169456516],[113.01821828285706,-7.2081149571810945],[113.01822733506033,-7.2081149172085031]]],[[[113.01824555954481,-7.2081419579686328],[113.01826366395201,-7.2081418780218955],[113.01826354387283,-7.2081147573163502],[113.01824543946671,-7.2081148372627855],[113.01824539944077,-7.2081057970274953],[113.01823634723779,-7.2081058370003932],[113.01823646731519,-7.2081329577064039],[113.01824551951871,-7.2081329177333551],[113.01824555954481,-7.2081419579686328]]],[[[113.01820017845041,-7.2081150371257383],[113.01820923065377,-7.2081149971535075],[113.0182091506034,-7.2080969166825],[113.01818199399423,-7.2080970365983568],[113.01818207404354,-7.2081151170696689],[113.01819112624699,-7.2081150770977924],[113.01819116627189,-7.2081241173333828],[113.0182002184755,-7.2081240773612798],[113.01820017845041,-7.2081150371257383]]],[[[113.01760237279775,-7.2080363127472413],[113.01759446507629,-7.2080363476548612],[113.01760238253145,-7.2080385119155661],[113.01760237279775,-7.2080363127472413]]],[[[113.01762932934716,-7.2079909916729354],[113.01762928933414,-7.2079819514341485],[113.01762023713017,-7.207981991394167],[113.01762027714302,-7.2079910316330027],[113.01762932934716,-7.2079909916729354]]],[[[113.01765648595929,-7.2079908717916572],[113.01765644594572,-7.2079818315530222],[113.01764739374192,-7.2079818715135762],[113.0176474337553,-7.2079909117522609],[113.01765648595929,-7.2079908717916572]]],[[[113.01774696798104,-7.2079814319376316],[113.01773791577774,-7.2079814718999762],[113.01773799580815,-7.2079995523763296],[113.01771989140067,-7.2079996323006839],[113.01771985138581,-7.2079905920624077],[113.01770174697847,-7.2079906719859448],[113.01770178699299,-7.207999712224324],[113.01769273478908,-7.2079997521858736],[113.01769285483238,-7.2080268729011374],[113.01771095924121,-7.2080267929775532],[113.01771099925611,-7.2080358332158641],[113.0177291036651,-7.2080357532914636],[113.01772914368041,-7.2080447935296688],[113.01773819588503,-7.2080447535671484],[113.01773815586955,-7.2080357133289938],[113.01774720807393,-7.2080356733663447],[113.01774732812106,-7.2080627940806519],[113.01775638032591,-7.2080627541176723],[113.01775643580383,-7.2080752874439442],[113.01776549702372,-7.2080772840570431],[113.01776543253072,-7.2080627141545133],[113.01779258914485,-7.2080625942639642],[113.01779250911157,-7.2080445137882707],[113.01780156131582,-7.2080444738244971],[113.01780152129908,-7.2080354335866952],[113.0178105735031,-7.2080353936227937],[113.01781053348624,-7.2080263533850388],[113.01780148128239,-7.2080263933488897],[113.01780144126575,-7.2080173531110798],[113.01777428465448,-7.2080174730014059],[113.01777424463843,-7.2080084327634575],[113.01774708802725,-7.2080085526520206],[113.01774696798104,-7.2079814319376316]]],[[[113.01751165068922,-7.2079915111398627],[113.01752070289398,-7.2079914711819439],[113.01752066288311,-7.2079824309425478],[113.01752971508765,-7.2079823909845002],[113.01752963506571,-7.2079643105058029],[113.01748437404432,-7.2079645102937491],[113.01748453408483,-7.2080006712521456],[113.01746642967446,-7.208000751166475],[113.01746643232248,-7.2080013494846487],[113.01752081240464,-7.2080162144626119],[113.01752078291588,-7.2080095516607381],[113.01751173071075,-7.208009591618759],[113.01751165068922,-7.2079915111398627]]],[[[113.01738435970721,-7.2078655071694593],[113.01737530750418,-7.2078655471239887],[113.0173753875189,-7.2078836276044909],[113.01739349192563,-7.2078835476950562],[113.0173934519179,-7.2078745074549051],[113.01738439971473,-7.2078745474096646],[113.01738435970721,-7.2078655071694593]]],[[[113.01732087426647,-7.2078386661256966],[113.01731182206362,-7.2078387060788156],[113.01731190207551,-7.2078567865600531],[113.01732095427873,-7.2078567466068284],[113.0173210342912,-7.207874827087946],[113.01735724310494,-7.2078746672728595],[113.01735716309105,-7.207856586792146],[113.01733000648188,-7.207856706653426],[113.01732996647554,-7.2078476664128948],[113.01732091427257,-7.2078477063662465],[113.01732087426647,-7.2078386661256966]]],[[[113.01672182903897,-7.2074796928883389],[113.01671277683988,-7.2074797328276246],[113.01671281683191,-7.2074887730717521],[113.01670376463261,-7.2074888130109089],[113.01670372464075,-7.2074797727667299],[113.01669467244157,-7.2074798127056559],[113.01669479241676,-7.2075069334382986],[113.01668574021699,-7.2075069733771997],[113.01668578020863,-7.2075160136214516],[113.01665862360846,-7.2075161334372275],[113.01665866359964,-7.2075251736816108],[113.01665655886082,-7.2075251829677294],[113.01667179056501,-7.2075522370274623],[113.01667688797504,-7.2075522145373938],[113.01667684798338,-7.2075431742931064],[113.01666779578277,-7.2075432142318503],[113.0166677557913,-7.2075341739875087],[113.01667680799174,-7.2075341340488164],[113.01667676800015,-7.2075250938045032],[113.01668582020034,-7.2075250538656821],[113.0166858601921,-7.2075340941099437],[113.01670396459266,-7.207534014231662],[113.01670388460849,-7.2075159337433714],[113.01671293680833,-7.2075158938040635],[113.01671289681613,-7.2075068535599653],[113.01672194901576,-7.2075068136205269],[113.01672182903897,-7.2074796928883389]]],[[[113.01661300269703,-7.2074349709245817],[113.01660578652884,-7.2074350027611995],[113.01661305998498,-7.2074479216466791],[113.01661300269703,-7.2074349709245817]]],[[[113.01588426976366,-7.2064075769291644],[113.01586616539861,-7.2064076567625834],[113.01586618754372,-7.2064126655493705],[113.01588768400006,-7.2064351979999453],[113.01589449052244,-7.2064436935605753],[113.01591158619169,-7.2064436181737115],[113.01591154622139,-7.2064345779247265],[113.01590249403853,-7.2064346178422145],[113.01590245406847,-7.2064255775931576],[113.01589340188571,-7.2064256175104147],[113.01589336191586,-7.2064165772613027],[113.01588430973325,-7.2064166171783315],[113.01588426976366,-7.2064075769291644]]],[[[113.02844474842452,-7.2054751025558872],[113.0284447082113,-7.2054660623767806],[113.02843565611799,-7.2054661025369713],[113.02843569633104,-7.2054751427161294],[113.02844474842452,-7.2054751025558872]]],[[[113.02855289096085,-7.2053661384768413],[113.0285528507461,-7.2053570982982986],[113.02856190283656,-7.2053570581363937],[113.02856186262169,-7.2053480179579168],[113.02853470635068,-7.2053481384429432],[113.02853478677943,-7.2053662188002168],[113.02855289096085,-7.2053661384768413]]],[[[113.02643373619364,-7.2051585668835747],[113.02642468409512,-7.2051586070022644],[113.02642472426659,-7.2051676471928499],[113.02641567216787,-7.2051676873114108],[113.02641575251062,-7.2051857676926687],[113.02640670041147,-7.2051858078111533],[113.02640690126833,-7.2052310087644837],[113.02641595336837,-7.2052309686457461],[113.02641603371183,-7.2052490490269498],[113.02642508581216,-7.2052490089079306],[113.02642512598415,-7.2052580490984761],[113.02645228228545,-7.2052579287401919],[113.02645224211291,-7.2052488885497992],[113.02644319001271,-7.205248928669354],[113.02644306949598,-7.2052218080979999],[113.02645212159565,-7.2052217679785961],[113.02645216176802,-7.2052308081690004],[113.02646121386779,-7.2052307680493675],[113.02646129421305,-7.2052488484300623],[113.02647939841317,-7.2052487681900557],[113.02647935824017,-7.2052397279997953],[113.0264703061403,-7.2052397681198368],[113.02647006510439,-7.2051855269780027],[113.02647911720318,-7.205185486858265],[113.02647907703053,-7.2051764466679948],[113.02647002493191,-7.2051764867876802],[113.0264699847595,-7.2051674465973541],[113.02646093266104,-7.2051674867168103],[113.02646113352274,-7.2052126876686549],[113.02644302932384,-7.2052127679075406],[113.02644290880772,-7.2051856473361395],[113.02645196090667,-7.2051856072169391],[113.02645192073457,-7.2051765670265162],[113.0264428686358,-7.205176607145666],[113.02644282846391,-7.2051675669551889],[113.02643377636529,-7.2051676070741077],[113.02643373619364,-7.2051585668835747]]],[[[113.028714742717,-7.2051213307370583],[113.02871470250042,-7.2051122905593301],[113.02870565041569,-7.2051123307229039],[113.02870569063209,-7.2051213709006818],[113.028714742717,-7.2051213307370583]]],[[[113.02866038999117,-7.2051125315380862],[113.02866034977572,-7.2051034913600507],[113.02865129769084,-7.2051035315224974],[113.02865133790614,-7.2051125717005844],[113.02866038999117,-7.2051125315380862]]],[[[113.02866924099848,-7.2050672904854451],[113.0286692007831,-7.2050582503074416],[113.02865109661521,-7.2050583306320082],[113.02865113683023,-7.2050673708101147],[113.02866924099848,-7.2050672904854451]]],[[[113.02866916056777,-7.2050492101294337],[113.0286691203525,-7.2050401699514213],[113.02866006826893,-7.205040210113693],[113.02866010848403,-7.2050492502917551],[113.02866916056777,-7.2050492101294337]]],[[[113.02784525993894,-7.2050167034375079],[113.02784521974017,-7.2050076632548503],[113.02783616765259,-7.2050077034006366],[113.02783620785118,-7.2050167435833448],[113.02784525993894,-7.2050167034375079]]],[[[113.02902199068282,-7.2050024427791515],[113.02902191023885,-7.2049843624270578],[113.02901285815837,-7.2049844025960024],[113.02901293860198,-7.2050024829481965],[113.02902199068282,-7.2050024427791515]]],[[[113.02764567185633,-7.2049181445828445],[113.02764563166207,-7.2049091043990261],[113.02763657957533,-7.2049091445403164],[113.02763661976942,-7.2049181847241881],[113.02764567185633,-7.2049181445828445]]],[[[113.02731943500643,-7.2048382278874463],[113.02731038291927,-7.2048382680218896],[113.02731054366845,-7.2048744287647937],[113.02731959575632,-7.2048743886301478],[113.02731955556877,-7.2048653484444793],[113.02732860765643,-7.2048653083097038],[113.02732856746876,-7.2048562681240806],[113.02731951538128,-7.2048563082588046],[113.02731943500643,-7.2048382278874463]]],[[[113.02760894099636,-7.2048007827545488],[113.02759988891155,-7.204800822894514],[113.0275999291043,-7.2048098630786326],[113.02759087701928,-7.2048099032184698],[113.0275909172119,-7.2048189434026195],[113.02759996929709,-7.2048189032627317],[113.02760004968283,-7.204836983630968],[113.02760910176835,-7.2048369434907986],[113.02760894099636,-7.2048007827545488]]],[[[113.02732832634378,-7.204802027010266],[113.02732828615646,-7.2047929868246179],[113.02731923407022,-7.2047930269589866],[113.02731927425737,-7.2048020671446844],[113.02732832634378,-7.204802027010266]]],[[[113.02760894099636,-7.2048007827545488],[113.02761799308108,-7.2048007426144052],[113.02761795288805,-7.204791702430386],[113.02760890080349,-7.2047917425704773],[113.02760894099636,-7.2048007827545488]]],[[[113.02710186343732,-7.2047668695693563],[113.02710182325468,-7.2047578293824204],[113.02709277116787,-7.2047578695121119],[113.02709281135033,-7.2047669096990985],[113.02710186343732,-7.2047668695693563]]],[[[113.02704751073313,-7.2047580701578857],[113.02704743037017,-7.204739989783393],[113.02703837828344,-7.2047400299119095],[113.02703845864605,-7.2047581102865053],[113.02704751073313,-7.2047580701578857]]],[[[113.02708371908105,-7.204757909641625],[113.02708363871666,-7.2047398292675391],[113.02706553454352,-7.2047399095258235],[113.0270656149072,-7.2047579899001146],[113.02708371908105,-7.204757909641625]]],[[[113.01652887072848,-7.2047864984396854],[113.01652883075523,-7.2047774581934974],[113.01651977860871,-7.2047774981140726],[113.01651981858177,-7.2047865383603114],[113.01652887072848,-7.2047864984396854]]],[[[113.01591316479058,-7.204753051636076],[113.01590411264108,-7.2047530915443341],[113.01590415260179,-7.2047621317940429],[113.01589510045207,-7.2047621717021704],[113.01589514041268,-7.2047712119519254],[113.01591324471242,-7.204771132135388],[113.01591316479058,-7.204753051636076]]],[[[113.01591316479058,-7.204753051636076],[113.01592221694003,-7.2047530117276404],[113.01592233682344,-7.2047801324764658],[113.01593138897336,-7.204780092567697],[113.01593134901199,-7.204771052318133],[113.01594040116171,-7.2047710124092355],[113.01594032123877,-7.2047529319102308],[113.01593126908941,-7.2047529718190244],[113.0159312291282,-7.2047439315694666],[113.01591312482971,-7.204744011386417],[113.01591316479058,-7.204753051636076]]],[[[113.02693772050421,-7.2044963862401579],[113.02693768032636,-7.2044873460521917],[113.02692862824399,-7.2044873861771377],[113.02692866842166,-7.2044964263651536],[113.02693772050421,-7.2044963862401579]]],[[[113.01766832093952,-7.2045283402927813],[113.01766824095084,-7.2045102598129116],[113.017659188816,-7.2045102997545625],[113.01765922881013,-7.2045193399945484],[113.01765017667503,-7.2045193799360696],[113.01765021666905,-7.2045284201761053],[113.01766832093952,-7.2045283402927813]]],[[[113.02801483755748,-7.2044735297244253],[113.02801479735841,-7.2044644895425058],[113.02800574528258,-7.2044645296886394],[113.02800578548147,-7.2044735698706086],[113.02801483755748,-7.2044735297244253]]],[[[113.02746237951006,-7.2044126970190021],[113.0274624196979,-7.2044217372040471],[113.02747147177595,-7.204421697068903],[113.02747143158794,-7.2044126568839086],[113.02746237951006,-7.2044126970190021]]],[[[113.02743522327616,-7.2044128174232096],[113.02743518308893,-7.2044037772379914],[113.02742613101103,-7.2044038173723184],[113.0274261711981,-7.2044128575575872],[113.02743522327616,-7.2044128174232096]]],[[[113.02746237951006,-7.2044126970190021],[113.02746233932228,-7.2044036568339367],[113.02745328724455,-7.2044036969688001],[113.02745332743216,-7.2044127371539162],[113.02746237951006,-7.2044126970190021]]],[[[113.0281954770427,-7.2043823249540093],[113.02819543684056,-7.2043732847730704],[113.0281773326945,-7.2043733650712962],[113.02817737289627,-7.2043824052523346],[113.0281954770427,-7.2043823249540093]]],[[[113.01761348821866,-7.2044110568172295],[113.01761344822603,-7.2044020165769576],[113.01760439609303,-7.2044020565169289],[113.01760443608548,-7.204411096757247],[113.01761348821866,-7.2044110568172295]]],[[[113.02810487590787,-7.204364646075585],[113.02810483570764,-7.2043556058941469],[113.02809578363448,-7.2043556460414573],[113.02809582383453,-7.2043646862229478],[113.02810487590787,-7.204364646075585]]],[[[113.01764052463859,-7.2043838162756844],[113.01764048464558,-7.2043747760355377],[113.01763143251327,-7.2043748159758927],[113.01763147250611,-7.2043838562160882],[113.01764052463859,-7.2043838162756844]]],[[[113.02798679697359,-7.2042747661559998],[113.02798671657885,-7.2042566857916857],[113.02797766450699,-7.2042567259361112],[113.02797774490136,-7.2042748063005266],[113.02798679697359,-7.2042747661559998]]],[[[113.02801387279415,-7.2042565653573369],[113.02800482072246,-7.204256605502299],[113.0280049011179,-7.204274685866408],[113.02799584904575,-7.2042747260112927],[113.02799588924339,-7.2042837661933934],[113.02800494131569,-7.2042837260484562],[113.02800498151355,-7.2042927662305019],[113.02801403358598,-7.2042927260853356],[113.02801387279415,-7.2042565653573369]]],[[[113.0213960733777,-7.2041231396479795],[113.02138702127144,-7.2041231796612557],[113.02138706133726,-7.2041322198805373],[113.02139611344371,-7.2041321798672104],[113.0213960733777,-7.2041231396479795]]],[[[113.0213960733777,-7.2041231396479795],[113.02140512548394,-7.2041230996345247],[113.02140516555012,-7.2041321398537033],[113.02141421765646,-7.2041320998400158],[113.02141401732516,-7.2040868987444018],[113.0214049652197,-7.2040869387578361],[113.02140504535171,-7.204105019196188],[113.02139599324583,-7.2041050592095415],[113.0213960733777,-7.2041231396479795]]],[[[113.01716857420968,-7.2041056454115937],[113.01716853422757,-7.204096605168699],[113.01715948209811,-7.2040966450981792],[113.01715952208004,-7.2041056853411263],[113.01716857420968,-7.2041056454115937]]],[[[113.02745075553017,-7.2038341652999023],[113.02745071534588,-7.2038251251145429],[113.02743261121317,-7.2038252053772203],[113.02743265139711,-7.2038342455626836],[113.02745075553017,-7.2038341652999023]]],[[[113.02770413299272,-7.203814961178006],[113.02770409280353,-7.2038059209940792],[113.02769504073902,-7.2038059611304144],[113.02769508092804,-7.2038150013143927],[113.02770413299272,-7.203814961178006]]],[[[113.02762254384598,-7.2037882018458843],[113.02762246347116,-7.2037701214770919],[113.02761341140692,-7.2037701616116152],[113.02761349178137,-7.2037882419805088],[113.02762254384598,-7.2037882018458843]]],[[[113.01704961719345,-7.2038168766859734],[113.01704957721532,-7.2038078364422979],[113.01704052509092,-7.2038078763678328],[113.01704056506887,-7.2038169166115598],[113.01704961719345,-7.2038168766859734]]],[[[113.01706756152878,-7.2037806358599612],[113.0170675215505,-7.2037715956163568],[113.01705846942696,-7.2037716355420471],[113.01705850940505,-7.2037806757857048],[113.01706756152878,-7.2037806358599612]]],[[[113.01717606706859,-7.2037530360081323],[113.0171759871081,-7.2037349555221439],[113.0171850392303,-7.20373491559433],[113.01718495926966,-7.2037168351084269],[113.01717590714782,-7.2037168750361422],[113.01717594712794,-7.2037259152791426],[113.01716689500589,-7.2037259552067292],[113.01716701494601,-7.2037530759358699],[113.01717606706859,-7.2037530360081323]]],[[[113.01639738451397,-7.203711267902924],[113.01639734454936,-7.2037022276555591],[113.0163882924234,-7.2037022675676088],[113.01638833238783,-7.2037113078150226],[113.01639738451397,-7.203711267902924]]],[[[113.01716677506624,-7.2036988344775548],[113.01716669510674,-7.2036807539914198],[113.01715764298551,-7.2036807939185712],[113.01715768296506,-7.2036898341616933],[113.01714863084364,-7.2036898740887176],[113.01714867082305,-7.2036989143318841],[113.01716677506624,-7.2036988344775548]]],[[[113.02112218673871,-7.2036000071593733],[113.02109503044626,-7.2036001271737433],[113.02109507050336,-7.2036091673948679],[113.02111317469874,-7.203609087385364],[113.02111321475624,-7.2036181276063651],[113.02112226685405,-7.2036180876012956],[113.02112230691179,-7.2036271278222408],[113.0211313590097,-7.2036270878169413],[113.0211312788939,-7.203609007375146],[113.02112222679636,-7.2036090473803451],[113.02112218673871,-7.2036000071593733]]],[[[113.02110396237227,-7.20357296650596],[113.02108585817821,-7.2035730465146983],[113.02108589823499,-7.2035820867358655],[113.02107684613772,-7.2035821267400193],[113.02107688619436,-7.2035911669612345],[113.02112214668112,-7.2035909669384308],[113.02112210662359,-7.2035819267174688],[113.02110400242938,-7.2035820067270278],[113.02110396237227,-7.20357296650596]]],[[[113.02095912881414,-7.2035736065558416],[113.02095908875994,-7.2035645663339603],[113.02095003666228,-7.2035646063355072],[113.0209500767163,-7.2035736465574409],[113.02095912881414,-7.2035736065558416]]],[[[113.02104055763638,-7.2035642063119925],[113.02103150553921,-7.2035642463151497],[113.02103154559485,-7.203573286536626],[113.02104059769221,-7.2035732465334172],[113.02104055763638,-7.2035642063119925]]],[[[113.02104055763638,-7.2035642063119925],[113.02104960973352,-7.2035641663086576],[113.02104956967757,-7.2035551260872941],[113.02104051758062,-7.2035551660905792],[113.02104055763638,-7.2035642063119925]]],[[[113.02107676602459,-7.2035640462975765],[113.0210767259681,-7.2035550060763676],[113.0210676738713,-7.2035550460801883],[113.02106771392761,-7.2035640863014487],[113.02107676602459,-7.2035640462975765]]],[[[113.01770934240324,-7.2035698751542174],[113.01770930241344,-7.2035608349141187],[113.01770025029765,-7.2035608748513473],[113.01770029028728,-7.2035699150914949],[113.01770934240324,-7.2035698751542174]]],[[[113.01759987727826,-7.2033805093344769],[113.01759983729167,-7.2033714690937094],[113.01759078517902,-7.2033715090277264],[113.01759082516541,-7.2033805492685472],[113.01759987727826,-7.2033805093344769]]],[[[113.01759979730515,-7.2033624288529534],[113.01759975731868,-7.2033533886121601],[113.01759070520637,-7.2033534285460759],[113.01759074519266,-7.2033624687869198],[113.01759979730515,-7.2033624288529534]]],[[[113.02104848818642,-7.2033110401086118],[113.02104844813192,-7.2033019998871257],[113.02100318767175,-7.2033021998946607],[113.02100322772536,-7.2033112401163999],[113.02104848818642,-7.2033110401086118]]],[[[113.01712756829272,-7.203020975929884],[113.01712752831753,-7.203011935686332],[113.01711847620938,-7.203011975609023],[113.0171185161844,-7.2030210158526264],[113.01712756829272,-7.203020975929884]]],[[[113.01703688731368,-7.2029852141730055],[113.01703684734048,-7.2029761739289331],[113.01702779523252,-7.2029762138496327],[113.01702783520555,-7.2029852540937549],[113.01703688731368,-7.2029852141730055]]],[[[113.02879460750422,-7.2027252819958525],[113.02878555546729,-7.2027253221477743],[113.0287856358764,-7.2027434025043053],[113.02880373995094,-7.2027433222000798],[113.02880369974601,-7.2027342820219333],[113.02879464770893,-7.2027343221740843],[113.02879460750422,-7.2027252819958525]]],[[[113.02877485509653,-7.2023547149851685],[113.02877481489436,-7.2023456748066899],[113.02876576286485,-7.2023457149561168],[113.02876580306685,-7.2023547551346461],[113.02877485509653,-7.2023547149851685]]]]},"properties":{"FID":0,"Shape_Leng":18102566.929299999,"Shape_Area":236516885.403}}]
}