{
  "type" : "FeatureCollection",
  "features" : [{"type":"Feature","id":0,"geometry":{"type":"MultiPolygon","coordinates":[[[[114.06098493193304,-7.097923439210569],[114.06098487218075,-7.0979144062745014],[114.0609758294982,-7.0979144659622495],[114.0609758892503,-7.0979234988983917],[114.06098493193304,-7.097923439210569]]],[[[114.06059922482559,-7.0970316849405393],[114.06059916508842,-7.0970226520008701],[114.06059012242,-7.0970227116736444],[114.06059018215699,-7.0970317446133908],[114.06059922482559,-7.0970316849405393]]],[[[114.06076061883894,-7.096822853217553],[114.06076049936193,-7.0968047873407887],[114.06075145669914,-7.0968048470148837],[114.06075157617579,-7.0968229128918026],[114.06076061883894,-7.096822853217553]]],[[[114.06027040362667,-7.0965370212129546],[114.06027034390013,-7.0965279882703038],[114.06026130123855,-7.0965280479325363],[114.06026136096493,-7.0965370808752635],[114.06027040362667,-7.0965370212129546]]],[[[114.0603332244365,-7.0964643400348342],[114.06033316470935,-7.0964553070927066],[114.06032412204975,-7.0964553667555546],[114.06032418177674,-7.0964643996977603],[114.0603332244365,-7.0964643400348342]]],[[[114.05798886474767,-7.0906532872681245],[114.0579888051156,-7.0906442543038475],[114.05797976254946,-7.0906443138724811],[114.05797982218137,-7.0906533468368345],[114.05798886474767,-7.0906532872681245]]],[[[114.05371058361051,-7.0785676699168487],[114.05370422618813,-7.0785601678259091],[114.0537042758319,-7.0785677113424077],[114.05371058361051,-7.0785676699168487]]],[[[114.05354978282581,-7.0784512917693165],[114.05354972338372,-7.0784422587627134],[114.05353163865163,-7.0784423775234053],[114.05353169809338,-7.0784514105301621],[114.05354978282581,-7.0784512917693165]]],[[[114.05357663677646,-7.0784096055539321],[114.05357667215391,-7.0784149816012176],[114.05356762978866,-7.0784150409819464],[114.0535678081155,-7.0784421400013207],[114.05355876574967,-7.0784421993821054],[114.05355894407668,-7.0784692984016893],[114.05356798644306,-7.0784692390206763],[114.05356804588573,-7.0784782720270982],[114.0535861306186,-7.0784781532643919],[114.05358607117557,-7.0784691202581236],[114.0535951135417,-7.0784690608765839],[114.05359523242818,-7.0784871268889811],[114.05357714769511,-7.0784872456521892],[114.05357720713812,-7.0784962786585428],[114.05356816477129,-7.0784963380399626],[114.0535682242142,-7.0785053710463881],[114.05360439368171,-7.0785051335193572],[114.05360445312539,-7.0785141665254567],[114.05361349549227,-7.0785141071431843],[114.05361355493619,-7.0785231401492368],[114.05364068203684,-7.0785229620011405],[114.05364074148139,-7.0785319950069416],[114.05368013275857,-7.0785317363148534],[114.05357663677646,-7.0784096055539321]]],[[[114.05357355481674,-7.0784059686758543],[114.05356752325045,-7.0783988511032145],[114.05356757034654,-7.0784060079754809],[114.05357355481674,-7.0784059686758543]]],[[[114.0530684572097,-7.0781382833195243],[114.05306839777964,-7.0781292503087263],[114.05305935541566,-7.0781293096771964],[114.05305941484556,-7.0781383426880708],[114.0530684572097,-7.0781382833195243]]],[[[114.05323104145191,-7.0781101156274389],[114.05323110088497,-7.0781191486368673],[114.05324014324732,-7.0781190892651464],[114.05324008381407,-7.0781100562557917],[114.05323104145191,-7.0781101156274389]]],[[[114.05302158140009,-7.077885655845936],[114.0530216408272,-7.0778946888572412],[114.05303068318695,-7.0778946294914604],[114.05303062375967,-7.0778855964802307],[114.05302158140009,-7.077885655845936]]],[[[114.05324008381407,-7.0781100562557917],[114.05324912617615,-7.0781099968839714],[114.05324924504308,-7.0781280629025192],[114.05325828740544,-7.0781280035303711],[114.05325834683919,-7.0781370365395606],[114.05326738920164,-7.0781369771671594],[114.05326744863564,-7.0781460101762539],[114.05327649099819,-7.0781459508036022],[114.05327660986678,-7.0781640168216766],[114.05326756750388,-7.078164076194482],[114.05326762693812,-7.07817310920358],[114.0532857116642,-7.0781729904576389],[114.05328577109887,-7.0781820234665815],[114.05330385582499,-7.0781819047197878],[114.05330397469527,-7.0781999707373533],[114.05331301705854,-7.0781999113635408],[114.05331313592947,-7.0782179773809384],[114.05332217829303,-7.0782179180067972],[114.05332223772879,-7.0782269510154121],[114.05334032245604,-7.0782268322664521],[114.05334038189221,-7.0782358652749116],[114.05334942425593,-7.0782358059000909],[114.05334954312887,-7.0782538719168446],[114.05338571258422,-7.0782536344152023],[114.05338577202151,-7.0782626674232825],[114.05339481438533,-7.0782626080473579],[114.05339487382287,-7.0782716410553261],[114.05341295855062,-7.0782715223027974],[114.0534130179886,-7.0782805553106227],[114.05344014508017,-7.0782803771802874],[114.05344032339616,-7.0783074762030376],[114.0534493657604,-7.0783074168256785],[114.05344948463846,-7.0783254828407021],[114.05345852700295,-7.0783254234630144],[114.05345846756371,-7.0783163904555897],[114.05346750992797,-7.0783163310778043],[114.05346762880689,-7.0783343970924957],[114.05345858644228,-7.0783344564704365],[114.05345876476069,-7.0783615554926724],[114.05347684949088,-7.0783614367361594],[114.05347690893086,-7.07837046974341],[114.053485951296,-7.0783704103648164],[114.05348607017655,-7.0783884763791534],[114.05350415490732,-7.0783883576211331],[114.05350409546664,-7.0783793246141178],[114.05353122256167,-7.0783791464760002],[114.05353128200287,-7.0783881794827845],[114.05354936673284,-7.0783880607230127],[114.05354942617447,-7.0783970937296381],[114.05356594210899,-7.078396985271163],[114.05340972200008,-7.078212636999984],[114.0529842075849,-7.0777413667856113],[114.05295733407769,-7.0777415432112303],[114.05295745292702,-7.0777596092350032],[114.05296649528466,-7.0777595498715957],[114.05296661413465,-7.0777776158951822],[114.05297565649259,-7.0777775565314469],[114.05297571591787,-7.0777865895431828],[114.05298475827588,-7.0777865301791962],[114.05298493655273,-7.0778136292141003],[114.05297589419419,-7.0778136885783169],[114.05297607247121,-7.0778407876134146],[114.05296703011203,-7.0778408469776855],[114.05296714896342,-7.0778589130012168],[114.05297619132294,-7.0778588536367923],[114.05297625074893,-7.0778678866484759],[114.05299433546803,-7.0778677679189501],[114.05299439489444,-7.0778768009304756],[114.05301247961361,-7.0778766822000954],[114.05301253904047,-7.0778857152114645],[114.05302158140009,-7.077885655845936],[114.05302152197308,-7.0778766228346441],[114.05303056433249,-7.0778765634690144],[114.05303062375967,-7.0778855964802307],[114.05305775083789,-7.077885418382067],[114.05305763198254,-7.0778673523600899],[114.05306667434144,-7.0778672929938367],[114.05306691205317,-7.0779034250374702],[114.05308499677214,-7.0779033063038277],[114.05308505620062,-7.0779123393145733],[114.05310314091963,-7.0779122205800773],[114.05310320034854,-7.0779212535906666],[114.0531212850676,-7.077921134855317],[114.05312134449693,-7.0779301678657465],[114.05313038685651,-7.0779301084977337],[114.05313062457533,-7.0779662405391113],[114.05313966693555,-7.077966181170618],[114.05313972636563,-7.0779752141808752],[114.05314876872593,-7.0779751548121288],[114.05314882815624,-7.0779841878222891],[114.05315787051666,-7.0779841284532896],[114.05315798937788,-7.0780021944734974],[114.05316703173857,-7.0780021351041711],[114.05316709116948,-7.0780111681141848],[114.05317613353024,-7.0780111087446054],[114.05317637125536,-7.0780472407843087],[114.05318541361676,-7.0780471814142496],[114.05318553248013,-7.0780652474339254],[114.05319457484183,-7.0780651880635368],[114.05319463427379,-7.0780742210732912],[114.05320367663556,-7.0780741617026521],[114.05320379550011,-7.0780922277219975],[114.05321283786216,-7.0780921683510307],[114.05321277842967,-7.0780831353414362],[114.05322182079146,-7.0780830759703699],[114.05322193965685,-7.0781011419894178],[114.05321289729473,-7.0781012013606359],[114.05321295672736,-7.0781102343702065],[114.05323104145191,-7.0781101156274389],[114.05323098201892,-7.078101082618022],[114.05324002438091,-7.0781010232464538],[114.05324008381407,-7.0781100562557917]],[[114.05303044547834,-7.0778584974465701],[114.05301236076016,-7.0778586161773456],[114.05301230133357,-7.0778495831659809],[114.05300325897456,-7.0778496425310289],[114.0530031995482,-7.0778406095195505],[114.05299415718927,-7.0778406688843472],[114.05299409776316,-7.0778316358728048],[114.05302122483916,-7.0778314577781209],[114.05302134369249,-7.0778495238007579],[114.05303038605138,-7.07784946443536],[114.05303044547834,-7.0778584974465701]]],[[[114.05289337186805,-7.0776407632249425],[114.05289344334473,-7.0776516286246487],[114.0529024857008,-7.0776515692633861],[114.05290260454646,-7.0776696352881556],[114.05291164690286,-7.0776695759265644],[114.05291176574917,-7.0776876419511829],[114.0529208081058,-7.0776875825892631],[114.05292092695278,-7.07770564861368],[114.05293901166654,-7.0777055298890081],[114.05293907109051,-7.0777145629010665],[114.05295988278485,-7.0777144262729479],[114.05289337186805,-7.0776407632249425]]],[[[114.05288690840241,-7.0776336047198942],[114.052884262755,-7.077630674576521],[114.05288428214391,-7.0776336219606444],[114.05288690840241,-7.0776336047198942]]],[[[114.05287880013933,-7.0776246245459378],[114.05287515364235,-7.077620585927729],[114.05287518036596,-7.0776246483087748],[114.05287880013933,-7.0776246245459378]]]]},"properties":{"FID":0,"Shape_Leng":18102566.929299999,"Shape_Area":236516885.403}}]
}