{
  "type" : "FeatureCollection",
  "features" : [{"type":"Feature","id":0,"geometry":{"type":"MultiPolygon","coordinates":[[[[113.81522725824927,-7.079503548835171],[113.81522714861971,-7.0794854789451511],[113.81521810429258,-7.0794855337029077],[113.81521821392178,-7.079503603593067],[113.81522725824927,-7.079503548835171]]],[[[113.81522709380503,-7.0794764440001616],[113.81522698417592,-7.0794583741101365],[113.81521793984932,-7.0794584288676807],[113.81521804947809,-7.079476498757848],[113.81522709380503,-7.0794764440001616]]],[[[113.81523575443001,-7.0794131446276358],[113.81523569961574,-7.0794041096826676],[113.81522665529027,-7.0794041644399641],[113.81522671010435,-7.0794131993850016],[113.81523575443001,-7.0794131446276358]]],[[[113.81523548035938,-7.0793679699027576],[113.81523542554547,-7.0793589349577699],[113.81523394941412,-7.0793589438947055],[113.81523174839072,-7.0793679924972199],[113.81523548035938,-7.0793679699027576]]],[[[113.81929490791947,-7.0716543797894769],[113.819294853087,-7.0716453448731986],[113.81928718259492,-7.071645391330021],[113.81928582458684,-7.0716479771333898],[113.81928586377657,-7.0716544345659598],[113.81929490791947,-7.0716543797894769]]],[[[113.81930384239706,-7.0716362551804171],[113.81930370688953,-7.0716139271736278],[113.81929476573842,-7.071630952153436],[113.81929479825459,-7.0716363099569328],[113.81930384239706,-7.0716362551804171]]],[[[113.81932182101616,-7.0716180757947402],[113.81932176618345,-7.0716090408786751],[113.81931272204163,-7.0716090956553295],[113.81931277687417,-7.0716181305714656],[113.81932182101616,-7.0716180757947402]]]]},"properties":{"FID":0,"Shape_Leng":18102566.929299999,"Shape_Area":236516885.403}}]
}