{
  "type" : "FeatureCollection",
  "features" : [{"type":"Feature","id":0,"geometry":{"type":"MultiPolygon","coordinates":[[[[113.75045462608298,-7.7353651451915768],[113.75045290398606,-7.7353651562989691],[113.75045307970736,-7.7353922618377071],[113.75049837076007,-7.7353919697105953],[113.75049854648488,-7.7354190752482426],[113.7505076046958,-7.7354190168220383],[113.75050744433081,-7.7353942806229234],[113.75045462608298,-7.7353651451915768]]],[[[113.7502710955055,-7.735266937764508],[113.75027108186895,-7.7352648341148651],[113.75026199168023,-7.7352599592176423],[113.75026203729601,-7.7352669961845528],[113.7502710955055,-7.735266937764508]]],[[[113.74944486599276,-7.7349740920200887],[113.74944480744358,-7.7349650568326567],[113.74941763281534,-7.7349652320328035],[113.74941769136394,-7.7349742672204425],[113.74944486599276,-7.7349740920200887]]],[[[113.748808098585,-7.734562560730021],[113.74880804005251,-7.734553525537561],[113.74879898184707,-7.7345535839212021],[113.74879904037937,-7.7345626191137278],[113.748808098585,-7.734562560730021]]],[[[113.74878992364158,-7.7345536423046495],[113.74878986510957,-7.7345446071120296],[113.74878080690418,-7.7345446654952168],[113.74878086543599,-7.7345537006879042],[113.74878992364158,-7.7345536423046495]]],[[[113.74262991879345,-7.7345300519602711],[113.74262980199198,-7.7345119814812646],[113.74262074374029,-7.7345120397334695],[113.74262086054138,-7.7345301102126136],[113.74262991879345,-7.7345300519602711]]],[[[113.74285619985604,-7.7345014898760605],[113.74283808335649,-7.7345016063897285],[113.74283814176152,-7.7345106416276543],[113.74284720001152,-7.7345105833708478],[113.74284725841684,-7.7345196186087026],[113.74285631666699,-7.7345195603516332],[113.74285619985604,-7.7345014898760605]]],[[[113.74262968519079,-7.7344939110022581],[113.7426296267903,-7.7344848757627247],[113.74262170530302,-7.7344849267044049],[113.74262059391187,-7.7344888594784358],[113.74262062693948,-7.7344939692543244],[113.74262968519079,-7.7344939110022581]]],[[[113.74264791849517,-7.7345118649762838],[113.74264786009415,-7.7345028297369112],[113.74265691834543,-7.7345027714842018],[113.74265680154323,-7.7344847010055835],[113.74264774329234,-7.734484759258156],[113.74264780169321,-7.7344937944975527],[113.74263874344203,-7.73449385275],[113.7426388602436,-7.7345119232288697],[113.74264791849517,-7.7345118649762838]]],[[[113.74857123910175,-7.7343562691751995],[113.74854406449244,-7.7343564443060284],[113.74854412301779,-7.7343654795005792],[113.74855318122117,-7.734365421123762],[113.74855323974678,-7.7343744563182417],[113.74852606513589,-7.7343746314483317],[113.74852612366099,-7.7343836666430148],[113.74849894904889,-7.7343838417715851],[113.7484990075735,-7.7343928769664716],[113.74848994936913,-7.7343929353423482],[113.74849018346748,-7.7344290761221242],[113.74849924167259,-7.7344290177459714],[113.74849930019755,-7.7344380529408365],[113.748517416608,-7.7344379361878186],[113.74851718250707,-7.7344017954088873],[113.74852624071141,-7.7344017370323694],[113.74852629923673,-7.7344107722270401],[113.74853535744121,-7.7344107138502585],[113.74853541596678,-7.7344197490448554],[113.74852635776212,-7.7344198074217054],[113.7485265333387,-7.7344469130056774],[113.74853559154396,-7.7344468546286205],[113.74853553301816,-7.734437819434036],[113.74854459122312,-7.7344377610568573],[113.74854453269721,-7.7344287258623368],[113.74856264910656,-7.7344286091075389],[113.74856270763287,-7.7344376443019218],[113.74858082404232,-7.7344375275462189],[113.74858088256909,-7.7344465627404588],[113.74858994077388,-7.7344465043622499],[113.74859005782798,-7.7344645747505778],[113.74860817423817,-7.7344644579933117],[113.74860823276572,-7.7344734931873322],[113.74862634917601,-7.7344733764291584],[113.74862629064809,-7.7344643412352774],[113.74861723244315,-7.7344643996143896],[113.74861717391549,-7.7344553644204526],[113.74860811571071,-7.7344554227993054],[113.74860794012872,-7.7344283172171915],[113.74861699833293,-7.7344282588385465],[113.74861693980554,-7.7344192236445748],[113.74862599800952,-7.7344191652658063],[113.74862593948201,-7.7344101300718995],[113.7486349976857,-7.7344100716930075],[113.74863493915807,-7.7344010364991647],[113.74862588095458,-7.7344010948779882],[113.74862576389992,-7.7343830244901524],[113.74858953108675,-7.7343832580029703],[113.7485894725603,-7.7343742228087695],[113.74858041435704,-7.734374281186426],[113.74858035583084,-7.7343652459921515],[113.74857129762768,-7.7343653043695468],[113.74857123910175,-7.7343562691751995]]],[[[113.74841724964064,-7.7343572615603939],[113.74841719111805,-7.7343482263648706],[113.74840813291399,-7.7343482847386751],[113.74840819143638,-7.7343573199342686],[113.74841724964064,-7.7343572615603939]]],[[[113.7429460814668,-7.7343924844506864],[113.74294596465398,-7.7343744139763571],[113.74293690640762,-7.73437447223424],[113.74293702322004,-7.7343925427087079],[113.7429460814668,-7.7343924844506864]]],[[[113.74272856672219,-7.7343758121126234],[113.74272850832051,-7.7343667768738245],[113.74271945007267,-7.7343668351270356],[113.74271950847417,-7.7343758703659038],[113.74272856672219,-7.7343758121126234]]],[[[113.74838989946193,-7.7343303310942337],[113.74838084125804,-7.734330389467325],[113.7483808997797,-7.7343394246631174],[113.7483718415756,-7.7343394830360852],[113.74837190009715,-7.7343485182319753],[113.74839907470989,-7.7343483431122886],[113.74839901618776,-7.7343393079166054],[113.74838995798379,-7.7343393662899569],[113.74838989946193,-7.7343303310942337]]],[[[113.74297302257891,-7.7343561687276514],[113.7429729057655,-7.7343380982537182],[113.74298196401078,-7.7343380399953423],[113.742981905604,-7.7343290047584201],[113.7429637891137,-7.7343291212748406],[113.74296390592659,-7.7343471917489399],[113.74295484768096,-7.7343472500069996],[113.74295490608732,-7.734356285244103],[113.74297302257891,-7.7343561687276514]]],[[[113.74278262419543,-7.7343302863968555],[113.74278256579294,-7.73432125115845],[113.74276444929994,-7.7343213676662934],[113.74276450770205,-7.7343304029048392],[113.74278262419543,-7.7343302863968555]]],[[[113.74275544945525,-7.7343304611585406],[113.74275534467334,-7.734314250561197],[113.74274411461789,-7.7343305340527566],[113.74275544945525,-7.7343304611585406]]],[[[113.74282774021749,-7.7343028894093093],[113.74281868197176,-7.7343029476641485],[113.74281879877806,-7.7343210181404594],[113.74283691527022,-7.7343209016303129],[113.74283685686663,-7.7343118663922974],[113.74282779862081,-7.7343119246473986],[113.74282774021749,-7.7343028894093093]]],[[[113.74299990527985,-7.7343108177676996],[113.74299984687288,-7.7343017825309204],[113.74298173038403,-7.7343018990476944],[113.74298178879062,-7.7343109342846121],[113.74299990527985,-7.7343108177676996]]],[[[113.74815397652242,-7.734268602349414],[113.74815391800611,-7.7342595671518479],[113.74814485980197,-7.7342596255193996],[113.74814491831808,-7.7342686607170359],[113.74815397652242,-7.734268602349414]]],[[[113.74311748722481,-7.7342829546814116],[113.74311742881557,-7.7342739194454975],[113.74310837057267,-7.7342739777062661],[113.74310842898174,-7.7342830129422522],[113.74311748722481,-7.7342829546814116]]],[[[113.74282756500797,-7.7342757836950167],[113.74282750660495,-7.7342667484569114],[113.74281844835997,-7.7342668067114753],[113.74281850676282,-7.7342758419496507],[113.74282756500797,-7.7342757836950167]]],[[[113.74318989475621,-7.7342734533524267],[113.74318983634549,-7.7342644181170774],[113.74318077810335,-7.7342644763793125],[113.74318083651389,-7.7342735116147319],[113.74318989475621,-7.7342734533524267]]],[[[113.74311731199727,-7.7342558489736888],[113.74311725358822,-7.7342468137377773],[113.74310819534591,-7.7342468719983417],[113.74310825375477,-7.7342559072343207],[113.74311731199727,-7.7342558489736888]]],[[[113.74281821474933,-7.7342306657587354],[113.74281816623174,-7.7342231597783142],[113.74281296638958,-7.7342306995112651],[113.74281821474933,-7.7342306657587354]]],[[[113.74806298487657,-7.7342059396291063],[113.74806286784886,-7.7341878692325299],[113.74805380964551,-7.7341879275976124],[113.74805392667284,-7.7342059979943283],[113.74806298487657,-7.7342059396291063]]],[[[113.74796316909678,-7.7341794760388325],[113.74796328612013,-7.7341975464369348],[113.74797234432435,-7.7341974880737023],[113.74797246134835,-7.734215558471651],[113.74798151955288,-7.7342155001080881],[113.74798146104065,-7.7342064649091844],[113.74799051924491,-7.7342064065454981],[113.74799040222028,-7.7341883361478176],[113.74798134401641,-7.7341883945113645],[113.74798128550439,-7.7341793593124502],[113.74796316909678,-7.7341794760388325]]],[[[113.74307167033656,-7.7342019288573418],[113.74306261209485,-7.7342019871166006],[113.74306272891,-7.7342200575892877],[113.7430808453941,-7.7342199410702994],[113.74308078698611,-7.7342109058340958],[113.74307172874428,-7.7342109640936174],[113.74307167033656,-7.7342019288573418]]],[[[113.74796316909678,-7.7341794760388325],[113.7479631105852,-7.7341704408397725],[113.7479540523815,-7.7341704992026079],[113.74795411089289,-7.7341795344017337],[113.74796316909678,-7.7341794760388325]]],[[[113.74303543736931,-7.7342021618932346],[113.74303537896242,-7.7341931266566766],[113.7430263207206,-7.7341931849151013],[113.7430263791273,-7.7342022201517251],[113.74303543736931,-7.7342021618932346]]],[[[113.74344276610915,-7.7341543638951835],[113.74344264927885,-7.7341362934282216],[113.7434245328038,-7.7341364099613168],[113.74342464963334,-7.734154480428554],[113.74344276610915,-7.7341543638951835]]],[[[113.74287209698622,-7.7341580343277485],[113.74287203858313,-7.734148999089931],[113.74288109682519,-7.7341489408351123],[113.74288098776675,-7.7341320689952626],[113.74286304038769,-7.7341580925718727],[113.74287209698622,-7.7341580343277485]]],[[[113.74304326907722,-7.7340123636674276],[113.74303421083935,-7.7340124219246658],[113.74303426924483,-7.7340214571613073],[113.74304332748289,-7.7340213989039981],[113.74304326907722,-7.7340123636674276]]],[[[113.74333313265238,-7.7340104993345022],[113.7432878414735,-7.7340107906494682],[113.74328789988438,-7.7340198258841815],[113.74332413282838,-7.7340195928323165],[113.74332419124009,-7.7340286280667501],[113.74333324947611,-7.7340285698032361],[113.74333313265238,-7.7340104993345022]]],[[[113.74304326907722,-7.7340123636674276],[113.74305232731503,-7.7340123054099958],[113.74305226890922,-7.7340032701734875],[113.74304321067162,-7.73400332843085],[113.74304326907722,-7.7340123636674276]]],[[[113.74320602530247,-7.7339661388275944],[113.74319696706682,-7.733966197087943],[113.74319702547542,-7.7339752323233668],[113.7431607925313,-7.7339754653631125],[113.74316108457148,-7.7340206415415409],[113.74315202633434,-7.7340206998013432],[113.74315190951845,-7.7340026293298445],[113.74309756009627,-7.7340029788838001],[113.74309761850304,-7.7340120141199638],[113.74311573497776,-7.7340118976026098],[113.74311579338497,-7.7340209328386287],[113.74313390985979,-7.734020816320367],[113.74313396826746,-7.7340298515562482],[113.74314302650495,-7.7340297932967603],[113.74314308491289,-7.7340388285325679],[113.74315214315051,-7.7340387702728215],[113.74315225996698,-7.734056840744282],[113.74319755115593,-7.7340565494419797],[113.74319743433755,-7.7340384789712076],[113.74318837610026,-7.7340385372319131],[113.74318831769138,-7.7340295019964502],[113.74319737592846,-7.734029443735813],[113.74319731751945,-7.7340204085004158],[113.74320637575626,-7.7340203502396561],[113.74320614212012,-7.7339842092983],[113.74321520035608,-7.7339841510376228],[113.74321514194703,-7.733975115802342],[113.74320608371126,-7.7339751740629508],[113.74320602530247,-7.7339661388275944]],[[113.74317902582014,-7.7339934193147313],[113.74319714229281,-7.7339933027941994],[113.74319720070162,-7.734002338029609],[113.74317908422856,-7.7340024545502795],[113.74317902582014,-7.7339934193147313]]],[[[113.74767178541907,-7.7339464283223167],[113.74767166841198,-7.7339283579195452],[113.74766261021119,-7.7339284162743773],[113.7476627272179,-7.7339464866772891],[113.74767178541907,-7.7339464283223167]]],[[[113.74759902729831,-7.7339017191470436],[113.74759908580008,-7.7339107543489884],[113.74760814400095,-7.7339106959956334],[113.747608085499,-7.7339016607937561],[113.74759902729831,-7.7339017191470436]]],[[[113.74759902729831,-7.7339017191470436],[113.74759896879662,-7.7338926839450925],[113.74760802699711,-7.7338926255918778],[113.74760796849532,-7.7338835903900085],[113.74756267749306,-7.7338838821538261],[113.74756261899229,-7.7338748469515757],[113.74755356079183,-7.7338749053036953],[113.74755367779308,-7.7338929757082973],[113.74758991059605,-7.7338927422981172],[113.74758996909753,-7.7339017775001357],[113.74759902729831,-7.7339017191470436]]],[[[113.7441113810915,-7.7338880299964021],[113.74411132266412,-7.7338789947678954],[113.74410226443723,-7.7338790530468033],[113.74410232286442,-7.7338880882753784],[113.7441113810915,-7.7338880299964021]]],[[[113.74407508975611,-7.7338792278823743],[113.7440749144767,-7.7338521221960095],[113.74405679802344,-7.733852238751683],[113.74405691487554,-7.7338703092095402],[113.74404785664841,-7.7338703674872269],[113.74404791507438,-7.7338794027162203],[113.74407508975611,-7.7338792278823743]]],[[[113.74305226890922,-7.7340032701734875],[113.74306132714679,-7.7340032119159332],[113.74306150236498,-7.734030317625237],[113.74307056060303,-7.7340302593672856],[113.7430705021967,-7.734021224130923],[113.74308861867223,-7.7340211076145797],[113.74308844345252,-7.7339940019058853],[113.74310655992662,-7.7339938853891876],[113.74310644311306,-7.7339758149169784],[113.74311550134959,-7.7339757566584799],[113.74311544294274,-7.7339667214224388],[113.74310638470638,-7.7339667796808671],[113.74310632629978,-7.7339577444447354],[113.74311538453594,-7.7339576861863746],[113.74311532612921,-7.7339486509503388],[113.74312438436512,-7.7339485926918572],[113.74312415073815,-7.7339124517479014],[113.74311509250302,-7.7339125100061104],[113.74311503409665,-7.7339034747700213],[113.74313315056648,-7.7339033582535519],[113.74313303375317,-7.7338852877816686],[113.74315115022195,-7.7338851712647081],[113.74315109181502,-7.7338761360288979],[113.74316015004909,-7.7338760777701987],[113.74316003323506,-7.7338580072987053],[113.74316909146867,-7.7338579490399493],[113.74316897465454,-7.7338398785685758],[113.743150858188,-7.7338399950856171],[113.74315091659464,-7.7338490303214433],[113.74314185836104,-7.7338490885797446],[113.74314191676757,-7.7338581238156365],[113.74312380029983,-7.7338582403318004],[113.74312397551867,-7.7338853460398633],[113.74310585904949,-7.7338854625556737],[113.74310591745554,-7.7338944977918231],[113.74309685922064,-7.7338945560495089],[113.74309697603253,-7.7339126265219509],[113.74307885956176,-7.7339127430370231],[113.74307891796744,-7.7339217782733511],[113.74306985973178,-7.7339218365306674],[113.74306991813732,-7.7339308717670763],[113.74306085990139,-7.7339309300242709],[113.74306109352352,-7.7339670709701354],[113.74305203528674,-7.7339671292274152],[113.74305215209785,-7.7339851997004603],[113.74304309386061,-7.7339852579576833],[113.74304315226607,-7.7339942931942698],[113.74305221050351,-7.7339942349369757],[113.74305226890922,-7.7340032701734875]]],[[[113.74751697699182,-7.7338209274946923],[113.74751680149404,-7.733793821886854],[113.74750774329496,-7.7337938802373944],[113.74750780179396,-7.7338029154400783],[113.74749874359459,-7.7338029737904961],[113.74749886059242,-7.7338210441959943],[113.74751697699182,-7.7338209274946923]]],[[[113.74320520758684,-7.7338396455321954],[113.74320514917909,-7.7338306102967778],[113.7432142074118,-7.7338305520372721],[113.74321403218845,-7.7338034463311986],[113.74320497395632,-7.7338035045904983],[113.74320503236385,-7.7338125398259292],[113.74319597413147,-7.7338125980851062],[113.74319603253888,-7.7338216333206002],[113.7431869743062,-7.7338216915796556],[113.74318709112082,-7.7338397620507697],[113.74320520758684,-7.7338396455321954]]],[[[113.74757997488429,-7.7337572726191279],[113.74754374209255,-7.7337575060244017],[113.74754403459065,-7.7338026820364947],[113.74754079527331,-7.7338027029035796],[113.74752591819242,-7.7338027987386715],[113.7475260351914,-7.733820869143754],[113.74753509339094,-7.7338208107926247],[113.74753521039057,-7.7338388811975678],[113.74752615219064,-7.7338389395488383],[113.74752626919017,-7.7338570099538693],[113.74751721098981,-7.7338570683050838],[113.74751726948949,-7.7338661035076708],[113.74752632769004,-7.7338660451563879],[113.74752638618999,-7.7338750803589029],[113.74754126327339,-7.7338749845229042],[113.74754450259128,-7.7338749636556221],[113.74754444409096,-7.7338659284532474],[113.74756256049159,-7.7338658117493386],[113.74756238498988,-7.7338387061426159],[113.74758050138905,-7.7338385894383528],[113.74758061839088,-7.7338566598425578],[113.74760779299029,-7.7338564847843125],[113.74760773448877,-7.7338474495824103],[113.74759867628923,-7.7338475079352813],[113.74759861778797,-7.7338384727333231],[113.74758955958853,-7.7338385310859357],[113.74758944258659,-7.7338204606818168],[113.74759850078564,-7.7338204023293446],[113.74759820828106,-7.7337752263193629],[113.74758915008299,-7.7337752846714904],[113.74758909158247,-7.7337662494693955],[113.74758003338454,-7.7337663078212628],[113.74757997488429,-7.7337572726191279]]],[[[113.74324103165996,-7.7337761658466588],[113.74324097325196,-7.7337671306114872],[113.74322285678959,-7.7337672471304941],[113.74322291519721,-7.7337762823658043],[113.74324103165996,-7.7337761658466588]]],[[[113.74503315739297,-7.7335477813358517],[113.74503309894858,-7.7335387461142169],[113.74502404073597,-7.7335388044101387],[113.74502409918018,-7.7335478396318402],[113.74503315739297,-7.7335477813358517]]],[[[113.74355649253921,-7.7335301753513814],[113.74355643412636,-7.7335211401185067],[113.74354737590289,-7.7335211983829568],[113.74354743431553,-7.7335302336159017],[113.74355649253921,-7.7335301753513814]]],[[[113.74342950217098,-7.7335038853356952],[113.74342944376104,-7.7334948501018577],[113.74342038553712,-7.7334949083634195],[113.74342044394689,-7.7335039435973245],[113.74342950217098,-7.7335038853356952]]],[[[113.74357408326988,-7.7334487417269768],[113.74357402485728,-7.7334397064941847],[113.74356496663567,-7.7334397647583986],[113.74356502504807,-7.7334487999912644],[113.74357408326988,-7.7334487417269768]]],[[[113.74372743045937,-7.7333483636568676],[113.74370931402228,-7.7333484801902506],[113.74370937243707,-7.7333575154220364],[113.74371843065582,-7.7333574571553703],[113.74371848907087,-7.733366492387086],[113.74372754728977,-7.7333664341201596],[113.74372743045937,-7.7333483636568676]]],[[[113.7436006153939,-7.7333491793744447],[113.74360049856918,-7.7333311089091907],[113.74359460109558,-7.7333311468427395],[113.74358244244094,-7.733340554270665],[113.74358249895486,-7.7333492959024603],[113.7436006153939,-7.7333491793744447]]],[[[113.74370908036391,-7.7333123392630627],[113.74370902194948,-7.7333033040312547],[113.74369996373179,-7.7333033622973142],[113.74370002214602,-7.7333123975291906],[113.74370908036391,-7.7333123392630627]]],[[[113.74363655620606,-7.7333037701543637],[113.7436365234955,-7.733298710522706],[113.7436299290693,-7.7333038127816378],[113.74363655620606,-7.7333037701543637]]],[[[113.74379037065742,-7.7332756739344957],[113.74379031224156,-7.7332666387032907],[113.74378125402529,-7.7332666969708024],[113.74378131244096,-7.733275732202074],[113.74379037065742,-7.7332756739344957]]],[[[113.74383554490515,-7.7332573121319959],[113.74382648668941,-7.7332573704003957],[113.74382654510599,-7.7332664056313325],[113.74381748688999,-7.7332664638996071],[113.74381754530644,-7.7332754991306061],[113.74386283638668,-7.7332752077869564],[113.74386277796928,-7.7332661725563012],[113.74383560332191,-7.7332663473628607],[113.74383554490515,-7.7332573121319959]]],[[[113.7438808944005,-7.7332660560176354],[113.74388083598279,-7.733257020787117],[113.74387177776741,-7.7332570790564761],[113.74387183618494,-7.7332661142870638],[113.7438808944005,-7.7332660560176354]]],[[[113.74370989817319,-7.7334388325079244],[113.74372801461412,-7.733438715973163],[113.74372783936695,-7.7334116102783197],[113.74373689758673,-7.7334115520108568],[113.74373678075526,-7.7333934815477434],[113.74376395541302,-7.7333933067446203],[113.74376389699681,-7.7333842715132644],[113.74377295521575,-7.7333842132452411],[113.74377301363214,-7.7333932484765295],[113.74378207185117,-7.7333931902082478],[113.74378195501806,-7.7333751197457881],[113.74380007145518,-7.7333750032089217],[113.74380001303834,-7.7333659679778508],[113.74380907125659,-7.7333659097091978],[113.74380895442275,-7.7333478392471457],[113.74382707085829,-7.7333477227095422],[113.74382712927556,-7.733356757940431],[113.74383618749339,-7.7333566996712744],[113.74383612907593,-7.7333476644404504],[113.74384518729353,-7.7333476061711703],[113.74384512887595,-7.7333385709404121],[113.74386324531051,-7.7333384544014141],[113.74386318689261,-7.7333294191707731],[113.74387224510963,-7.7333293609010534],[113.7438721866916,-7.7333203256705101],[113.74388124490832,-7.7333202674006696],[113.74388118649019,-7.7333112321701742],[113.74389930292305,-7.7333111156300527],[113.7438992445046,-7.7333020803996924],[113.7439264191528,-7.7333019055882808],[113.74392630231493,-7.733283835127974],[113.74391724409934,-7.7332838933984984],[113.74391706884364,-7.7332567877077611],[113.74388989419812,-7.733256962517566],[113.74389001103401,-7.7332750329784643],[113.74389906924964,-7.7332749747085829],[113.74389918608621,-7.7332930451693267],[113.7438901278702,-7.7332931034393466],[113.7438901862884,-7.7333021386697807],[113.74385395342286,-7.733302371748211],[113.74385407025792,-7.73332044220962],[113.74384501204099,-7.7333205004788859],[113.74384507045843,-7.7333295357096343],[113.74378166293651,-7.7333299435896121],[113.74378172135268,-7.7333389788208713],[113.74377266313481,-7.7333390370887418],[113.74377272155085,-7.7333480723200498],[113.74375460511446,-7.733348188855353],[113.7437546635302,-7.7333572240867952],[113.7437456053117,-7.733357282354226],[113.74374566372732,-7.733366317585733],[113.74373660550857,-7.7333663758530431],[113.74373666392407,-7.7333754110845963],[113.74372760570506,-7.7333754693517829],[113.74372766412043,-7.7333845045834364],[113.74367331480373,-7.7333848541829395],[113.743673373218,-7.7333938894149847],[113.74363714033805,-7.7333941224777609],[113.74363725716529,-7.7334121929423896],[113.74362819894473,-7.7334122512077403],[113.74362825735827,-7.7334212864401177],[113.74359202447458,-7.7334215194998848],[113.74359219971331,-7.7334486251978323],[113.74358314149163,-7.7334486834625009],[113.74358319990446,-7.7334577186951883],[113.74355602523845,-7.7334578934882492],[113.74355614206323,-7.7334759639540582],[113.7435470838407,-7.7334760222181655],[113.74354714225299,-7.7334850574511327],[113.74353808403018,-7.7334851157151174],[113.7435382008546,-7.7335031861811778],[113.74350196796119,-7.7335034192357508],[113.74350202637274,-7.7335124544690492],[113.74349296814901,-7.7335125127322835],[113.74349302656043,-7.7335215479656449],[113.74348396833645,-7.7335216062287548],[113.74348408515912,-7.7335396766955897],[113.74349314338349,-7.7335396184323413],[113.74349320179513,-7.733548653665709],[113.74348414357057,-7.7335487119290258],[113.74348408515912,-7.7335396766955897],[113.7434750269347,-7.7335397349586463],[113.74347508534595,-7.7335487701921526],[113.74345696889647,-7.7335488867178253],[113.7434570273074,-7.7335579219514479],[113.74344796908235,-7.7335579802140648],[113.74344802749316,-7.7335670154477514],[113.74341179459157,-7.7335672484965841],[113.74341185300169,-7.7335762837305397],[113.74339373655006,-7.7335764002539422],[113.74339391177968,-7.7336035059562009],[113.74337579532663,-7.7336036224792508],[113.74337585373625,-7.7336126577134658],[113.74334867905557,-7.7336128324968065],[113.7433487374647,-7.733621867731225],[113.74333967923748,-7.7336219259920247],[113.74333973764648,-7.7336309612265079],[113.74333067941897,-7.7336310194871833],[113.74333073782786,-7.7336400547217314],[113.74332167960011,-7.7336401129822825],[113.7433217964177,-7.7336581834515199],[113.7433127381895,-7.7336582417120177],[113.7433127965982,-7.733667276946675],[113.74330373836972,-7.7336673352070502],[113.74330379677831,-7.7336763704417884],[113.74331285500698,-7.7336763121813421],[113.74331291341582,-7.7336853474160048],[113.74329479695804,-7.7336854639368422],[113.74329485536657,-7.7336944991716399],[113.74328579713737,-7.7336945574318383],[113.74328591395427,-7.7337126279015571],[113.74327685572462,-7.7337126861617032],[113.74327691413299,-7.7337217213966252],[113.7432678559031,-7.7337217796566486],[113.74326791431132,-7.7337308148916337],[113.74328603077143,-7.7337306983712608],[113.74328597236281,-7.7337216631364116],[113.74330408882227,-7.7337215466154081],[113.74330403041334,-7.7337125113806913],[113.74334026333064,-7.7337122783366583],[113.74334020492101,-7.733703243102231],[113.74335832137886,-7.7337031265792024],[113.74335837978887,-7.7337121618134912],[113.7433764962468,-7.7337120452895576],[113.74337632101582,-7.7336849395870377],[113.7433853792441,-7.7336848813249883],[113.74338526242342,-7.733666810856759],[113.74341243710671,-7.733666636069878],[113.74341237869589,-7.7336576008359801],[113.74343049515069,-7.7336574843105694],[113.74343043673956,-7.7336484490767718],[113.74343949496664,-7.7336483908138476],[113.74343943655539,-7.7336393555801317],[113.74344849478221,-7.7336392973170849],[113.74344855319366,-7.7336483325507333],[113.74345761142064,-7.7336482742874253],[113.74345749459742,-7.7336302038202653],[113.74346655282393,-7.7336301455569023],[113.74346649441223,-7.7336211103233845],[113.74347555263849,-7.7336210520599007],[113.74347537740326,-7.7335939463595249],[113.74351161030521,-7.7335937133044981],[113.74351155189282,-7.7335846780712911],[113.74352061011797,-7.7335846198071234],[113.74352055170546,-7.7335755845740124],[113.7435386681551,-7.73357546804524],[113.74353860974229,-7.7335664328122453],[113.74355672619127,-7.733566316282845],[113.74355666777815,-7.7335572810499853],[113.74358384245052,-7.7335571062546498],[113.74358378403689,-7.7335480710219935],[113.74360190048441,-7.7335479544909491],[113.74360178365659,-7.7335298840258977],[113.74361990010306,-7.7335297674943622],[113.74361978327475,-7.7335116970295683],[113.74364695794276,-7.7335115222312378],[113.74364689952813,-7.7335024869990425],[113.74365595775045,-7.733502428732618],[113.74365584092104,-7.7334843582683481],[113.74366489914293,-7.733484300001872],[113.74366484072813,-7.7334752647697984],[113.74363766606285,-7.733475439568454],[113.74363754923463,-7.7334573691038839],[113.74362849101311,-7.733457427369582],[113.74362854942699,-7.7334664626019372],[113.74361949120521,-7.73346652086751],[113.74361943279153,-7.7334574856350855],[113.74362849101311,-7.733457427369582],[113.74362837418555,-7.7334393569048592],[113.74361931596435,-7.7334394151702259],[113.74361925755086,-7.7334303799377881],[113.74364643221368,-7.7334302051413175],[113.74364649062774,-7.7334392403735501],[113.74366460706965,-7.733439123841471],[113.74366484072813,-7.7334752647697984],[113.7436829571713,-7.7334751482364039],[113.74368289875619,-7.7334661130044662],[113.74369195697747,-7.7334660547375513],[113.74369189856223,-7.7334570195056767],[113.74371001500421,-7.7334569029714064],[113.74370989817319,-7.7334388325079244],[113.74370083995261,-7.7334388907750169],[113.7437007815374,-7.7334298555431991],[113.74370983975778,-7.733429797276175],[113.74370989817319,-7.7334388325079244]],[[113.74354737590289,-7.7335211983829568],[113.74354731749031,-7.7335121631500074],[113.7435563757136,-7.7335121048856248],[113.7435563173009,-7.7335030696527394],[113.7435744337469,-7.7335029531235335],[113.74357420009528,-7.7334668121925025],[113.74359231653946,-7.7334666956630809],[113.7435924333659,-7.7334847661283304],[113.74360149158828,-7.7334847078631936],[113.74360160841539,-7.7335027783282868],[113.7435834919698,-7.7335028948586437],[113.74358355038306,-7.7335119300913213],[113.74357449215999,-7.7335119883562813],[113.74357460898636,-7.7335300588217644],[113.74355649253921,-7.7335301753513814],[113.74355655095212,-7.7335392105842358],[113.74354749272825,-7.733539268848828],[113.74354755114105,-7.733548304081781],[113.74353849291688,-7.733548362346248],[113.74353855132955,-7.7335573975792515],[113.74352949310516,-7.7335574558435942],[113.74352955151771,-7.7335664910766599],[113.74350237684349,-7.7335666658687501],[113.74350231843152,-7.7335576306354774],[113.74351137665613,-7.7335575723717085],[113.74351131824405,-7.7335485371384998],[113.74352943469269,-7.7335484206105249],[113.74352925945567,-7.733521314911286],[113.74354737590289,-7.7335211983829568]]],[[[113.74387171934995,-7.7332480438258813],[113.74387166093256,-7.7332390085953007],[113.74386260271748,-7.733239066864332],[113.74386266113467,-7.7332481020949819],[113.74387171934995,-7.7332480438258813]]],[[[113.7437628455171,-7.7332216373481257],[113.74376278710223,-7.7332126021166889],[113.74375372888689,-7.7332126603832103],[113.74375378730157,-7.7332216956147155],[113.7437628455171,-7.7332216373481257]]],[[[113.743871544098,-7.7332209381340773],[113.74387148568081,-7.7332119029034665],[113.74386242746631,-7.7332119611722892],[113.74386248588328,-7.7332209964029692],[113.743871544098,-7.7332209381340773]]],[[[113.74521169153316,-7.7331400304600395],[113.74521157464309,-7.7331219600191394],[113.74520251644073,-7.7331220183157265],[113.74520263333041,-7.7331400887567634],[113.74521169153316,-7.7331400304600395]]],[[[113.74686016629977,-7.7331113468467532],[113.7468420499206,-7.7331114635095402],[113.7468421084002,-7.733120498717585],[113.74685116659002,-7.7331204403862186],[113.74685122506989,-7.7331294755941897],[113.74684216687987,-7.7331295339256227],[113.74684222535963,-7.7331385691336596],[113.74688751630988,-7.7331382774742172],[113.74688745782919,-7.7331292422665259],[113.74686028325982,-7.7331294172625595],[113.74686016629977,-7.7331113468467532]]],[[[113.74412447301459,-7.7331108837827696],[113.74411541480417,-7.733110942056209],[113.74411547322576,-7.7331199772849875],[113.74412453143638,-7.7331199190114832],[113.74412447301459,-7.7331108837827696]]],[[[113.74412447301459,-7.7331108837827696],[113.7441425894352,-7.7331107672353241],[113.74414253101311,-7.7331017320067303],[113.74412441459287,-7.7331018485540373],[113.74412447301459,-7.7331108837827696]]],[[[113.7467513510654,-7.7330939763944935],[113.74675129258794,-7.7330849411857461],[113.74674223439813,-7.7330849995147304],[113.74674229287541,-7.7330940347235444],[113.7467513510654,-7.7330939763944935]]],[[[113.74424211289518,-7.7330920557549812],[113.7442420544711,-7.7330830205271344],[113.74423299626218,-7.7330830788028573],[113.74423305468606,-7.7330921140307725],[113.74424211289518,-7.7330920557549812]]],[[[113.74665159402082,-7.7330765475844885],[113.74665153554561,-7.7330675123749746],[113.74664247735541,-7.7330675707017082],[113.74664253583045,-7.7330766059112905],[113.74665159402082,-7.7330765475844885]]],[[[113.7441695303753,-7.7330744514991565],[113.7441694719529,-7.7330654162707351],[113.74416041374378,-7.7330654745447847],[113.744160472166,-7.7330745097732754],[113.7441695303753,-7.7330744514991565]]],[[[113.74406071501905,-7.7330570803174377],[113.74406071122645,-7.7330564937551278],[113.7440595318772,-7.7330570879286276],[113.74406071501905,-7.7330570803174377]]],[[[113.74421470457405,-7.7330560896695415],[113.74421464615084,-7.7330470544414744],[113.74420558794245,-7.7330471127163429],[113.74420564636549,-7.7330561479444819],[113.74421470457405,-7.7330560896695415]]],[[[113.74642490535858,-7.7330418648520602],[113.74642478841839,-7.7330237944295481],[113.7464157302274,-7.7330238527511437],[113.74641578869726,-7.7330328879624721],[113.746406730506,-7.7330329462839424],[113.74640678897573,-7.7330419814953339],[113.74642490535858,-7.7330418648520602]]],[[[113.74661506888728,-7.7330316048415639],[113.74661501041318,-7.7330225696317525],[113.74660595222366,-7.7330226279573751],[113.74660601069756,-7.7330316631672549],[113.74661506888728,-7.7330316048415639]]],[[[113.74650619519089,-7.7330051991052757],[113.74649713700089,-7.7330052574284585],[113.74649719547234,-7.7330142926391749],[113.74647907909178,-7.7330144092851016],[113.74647913756293,-7.7330234444959514],[113.74646102118172,-7.7330235611412519],[113.74646107965253,-7.7330325963522331],[113.74645202146161,-7.7330326546746635],[113.74645207993231,-7.7330416898857122],[113.74647019631446,-7.7330415732405182],[113.74647013784337,-7.7330325380296099],[113.74647919603414,-7.733032479706794],[113.74647925450542,-7.7330415149176348],[113.74649737088714,-7.7330413982712924],[113.74649731241549,-7.7330323630605911],[113.74651542879653,-7.733032246413619],[113.74651531185265,-7.7330141759924782],[113.74650625366255,-7.7330142343159229],[113.74650619519089,-7.7330051991052757]]],[[[113.74670547535273,-7.7330039159467283],[113.74667830078721,-7.7330040909283584],[113.7466783592625,-7.7330131261376946],[113.74668741745127,-7.7330130678106075],[113.74668747592683,-7.7330221030198718],[113.74669653411574,-7.7330220446925217],[113.74669659259158,-7.7330310799017132],[113.74668753440247,-7.733031138229129],[113.74668759287817,-7.7330401734383818],[113.74665136012038,-7.7330404067464107],[113.74665147707047,-7.7330584771654731],[113.74666959345028,-7.7330583605115679],[113.74666953497483,-7.7330493253021686],[113.74667859316442,-7.7330492669749971],[113.74667865164007,-7.7330583021843298],[113.74670582620905,-7.7330581272014545],[113.74670588468535,-7.733067162410542],[113.74671494287507,-7.7330671040824663],[113.74671500135163,-7.7330761392914962],[113.74672405954145,-7.7330760809631593],[113.74672400106471,-7.733067045754197],[113.74675117563321,-7.7330668707682433],[113.74675100020163,-7.733039765141954],[113.74673288382384,-7.7330398817990336],[113.74673282534718,-7.7330308465901254],[113.74672376715839,-7.7330309049183095],[113.74672370868198,-7.7330218697093267],[113.7467146504933,-7.7330219280372505],[113.74671459201717,-7.7330128928281949],[113.7467055338286,-7.7330129511558576],[113.74670547535273,-7.7330039159467283]]],[[[113.74639755537578,-7.7330149341822887],[113.74639749690643,-7.7330058989708172],[113.74640655509718,-7.7330058406497431],[113.74640649662771,-7.7329968054383329],[113.74638838024653,-7.7329969220801509],[113.74638849718475,-7.7330149925032403],[113.74639755537578,-7.7330149341822887]]],[[[113.74662395165427,-7.733004440886444],[113.7466238931802,-7.7329954056766885],[113.74661483499132,-7.7329954640022969],[113.74661489346521,-7.733004499212119],[113.74662395165427,-7.733004440886444]]],[[[113.74415100500401,-7.7330113214472931],[113.74415100294783,-7.7330110034447461],[113.74415036356821,-7.7330113255737842],[113.74415100500401,-7.7330113214472931]]],[[[113.74465832297692,-7.7330170930637658],[113.74465820611228,-7.7329990226143401],[113.74464914790833,-7.7329990808982645],[113.74464920634043,-7.7330081161230462],[113.7446401481362,-7.7330081744068471],[113.74464020656816,-7.7330172096316963],[113.74465832297692,-7.7330170930637658]]],[[[113.74637020539642,-7.7329880035095124],[113.74635208901503,-7.7329881201496571],[113.74635220595158,-7.7330061905733061],[113.7463793805247,-7.7330060156123883],[113.7463793220558,-7.7329969804007721],[113.74637026386505,-7.7329970387212024],[113.74637020539642,-7.7329880035095124]]],[[[113.74647896214971,-7.7329963388633942],[113.74647890367878,-7.7329873036525321],[113.74646984548897,-7.7329873619750007],[113.74646990395971,-7.7329963971859312],[113.74647896214971,-7.7329963388633942]]],[[[113.74465797238383,-7.7329628817154381],[113.7446579139519,-7.7329538464906857],[113.74463979754583,-7.7329539630576507],[113.74463985597738,-7.7329629982825425],[113.74465797238383,-7.7329628817154381]]],[[[113.74631556391512,-7.7329431773670558],[113.74631550544807,-7.7329341421549449],[113.74630644725816,-7.7329342004735491],[113.746306505725,-7.7329432356857302],[113.74631556391512,-7.7329431773670558]]],[[[113.74593506141066,-7.7329365913712111],[113.74593500295177,-7.7329275561561843],[113.74591688656631,-7.7329276727769543],[113.74591694502482,-7.7329367079921205],[113.74593506141066,-7.7329365913712111]]],[[[113.7446306224802,-7.7329359508909645],[113.74463056404906,-7.7329269156660088],[113.7446396222516,-7.7329268573830205],[113.74463956382033,-7.7329178221581305],[113.74462144741553,-7.7329179387237801],[113.74462156427737,-7.7329360091738302],[113.7446306224802,-7.7329359508909645]]],[[[113.74587142022921,-7.7329008586789518],[113.74587147868655,-7.7329098938944911],[113.74588053687928,-7.7329098355852999],[113.74588047842175,-7.732900800369829],[113.74587142022921,-7.7329008586789518]]],[[[113.74646926078546,-7.7328970098654466],[113.74644208622138,-7.7328971848296399],[113.74644214469083,-7.7329062200408343],[113.7464693192555,-7.7329060450764366],[113.74646926078546,-7.7328970098654466]]],[[[113.7444402249251,-7.7329100691116386],[113.74444016649819,-7.7329010338852404],[113.74443110829465,-7.7329010921638037],[113.74443116672137,-7.7329101273902694],[113.7444402249251,-7.7329100691116386]]],[[[113.74646926078546,-7.7328970098654466],[113.74647831897335,-7.7328969515436663],[113.7464782605032,-7.7328879163327757],[113.74646920231551,-7.7328879746544876],[113.74646926078546,-7.7328970098654466]]],[[[113.74642396984495,-7.732897301471473],[113.74642426219104,-7.7329424775280193],[113.74644237856937,-7.7329423608854926],[113.74644243703918,-7.7329513960966683],[113.74645149522843,-7.7329513377750496],[113.74645155369849,-7.7329603729861365],[113.74646967007719,-7.7329602563421833],[113.74646972854771,-7.7329692915531281],[113.74648784492651,-7.7329691749082716],[113.74648790339748,-7.7329782101190734],[113.74649696158696,-7.7329781517962877],[113.7464970200582,-7.7329871870070157],[113.74650607824782,-7.7329871286839706],[113.74650613671932,-7.732996163894625],[113.74653331128827,-7.7329959889241318],[113.74653336976043,-7.7330050241345774],[113.74654242795012,-7.7330049658106246],[113.74654248642253,-7.7330140010209956],[113.74653342823264,-7.733014059345015],[113.7465335451773,-7.7330321297658804],[113.74654260336759,-7.7330320714417242],[113.74654266184021,-7.7330411066520792],[113.74656077822094,-7.7330409900030519],[113.74656071974793,-7.7330319547928337],[113.74658789431791,-7.7330317798180621],[113.74658783584439,-7.7330227446080437],[113.74659689403407,-7.7330226862828049],[113.74659683556044,-7.7330136510728522],[113.74660589374983,-7.7330135927474926],[113.74660577680237,-7.7329955223277107],[113.74659671861336,-7.7329955806529354],[113.74659666013993,-7.7329865454429703],[113.74660571832875,-7.7329864871178167],[113.74660560138172,-7.7329684166980099],[113.74659654319329,-7.7329684750230285],[113.74659648472007,-7.7329594398130501],[113.74658742653173,-7.7329594981378076],[113.74658736805877,-7.7329504629277563],[113.74657830987059,-7.7329505212522509],[113.74657819292527,-7.7329324508319992],[113.74656913473738,-7.7329325091561643],[113.74656907626502,-7.732923473945962],[113.74656001807726,-7.7329235322698668],[113.74655995960516,-7.7329144970595936],[113.74655090141754,-7.7329145553832372],[113.74655084294569,-7.7329055201728885],[113.74653272657059,-7.7329056368194644],[113.74653260962791,-7.7328875663984773],[113.74651449325327,-7.7328876830440132],[113.7465145517242,-7.7328967182546258],[113.74649643534892,-7.7328968348995302],[113.74649655229021,-7.7329149053210742],[113.74651466866626,-7.7329147886758962],[113.74651478560861,-7.7329328590971311],[113.74646949466603,-7.7329331507093304],[113.74646943619578,-7.7329241154983714],[113.74643320344123,-7.732924348784401],[113.74643302803322,-7.7328972431506502],[113.74642396984495,-7.732897301471473]]],[[[113.74451263212389,-7.7329005676498319],[113.74451257369552,-7.732891532423964],[113.74449445728989,-7.7328916489838289],[113.74449451571788,-7.7329006842098353],[113.74451263212389,-7.7329005676498319]]],[[[113.74587142022921,-7.7329008586789518],[113.74587130331473,-7.7328827882479096],[113.74586224512252,-7.7328828465567039],[113.7458623620366,-7.7329009169878846],[113.74587142022921,-7.7329008586789518]]],[[[113.74651449325327,-7.7328876830440132],[113.74651443478243,-7.7328786478333766],[113.74649631840791,-7.732878764478003],[113.74649637687837,-7.7328877996887764],[113.74651449325327,-7.7328876830440132]]],[[[113.74493830914649,-7.7328887930463157],[113.74493825070917,-7.7328797578236825],[113.74492919250989,-7.7328798161126553],[113.74492925094704,-7.7328888513353569],[113.74493830914649,-7.7328887930463157]]],[[[113.74583507054543,-7.7328830214819364],[113.74583501208907,-7.7328739862661253],[113.74582595389674,-7.7328740445740829],[113.74582601235292,-7.7328830797899624],[113.74583507054543,-7.7328830214819364]]],[[[113.74606140841281,-7.7328634932907585],[113.74606134995179,-7.7328544580766794],[113.74605229176161,-7.7328545163892928],[113.74605235022246,-7.732863551603443],[113.74606140841281,-7.7328634932907585]]],[[[113.74451233998275,-7.7328553915204488],[113.74449422357866,-7.7328555080797621],[113.74449428200637,-7.7328645433058023],[113.74450334020864,-7.7328644850261705],[113.7445033986366,-7.7328735202521059],[113.744512456839,-7.7328734619722148],[113.74451233998275,-7.7328553915204488]]],[[[113.74625145499907,-7.732835163042151],[113.74622428043395,-7.7328353379910872],[113.74622433889829,-7.7328443732039496],[113.74623339708693,-7.7328443148877639],[113.74623345555155,-7.7328533501005694],[113.74626063011759,-7.7328531751506446],[113.74626068858285,-7.7328622103632094],[113.74627880496027,-7.732862093728829],[113.74627868802905,-7.7328440233039411],[113.746251513464,-7.7328441982548108],[113.74625145499907,-7.732835163042151]]],[[[113.74600682543051,-7.7328277023059151],[113.74600676697092,-7.7328186670913901],[113.74601582516068,-7.7328186087800086],[113.74601576670096,-7.7328095735655475],[113.74599765032178,-7.7328096901879766],[113.74599776724052,-7.7328277606171723],[113.74600682543051,-7.7328277023059151]]],[[[113.74621516378133,-7.7328263610940775],[113.74621504685337,-7.7328082906681921],[113.74619693047728,-7.7328084072990597],[113.74619704740448,-7.732826477725224],[113.74621516378133,-7.7328263610940775]]],[[[113.7462332216935,-7.7328172092493634],[113.74623316322918,-7.7328081740365571],[113.74622410504132,-7.7328082323524709],[113.74622416350546,-7.7328172675653484],[113.7462332216935,-7.7328172092493634]]],[[[113.74459363007904,-7.7328187260929413],[113.74459360674628,-7.7328151180368589],[113.74458456052356,-7.7328170285083706],[113.74458457187846,-7.7328187843741452],[113.74459363007904,-7.7328187260929413]]],[[[113.74614252288501,-7.7327997219735574],[113.74614246442273,-7.732790686760052],[113.74613340623456,-7.7327907450739097],[113.74613346469663,-7.7327997802874835],[113.74614252288501,-7.7327997219735574]]],[[[113.74591589278226,-7.7327740741184927],[113.74591583432502,-7.732765038903251],[113.74590677613566,-7.7327650972121083],[113.7459068345927,-7.7327741324274193],[113.74591589278226,-7.7327740741184927]]],[[[113.7452725273746,-7.7327420726950837],[113.74526346918081,-7.7327421309901192],[113.74526352762402,-7.7327511662103525],[113.74527258581799,-7.7327511079152513],[113.7452725273746,-7.7327420726950837]]],[[[113.7450461309474,-7.7327525652353035],[113.74504618938606,-7.732761600457172],[113.74503713119012,-7.7327616587475489],[113.74503718962865,-7.7327706939694814],[113.74502813143246,-7.7327707522597358],[113.74502818987088,-7.7327797874817321],[113.7450734808521,-7.7327794960281944],[113.74507342241273,-7.7327704608065435],[113.74510059700003,-7.7327702859323253],[113.74510048012034,-7.7327522154894224],[113.74509142192504,-7.7327522737808829],[113.7450913634855,-7.7327432385593369],[113.74508230529028,-7.7327432968505363],[113.74508224685101,-7.7327342616289556],[113.74506413046078,-7.7327343782106395],[113.74506424733866,-7.7327524486541099],[113.7450461309474,-7.7327525652353035]]],[[[113.74542645821164,-7.7327320464311944],[113.74542639976512,-7.7327230112122107],[113.74541734157293,-7.7327230695103673],[113.74541740001925,-7.7327321047294211],[113.74542645821164,-7.7327320464311944]]],[[[113.74546269098055,-7.7327318132363745],[113.74546263253326,-7.7327227780176671],[113.74545357434131,-7.7327228363165892],[113.74545363278841,-7.7327318715353677],[113.74546269098055,-7.7327318132363745]]],[[[113.74612388035375,-7.7327185216782741],[113.74611482216697,-7.7327185799911966],[113.74611505601192,-7.7327547208461578],[113.74613317238695,-7.7327546042195685],[113.74613299700199,-7.7327274985787691],[113.74612393881507,-7.7327275568919527],[113.74612388035375,-7.7327185216782741]]],[[[113.7459698327108,-7.7327104777570241],[113.74596989116878,-7.7327195129718787],[113.74597894935668,-7.7327194546620239],[113.74597889089851,-7.7327104194472378],[113.7459698327108,-7.7327104777570241]]],[[[113.7461057639801,-7.7327186383039281],[113.74610570551923,-7.7327096030901075],[113.74609664733249,-7.732709661402577],[113.74609670579318,-7.7327186966164669],[113.7461057639801,-7.7327186383039281]]],[[[113.74618722919671,-7.732709078269246],[113.7461872876593,-7.732718113482445],[113.74619634584552,-7.7327180551679895],[113.74619628738273,-7.7327090199548572],[113.74618722919671,-7.732709078269246]]],[[[113.74618722919671,-7.732709078269246],[113.74618717073417,-7.7327000430560426],[113.74617811254828,-7.7327001013701713],[113.74617817101061,-7.7327091365834422],[113.74618722919671,-7.732709078269246]]],[[[113.74621440375459,-7.7327089033255074],[113.74621434529149,-7.732699868112511],[113.74620528710579,-7.7326999264272116],[113.74620534556871,-7.73270896164028],[113.74621440375459,-7.7327089033255074]]],[[[113.74642396984495,-7.732897301471473],[113.74642373596937,-7.7328611606261761],[113.74643279415686,-7.7328611023056313],[113.74643273568795,-7.7328520670943774],[113.74644179387515,-7.7328520087737109],[113.74644173540612,-7.7328429735624891],[113.74646890996674,-7.7328427985995383],[113.7464688514972,-7.7328337633885358],[113.7464507351239,-7.7328338800305554],[113.7464506766548,-7.7328248448194117],[113.74644161846825,-7.7328249031400631],[113.74644155999943,-7.7328158679288475],[113.746432501813,-7.7328159262492377],[113.74643244334443,-7.7328068910379457],[113.74642338515811,-7.7328069493580793],[113.74642326822158,-7.7327888789353478],[113.74644138459338,-7.7327887622951677],[113.74644132612484,-7.7327797270839316],[113.74645038431044,-7.7327796687636239],[113.74645032584176,-7.7327706335524518],[113.74644126765637,-7.7327706918726928],[113.74644115071963,-7.7327526214502011],[113.74643209253455,-7.7327526797701118],[113.74643203406647,-7.7327436445587896],[113.74640485951133,-7.7327438195171654],[113.74640480104391,-7.7327347843056158],[113.7464229174137,-7.7327346676670299],[113.74642285894595,-7.732725632455649],[113.74638662620691,-7.7327258657317763],[113.74638668467388,-7.7327349009434325],[113.74637762648872,-7.7327349592620562],[113.74637768495558,-7.7327439944738101],[113.74635956858471,-7.7327441111106188],[113.74635968551785,-7.7327621815343583],[113.74635062733194,-7.7327622398526126],[113.74635056886552,-7.7327532046406739],[113.74633245249385,-7.7327533212764674],[113.74633251095987,-7.7327623564885437],[113.74632345277375,-7.7327624148062206],[113.74632333584216,-7.7327443443819277],[113.74631427765632,-7.732744402699276],[113.74631421919082,-7.7327353674870398],[113.74629610281939,-7.7327354841210223],[113.74629604435434,-7.732726448908676],[113.74627792798297,-7.7327265655417552],[113.74627786951839,-7.7327175303292481],[113.74626881133281,-7.7327175886454311],[113.74626869440424,-7.7326995182202696],[113.74625963621894,-7.7326995765361213],[113.74625957775493,-7.732690541323449],[113.7462505195698,-7.7326905996390414],[113.7462505780336,-7.732699634851782],[113.74622340347712,-7.732699809797615],[113.74622346194043,-7.732708845010543],[113.74621440375459,-7.7327089033255074],[113.74621446221776,-7.7327179385384994],[113.74620540403168,-7.7327179968533395],[113.74620552095786,-7.7327360672794327],[113.74622363733073,-7.7327359506492863],[113.74622352040379,-7.7327178802234684],[113.74623257858973,-7.7327178219082429],[113.74623252012617,-7.7327087866953894],[113.74624157831184,-7.7327087283800422],[113.74624163677559,-7.7327177635928281],[113.74623257858973,-7.7327178219082429],[113.74623263705335,-7.7327268571210945],[113.74624169523942,-7.7327267988056105],[113.74624181216727,-7.7327448692311611],[113.74623275398082,-7.7327449275467837],[113.74623281244466,-7.7327539627596202],[113.74619657969738,-7.7327541960204664],[113.74619646277131,-7.7327361255942204],[113.7461874045847,-7.7327361839088145],[113.74618746304751,-7.7327452191220178],[113.74617840486066,-7.7327452774364893],[113.74617828793549,-7.7327272070099742],[113.74615111337559,-7.7327273819518272],[113.74615123029959,-7.7327454523787553],[113.74614217211244,-7.7327455106924585],[113.74614223057436,-7.7327545459059879],[113.74615128876169,-7.7327544875922145],[113.74615146414845,-7.7327815932325619],[113.74616052233631,-7.7327815349183897],[113.7461605807989,-7.7327905701317627],[113.74616963898687,-7.7327905118173295],[113.7461695805241,-7.7327814766040248],[113.74623298783661,-7.7327810683981086],[113.74623304630072,-7.7327901036109283],[113.74624210448813,-7.7327900452949621],[113.7462422798815,-7.732817150933192],[113.74625133806941,-7.732817092616826],[113.74625139653421,-7.7328261278294903],[113.74626045472225,-7.7328260695128641],[113.74626051318728,-7.7328351047254564],[113.74626957137546,-7.73283504640857],[113.74626939597995,-7.7328079407709875],[113.74625127960471,-7.7328080574041556],[113.74625116267548,-7.7327899869788022],[113.74626927904995,-7.7327898703459077],[113.74626922058506,-7.7327808351333642],[113.746278278772,-7.7327807768166981],[113.74627839570223,-7.7327988472416482],[113.74628745388948,-7.7327987889246508],[113.74628739542412,-7.7327897537122512],[113.74630551179804,-7.732789637077822],[113.74630545333238,-7.7327806018655521],[113.74632356970564,-7.7327804852304949],[113.74632362817167,-7.732789520442628],[113.74634174454502,-7.7327894038066667],[113.74634186147809,-7.7328074742306399],[113.74635091966503,-7.7328074159122329],[113.74635103659877,-7.7328254863360524],[113.74636915297323,-7.7328253696983884],[113.74636926990802,-7.7328434401219166],[113.74635115353277,-7.732843556759855],[113.74635109506573,-7.7328345215479564],[113.7463420368782,-7.7328345798665685],[113.74634197841144,-7.7328255446545962],[113.74632386203655,-7.7328256612911099],[113.74632380357023,-7.7328166260789963],[113.74633286175749,-7.7328165677609038],[113.74633274482468,-7.7327984973368018],[113.74632368663778,-7.732798555654754],[113.74632362817167,-7.732789520442628],[113.74631456998488,-7.7327895787603191],[113.7463146284508,-7.7327986139725171],[113.74630557026377,-7.7327986722900866],[113.74630562872957,-7.7328077075023485],[113.74629657054227,-7.7328077658197953],[113.74629674593952,-7.732834871456757],[113.74630580412739,-7.732834813139104],[113.74630586259347,-7.7328438483513482],[113.74629680440542,-7.7328439066690695],[113.74629715520223,-7.7328981179428391],[113.74628809701291,-7.7328981762607842],[113.74628815547911,-7.7329072114731536],[113.74629721366861,-7.7329071531551383],[113.74629727213505,-7.7329161883674171],[113.74630633032466,-7.7329161300491434],[113.746306271858,-7.7329070948369338],[113.74631533004735,-7.7329070365185366],[113.74631515464726,-7.7328799308820884],[113.74635138740166,-7.7328796976074079],[113.74635144586904,-7.7328887328192861],[113.74638767862308,-7.7328884995412617],[113.74638762015492,-7.7328794643296579],[113.7464057365311,-7.732879347689634],[113.74640579499965,-7.7328883829010993],[113.74641485318786,-7.7328883245807294],[113.74641491165667,-7.7328973597921022],[113.74642396984495,-7.732897301471473]],[[113.74640544418942,-7.7328341716322511],[113.74639638600233,-7.7328342299520134],[113.74639644447032,-7.7328432651635675],[113.74637832809552,-7.7328433818026596],[113.74637821116035,-7.7328253113792682],[113.74638726934741,-7.7328252530599579],[113.74638721087975,-7.7328162178483257],[113.74639626906652,-7.7328161595288947],[113.7463963275344,-7.7328251947404549],[113.74640538572129,-7.7328251364207592],[113.74640544418942,-7.7328341716322511]],[[113.74642320975342,-7.732779843723975],[113.74641415156762,-7.7327799020437071],[113.7464140346319,-7.7327618316208104],[113.74642309281731,-7.7327617733012177],[113.74642320975342,-7.732779843723975]],[[113.74627816184204,-7.7327627063917337],[113.74625098728218,-7.7327628813407427],[113.74625092881789,-7.7327538461280438],[113.74627810337718,-7.7327536711792462],[113.74627816184204,-7.7327627063917337]],[[113.7461694051362,-7.7327543709640887],[113.746160346949,-7.7327544292782475],[113.74616023002446,-7.7327363588514499],[113.74616928821126,-7.7327363005374297],[113.7461694051362,-7.7327543709640887]]],[[[113.74524500213762,-7.73268803625741],[113.74524499162061,-7.7326864103222555],[113.7452359383428,-7.732687228479513],[113.74523594394479,-7.732688094551456],[113.74524500213762,-7.73268803625741]]],[[[113.7452725273746,-7.7327420726950837],[113.74529970195555,-7.7327418978088307],[113.74529964351166,-7.7327328625889011],[113.7453177598982,-7.7327327459972448],[113.74531781834249,-7.7327417812170367],[113.74532687653586,-7.7327417229208493],[113.74532664275839,-7.7327055820418868],[113.74530852637312,-7.7327056986335139],[113.74530835980958,-7.7326799484306736],[113.74527083300016,-7.7326840749998871],[113.74525404489835,-7.7326855921647848],[113.74525411877299,-7.7326970131834676],[113.74527223515871,-7.7326968965942804],[113.74527229360174,-7.7327059318144666],[113.7452813517947,-7.7327058735195155],[113.74528141023799,-7.7327149087396112],[113.74526329385165,-7.7327150253294592],[113.74526341073769,-7.7327330957699143],[113.74527246893128,-7.732733037474949],[113.7452725273746,-7.7327420726950837]]],[[[113.7450461309474,-7.7327525652353035],[113.74504607250881,-7.7327435300134155],[113.74505513070429,-7.7327434717229844],[113.74505501382694,-7.7327254012793833],[113.74506407202195,-7.7327253429888971],[113.74506401358319,-7.7327163077671521],[113.74507307177797,-7.7327162494765416],[113.74507301333908,-7.7327072142548605],[113.74509112972801,-7.732707097673206],[113.74509124660661,-7.7327251681162883],[113.745109362996,-7.7327250515335919],[113.7451094214358,-7.7327340867549887],[113.74511847963061,-7.7327340284632822],[113.74511830431086,-7.7327069227992871],[113.74512736250499,-7.7327068645075947],[113.74512730406504,-7.7326978292863062],[113.74513636225893,-7.7326977709944931],[113.74513659601998,-7.7327339118792979],[113.74512753782531,-7.7327339701713864],[113.74512759626556,-7.7327430053926234],[113.74511853807064,-7.7327430636845893],[113.74511865495097,-7.7327611341272435],[113.74513677134149,-7.7327610175428427],[113.74513671290092,-7.7327519823216644],[113.74514577109588,-7.7327519240292473],[113.74514571265519,-7.732742888808116],[113.74515477084988,-7.7327428305155763],[113.74515471240905,-7.7327337952945445],[113.74517282879786,-7.732733678709022],[113.74517277035673,-7.7327246434881083],[113.74516371216257,-7.7327247017808958],[113.74516365372169,-7.7327156665599066],[113.74515459552761,-7.7327157248524356],[113.7451546539683,-7.7327247600734914],[113.74514559577399,-7.7327248183658943],[113.74514547889309,-7.7327067479236389],[113.74516359528089,-7.7327066313389139],[113.74516353684015,-7.7326975961179008],[113.74518165322728,-7.7326974795325496],[113.74518159645363,-7.7326887020975432],[113.74509100466905,-7.7326877624276937],[113.7450910128497,-7.7326890272301068],[113.74508195465563,-7.7326890855208923],[113.74508193888909,-7.7326866478568235],[113.74504445900004,-7.7326797129999294],[113.74503663281662,-7.7326846044363249],[113.74503666368437,-7.732689376971944],[113.74502891711352,-7.7326894268212714],[113.74497347810866,-7.732724076699915],[113.7449734900686,-7.732725925885128],[113.74497048855186,-7.7327259451996033],[113.74496445600639,-7.7327297155942905],[113.74496449030957,-7.7327350193961957],[113.7449558814096,-7.7327350747934762],[113.74494734200029,-7.732740411999937],[113.74476548494859,-7.7327788187956914],[113.74476550214507,-7.7327814778177117],[113.74475249821018,-7.7327815614908859],[113.74474739250873,-7.7327826397740509],[113.74474744418053,-7.732790629610788],[113.74473838598169,-7.7327906878950463],[113.7447384444141,-7.7327997231192391],[113.74470221161732,-7.732799956254623],[113.74470227004902,-7.7328089914790867],[113.74471132824851,-7.7328089331954573],[113.74471138668046,-7.7328179684198517],[113.74473856127911,-7.7328177935676123],[113.74473850284656,-7.7328087583434284],[113.74474756104578,-7.7328087000590342],[113.74474750261314,-7.7327996648349133],[113.74475656081206,-7.7327996065503966],[113.74475667767784,-7.7328176769984909],[113.74473856127911,-7.7328177935676123],[113.74473861971173,-7.7328268287917918],[113.74475673611084,-7.7328267122225354],[113.74475679454392,-7.7328357474465719],[113.74469338714438,-7.732836155436094],[113.74469332871267,-7.7328271202115744],[113.74462992131106,-7.7328275281912182],[113.74463003817188,-7.7328455986412177],[113.74462097997097,-7.7328456569233941],[113.74462103840129,-7.7328546921484573],[113.74461198020015,-7.7328547504305112],[113.74461203863035,-7.7328637856556561],[113.74459392222742,-7.7328639022193268],[113.74459386379762,-7.7328548669940442],[113.74460292199892,-7.7328548087123741],[113.74460286356899,-7.7328457734871732],[113.74457568896543,-7.732845948331402],[113.74457574739479,-7.732854983556809],[113.74458480559625,-7.7328549252755225],[113.74458492245557,-7.7328729957261864],[113.74457586425372,-7.7328730540076105],[113.74457598111293,-7.732891124458396],[113.7445488065059,-7.732891299301933],[113.74454874807684,-7.7328822640763368],[113.74455780627908,-7.7328822057954172],[113.74455774784988,-7.7328731705698859],[113.74453963144573,-7.732873287131393],[113.74453980673236,-7.7329003928083919],[113.74453074852958,-7.732900451089062],[113.74453069010083,-7.7328914158633317],[113.74452163189821,-7.732891474143746],[113.7445217487554,-7.7329095445953229],[113.74451269055233,-7.7329096028756785],[113.74451274898084,-7.732918638101558],[113.74449463257405,-7.7329187546618341],[113.74449469100226,-7.7329277898878273],[113.74448563279854,-7.7329278481677486],[113.74448569122663,-7.7329368833938048],[113.74444945841044,-7.7329371165118461],[113.74444951683782,-7.7329461517381741],[113.74444045863339,-7.7329462100172739],[113.74444057548797,-7.7329642804700587],[113.74442245907815,-7.7329643970279553],[113.74442251750516,-7.7329734322544788],[113.74441345929993,-7.732973490533209],[113.74441351772683,-7.7329825257597964],[113.74440445952136,-7.732982584038405],[113.74440451794813,-7.732991619265059],[113.74439545974241,-7.7329916775435423],[113.74439551816904,-7.7330007127702585],[113.74434116893201,-7.7330010624375554],[113.74434122735758,-7.7330100976646809],[113.74430499453072,-7.7330103307726512],[113.74430505295558,-7.7330193660000495],[113.74431411116259,-7.7330193077232741],[113.74431416958771,-7.7330283429506004],[113.74430511138051,-7.7330284012274424],[113.74430516980551,-7.7330374364548309],[113.74428705339051,-7.7330375530080797],[113.74428711181518,-7.7330465882356005],[113.74427805360737,-7.7330466465120073],[113.74427811203195,-7.7330556817395939],[113.7442690538239,-7.7330557400158764],[113.74426917067285,-7.7330738104711925],[113.74429634529797,-7.7330736356413565],[113.7442962868729,-7.7330646004138996],[113.74430534508095,-7.7330645421369733],[113.74430528665573,-7.7330555069095972],[113.74435963590136,-7.7330551572444231],[113.74435957747505,-7.7330461220174573],[113.74437769388932,-7.7330460054610013],[113.74437757703618,-7.7330279350073328],[113.74442286806868,-7.7330276436135286],[113.74442280964125,-7.7330186083870327],[113.74444998425933,-7.733018433548656],[113.74444986740353,-7.7330003630960613],[113.74444080919797,-7.7330004213755732],[113.74444075077037,-7.7329913861492008],[113.74444980897573,-7.7329913278697573],[113.74444975054801,-7.7329822926434497],[113.74448598336804,-7.7329820595240326],[113.74448592493962,-7.732973024297995],[113.74449498314428,-7.73297296601773],[113.74449492471574,-7.7329639307917573],[113.74450398292009,-7.7329638725113696],[113.74450392449144,-7.7329548372854449],[113.74452204089961,-7.7329547207242335],[113.74452198247063,-7.7329456854984748],[113.74454009887813,-7.7329455689366355],[113.74454004044883,-7.7329365337109941],[113.7445853314654,-7.7329362423033761],[113.74458538989566,-7.732945277528672],[113.74457633169227,-7.7329453358106477],[113.7445763901224,-7.7329543710359907],[113.74458544832598,-7.7329543127539484],[113.74458550675638,-7.7329633479792506],[113.74460362316367,-7.7329632314144501],[113.74460356473288,-7.7329541961892811],[113.74463073934271,-7.732954021340845],[113.74463068091143,-7.7329449861159167],[113.74461256450532,-7.7329451026815947],[113.74461244764372,-7.7329270322314105],[113.7445943312381,-7.7329271487960476],[113.74459421437756,-7.7329090783455543],[113.74460327258002,-7.7329090200634711],[113.74460321414966,-7.732899984838312],[113.74461227235186,-7.7328999265561054],[113.74461221392137,-7.7328908913309942],[113.74463033032517,-7.7328907747661448],[113.74463021346364,-7.7328727043161862],[113.74463927166504,-7.7328726460336119],[113.74463921323419,-7.7328636108087112],[113.7446573296364,-7.7328634942431229],[113.74465738806764,-7.7328725294678859],[113.74464832986638,-7.7328725877508449],[113.74464838829749,-7.7328816229756887],[113.74463933009595,-7.7328816812585233],[113.74463938852695,-7.7328907164834328],[113.74466656313189,-7.732890541634144],[113.74466650470032,-7.7328815064094414],[113.74467556290163,-7.7328814481260295],[113.74467550446995,-7.7328724129013917],[113.744684562671,-7.7328723546178599],[113.74468467953483,-7.7328904250669908],[113.7446756213334,-7.732890483350662],[113.74467567976522,-7.73289951857529],[113.74466662156352,-7.7328995768588378],[113.74466667999522,-7.7329086120835155],[113.74464856359124,-7.732908728650175],[113.74464862202264,-7.7329177638750171],[113.74465768022485,-7.7329177055917153],[113.74465773865651,-7.7329267408164686],[113.74467585506113,-7.7329266242491492],[113.7446757966291,-7.7329175890245345],[113.74471202943671,-7.7329173558878672],[113.74471197100398,-7.7329083206635065],[113.74473914560838,-7.7329081458092004],[113.74473908717513,-7.7328991105850751],[113.74473002897393,-7.7328991688699693],[113.74472997054096,-7.7328901336457516],[113.74473902874196,-7.7328900753609293],[113.74473891187583,-7.7328720049126263],[113.74470267907289,-7.7328722380502155],[113.7447028543699,-7.732899343723493],[113.74469379616839,-7.7328994020076172],[113.74469356243996,-7.7328632611096468],[113.74471167884134,-7.7328631445417582],[113.74471162040903,-7.7328541093173699],[113.74472067860943,-7.7328540510332076],[113.74472073704193,-7.7328630862575256],[113.74472979524243,-7.7328630279730994],[113.74472973680973,-7.7328539927488515],[113.74473879500998,-7.7328539344643064],[113.74473873657715,-7.7328448992401366],[113.74475685297706,-7.7328447826706066],[113.74475696984354,-7.7328628531186769],[113.74474791164324,-7.7328629114036778],[113.74474802850962,-7.732880981851836],[113.74477520311146,-7.7328808069958486],[113.74477514467766,-7.7328717717719684],[113.74478420287792,-7.7328717134863272],[113.744784144444,-7.7328626782625278],[113.74481131904386,-7.732862503404653],[113.74481126060942,-7.7328534681810259],[113.74480220240973,-7.7328535264671077],[113.74480208554147,-7.7328354560197328],[113.74482926013914,-7.7328352811613286],[113.74482943544338,-7.7328623868317798],[113.74489284283955,-7.7328619788206741],[113.74489278440339,-7.7328529435976652],[113.74490184260236,-7.7328528853096659],[113.74490178416607,-7.7328438500867396],[113.74491990056345,-7.7328437335103031],[113.74491978369032,-7.7328256630647152],[113.74495601648267,-7.7328254299100943],[113.74495595804544,-7.7328163946875685],[113.74496501624316,-7.7328163363985034],[113.74496489936853,-7.7327982659535746],[113.7449558411712,-7.7327983242425029],[113.74495572429726,-7.7327802537974204],[113.74497384069109,-7.7327801372196499],[113.7449739575658,-7.7327982076644552],[113.744983015763,-7.7327981493751441],[113.74498295732539,-7.7327891141528129],[113.74499201552233,-7.7327890558633774],[113.74499195708461,-7.732780020641111],[113.74500101528129,-7.732779962351553],[113.74500095684346,-7.7327709271293514],[113.74499189864697,-7.7327709854188393],[113.74499184020939,-7.7327619501965623],[113.74500089840569,-7.7327618919071446],[113.745000839968,-7.7327528566849306],[113.7450461309474,-7.7327525652353035]],[[113.74463903794206,-7.7328365051339194],[113.74466621254355,-7.7328363302858696],[113.74466627097476,-7.7328453655105927],[113.74467532917532,-7.7328453072274579],[113.74467538760679,-7.7328543424521046],[113.74464821300437,-7.7328545173011456],[113.74464815457347,-7.7328454820762884],[113.74463909637269,-7.7328455403588476],[113.74463903794206,-7.7328365051339194]],[[113.7445218071841,-7.7329185798211295],[113.7445308653873,-7.7329185215405101],[113.74453092381626,-7.7329275567662288],[113.74452186561288,-7.7329276150469148],[113.7445218071841,-7.7329185798211295]]],[[[113.74611452986238,-7.7326734039223988],[113.74611447140167,-7.7326643687086261],[113.74610541321594,-7.7326644270209446],[113.74610547167646,-7.7326734622347866],[113.74611452986238,-7.7326734039223988]]],[[[113.7459698327108,-7.7327104777570241],[113.7459697742529,-7.7327014425421661],[113.74600600700258,-7.7327012093021503],[113.74600583162696,-7.7326741036583782],[113.74599677344021,-7.7326741619684611],[113.74599671498201,-7.732665126753794],[113.74596048223511,-7.7326653599919402],[113.74596054069254,-7.7326743952068862],[113.74594242431827,-7.7326745118249463],[113.74594248277539,-7.7326835470400228],[113.74593342458797,-7.7326836053488366],[113.74593336613106,-7.7326745701336881],[113.74592430794375,-7.732674628442239],[113.74592424948709,-7.7326655932270194],[113.74591519129989,-7.7326656515353092],[113.74591513284348,-7.7326566163200168],[113.74588795828208,-7.732656791243528],[113.74588801673792,-7.7326658264590309],[113.74586990036292,-7.7326659430738838],[113.74586995881843,-7.7326749782895172],[113.74585184244279,-7.7326750949037422],[113.74585190089797,-7.7326841301195106],[113.74587001727402,-7.7326840135051471],[113.74587013418541,-7.7327020839363909],[113.74587919237372,-7.7327020256287851],[113.74587936774191,-7.7327291312754145],[113.74588842593069,-7.732729072967409],[113.74588836747438,-7.7327200377519398],[113.74589742566292,-7.73271997944381],[113.74589736720647,-7.7327109442284048],[113.74592454177115,-7.7327107693030745],[113.74592465868525,-7.7327288397334684],[113.74594277506208,-7.7327287231153488],[113.7459427166046,-7.7327196879002917],[113.74596083298078,-7.7327195712815406],[113.745960774523,-7.7327105360666186],[113.7459698327108,-7.7327104777570241]]],[[[113.74617770331392,-7.7326368548771427],[113.74616864512926,-7.7326369131905963],[113.74616870359091,-7.7326459484039836],[113.74615964540602,-7.7326460067173146],[113.74615970386755,-7.7326550419307329],[113.74616876205263,-7.7326549836173335],[113.74616882051441,-7.7326640188306968],[113.74614164595836,-7.7326641937705238],[113.74614176288101,-7.7326822641976518],[113.74615987925255,-7.7326821475710155],[113.74615982079081,-7.7326731123575909],[113.74619605353227,-7.7326728791022941],[113.74619599506984,-7.7326638438891422],[113.74621411143978,-7.7326637272604808],[113.74621405297702,-7.7326546920474621],[113.74620499479231,-7.7326547503618199],[113.7462049363298,-7.7326457151487462],[113.74617776177575,-7.7326458900904615],[113.74617770331392,-7.7326368548771427]]],[[[113.74588784137063,-7.732638720812516],[113.74589689955745,-7.7326386625050088],[113.74589684110163,-7.7326296272895645],[113.74588778291502,-7.732629685597006],[113.74588784137063,-7.732638720812516]]],[[[113.7459056654649,-7.7325934281203947],[113.74590560700925,-7.7325843929049967],[113.74589654882364,-7.7325844512122845],[113.74589660727909,-7.7325934864277492],[113.7459056654649,-7.7325934281203947]]],[[[113.74624064290141,-7.7325641649748906],[113.74624058443885,-7.7325551297620336],[113.74623152625645,-7.7325551880762076],[113.74623158471881,-7.7325642232891356],[113.74624064290141,-7.7325641649748906]]],[[[113.74593260619734,-7.7325571123363952],[113.74594166438206,-7.7325570540285486],[113.74594160592592,-7.7325480188134117],[113.74593254774139,-7.7325480771211899],[113.74593260619734,-7.7325571123363952]]],[[[113.74593260619734,-7.7325571123363952],[113.74591448982764,-7.7325572289515137],[113.74591443137209,-7.732548193736168],[113.74588725681761,-7.7325483686572003],[113.74588713990785,-7.7325302982260693],[113.74585090716911,-7.7325305314508759],[113.74585084871511,-7.732521496235055],[113.74585048365158,-7.7325214985848945],[113.74579165500006,-7.7325373929999106],[113.7457436840001,-7.7325460329999451],[113.74572494900008,-7.7325494069999632],[113.74565824100023,-7.7325734389999612],[113.74559759800026,-7.7325914619999647],[113.74555246515681,-7.7326063667367961],[113.74555257151198,-7.7326228076193777],[113.74554351332286,-7.7326228659194625],[113.74554368866781,-7.7326499715738723],[113.7455618050471,-7.7326498549731015],[113.74556162970102,-7.732622749319102],[113.74557068788997,-7.7326226910186344],[113.74557080478769,-7.7326407614544896],[113.74557986297697,-7.7326407031536935],[113.74557992142613,-7.7326497383715607],[113.74558897961552,-7.7326496800705051],[113.74558915496398,-7.7326767857238119],[113.74562538772321,-7.7326765525168373],[113.74562527082261,-7.7326584820818454],[113.74563432901185,-7.7326584237797604],[113.74563403676066,-7.7326132476925489],[113.74575179320193,-7.7326124897524737],[113.74575185165452,-7.73262152496903],[113.74578808440407,-7.7326212917499042],[113.7457880259507,-7.7326122565336251],[113.74582425869832,-7.7326120233117068],[113.74582431715247,-7.7326210585277124],[113.74581525896546,-7.7326211168335481],[113.74581543432772,-7.732648222481755],[113.74582449251528,-7.7326481641757123],[113.7458245509697,-7.7326571993916806],[113.74586078372006,-7.7326569661653162],[113.74586072526489,-7.7326479309496241],[113.74587884163925,-7.7326478143354285],[113.74587890009482,-7.7326568495509838],[113.74588795828208,-7.732656791243528],[113.74588784137063,-7.732638720812516],[113.74587878318376,-7.7326387791198332],[113.74587872472833,-7.7326297439042522],[113.74586966654155,-7.7326298022113082],[113.74586960808639,-7.7326207669956544],[113.74587866627297,-7.7326207086886649],[113.74587849090733,-7.7325936030418836],[113.74588754909324,-7.7325935447349119],[113.74588743218278,-7.7325754743038413],[113.74587837399724,-7.7325755326106744],[113.74587831554231,-7.7325664973950614],[113.74586925735689,-7.7325665557016343],[113.74586931581162,-7.7325755909173148],[113.74584214125437,-7.732575765836093],[113.74584208280019,-7.7325667306202055],[113.74583302461451,-7.732566788926011],[113.74583296616059,-7.7325577537100507],[113.7458420243461,-7.7325576954043127],[113.74584196589208,-7.732548660188419],[113.74586914044761,-7.7325484852702626],[113.7458691989022,-7.732557520485952],[113.7458873152726,-7.7325574038727511],[113.74588743218278,-7.7325754743038413],[113.74590554855367,-7.7325753576895968],[113.74590549009815,-7.7325663224741943],[113.74591454828328,-7.7325662641668522],[113.74591460673898,-7.7325752993821881],[113.74592366492426,-7.7325752410745867],[113.74592360646837,-7.732566205859321],[113.74593266465335,-7.732566147551597],[113.74593260619734,-7.7325571123363952]],[[113.74581484978937,-7.7325578703209494],[113.74582390797501,-7.7325578120155969],[113.74582396642872,-7.7325668472316265],[113.74581490824289,-7.7325669055370492],[113.74581484978937,-7.7325578703209494]],[[113.74584237507173,-7.7326119066995975],[113.74585143325834,-7.7326118483932555],[113.74585149171304,-7.7326208836090506],[113.74584243352625,-7.7326209419154646],[113.74584237507173,-7.7326119066995975]]],[[[113.74595960538197,-7.7325298317672528],[113.74595954692565,-7.7325207965522571],[113.74595048874183,-7.7325208548602111],[113.74595054719796,-7.7325298900752752],[113.74595960538197,-7.7325298317672528]]],[[[113.74610453631668,-7.7325288988128005],[113.7461044778573,-7.7325198635989087],[113.74608636149183,-7.7325199802207605],[113.74608641995084,-7.7325290154347925],[113.74610453631668,-7.7325288988128005]]],[[[113.74590513936656,-7.732512111181677],[113.74589608118249,-7.7325121694884107],[113.74589619809235,-7.7325302399193889],[113.74591431446117,-7.7325301233054518],[113.74591425600582,-7.7325210880901114],[113.74590519782164,-7.7325211463971071],[113.74590513936656,-7.732512111181677]]],[[[113.74605007030188,-7.7325111782478402],[113.74600477938652,-7.7325114697949386],[113.74600483784373,-7.7325205050096084],[113.74599577966026,-7.7325205633185234],[113.74599583811734,-7.7325295985332421],[113.74602301266813,-7.7325294236057207],[113.74602307112586,-7.7325384588202635],[113.74601401294214,-7.7325385171296981],[113.74601407139974,-7.7325475523442861],[113.74599595503172,-7.7325476689627193],[113.74599601348902,-7.7325567041774423],[113.74596883893587,-7.7325568791038588],[113.74596889739264,-7.7325659143187835],[113.74599607194638,-7.7325657393921619],[113.7459961304038,-7.7325747746068751],[113.74603236314188,-7.7325745413684199],[113.74603242160016,-7.7325835765828543],[113.74604147978471,-7.7325835182726905],[113.74604153824323,-7.732592553487053],[113.74610494553437,-7.7325921453100621],[113.74610488707448,-7.7325831100961837],[113.74609582889045,-7.7325831684076887],[113.74609571197129,-7.7325650979797782],[113.74610477015494,-7.7325650396684127],[113.74610482861468,-7.7325740748822991],[113.74611388679847,-7.7325740165706716],[113.74611400371855,-7.732592086998296],[113.74612306190264,-7.7325920286863408],[113.74612312036298,-7.7326010639000762],[113.74614123673135,-7.732600947275448],[113.74614141211393,-7.7326280529162208],[113.74615952848318,-7.7326279362904105],[113.74615947002187,-7.7326189010769637],[113.74616852820617,-7.7326188427638396],[113.74616846974473,-7.7326098075504568],[113.74615941156061,-7.7326098658635098],[113.74615935309944,-7.7326008306500515],[113.74615029491542,-7.7326008889628453],[113.74615023645451,-7.7325918537493159],[113.74614117827063,-7.7325919120618494],[113.74614094442845,-7.7325557712074096],[113.74613188624527,-7.7325558295194732],[113.74613182778509,-7.7325467943057848],[113.74610465323566,-7.7325469692406239],[113.74610471169527,-7.7325560044545192],[113.74607753714464,-7.7325561793878377],[113.74607747868563,-7.7325471441737363],[113.74605030413495,-7.7325473191051231],[113.74605024567659,-7.7325382838908103],[113.74605930386004,-7.7325382255806057],[113.74605924540154,-7.73252919036634],[113.7460773617678,-7.7325290737454999],[113.74607730330898,-7.7325200385313995],[113.74605012876005,-7.7325202134621662],[113.74605007030188,-7.7325111782478402]],[[113.74607759560374,-7.7325652146019381],[113.74608665378756,-7.7325651562909528],[113.74608677070634,-7.732583226719],[113.74607771252214,-7.732583285030123],[113.74607759560374,-7.7325652146019381]]],[[[113.74599810107284,-7.7324844060111744],[113.74599177600022,-7.7324833249999756],[113.74598672697756,-7.7324844792274217],[113.74599810107284,-7.7324844060111744]]]]},"properties":{"FID":0,"Shape_Leng":18102566.929299999,"Shape_Area":236516885.403}}]
}