{
  "type" : "FeatureCollection",
  "features" : [{"type":"Feature","id":0,"geometry":{"type":"MultiPolygon","coordinates":[[[[113.62797245713924,-7.1244613153916774],[113.62797236622609,-7.1244453634001434],[113.62794522636537,-7.1244455177226138],[113.62794534061005,-7.1244655637634535],[113.62797245713924,-7.1244613153916774]]],[[[113.62822546554612,-7.124407777625664],[113.62818927907534,-7.1244079834073286],[113.62818933057898,-7.1244170197462742],[113.62816219072464,-7.1244171740808691],[113.62816224222779,-7.1244262104200402],[113.6281441489909,-7.1244263133090175],[113.62814420049378,-7.1244353496483033],[113.62813515387504,-7.1244354010925939],[113.62813524824246,-7.1244519581794536],[113.62822920000029,-7.1244489189999234],[113.62826185213054,-7.1244426810497625],[113.62826180653111,-7.1244346808564663],[113.62825275991324,-7.1244347323030519],[113.62825270840825,-7.1244256959645593],[113.6282346151727,-7.1244257988570689],[113.62823456366813,-7.1244167625184227],[113.62822551705042,-7.1244168139643458],[113.62822546554612,-7.124407777625664]]],[[[113.62773694810024,-7.1244105554397548],[113.62772790147902,-7.1244106068758999],[113.62772795297363,-7.1244196432182045],[113.62771890635216,-7.1244196946542413],[113.62771885485775,-7.1244106583118674],[113.6276917149935,-7.1244108126187147],[113.6276917664874,-7.124419848961284],[113.62767367324389,-7.1244199518317659],[113.62767362175035,-7.1244109154890634],[113.62766457512868,-7.1244109669239739],[113.62766462662204,-7.1244200032667404],[113.62766021801187,-7.124420028332028],[113.62771605600018,-7.1244423079999653],[113.62785648400006,-7.1244794849999415],[113.62789855964802,-7.1244728929764847],[113.62789110113644,-7.1244729353861436],[113.62789104963827,-7.12446389904503],[113.62788200301712,-7.1244639504845724],[113.62788190002131,-7.1244458778021995],[113.62787285340048,-7.1244459292414337],[113.62787280190284,-7.1244368929001771],[113.62786375528209,-7.1244369443391697],[113.62786365228739,-7.124418871656494],[113.62779127932193,-7.1244192831610187],[113.62779133081783,-7.1244283195028943],[113.62778228419667,-7.1244283709402296],[113.62778218120528,-7.1244102982563779],[113.62777313458442,-7.1244103496934077],[113.627773083089,-7.1244013133514095],[113.62776403646822,-7.124401364788195],[113.62776408796346,-7.1244104011302589],[113.62775504134245,-7.1244104525669334],[113.6277549898474,-7.1244014162248028],[113.62773689660553,-7.1244015190974928],[113.62773694810024,-7.1244105554397548],[113.62774599472137,-7.1244105040034329],[113.62774609771134,-7.1244285766878122],[113.62773705108985,-7.1244286281242664],[113.62773694810024,-7.1244105554397548]],[[113.62777334056675,-7.124446495061358],[113.62778238718832,-7.1244464436240662],[113.62778243868425,-7.1244554799659801],[113.62777339206249,-7.1244555314033375],[113.62777334056675,-7.124446495061358]]],[[[113.63173410409873,-7.124134786606092],[113.63173405252775,-7.1241257502928681],[113.63172500594129,-7.1241258018051514],[113.6317250575121,-7.1241348381184428],[113.63173410409873,-7.124134786606092]]],[[[113.62862202283206,-7.1241434601009912],[113.62862197132196,-7.1241344237650752],[113.62860387810323,-7.1241345266678469],[113.62860392961296,-7.1241435630038943],[113.62862202283206,-7.1241434601009912]]],[[[113.63300962054545,-7.1241184852930459],[113.63300956894962,-7.1241094489891248],[113.63300052237281,-7.1241095005262416],[113.63300057396846,-7.1241185368302284],[113.63300962054545,-7.1241184852930459]]],[[[113.62864905963903,-7.1241252330738725],[113.62864001303006,-7.1241252845258094],[113.62864006454045,-7.1241343208615975],[113.62863101793126,-7.1241343723134252],[113.62863106944152,-7.1241434086492754],[113.62867630248778,-7.1241431513880444],[113.62867625097661,-7.1241341150525237],[113.62864911114957,-7.1241342694095948],[113.62864905963903,-7.1241252330738725]]],[[[113.62874862384569,-7.1241337034258985],[113.62874857233321,-7.1241246670909018],[113.62873952572497,-7.1241247185447838],[113.6287395772373,-7.1241337548798462],[113.62874862384569,-7.1241337034258985]]],[[[113.62880280046765,-7.1241153220293247],[113.62880274895423,-7.1241062856946984],[113.62879370234677,-7.1241063371495059],[113.62879375386002,-7.124115373484198],[113.62880280046765,-7.1241153220293247]]],[[[113.63301851233456,-7.1240913248441258],[113.63301846073874,-7.1240822885402419],[113.63300941416253,-7.1240823400773357],[113.63300946575816,-7.1240913763812879],[113.63301851233456,-7.1240913248441258]]],[[[113.62883893538346,-7.1241060798737017],[113.62883888386938,-7.1240970435393516],[113.62882983726234,-7.1240970949948004],[113.62882988877622,-7.1241061313292153],[113.62883893538346,-7.1241060798737017]]],[[[113.62889316351011,-7.1240967348029542],[113.62889311199505,-7.1240876984689967],[113.62888406538862,-7.1240877499254385],[113.62888411690351,-7.1240967862594609],[113.62889316351011,-7.1240967348029542]]],[[[113.62893839654222,-7.1240964775177664],[113.62893834502628,-7.1240874411841375],[113.62890215860142,-7.1240876470123764],[113.62890221011666,-7.1240966833462691],[113.62893839654222,-7.1240964775177664]]],[[[113.62897453145007,-7.1240872353530733],[113.62897447993348,-7.1240781990197046],[113.62895638672208,-7.1240783019354579],[113.6289564382383,-7.1240873382689598],[113.62897453145007,-7.1240872353530733]]],[[[113.63307258540443,-7.1240548704035289],[113.63307253380785,-7.1240458341000581],[113.63305444065756,-7.1240459371756621],[113.63305449225381,-7.1240549734792626],[113.63307258540443,-7.1240548704035289]]],[[[113.62902870804849,-7.1240688539352464],[113.62902865653098,-7.124059817602248],[113.62901960992609,-7.1240598690611403],[113.62901966144341,-7.1240689053942043],[113.62902870804849,-7.1240688539352464]]],[[[113.6330362959112,-7.1240370039467873],[113.63302724933601,-7.124037055483905],[113.63302730093166,-7.1240460917877426],[113.63303634750702,-7.1240460402505592],[113.6330362959112,-7.1240370039467873]]],[[[113.62907383803621,-7.1240505239724801],[113.62906479143179,-7.1240505754321903],[113.62906484294994,-7.1240596117649115],[113.6290467497406,-7.1240597146839324],[113.62904680125847,-7.1240687510167984],[113.62908298767761,-7.124068545177785],[113.62908293615904,-7.1240595088451837],[113.62907388955453,-7.1240595603051355],[113.62907383803621,-7.1240505239724801]]],[[[113.6291643040765,-7.1240500093656696],[113.62916425255648,-7.1240409730336705],[113.6291461593493,-7.1240410759563142],[113.62914621086898,-7.1240501122884448],[113.6291643040765,-7.1240500093656696]]],[[[113.6330362959112,-7.1240370039467873],[113.63304534248634,-7.1240369524094938],[113.63304523929455,-7.1240188798021036],[113.63303619271976,-7.1240189313392657],[113.6330362959112,-7.1240370039467873]]],[[[113.63323526894887,-7.12402683378322],[113.63323521734929,-7.12401779748091],[113.63322617077593,-7.1240178490217803],[113.63322622237533,-7.124026885324156],[113.63323526894887,-7.12402683378322]]],[[[113.62897422235157,-7.1240330173528044],[113.62897417083539,-7.1240239810194117],[113.62896512423079,-7.1240240324769815],[113.62896517574679,-7.124033068810439],[113.62897422235157,-7.1240330173528044]]],[[[113.62900136216552,-7.1240328629788365],[113.6290013106488,-7.1240238266456428],[113.6289922640444,-7.1240238781037419],[113.62899231556092,-7.1240329144370023],[113.62900136216552,-7.1240328629788365]]],[[[113.62932709140894,-7.1240400466981022],[113.62932698836272,-7.1240219740364648],[113.62931794176072,-7.1240220255009206],[113.6293180448066,-7.1240400981626903],[113.62932709140894,-7.1240400466981022]]],[[[113.62902845046162,-7.1240236722702859],[113.62902839894444,-7.1240146359372858],[113.62901030573632,-7.1240147388542354],[113.62901035725314,-7.1240237751873678],[113.62902845046162,-7.1240236722702859]]],[[[113.62925461554491,-7.1240223857471694],[113.62925456402333,-7.1240133494158178],[113.62924551742097,-7.1240134008787939],[113.62924556894238,-7.1240224372102139],[113.62925461554491,-7.1240223857471694]]],[[[113.62932693683972,-7.1240129377056398],[113.62932688531677,-7.1240039013748113],[113.62931783871512,-7.1240039528391348],[113.62931789023789,-7.124012989170029],[113.62932693683972,-7.1240129377056398]]],[[[113.62954395220885,-7.1239936298487851],[113.62953490560899,-7.1239936813172813],[113.62953495713595,-7.124002717646615],[113.62949877073514,-7.1240029235190976],[113.62949882226145,-7.1240119598486729],[113.62947168245964,-7.1240121142513795],[113.62947173398547,-7.1240211505811493],[113.62946268738456,-7.1240212020484304],[113.62946273891028,-7.1240302383782632],[113.62944464570788,-7.1240303413124284],[113.62944474875884,-7.1240484139723428],[113.62943570215718,-7.1240484654392935],[113.62943565063186,-7.1240394291092723],[113.62941755742871,-7.1240395320425094],[113.62941766047874,-7.1240576047028128],[113.62940861387669,-7.124057656169299],[113.62940871692662,-7.1240757288297178],[113.62939967032418,-7.1240757802961596],[113.62939972184907,-7.1240848166264295],[113.62936353543789,-7.124085022490692],[113.62936358696214,-7.1240940588212203],[113.629354540359,-7.1240941102869106],[113.62935459188316,-7.124103146617502],[113.62932745207281,-7.1241033010137098],[113.6293275035965,-7.1241123373445143],[113.62931845699272,-7.12411238880963],[113.62931850851628,-7.1241214251404603],[113.62928232209988,-7.1241216309994204],[113.62928237362281,-7.1241306673305278],[113.62920095418036,-7.1241311305034518],[113.62920100570177,-7.1241401668351489],[113.62917386588589,-7.1241403212231411],[113.62917391740683,-7.1241493575550319],[113.62911059116617,-7.1241497177879669],[113.62911064268594,-7.1241587541202982],[113.62909254947338,-7.124158857042536],[113.62909260099286,-7.124167893375029],[113.62904736795939,-7.1241681506778631],[113.62904741947806,-7.124177187010666],[113.62900218644202,-7.1241774443094146],[113.62900223795987,-7.1241864806425426],[113.62897509813691,-7.1241866350198704],[113.62897514965429,-7.124195671353192],[113.62893896322203,-7.1241958771874216],[113.62893901473878,-7.1242049135209866],[113.62892092152188,-7.1242050164371724],[113.62892097303835,-7.124214052770899],[113.62890287982084,-7.124214155686512],[113.62890293133701,-7.1242231920203496],[113.62888483811889,-7.124223294935387],[113.62888478660307,-7.1242142586014179],[113.62886669338502,-7.1242143615156168],[113.62886674490049,-7.1242233978497183],[113.62883960507239,-7.1242235522198918],[113.6288396565874,-7.124232588554186],[113.62882156336798,-7.124232691466883],[113.6288216148827,-7.1242417278013068],[113.62880352166265,-7.1242418307134301],[113.62880347014828,-7.1242327943788739],[113.62878537692832,-7.1242328972901596],[113.62878542844234,-7.1242419336248464],[113.62874019539039,-7.124242190900298],[113.62874024690358,-7.1242512272353098],[113.62873120029282,-7.1242512786899361],[113.6287312518059,-7.124260315025011],[113.62871315858381,-7.1242604179338658],[113.62871310707108,-7.1242513815986594],[113.62869501384907,-7.1242514845066767],[113.62869506536146,-7.1242605208420144],[113.62867697213883,-7.1242606237494561],[113.62867702365092,-7.1242696600849227],[113.62863179059231,-7.1242699173507669],[113.62863184210357,-7.1242789536865754],[113.62859565565475,-7.1242791594963366],[113.62859570716539,-7.1242881958323707],[113.62855047410198,-7.1242884530909292],[113.62855057712169,-7.1243065257636786],[113.62854153050846,-7.1243065772149929],[113.62854158201823,-7.1243156135514267],[113.62853253540473,-7.12431566500263],[113.62853248389514,-7.1243066286661296],[113.62849629744127,-7.1243068344689116],[113.62849634895015,-7.1243158708056757],[113.62846920910852,-7.124316025156106],[113.62846926061695,-7.1243250614930815],[113.62844212077415,-7.1243252158421191],[113.62844217228211,-7.1243342521792554],[113.62845121889663,-7.1243342007296855],[113.6284513219131,-7.124352273403848],[113.62844227529824,-7.1243523248535494],[113.62844222379015,-7.1243432885164042],[113.6284331771754,-7.1243433399658622],[113.62843307415976,-7.1243252672914466],[113.62841498093077,-7.1243253701895686],[113.62841492942341,-7.1243163338521986],[113.62836064973591,-7.1243166425419329],[113.6283607012422,-7.1243256788796998],[113.62834260801215,-7.1243257817749974],[113.62834265951817,-7.1243348181128585],[113.62833361290286,-7.1243348695603075],[113.62833376742078,-7.1243619785741137],[113.62832472080487,-7.1243620300215849],[113.6283248238168,-7.1243801026975682],[113.62831577720048,-7.1243801541449949],[113.62831588021233,-7.1243982268210937],[113.62829778697876,-7.1243983297156799],[113.62829788999018,-7.1244164023920105],[113.62828884337296,-7.1244164538391699],[113.62828889487858,-7.1244254901774218],[113.6283160347306,-7.1244253358352143],[113.62831607455246,-7.1244323222483779],[113.62836064700012,-7.1244238069999684],[113.62856073100011,-7.1243686619999309],[113.62878145200024,-7.1243058969998847],[113.62905757700004,-7.1242343859998272],[113.62925676000009,-7.124151456999928],[113.62955216900014,-7.1240306499999466],[113.62958331286744,-7.1240205157799217],[113.62958029319127,-7.1240205329599986],[113.62958024166331,-7.1240114966310193],[113.62957119506335,-7.1240115481003548],[113.62957114353564,-7.1240025117713062],[113.62956209693583,-7.1240025632403974],[113.62956214846336,-7.1240115995695117],[113.62955310186329,-7.1240116510384928],[113.62955305033593,-7.1240026147093127],[113.62954400373596,-7.1240026661780522],[113.62954395220885,-7.1239936298487851]],[[113.62836985087029,-7.1243437001071248],[113.62835175763968,-7.1243438030030388],[113.62835170613342,-7.1243347666652319],[113.62836979936367,-7.1243346637694493],[113.62836985087029,-7.1243437001071248]]],[[[113.62965253978356,-7.123997989320868],[113.62965251140184,-7.1239930122130559],[113.6296253716045,-7.1239931666243725],[113.62962542313322,-7.1240022029530454],[113.62959828333474,-7.1240023573629703],[113.6295983589616,-7.1240156197773858],[113.62965253978356,-7.123997989320868]]],[[[113.62929064738765,-7.1239950708999356],[113.62929059586554,-7.1239860345688522],[113.62928154926401,-7.123986086032339],[113.62928160078593,-7.1239951223634872],[113.62929064738765,-7.1239950708999356]]],[[[113.62742694304508,-7.1239875959738503],[113.62741789642988,-7.1239876474008961],[113.6274180508864,-7.1240147564351224],[113.62742709750212,-7.1240147050078795],[113.62742704601638,-7.1240056686631918],[113.62743609263183,-7.1240056172358388],[113.62743604114597,-7.1239965808912444],[113.62742699453069,-7.1239966323185318],[113.62742694304508,-7.1239875959738503]]],[[[113.63321609223215,-7.1238371745128131],[113.6332159890366,-7.1238191019077615],[113.633206942467,-7.123819153446826],[113.63320704566219,-7.12383722605201],[113.63321609223215,-7.1238371745128131]]],[[[113.63345060161758,-7.1235557039872868],[113.63344065682146,-7.1235557606466173],[113.6334406968635,-7.1235627728622912],[113.63345060161758,-7.1235557039872868]]],[[[113.63520473528526,-7.1235457066674917],[113.63520468365063,-7.1235366703793934],[113.63519563710112,-7.1235367219553218],[113.63519568873555,-7.123545758243484],[113.63520473528526,-7.1235457066674917]]],[[[113.63348568323076,-7.1235193577334872],[113.63347663666899,-7.1235194092756702],[113.63347673741139,-7.1235370512600857],[113.63348574754765,-7.1235306208593006],[113.63348568323076,-7.1235193577334872]]],[[[113.6330695413202,-7.1235217284911405],[113.63306948972755,-7.1235126921874077],[113.63306044316288,-7.1235127437214016],[113.63306049475533,-7.123521780025202],[113.6330695413202,-7.1235217284911405]]],[[[113.63348568323076,-7.1235193577334872],[113.63349472979245,-7.1235193061911275],[113.63349475768362,-7.123524190458447],[113.63351277795473,-7.1235113296564831],[113.63351277131436,-7.1235101668053833],[113.63350372475296,-7.123510218348029],[113.63350367315191,-7.1235011820474945],[113.63349462659063,-7.1235012335898977],[113.63349467819151,-7.1235102698904988],[113.63348563162999,-7.1235103214327919],[113.63348568323076,-7.1235193577334872]]],[[[113.63306943813498,-7.123503655883705],[113.63306938654249,-7.1234946195799802],[113.63306033997814,-7.1234946711138418],[113.63306039157047,-7.1235037074176333],[113.63306943813498,-7.123503655883705]]],[[[113.63298791587033,-7.1234860470740635],[113.63297886930559,-7.1234860986062705],[113.63297892089625,-7.1234951349106597],[113.63298796746118,-7.1234950833783852],[113.63298791587033,-7.1234860470740635]]],[[[113.63298791587033,-7.1234860470740635],[113.63299696243503,-7.1234859955416798],[113.63299691084407,-7.1234769592374176],[113.63298786427954,-7.1234770107697365],[113.63298791587033,-7.1234860470740635]]],[[[113.63354859634707,-7.1234467065314204],[113.6335395497872,-7.1234467580743113],[113.63353965298998,-7.1234648306749433],[113.63352155986931,-7.1234649337604594],[113.63352161147044,-7.1234739700608776],[113.63351256490984,-7.1234740216034362],[113.63351271971312,-7.1235011305049136],[113.63352176627426,-7.123501078962156],[113.63352178808987,-7.1235048992553729],[113.63353053600018,-7.1234986559999758],[113.63355788219003,-7.1234885572653104],[113.63355784931413,-7.123482800189044],[113.63356689587458,-7.1234827486455359],[113.63356679267046,-7.1234646760453471],[113.63355774611038,-7.1234647275887228],[113.6335576945086,-7.1234556912885312],[113.63354864794859,-7.1234557428316636],[113.63354859634707,-7.1234467065314204]]],[[[113.63302384417192,-7.1234406594231183],[113.63302379258077,-7.1234316231190364],[113.63301474601734,-7.1234316746515534],[113.63301479760831,-7.123440710955701],[113.63302384417192,-7.1234406594231183]]],[[[113.63356668946663,-7.1234466034451094],[113.6335666378648,-7.1234375671449941],[113.63357568442431,-7.1234375156016396],[113.63357563282239,-7.1234284793015865],[113.63355753970367,-7.1234285823879846],[113.63355764290689,-7.1234466549883537],[113.63356668946663,-7.1234466034451094]]],[[[113.63303278755286,-7.1234225352823213],[113.63303268437055,-7.1234044626742712],[113.63302363780774,-7.1234045142067668],[113.6330237409897,-7.1234225868149492],[113.63303278755286,-7.1234225352823213]]],[[[113.6335209406609,-7.1233564981549229],[113.63351189410258,-7.1233565496966236],[113.63351194570275,-7.1233655859971705],[113.63350289914418,-7.1233656375387602],[113.63350295074423,-7.1233746738393702],[113.63353009042024,-7.1233745192138738],[113.63353003881967,-7.1233654829134618],[113.63352099226124,-7.123365534455405],[113.6335209406609,-7.1233564981549229]]],[[[113.63335805100392,-7.1233483895768224],[113.63336709756321,-7.1233483380381903],[113.63336704596603,-7.1233393017365954],[113.6333579994069,-7.1233393532751617],[113.63335805100392,-7.1233483895768224]]],[[[113.63354792553325,-7.1233292346278905],[113.63352983241805,-7.1233293377117768],[113.63352988401834,-7.1233383740122047],[113.63353893057615,-7.1233383224702829],[113.6335389821767,-7.1233473587706237],[113.63354802873464,-7.1233473072284585],[113.63354792553325,-7.1233292346278905]]],[[[113.63333070494015,-7.1233123989841509],[113.63333065334393,-7.1233033626822424],[113.63331256022653,-7.1233034657572585],[113.63331261182239,-7.1233125020592993],[113.63333070494015,-7.1233123989841509]]],[[[113.63306840629772,-7.1233229298084773],[113.63306845788895,-7.1233319661122758],[113.63305941132781,-7.1233320176449482],[113.63305946291892,-7.1233410539488089],[113.63305041635755,-7.1233411054813729],[113.63305046794855,-7.123350141785278],[113.63304142138693,-7.1233501933177328],[113.63304147297782,-7.1233592296217321],[113.63303242641594,-7.1233592811540758],[113.6330325811885,-7.1233863900662042],[113.63306876743772,-7.1233861839349828],[113.63306871584609,-7.1233771476312073],[113.63308680896992,-7.1233770445646689],[113.63308665419439,-7.1233499356537004],[113.63309570075567,-7.1233498841203655],[113.63309559757197,-7.1233318115131921],[113.63308655101102,-7.1233318630463964],[113.63308644782794,-7.1233137904390604],[113.63309549438853,-7.1233137389059884],[113.6330954427969,-7.123304702602363],[113.63308639623648,-7.1233047541353702],[113.63308629305379,-7.1232866815280254],[113.6330681999335,-7.1232867845932439],[113.63306825152446,-7.1232958208970576],[113.63305920496401,-7.1232958724294679],[113.63305935973676,-7.1233229813410839],[113.63306840629772,-7.1233229298084773],[113.63306835470658,-7.1233138935046751],[113.63307740126729,-7.1233138419719548],[113.63307745285861,-7.1233228782756912],[113.63306840629772,-7.1233229298084773]]],[[[113.63335805100392,-7.1233483895768224],[113.63334900444458,-7.1233484411152785],[113.63334890125097,-7.1233303685118035],[113.6333398546919,-7.1233304200499514],[113.6333399062885,-7.1233394563517658],[113.63332181316984,-7.1233395594276621],[113.63332186476615,-7.1233485957295875],[113.63333091132569,-7.1233485441916606],[113.63333096292223,-7.1233575804935496],[113.63332191636253,-7.123357632031543],[113.63332196795896,-7.1233666683334764],[113.633312921399,-7.1233667198713579],[113.63331266341834,-7.1233215383613189],[113.63329457029995,-7.1233216414358926],[113.63329451870439,-7.1233126051337416],[113.63330356526343,-7.123312553596608],[113.63330351366774,-7.1233035172945023],[113.63329446710887,-7.1233035688315685],[113.63329441551343,-7.1232945325294255],[113.63328536895469,-7.12329458406625],[113.63328531735949,-7.1232855477640209],[113.63325817768335,-7.1232857023732352],[113.63325807449422,-7.1232676297683692],[113.63323998137717,-7.1232677328400316],[113.63324003297134,-7.1232767691425991],[113.63323098641254,-7.1232768206782309],[113.63323103800661,-7.1232858569808606],[113.63322199144756,-7.1232859085163831],[113.63322214622964,-7.1233130174244446],[113.63323119278924,-7.1233129658887258],[113.63323124438358,-7.1233220021913386],[113.6332221978238,-7.1233220537271258],[113.63322230101234,-7.123340126332474],[113.6332403941325,-7.12334002326046],[113.63324044572721,-7.1233490595629805],[113.63324949228738,-7.1233490080266426],[113.63324944069247,-7.1233399717241896],[113.63325848725238,-7.1233399201877408],[113.63325864203779,-7.1233670290949425],[113.63324959547735,-7.1233670806315867],[113.63324954388233,-7.1233580443291258],[113.63322240420113,-7.1233581989378054],[113.63322245579563,-7.1233672352404671],[113.63321340923494,-7.1233672867764053],[113.63321346082932,-7.1233763230791283],[113.63320441426838,-7.1233763746149572],[113.63320456905143,-7.1234034835233002],[113.63319552248986,-7.1234035350591505],[113.63319567727297,-7.123430643967656],[113.63317758414861,-7.1234307470392242],[113.63317773893127,-7.1234578559480903],[113.63316869236847,-7.1234579074838074],[113.63316874396264,-7.1234669437868376],[113.63315969739961,-7.1234669953224437],[113.63315974899368,-7.1234760316255032],[113.63315070243036,-7.123476083161],[113.63315080561833,-7.123494155767272],[113.63312366592699,-7.123494310373097],[113.63312371752055,-7.1235033466764248],[113.63310562439229,-7.1235034497462237],[113.63310577917231,-7.123530558656582],[113.63311482573702,-7.123530507121572],[113.63311503211203,-7.1235666523350636],[113.63310598554662,-7.1235667038703374],[113.63310608873418,-7.1235847764771911],[113.63311513529993,-7.1235847249417859],[113.6331152900823,-7.1236118338518404],[113.63312433664852,-7.1236117823160603],[113.63312443983745,-7.1236298549226111],[113.63313348640395,-7.123629803386522],[113.63313364118838,-7.1236569122961226],[113.63314268775535,-7.1236568607596595],[113.63314273935048,-7.1236658970627849],[113.63315178591755,-7.1236658455260793],[113.63315188910835,-7.1236839181321869],[113.63316093567572,-7.1236838665951723],[113.63316114205884,-7.1237200118070625],[113.63315209549076,-7.1237200633443409],[113.63315219868235,-7.1237381359504193],[113.63317933838742,-7.1237379813376576],[113.63317923519476,-7.1237199087319745],[113.63318828176263,-7.1237198571941658],[113.63318838495564,-7.1237379297997165],[113.63320647809191,-7.1237378267233051],[113.63320642649499,-7.1237287904206728],[113.63321547306283,-7.123728738882269],[113.6332155246599,-7.1237377751848356],[113.63323361779575,-7.1237376721073646],[113.63323356619833,-7.1237286358049303],[113.63324261276595,-7.1237285842659972],[113.63324266436356,-7.1237376205683658],[113.633260757499,-7.1237375174898361],[113.63326080909702,-7.1237465537920688],[113.6332879488002,-7.1237463991727523],[113.63328800039882,-7.1237554354747825],[113.63329704696658,-7.1237553839345908],[113.63329715016438,-7.1237734565385082],[113.63328810359627,-7.1237735080788323],[113.63328825839294,-7.1238006169848775],[113.63327921182423,-7.123800668525222],[113.63327926342308,-7.1238097048272957],[113.6332702168541,-7.1238097563675309],[113.63327026845285,-7.1238187926696668],[113.63326122188363,-7.1238188442097901],[113.63326127348226,-7.1238278805119881],[113.63325222691283,-7.1238279320520013],[113.63325233010994,-7.1238460046565173],[113.63324328354005,-7.123846056196486],[113.63324348993436,-7.1238822014057517],[113.63323444336372,-7.1238822529458083],[113.63323459815962,-7.1239093618528848],[113.63322555158837,-7.1239094133929619],[113.63322539679299,-7.1238823044856883],[113.63320730365139,-7.1238824075649179],[113.6332074584457,-7.1239095164725885],[113.63318031873114,-7.1239096710907042],[113.63318016393842,-7.1238825621824384],[113.63317111736731,-7.1238826137212587],[113.63317101417286,-7.1238645411155685],[113.6331800607436,-7.1238644895768806],[113.63317990595188,-7.1238373806685393],[113.63317085938166,-7.1238374322070301],[113.63317075618788,-7.1238193596013177],[113.63316170961794,-7.1238194111394995],[113.63316165802132,-7.1238103748365722],[113.63313451831159,-7.1238105294498588],[113.63313467310006,-7.123837638359225],[113.63312562652949,-7.1238376898968321],[113.63312578131803,-7.1238647988063626],[113.63311673474686,-7.123864850343991],[113.63311688953549,-7.1238919592536831],[113.63310784296371,-7.1238920107913328],[113.63310820413824,-7.123955264914275],[113.63311725071125,-7.1239552133761617],[113.63311735390494,-7.1239732859825322],[113.63312640047822,-7.1239732344441116],[113.63312650367253,-7.1239913070503684],[113.63308127080364,-7.1239915647413685],[113.63308132240002,-7.1240006010448127],[113.63307227582587,-7.1240006525825503],[113.63307232742214,-7.1240096888860558],[113.63309946714492,-7.124009534272119],[113.63309951874177,-7.124018570575422],[113.63308142559296,-7.1240186736516886],[113.63308147718953,-7.1240277099551221],[113.63309052376414,-7.1240276584170106],[113.63309073015181,-7.1240638036304382],[113.63308168357648,-7.1240638551688127],[113.63308178677036,-7.1240819277756353],[113.63307274019462,-7.1240819793139663],[113.63307279179149,-7.1240910156174539],[113.63306374521549,-7.1240910671556739],[113.63306364202218,-7.1240729945485786],[113.63304554887074,-7.1240730976242244],[113.63304580685273,-7.1241182791425537],[113.633036760276,-7.1241183306804405],[113.63303686346892,-7.12413640328786],[113.63302781689178,-7.1241364548257025],[113.63302786848817,-7.1241454911294984],[113.63301882191078,-7.1241455426672315],[113.63301892510339,-7.1241636152749077],[113.6330098785256,-7.1241636668125974],[113.63300998171812,-7.124181739420373],[113.6330009351399,-7.1241817909580174],[113.63300098673609,-7.12419082726199],[113.63299194015761,-7.1241908787995252],[113.63299204334983,-7.1242089514075584],[113.63298299677095,-7.1242090029450464],[113.63298309996308,-7.1242270755531987],[113.63299214654232,-7.1242270240155774],[113.63299224973508,-7.1242450966235786],[113.63292892367649,-7.1242454573841423],[113.63292897527174,-7.1242544936886167],[113.63286564920864,-7.1242548544409905],[113.63286570080271,-7.1242638907458904],[113.63284760764087,-7.1242639938165393],[113.63284755604714,-7.1242549575115079],[113.63249473934435,-7.1242569672454215],[113.63249479093119,-7.1242660035530276],[113.63243146484427,-7.1242663642465311],[113.63243141325869,-7.1242573279384631],[113.63242236667476,-7.1242573794653339],[113.63242241826016,-7.1242664157734668],[113.63232290583049,-7.1242669825581206],[113.63232285424702,-7.1242579462492603],[113.63224143498196,-7.1242584099656714],[113.63224138340016,-7.1242493736561814],[113.63208759144318,-7.1242502495248106],[113.63208753986444,-7.1242412132142094],[113.63205135351951,-7.1242414192932655],[113.63205130194156,-7.124232382982397],[113.63201511559625,-7.124232589058364],[113.63201506401906,-7.1242235527472282],[113.63200601743276,-7.1242236042657119],[113.63200606900978,-7.1242326405769152],[113.63198797583658,-7.1242327436134856],[113.63198792425993,-7.1242237073021499],[113.6319336447398,-7.1242240164072292],[113.63193359316428,-7.1242149800954939],[113.63190645340386,-7.1242151346454525],[113.63190640182891,-7.1242060983335165],[113.63185212230732,-7.1242064074282663],[113.63185207073353,-7.1241973711159305],[113.63182493097236,-7.1241975256607226],[113.63182487939913,-7.1241884893481693],[113.63181583281212,-7.1241885408626811],[113.63181578123915,-7.1241795045500895],[113.63177054830395,-7.1241797621196721],[113.63177049673192,-7.1241707258067297],[113.63174335697053,-7.1241708803461616],[113.63174330539913,-7.1241618440330186],[113.631698072463,-7.1241621015948757],[113.63169802089253,-7.1241530652813987],[113.63167992771797,-7.1241531683047743],[113.63167987614793,-7.1241441319911454],[113.63166178297347,-7.1241442350136808],[113.63166173140384,-7.1241351986999488],[113.63161649846734,-7.1241354562528709],[113.63161644689868,-7.124126419938789],[113.63157121396139,-7.1241266774869656],[113.63157116239367,-7.1241176411725498],[113.63151688286776,-7.1241179502241394],[113.63151683130117,-7.124108913909323],[113.63148969153785,-7.1241090684325359],[113.63148963997185,-7.1241000321175347],[113.63145345362054,-7.1241002381457488],[113.63145340205531,-7.1240912018304474],[113.63140816911553,-7.124091459361412],[113.63140811755126,-7.1240824230457918],[113.63135383802235,-7.1240827320767268],[113.63135378645921,-7.1240736957607078],[113.63129046034035,-7.1240740562883014],[113.63129040877853,-7.1240650199718178],[113.63121803606865,-7.1240654319922321],[113.6312179845083,-7.1240563956752307],[113.63117275156333,-7.1240566531819223],[113.63117270000392,-7.1240476168645541],[113.63112746705815,-7.1240478743665001],[113.63112741549969,-7.1240388380488149],[113.63109122914257,-7.1240390440469303],[113.63109117758489,-7.1240300077289778],[113.63101880486886,-7.1240304197162025],[113.63101875331267,-7.1240213833977188],[113.63100066013334,-7.1240214863926274],[113.63100060857757,-7.124012450074007],[113.63095537562896,-7.124012707557859],[113.63095532407414,-7.1240036712389054],[113.63092818430469,-7.1240038257269003],[113.63092813275047,-7.1239947894077433],[113.63088925010481,-7.1239950107367802],[113.6309308150003,-7.1240416739999359],[113.63099610100006,-7.1241229989999715],[113.63116524300018,-7.1241870579999045],[113.63144026800012,-7.12429636199988],[113.63168657600023,-7.1243787829998926],[113.63202125500028,-7.1243957659999433],[113.63231488800011,-7.1244349359998802],[113.63256544600004,-7.1244337819999313],[113.63276710300022,-7.1244272559998825],[113.63294699700008,-7.1243936229999436],[113.63308426900016,-7.124333555999951],[113.63317241400023,-7.1242611729999252],[113.63325898200014,-7.1241401699998592],[113.63328811800024,-7.1239654009999622],[113.63330515000017,-7.1238466479999181],[113.6333490950002,-7.123699211999968],[113.63341374150019,-7.1235952071051738],[113.633413723532,-7.1235920604755245],[113.63339563040451,-7.1235921635579444],[113.63339568200411,-7.123601199859249],[113.63338663544008,-7.1236012514002605],[113.63338668703956,-7.1236102877016272],[113.6333776404753,-7.1236103392425276],[113.63337769207469,-7.1236193755439556],[113.6333595989456,-7.1236194786253613],[113.63335965054469,-7.1236285149269172],[113.63335060397988,-7.1236285664674206],[113.63335070717791,-7.123646639070655],[113.63334166061266,-7.1236466906111131],[113.63334150581623,-7.1236195817060581],[113.63333245925146,-7.1236196332461414],[113.63333240765296,-7.1236105969443821],[113.63334145421756,-7.1236105454043646],[113.63334140261894,-7.1236015091026674],[113.63335044918333,-7.1236014575625388],[113.63335039758459,-7.1235924212609048],[113.63336849071277,-7.1235923181802505],[113.63336843911377,-7.1235832818787435],[113.63335034598595,-7.1235833849592662],[113.63335024278884,-7.1235653123559777],[113.6333773824794,-7.1235651577353254],[113.63337722768266,-7.123538048830957],[113.6333953208083,-7.1235379457500354],[113.63339521761011,-7.1235198731473677],[113.63342235729701,-7.1235197185250572],[113.63342230569748,-7.1235106822239],[113.63343135225946,-7.1235106306828415],[113.63343130065982,-7.1235015943817794],[113.63342225409802,-7.1235016459227705],[113.63342220249862,-7.1234926096216213],[113.63340410937515,-7.1234927127029417],[113.63340416097418,-7.1235017490042232],[113.63339511441218,-7.1235018005446848],[113.63339495961579,-7.12347469164063],[113.63337686649261,-7.1234747947206278],[113.63337691809099,-7.1234838310221154],[113.6333588249672,-7.1234839341015377],[113.63335872177123,-7.1234658614983122],[113.63339490801712,-7.1234656553392881],[113.63339485641853,-7.1234566190379089],[113.63340390297967,-7.1234565674977777],[113.63340374818375,-7.123429458593864],[113.63342184130475,-7.1234293555134673],[113.63342178970589,-7.1234203192122871],[113.6334127431456,-7.1234203707525072],[113.63341263994845,-7.1234022981500029],[113.63343073306824,-7.1234021950696498],[113.63343052667331,-7.1233660498651208],[113.63343957323241,-7.1233659983249442],[113.63343952163368,-7.1233569620238688],[113.63342142851577,-7.1233570651039146],[113.63342163490972,-7.1233932103087225],[113.63339449523025,-7.1233933649282593],[113.63339439203421,-7.1233752923254672],[113.63335820579536,-7.1233754984818498],[113.63335825739264,-7.1233845347835114],[113.63334016427247,-7.1233846378607746],[113.63334021586947,-7.123393674162565],[113.63332212274869,-7.1233937772392544],[113.63332201955548,-7.1233757046354063],[113.63334011267554,-7.1233756015589806],[113.63334006107867,-7.1233665652571831],[113.63334910763845,-7.1233665137187714],[113.6333490560415,-7.1233574774170352],[113.63335810260101,-7.1233574258785124],[113.63335805100392,-7.1233483895768224]],[[113.6332857817187,-7.1233668744839438],[113.63327673515846,-7.1233669260211192],[113.63327668356291,-7.1233578897188563],[113.63328573012296,-7.1233578381817457],[113.6332857817187,-7.1233668744839438]],[[113.63333189167166,-7.1235202339265786],[113.63334093823448,-7.123520182387221],[113.6333411446269,-7.1235563275941081],[113.63333209806336,-7.1235563791337304],[113.63333214966147,-7.1235654154355288],[113.6333050099699,-7.1235655700535334],[113.63330506156754,-7.1235746063555103],[113.63329601500335,-7.1235746578945571],[113.63329606660089,-7.1235836941965953],[113.63328702003648,-7.1235837457355329],[113.63328696843914,-7.1235747094334281],[113.63327792187484,-7.1235747609721223],[113.63327787027774,-7.1235657246699473],[113.63328691684185,-7.1235656731313197],[113.6332867104534,-7.1235295279228454],[113.63329575701675,-7.1235294763843049],[113.63329570541963,-7.1235204400822418],[113.63331379854579,-7.1235203370047637],[113.63331390174079,-7.1235384096086198],[113.63332294830413,-7.1235383580694842],[113.63332289670642,-7.1235293217676237],[113.63333194326948,-7.123529270228377],[113.63333189167166,-7.1235202339265786]],[[113.63320781963478,-7.1239727705903748],[113.63321686620741,-7.1239727190501876],[113.63321681460857,-7.1239636827477382],[113.63325300089767,-7.1239634765854891],[113.6332530524972,-7.123972512887673],[113.63326209906947,-7.1239724613466038],[113.63326235706899,-7.1240176428572388],[113.63327140364207,-7.1240175913156625],[113.6332715068427,-7.1240356639197513],[113.63326246026926,-7.1240357154614591],[113.6332624086691,-7.1240266791593507],[113.63325336209576,-7.124026730700816],[113.63325341369575,-7.124035767002991],[113.63324436712216,-7.1240358185443471],[113.63324441872204,-7.1240448548465993],[113.63321727900038,-7.1240450094698042],[113.63321733059979,-7.1240540457722181],[113.63320828402559,-7.1240540973129995],[113.6332083356249,-7.1240631336154925],[113.63319928905044,-7.1240631851561638],[113.63319944384826,-7.1240902940638318],[113.63319039727322,-7.1240903456045244],[113.63319044887244,-7.1240993819071168],[113.63316330914637,-7.1240995365283322],[113.63316325754766,-7.1240905002255417],[113.63315421097235,-7.1240905517655273],[113.63315415937389,-7.1240815154626338],[113.63314511279869,-7.1240815670023769],[113.63314500960233,-7.1240634943964789],[113.63315405617718,-7.1240634428568681],[113.63315400457893,-7.1240544065539781],[113.63317209772809,-7.1240543034743586],[113.63317204612954,-7.1240452671716152],[113.63316299955518,-7.1240453187114472],[113.63316289635867,-7.1240272461057659],[113.63315384978458,-7.1240272976452896],[113.63315374658868,-7.1240092250394769],[113.63317183973606,-7.1240091219605173],[113.63317189133433,-7.1240181582632927],[113.63318093790809,-7.124018106723482],[113.63318088630963,-7.1240090704207724],[113.63319897945662,-7.1240089673407532],[113.63319892785789,-7.1239999310381705],[113.63320797443112,-7.123999879497962],[113.63320781963478,-7.1239727705903748]],[[113.63309987992166,-7.124081824698445],[113.63309083334603,-7.1240818762371285],[113.63309078174889,-7.1240728399337856],[113.63309982832433,-7.1240727883951687],[113.63309987992166,-7.124081824698445]]]]},"properties":{"FID":0,"Shape_Leng":18102566.929299999,"Shape_Area":236516885.403}}]
}