{
  "type" : "FeatureCollection",
  "features" : [{"type":"Feature","id":0,"geometry":{"type":"MultiPolygon","coordinates":[[[[113.49069192235061,-7.1936561234138816],[113.49068287339136,-7.1936561726404111],[113.49068297197152,-7.1936742472157631],[113.49070106989069,-7.1936741487622804],[113.49070102060023,-7.1936651114747381],[113.49069197164084,-7.1936651607015074],[113.49069192235061,-7.1936561234138816]]],[[[113.49070062627877,-7.193592813174269],[113.49070057698887,-7.1935837758866938],[113.49068247907327,-7.1935838743389287],[113.49068252836281,-7.1935929116266282],[113.49070062627877,-7.193592813174269]]],[[[113.49070052769903,-7.1935747385991125],[113.49070047840927,-7.1935657013115453],[113.49069142945184,-7.1935657505376271],[113.49069147874144,-7.1935747878252565],[113.49070052769903,-7.1935747385991125]]]]},"properties":{"FID":0,"Shape_Leng":18102566.929299999,"Shape_Area":236516885.403}}]
}