{
  "type" : "FeatureCollection",
  "features" : [{"type":"Feature","id":0,"geometry":{"type":"MultiPolygon","coordinates":[[[[112.99657137482353,-7.2054707522429569],[112.99657133524195,-7.2054617118859756],[112.99656228297063,-7.2054617514153483],[112.99656232255204,-7.2054707917723801],[112.99657137482353,-7.2054707522429569]]],[[[112.99656184757855,-7.2053623074877606],[112.99656180799775,-7.2053532671306844],[112.99655275572856,-7.2053533066592781],[112.99655279530917,-7.2053623470164032],[112.99656184757855,-7.2053623074877606]]],[[[112.99659785874856,-7.2053169475869847],[112.99659781916731,-7.2053079072300914],[112.99658876689919,-7.2053079467591479],[112.99658880648028,-7.2053169871160918],[112.99659785874856,-7.2053169475869847]]],[[[112.99652520312267,-7.2052630216710067],[112.99651615085504,-7.2052630611983819],[112.99651619043442,-7.2052721015557459],[112.99650713816659,-7.2052721410829941],[112.99650725690452,-7.205299262155215],[112.99649820463608,-7.2052993016824329],[112.99649824421532,-7.2053083420398831],[112.99648919194664,-7.2053083815669723],[112.99648926485301,-7.2053250342742015],[112.99649431702446,-7.2053354807790067],[112.99651646749156,-7.2053353840571939],[112.99651650707136,-7.2053444244145277],[112.99652555934061,-7.2053443848867005],[112.99652563850071,-7.2053624656012571],[112.99651658623111,-7.2053625051291856],[112.99651666539106,-7.2053805858438267],[112.99651613200783,-7.2053805881729147],[112.99653358399831,-7.2054166740863783],[112.99653492825284,-7.2054166682164311],[112.99653473035055,-7.2053714664303579],[112.99654378262022,-7.2053714269020226],[112.9965437034593,-7.2053533461876906],[112.99653465118998,-7.2053533857159247],[112.99653461160977,-7.2053443453586938],[112.99654366387892,-7.2053443058305104],[112.99654362429858,-7.2053352654733267],[112.99657078110512,-7.2053351468878493],[112.99657070194354,-7.2053170661737722],[112.99657975421192,-7.2053170266450213],[112.99657971463103,-7.2053079862880276],[112.99656161009456,-7.2053080653452479],[112.99656153093362,-7.2052899846310465],[112.99654342639769,-7.2052900636873511],[112.99654338681766,-7.2052810233301621],[112.99653433454978,-7.2052810628579955],[112.99653429496998,-7.2052720225007167],[112.99652524270225,-7.205272062028321],[112.99652520312267,-7.2052630216710067]]],[[[112.99644333693551,-7.2051729738330854],[112.99641578312789,-7.2051730941417969],[112.99642450911303,-7.2051911371029664],[112.99643436382382,-7.2051910940740536],[112.99643440340118,-7.2052001344318981],[112.996443455668,-7.2052000949064849],[112.99644358916967,-7.2052305894572184],[112.99645068707351,-7.2052452659842539],[112.9964617580918,-7.2052452176435384],[112.99646163935746,-7.2052180965704968],[112.99647069162449,-7.2052180570444477],[112.99647065204631,-7.2052090166868066],[112.99647970431312,-7.2052089771606269],[112.99647966473479,-7.2051999368030355],[112.99648871700136,-7.2051998972767279],[112.99648867742292,-7.2051908569191818],[112.99647057289009,-7.2051909359715225],[112.99647061246817,-7.2051999763291663],[112.99645250793479,-7.2052000553808906],[112.99645242877939,-7.205181974665396],[112.99644337651297,-7.2051820141908882],[112.99644333693551,-7.2051729738330854]]],[[[112.99535069677452,-7.2037222169640049],[112.99535065722682,-7.203713176599563],[112.99534160498345,-7.2037132160952435],[112.99534164453097,-7.2037222564597352],[112.99535069677452,-7.2037222169640049]]],[[[112.99409160446352,-7.2035378573550499],[112.9940915649418,-7.2035288169835887],[112.99408251269512,-7.2035288564533513],[112.99408255221665,-7.203537896824864],[112.99409160446352,-7.2035378573550499]]],[[[112.99365658288946,-7.2034222268438191],[112.99365654337697,-7.2034131864699038],[112.99364749113019,-7.2034132259304302],[112.99364753064246,-7.2034222663043952],[112.99365658288946,-7.2034222268438191]]],[[[112.99342106642027,-7.2033870912598088],[112.99342102691267,-7.2033780508845817],[112.99340292241777,-7.2033781297957544],[112.99340296192501,-7.2033871701710837],[112.99342106642027,-7.2033870912598088]]],[[[112.99313977519316,-7.2032346278983646],[112.99313969619084,-7.203216547144673],[112.99313064394508,-7.2032165865939035],[112.99313072294704,-7.2032346673476955],[112.99313977519316,-7.2032346278983646]]],[[[112.99291232364074,-7.2029734431116852],[112.99291228414552,-7.2029644027334827],[112.99288512741929,-7.2029645210630182],[112.99288516691398,-7.2029735614413726],[112.99291232364074,-7.2029734431116852]]],[[[112.99255683798174,-7.2024144776953403],[112.99255679849664,-7.2024054373149511],[112.99253869403076,-7.2024055161813365],[112.9925387335155,-7.2024145565618243],[112.99255683798174,-7.2024144776953403]]],[[[112.99210343675198,-7.202235641484342],[112.99210339727685,-7.202226601101378],[112.99206718834908,-7.2022267587936613],[112.99206714887472,-7.2022177184104947],[112.9920399921789,-7.2022178366776792],[112.99203995270513,-7.2022087962943573],[112.99202184824135,-7.2022088751381528],[112.99202188771477,-7.2022179155215733],[112.99203093994684,-7.2022178760997164],[112.99203097942048,-7.2022269164830828],[112.99204003165272,-7.2022268770609967],[112.9920400711266,-7.2022359174443089],[112.99210343675198,-7.202235641484342]]],[[[112.99202184824135,-7.2022088751381528],[112.99202180876799,-7.2021998347547269],[112.99201275653618,-7.2021998741763067],[112.99201279600938,-7.2022089145597823],[112.99202184824135,-7.2022088751381528]]],[[[112.99201275653618,-7.2021998741763067],[112.99201271706306,-7.2021908337928284],[112.99199461259971,-7.2021909126353503],[112.99199465207248,-7.202199953018928],[112.99201275653618,-7.2021998741763067]]],[[[112.99197638971918,-7.2021638703260979],[112.99197635024697,-7.2021548299423861],[112.99196729801582,-7.2021548693628201],[112.99196733748785,-7.2021639097465808],[112.99197638971918,-7.2021638703260979]]],[[[112.99168648149342,-7.2021108893810748],[112.99168644202724,-7.2021018489957758],[112.99167738979556,-7.2021018884101879],[112.99167742926154,-7.2021109287955358],[112.99168648149342,-7.2021108893810748]]],[[[112.99210343675198,-7.202235641484342],[112.99210347622714,-7.2022446818673016],[112.99211252845933,-7.2022446424436861],[112.99211260741019,-7.2022627232094951],[112.99217597303648,-7.2022624472384615],[112.99217601251326,-7.2022714876210268],[112.99208549018742,-7.2022718818631777],[112.99208541123754,-7.2022538010970596],[112.99203109784172,-7.2022540376331632],[112.99203105836791,-7.2022449972498084],[112.9920220061353,-7.2022450366718163],[112.99202204560891,-7.2022540770552208],[112.99198583667715,-7.202254234741666],[112.99198579720425,-7.2022451943580608],[112.99197674497137,-7.2022452337791725],[112.9919767054987,-7.202236193395513],[112.9919314443344,-7.2022363904981503],[112.99193140486268,-7.2022273501142369],[112.99191330039696,-7.2022274289539379],[112.99191322145438,-7.2022093481859004],[112.99190416922181,-7.2022093876053832],[112.99190412975078,-7.2022003472213081],[112.99189507751832,-7.2022003866405617],[112.99189503804752,-7.2021913462564333],[112.9919493514404,-7.2021911097385249],[112.99194939091227,-7.2022001501223549],[112.99195844314441,-7.2022001107020275],[112.99195840367234,-7.202191070318249],[112.99196745590426,-7.2021910308977928],[112.99196749537649,-7.2022000712815197],[112.99197654760853,-7.2022000318608361],[112.99197646866376,-7.2021819510934737],[112.99194931196857,-7.2021820693546932],[112.99194927249678,-7.2021730289708552],[112.99193116803342,-7.2021731078106752],[112.99193112856204,-7.2021640674267351],[112.99192207633047,-7.2021641068463262],[112.99192203685935,-7.2021550664623151],[112.99188582793322,-7.2021552241386892],[112.99188578846285,-7.2021461837545084],[112.99186768399984,-7.2021462625915227],[112.99186764452989,-7.2021372222072229],[112.99184954006704,-7.20213730104342],[112.99184950059748,-7.2021282606590153],[112.99183139613481,-7.2021283394943998],[112.99183131719657,-7.2021102587253605],[112.99178605604074,-7.2021104558101907],[112.99178601657259,-7.2021014154254397],[112.99175885987901,-7.2021015336740426],[112.99175882041145,-7.2020924932891219],[112.99174071594918,-7.2020925721205273],[112.99174067648204,-7.2020835317355036],[112.99172257201992,-7.2020836105660955],[112.99172253255318,-7.202074570180967],[112.9917044280912,-7.2020746490107443],[112.99170438862488,-7.2020656086255297],[112.991695336394,-7.2020656480400991],[112.9916952969279,-7.2020566076547974],[112.99166814023549,-7.2020567258972825],[112.99166810076999,-7.202047685511844],[112.99164999630847,-7.2020477643391745],[112.99164995684337,-7.2020387239536321],[112.99164090461271,-7.2020387633669785],[112.99164086514783,-7.2020297229813819],[112.99163181291732,-7.2020297623944991],[112.99163185238201,-7.2020388027801463],[112.99162280015128,-7.2020388421931365],[112.99162276068675,-7.2020298018074378],[112.99161370845613,-7.2020298412201988],[112.99161362952761,-7.2020117604486948],[112.9916045772973,-7.2020117998611779],[112.9916045378333,-7.2020027594753682],[112.9915954856031,-7.2020027988876221],[112.99159552506693,-7.2020118392734807],[112.99157742060605,-7.202011918097547],[112.99157738114259,-7.2020028777115899],[112.99156832891224,-7.2020029171233082],[112.99156828944899,-7.2019938767372951],[112.99154589437725,-7.2019939742403523],[112.99150492383647,-7.2019941526139482],[112.99150484491265,-7.2019760718412167],[112.99148030708223,-7.2019761786696348],[112.99146159341088,-7.2020124223745841],[112.99147784606754,-7.2020123516171362],[112.99147792499069,-7.2020304323901359],[112.99148697722208,-7.2020303929800615],[112.99148701668391,-7.2020394333665063],[112.99149606891541,-7.2020393939562011],[112.99149598999145,-7.2020213131834057],[112.99151409445362,-7.2020212343624559],[112.99151413391593,-7.2020302747487568],[112.99153223837824,-7.2020301959269908],[112.99153227784097,-7.2020392363131887],[112.99154133007222,-7.2020391969019872],[112.99154129060932,-7.2020301565158409],[112.99154605222873,-7.2020301357848684],[112.99155939507132,-7.2020300776930037],[112.99155943453459,-7.2020391180790497],[112.99156848676569,-7.2020390786673127],[112.99156852622919,-7.2020481190533054],[112.99157757846042,-7.2020480796413375],[112.99157761792415,-7.2020571200272778],[112.99161382684927,-7.2020569623774264],[112.99161386631377,-7.2020660027631784],[112.99162291854513,-7.2020659633502175],[112.99162295800984,-7.2020750037358834],[112.99165916693539,-7.2020748460820538],[112.99165920640087,-7.2020838864675305],[112.99167731086372,-7.2020838076394433],[112.99167735032961,-7.202092848024817],[112.99171355925539,-7.2020926903662961],[112.99171359872204,-7.2021017307514663],[112.99173170318498,-7.2021016519210335],[112.99173174265205,-7.2021106923060829],[112.99174984711516,-7.2021106134748338],[112.99174988658264,-7.2021196538598149],[112.99176799104589,-7.2021195750277478],[112.99176803051377,-7.2021286154126072],[112.99179518720879,-7.2021284971630211],[112.99179514774036,-7.2021194567783118],[112.99180419997177,-7.202119417361474],[112.99180427890903,-7.2021374981307877],[112.99181333114073,-7.2021374587136711],[112.99181344954755,-7.2021645798674649],[112.99182250177974,-7.2021645404500205],[112.99182242284145,-7.2021464596809279],[112.99183147507324,-7.2021464202634053],[112.99183151454254,-7.2021554606478873],[112.99184056677444,-7.2021554212301329],[112.99184060624397,-7.2021644616145934],[112.99183155401188,-7.2021645010323967],[112.99183159348128,-7.2021735414168875],[112.99186780241003,-7.2021733837444053],[112.99186784188019,-7.20218242412869],[112.99181352848566,-7.202182660636641],[112.99181348901659,-7.2021736202520552],[112.99180443678415,-7.20217365966937],[112.99180447625307,-7.2021827000540055],[112.99176826732217,-7.2021828577216809],[112.99176822785398,-7.2021738173368446],[112.99174107115581,-7.2021739355855727],[112.99174111062347,-7.2021829759705582],[112.99172300615739,-7.2021830548022505],[112.99172296669011,-7.2021740144171646],[112.99170486222418,-7.2021740932480389],[112.9917048227573,-7.2021650528628482],[112.99171387499011,-7.2021650134475514],[112.99171383552309,-7.202155973062391],[112.99172288775566,-7.2021559336469645],[112.9917228482885,-7.2021468932618822],[112.99169569159119,-7.2021470115074786],[112.99169565212462,-7.2021379711222275],[112.99165944319485,-7.2021381287803159],[112.99165948266069,-7.2021471691657677],[112.99165043042795,-7.202147208579893],[112.99165046989366,-7.2021562489653723],[112.99164141766067,-7.2021562883793697],[112.99164145712626,-7.2021653287649308],[112.99161430042649,-7.2021654470059948],[112.99161426096144,-7.2021564066202854],[112.99162331319458,-7.2021563672068263],[112.99162319479922,-7.20212924604989],[112.9916141425666,-7.2021292854632009],[112.99161410310177,-7.2021202450774906],[112.99160505086931,-7.2021202844905714],[112.9916050114047,-7.2021112441047936],[112.99159595917234,-7.2021112835176453],[112.99159599863678,-7.2021203239034755],[112.99157789417163,-7.2021204027287409],[112.99157781524352,-7.2021023219569145],[112.99154636793412,-7.2021024588737212],[112.99154160631396,-7.2021024796049025],[112.99154148792434,-7.2020753584465336],[112.99153243569238,-7.2020753978579348],[112.99153239622945,-7.2020663574717707],[112.99152334399759,-7.202066396882941],[112.99152330453489,-7.2020573564966899],[112.99146899114382,-7.2020575929596635],[112.99146903060544,-7.2020666333462158],[112.99145092614098,-7.2020667121658759],[112.99145088667971,-7.2020576717792215],[112.99138752105377,-7.202057947642051],[112.9913874815938,-7.2020489072550617],[112.9913784293615,-7.2020489466632718],[112.99137839536628,-7.2020411582180106],[112.99135122565346,-7.2020382943619907],[112.99135123320511,-7.2020400244996372],[112.99131502427549,-7.2020401821283437],[112.99131499936954,-7.2020344758846111],[112.99129475500014,-7.2020323419998808],[112.99127879379141,-7.2020354014692982],[112.99127881534507,-7.202040339754185],[112.99126976311233,-7.2020403791601995],[112.99126974895378,-7.2020371351976538],[112.99126070411604,-7.2020388689258512],[112.99126071087956,-7.2020404185660345],[112.99125243163822,-7.202040454606756],[112.99124261444022,-7.2020423363817265],[112.99124264587088,-7.2020495377649585],[112.99121548917138,-7.202049655980467],[112.99121552862793,-7.2020586963684039],[112.99119742416099,-7.2020587751779486],[112.99119746361724,-7.2020678155660001],[112.9911884113835,-7.2020678549705535],[112.99118837192745,-7.2020588145824531],[112.99117859008437,-7.2020588571627551],[112.9911574380002,-7.2021143829999135],[112.99117269500016,-7.2024019069999143],[112.99106589500002,-7.2024448239998868],[112.99091364800007,-7.2024272129999689],[112.99105344400016,-7.2024765529999506],[112.99124380100011,-7.2023575799999531],[112.99131518500019,-7.2022742979999004],[112.99143415800017,-7.2022505039998972],[112.99154743260029,-7.2023463514714523],[112.99158882300014,-7.2023813739999669],[112.99182676900013,-7.2025241419999091],[112.99236214700009,-7.202750190999951],[112.99275475800005,-7.20294054799996],[112.99280377699645,-7.2029922900029817],[112.99280377571725,-7.2029919971783745],[112.99283093244647,-7.2029918788532168],[112.99283085345908,-7.2029737980959183],[112.99283990570169,-7.2029737586539415],[112.99283982671413,-7.2029556778967292],[112.99283077447188,-7.2029557173386074],[112.99283073497837,-7.2029466769599448],[112.99283978722042,-7.202946637518119],[112.99283974772678,-7.2029375971394867],[112.99284879996861,-7.2029375576975294],[112.99284883946244,-7.2029465980761129],[112.99286694394634,-7.2029465191915643],[112.99286690445216,-7.202937478813082],[112.99287595669387,-7.2029374393705892],[112.99287599618822,-7.2029464797490208],[112.9928941006718,-7.2029464008633992],[112.99289414016658,-7.2029554412417101],[112.99292129689213,-7.2029553229117864],[112.99292141537839,-7.2029824440462331],[112.99293951986289,-7.2029823651584213],[112.99293971734276,-7.2030275670486335],[112.99294876958585,-7.2030275276042106],[112.99294880908215,-7.2030365679821875],[112.99293975683889,-7.2030366074266601],[112.99293979633507,-7.2030456478046849],[112.99294884857851,-7.2030456083601617],[112.9929492435449,-7.2031360121396935],[112.99295829579007,-7.203135972694489],[112.99295833528716,-7.2031450130723549],[112.99296738753246,-7.2031449736269231],[112.99296746652716,-7.2031630543825944],[112.99297651877278,-7.2031630149368828],[112.99297655827039,-7.2031720553146537],[112.99298561051613,-7.2031720158687147],[112.99298565001396,-7.2031810562464322],[112.99299470225985,-7.203181016800265],[112.99299473908248,-7.2031894448212812],[112.99299542793115,-7.2031900541878384],[112.99301284624984,-7.2031899782849518],[112.99301291416565,-7.2032055227892968],[112.99301576723037,-7.2032080466556145],[112.9930219774931,-7.2032080195932133],[112.99302200170771,-7.2032135617729223],[112.99302593688058,-7.2032170428889906],[112.99303106923824,-7.2032170205236312],[112.99303108925007,-7.2032216007562591],[112.99303610653115,-7.20322603912203],[112.99304016098374,-7.2032260214537676],[112.99304017679275,-7.2032296397393445],[112.9931479727131,-7.2033249976630218],[112.9931492224557,-7.2033249922165883],[112.993149227329,-7.2033261075150152],[112.99327824000034,-7.2034402339999204],[112.99386120800013,-7.2038447429999293],[112.99442038100005,-7.204189764999966],[112.99470591600016,-7.2042373539998783],[112.99490817100013,-7.2041183809998923],[112.99520560300004,-7.2041183809998826],[112.99566959800018,-7.2042730459999147],[112.99586961883917,-7.2043928002702318],[112.99586956243768,-7.2043799117960869],[112.99586051018395,-7.2043799513056719],[112.9958604706225,-7.2043709109443439],[112.99586952287606,-7.2043708714348078],[112.99586944375297,-7.204352790712206],[112.99586039149976,-7.20435283022164],[112.99586031237723,-7.2043347494989067],[112.99586936463008,-7.2043347099895731],[112.9958694041915,-7.2043437503509002],[112.99588750869735,-7.2043436713315954],[112.99588746913558,-7.2043346309703686],[112.99587841688286,-7.2043346704800602],[112.99587837732132,-7.2043256301188121],[112.99588742957386,-7.2043255906091721],[112.99588746913558,-7.2043346309703686],[112.99589652138827,-7.2043345914604968],[112.99589656095023,-7.2043436318216747],[112.99590561320304,-7.2043435923115746],[112.99590557364091,-7.2043345519504474],[112.9959146258935,-7.2043345124402185],[112.99591458633122,-7.2043254720791721],[112.99592363858358,-7.2043254325688153],[112.99592359902118,-7.2043163922077982],[112.99588739001219,-7.2043165502479525],[112.99588719220458,-7.2042713484418064],[112.99587813995309,-7.204271387951148],[112.99587802126969,-7.204244266867283],[112.99585991676764,-7.2042443458851251],[112.99585987720695,-7.2042353055237074],[112.99585082495607,-7.2042353450323127],[112.9958507853956,-7.204226304670855],[112.99584173314481,-7.204226344179232],[112.99584177270508,-7.2042353845407368],[112.99583272045408,-7.2042354240489841],[112.99583268089397,-7.204226383687427],[112.9957964718901,-7.2042265417184224],[112.99579643233079,-7.2042175013566636],[112.99577832782892,-7.2042175803709858],[112.99577828827,-7.2042085400091231],[112.99576923601916,-7.2042085795159663],[112.99576919646046,-7.2041995391540494],[112.99576014420977,-7.2041995786606634],[112.99576018376827,-7.2042086190226318],[112.99574207926635,-7.2042086980354245],[112.99574203970819,-7.2041996576733567],[112.99573298745734,-7.2041996971794351],[112.99573294789943,-7.2041906568173113],[112.99572389564868,-7.2041906963231606],[112.99572385609099,-7.2041816559609861],[112.99569669933902,-7.2041817744773082],[112.99569673889619,-7.2041908148396336],[112.99568768664524,-7.2041908543447688],[112.99568772620228,-7.2041998947071413],[112.99566962169988,-7.2041999737169711],[112.99566958214321,-7.2041909333544973],[112.99565147764098,-7.2041910123635118],[112.99565143808472,-7.2041819720009368],[112.99564238583372,-7.204182011505126],[112.99564234627771,-7.2041729711424773],[112.9956332940268,-7.2041730106464357],[112.995633254471,-7.2041639702837701],[112.99562420222026,-7.2041640097874993],[112.9956241626647,-7.2041549694247617],[112.99563321491527,-7.2041549299210796],[112.99563317535957,-7.2041458895583901],[112.99561507085875,-7.2041459685654727],[112.99561503130346,-7.2041369282026757],[112.99559692680276,-7.2041370072089439],[112.9955968081383,-7.2041098861202304],[112.99558775588839,-7.2041099256229471],[112.99558763722493,-7.2040828045340684],[112.99556953272609,-7.2040828835386597],[112.99556949317207,-7.2040738431755713],[112.99554233642395,-7.2040739616809679],[112.99554229687051,-7.2040649213177419],[112.99551514012246,-7.2040650398213772],[112.99551510056961,-7.2040559994579967],[112.99550604832034,-7.2040560389588002],[112.99550600876772,-7.2040469985953663],[112.99548790426938,-7.2040470775963374],[112.99548786471716,-7.2040380372328157],[112.99547881246811,-7.2040380767329832],[112.99547885202016,-7.2040471170965557],[112.99545169527212,-7.2040472355961347],[112.99545165572063,-7.2040381952324113],[112.99544260347135,-7.204038234731863],[112.99544256392008,-7.2040291943680534],[112.99543351167094,-7.204029233867276],[112.99543347211991,-7.2040201935034291],[112.99542441987087,-7.2040202330024243],[112.99542438032009,-7.2040111926385242],[112.9954153280712,-7.2040112321372884],[112.9954152489701,-7.2039931514093762],[112.99540619672153,-7.2039931909078607],[112.99540611762099,-7.2039751101798348],[112.9953880131244,-7.2039751891760684],[112.99538805267429,-7.2039842295401844],[112.99535184367979,-7.2039843875307081],[112.99535180413061,-7.2039753471663897],[112.99533369963342,-7.2039754261604791],[112.99533366008465,-7.2039663857960416],[112.99529745109035,-7.2039665437818705],[112.99529741154237,-7.2039575034172625],[112.99527930704527,-7.2039575824090036],[112.99527922795015,-7.2039395016795451],[112.99526112345357,-7.2039395806703679],[112.99526104435937,-7.2039214999406758],[112.99525199211136,-7.2039215394357203],[112.99525195256453,-7.2039124990708441],[112.99524290031665,-7.2039125385656586],[112.99524282122347,-7.2038944578357622],[112.99523376897589,-7.2038944973302952],[112.99523372942957,-7.2038854569652937],[112.99522467718212,-7.2038854964595993],[112.99522463763603,-7.203876456094557],[112.99517937639892,-7.2038766535631575],[112.99517933685378,-7.2038676131978292],[112.9950707098817,-7.2038680871036211],[112.99507067033876,-7.2038590467377057],[112.9949710956099,-7.203859481128168],[112.99497105606896,-7.2038504407616948],[112.99496200382076,-7.2038504802506163],[112.99496196428007,-7.2038414398840906],[112.99488049404552,-7.2038417952758582],[112.99488045450649,-7.2038327549088779],[112.99486235000973,-7.2038328338827577],[112.99486231047109,-7.2038237935156744],[112.99484420597447,-7.2038238724887371],[112.99484424551275,-7.2038329128559226],[112.99481708876692,-7.2038330313143284],[112.99481704922918,-7.2038239909469919],[112.99480799698065,-7.2038240304327212],[112.99480795744316,-7.2038149900653323],[112.99479890519474,-7.2038150295508308],[112.99479886565746,-7.2038059891833885],[112.99478076116087,-7.2038060681537486],[112.99478072162401,-7.2037970277862033],[112.99477166937579,-7.2037970672710641],[112.99477162983915,-7.2037880269034655],[112.99472636859829,-7.203788224324839],[112.9947263290626,-7.2037791839569838],[112.99464485882746,-7.2037795393037385],[112.99464489836153,-7.2037885796720404],[112.9946267938639,-7.2037886586361184],[112.99462683339767,-7.2037976990045189],[112.99461778114862,-7.2037977384863394],[112.99461774161503,-7.2037886981178882],[112.99460868936607,-7.2037887375994805],[112.99460861029941,-7.2037706568624671],[112.99459050580209,-7.2037707358249135],[112.99459038720354,-7.2037436147190661],[112.99458133495536,-7.2037436541998696],[112.99458125589027,-7.2037255734625205],[112.99456315139443,-7.2037256524233939],[112.99456307233028,-7.2037075716858263],[112.99457212457787,-7.2037075322055806],[112.99457208504569,-7.2036984918368407],[112.99458113729303,-7.2036984523564644],[112.9945810977607,-7.2036894119877735],[112.99457204551354,-7.2036894514680982],[112.99457200598145,-7.2036804110993531],[112.9945629537344,-7.2036804505794496],[112.99456291420255,-7.2036714102106654],[112.99454480970869,-7.2036714891702207],[112.99454477017724,-7.2036624488013015],[112.99453571793039,-7.2036624882807594],[112.99453567839917,-7.2036534479118037],[112.9945175739057,-7.2036535268700845],[112.99451761343656,-7.2036625672391423],[112.99449950894255,-7.2036626461968094],[112.99449962753435,-7.2036897673042617],[112.9944905752867,-7.2036898067829744],[112.9944906543478,-7.2037078875213574],[112.99448160209978,-7.2037079269999928],[112.99448176022187,-7.2037440884769124],[112.99447270797306,-7.203744127955571],[112.99447274750352,-7.2037531683248401],[112.9944636952545,-7.2037532078033699],[112.99446373478484,-7.2037622481726675],[112.99444563028625,-7.2037623271292901],[112.99444559075626,-7.2037532867598912],[112.99442748625783,-7.2037533657156958],[112.99442736766926,-7.2037262446071235],[112.99440926317172,-7.2037263235619111],[112.99440918411365,-7.2037082428226444],[112.99440013186513,-7.2037082822996705],[112.99440005280762,-7.2036902015602884],[112.99439100055943,-7.2036902410370356],[112.99439096103094,-7.2036812006672886],[112.99438190878287,-7.2036812401438066],[112.9943819483112,-7.2036902805136052],[112.99429142582601,-7.2036906752694501],[112.99429138629948,-7.2036816348991506],[112.99426422955345,-7.2036817533222663],[112.99426411097576,-7.2036546322109007],[112.99425505872755,-7.2036546716847649],[112.99425501920193,-7.2036456313142514],[112.99426407144999,-7.2036455918404378],[112.99426399239854,-7.2036275110995005],[112.99425494015087,-7.2036275505732137],[112.99425490062539,-7.2036185102026904],[112.9942367961302,-7.2036185891494799],[112.99423675660516,-7.2036095487788536],[112.99422770435768,-7.20360958825193],[112.99422766483285,-7.2036005478812477],[112.9942005080906,-7.2036006662992538],[112.99420054761488,-7.2036097066700862],[112.99418244311944,-7.2036097856146304],[112.99418240359552,-7.2036007452436985],[112.99415524685251,-7.2036008636590223],[112.9941552863759,-7.2036099040301034],[112.99414623412794,-7.203609943501573],[112.99414619460474,-7.2036009031304387],[112.99413714235691,-7.2036009426016774],[112.99413710283393,-7.2035919022304906],[112.99412805058624,-7.2035919417015002],[112.99412801106349,-7.203582901330261],[112.99410085432064,-7.2035830197420641],[112.99410081479847,-7.2035739793706703],[112.99408271030336,-7.2035740583108785],[112.99408267078161,-7.20356501793938],[112.99407361853414,-7.2035650574091665],[112.99407357901262,-7.203556017037597],[112.99402831777543,-7.2035562143835907],[112.99402827825486,-7.2035471740118036],[112.99403733050222,-7.2035471345430109],[112.99403729098154,-7.2035380941712548],[112.99401918648711,-7.203538173108555],[112.99401922600747,-7.2035472134804133],[112.99399206926492,-7.2035473318851775],[112.99399202974512,-7.2035382915131683],[112.993928664012,-7.2035385677843378],[112.99392862449351,-7.2035295274119742],[112.9939195722459,-7.2035295668785189],[112.9939194932094,-7.2035114861336629],[112.9939104409621,-7.2035115255999287],[112.99391051999822,-7.2035296063448833],[112.99390146775052,-7.2035296458110709],[112.99390150726849,-7.2035386861835837],[112.99389245502053,-7.2035387256496417],[112.99389241550274,-7.2035296852770774],[112.99388336325494,-7.2035297247429062],[112.99388340277255,-7.2035387651155212],[112.99387435052451,-7.2035388045812203],[112.99387442955951,-7.2035568853265186],[112.99385632506255,-7.2035569642575839],[112.99385628554538,-7.2035479238848437],[112.99380197205434,-7.2035481606734404],[112.9938019325383,-7.2035391203003787],[112.9937928802898,-7.2035391597644693],[112.99379284077398,-7.2035301193913552],[112.99378378852562,-7.2035301588552159],[112.99378370949451,-7.2035120781088589],[112.99377465724642,-7.2035121175724424],[112.99377461773112,-7.2035030771992323],[112.99378366997901,-7.2035030377357003],[112.99378359094821,-7.2034849569893407],[112.99377453870066,-7.2034849964527723],[112.99377449918551,-7.2034759560795356],[112.99375639469066,-7.2034760350057621],[112.99375643420547,-7.2034850753790991],[112.99370212071859,-7.203485312153787],[112.99370216023236,-7.2034943525274198],[112.99366595123939,-7.2034945103738339],[112.99366591172634,-7.2034854700000004],[112.99365685947814,-7.2034855094611077],[112.99365681996531,-7.2034764690872191],[112.99364776771726,-7.2034765085480972],[112.99364772820468,-7.2034674681741739],[112.99362962370874,-7.2034675470952916],[112.99362966322097,-7.203476587469317],[112.99362061097277,-7.203476626929656],[112.99362057146071,-7.2034675865555826],[112.99356625797141,-7.2034678233135718],[112.99356621846047,-7.2034587829391583],[112.99355716621227,-7.2034588223981455],[112.99355712670156,-7.2034497820236991],[112.99352996995717,-7.2034499003994403],[112.99352993044705,-7.2034408600248376],[112.99352087819898,-7.2034408994830104],[112.99352083868909,-7.2034318591083544],[112.99351178644118,-7.203431898566298],[112.99351174693152,-7.2034228581915887],[112.993466485692,-7.2034230554783738],[112.99346652520076,-7.2034320958533344],[112.99345747295253,-7.2034321353102051],[112.99345743344395,-7.2034230949351956],[112.99342122445121,-7.2034232527606896],[112.99342126395906,-7.2034322931358989],[112.99341221171058,-7.2034323325918761],[112.99341225121832,-7.2034413729671325],[112.9933941467208,-7.2034414518786498],[112.99339410721343,-7.2034324115032922],[112.99338505496479,-7.2034324509587311],[112.99338501545765,-7.2034234105833219],[112.99334880646327,-7.2034235684030898],[112.99334876695691,-7.2034145280274755],[112.99333971470837,-7.2034145674819205],[112.99333967520224,-7.2034055271062529],[112.99334872745058,-7.2034054876518585],[112.99334868794431,-7.2033964472762362],[112.99335774019242,-7.203396407821713],[112.99335777969888,-7.2034054481972847],[112.99336683194714,-7.2034054087425323],[112.99336679244053,-7.2033963683670086],[112.99339394918445,-7.2033962500018269],[112.99339387017027,-7.2033781692510725],[112.99336671342741,-7.203378287615954],[112.99336675293394,-7.203387327991484],[112.99334864843807,-7.2033874069006094],[112.99334856942579,-7.2033693261493479],[112.99333951717816,-7.2033693656035425],[112.99333943816642,-7.2033512848521468],[112.99331228142424,-7.2033514032133583],[112.99331232092955,-7.203360443589216],[112.99330326868188,-7.203360483042645],[112.99330330818705,-7.2033695234185338],[112.99327615144321,-7.2033696417778987],[112.99327607243399,-7.2033515610258023],[112.99326702018628,-7.2033516004784666],[112.99326705969069,-7.2033606408545738],[112.9932489551948,-7.2033607197594662],[112.99324879717891,-7.2033245582546792],[112.99322164043681,-7.203324676610074],[112.99322156143025,-7.2033065958573408],[112.99321250918315,-7.2033066353086816],[112.99321254868623,-7.2033156756851096],[112.99319444419152,-7.2033157545873525],[112.99319440468879,-7.203306714210826],[112.99321250918315,-7.2033066353086816],[112.99321246968013,-7.2032975949322848],[112.99319436518613,-7.2032976738343297],[112.99319432568349,-7.2032886334578121],[112.99317622118964,-7.2032887123590408],[112.99317618168743,-7.2032796719824184],[112.99316712944064,-7.2032797114327147],[112.99316705043672,-7.2032616306793775],[112.99314894594363,-7.2032617095792322],[112.99314898544522,-7.2032707499559949],[112.99311277645774,-7.2032709077537591],[112.99311265795534,-7.2032437866228092],[112.99312171020173,-7.2032437471737865],[112.99312163120003,-7.203225666419903],[112.99311257895398,-7.2032257058688236],[112.99311253945338,-7.2032166654918273],[112.99310348720743,-7.2032167049405214],[112.99310352670787,-7.2032257453175692],[112.99309447446173,-7.2032257847661336],[112.99309439546128,-7.2032077040119331],[112.99312155219852,-7.2032075856660018],[112.99312151269784,-7.203198545289049],[112.9931305649433,-7.2031985058400965],[112.99313060444416,-7.2032075462170013],[112.99314870893528,-7.2032074673184621],[112.9931486299329,-7.2031893865648469],[112.99313957768773,-7.2031894260141067],[112.99313949868591,-7.2031713452603769],[112.99314855093073,-7.2031713058112175],[112.99314847192875,-7.2031532250575721],[112.99313036743979,-7.2031533039555109],[112.9931304069404,-7.2031623443324353],[112.99311230245085,-7.2031624232297595],[112.9931122629506,-7.2031533828527348],[112.99310321070593,-7.203153422301078],[112.99310325020599,-7.2031624626781543],[112.9930941979611,-7.2031625021263688],[112.99309403996186,-7.2031263406178487],[112.99308498771762,-7.2031263800656848],[112.99308490871869,-7.2031082993112996],[112.99305775198673,-7.2031084176534339],[112.99305779148564,-7.2031174580307766],[112.99303063475273,-7.2031175763714526],[112.99303067425116,-7.2031266167489418],[112.99303972649571,-7.2031265773021795],[112.99303976599437,-7.2031356176796155],[112.99304881823902,-7.2031355782326241],[112.99304889723685,-7.2031536589873859],[112.99303079274674,-7.2031537378813884],[112.99303083224538,-7.2031627782588643],[112.99302178000008,-7.2031628177056479],[112.99302174050163,-7.2031537773281222],[112.99301268825644,-7.2031538167746767],[112.99301264875821,-7.2031447763970808],[112.99300359651316,-7.2031448158434079],[112.99300355701519,-7.2031357754657934],[112.99297640028027,-7.2031358938035481],[112.99297636078286,-7.2031268534257613],[112.9929854130277,-7.2031268139800719],[112.99298533403268,-7.2031087332245889],[112.99299438627713,-7.2031086937788196],[112.99299434677951,-7.2030996534011402],[112.99298529453526,-7.203099692846858],[112.99298486006687,-7.20300024869137],[112.99297580782454,-7.2030002881363595],[112.99297568933477,-7.2029731670028196],[112.99295758485101,-7.202973245891962],[112.99295750585881,-7.2029551651360508],[112.99294845361722,-7.2029552045802525],[112.99294837462557,-7.202937123824209],[112.99293027014295,-7.2029372027118779],[112.99293023064756,-7.2029281623337731],[112.99290307392378,-7.2029282806637847],[112.99290303442898,-7.202919240285512],[112.99287587770529,-7.2029193586137632],[112.99287583821106,-7.2029103182353378],[112.9928577337287,-7.2029103971198429],[112.9928576942349,-7.2029013567413118],[112.99284864199382,-7.2029013961832469],[112.99284848401982,-7.2028652346688853],[112.99285753626019,-7.2028651952271519],[112.99285710183393,-7.2027657510628984],[112.99286615407227,-7.2027657116215345],[112.99286587762116,-7.2027024289716675],[112.99285682538408,-7.2027024684126815],[112.99285666741385,-7.2026663068981875],[112.99283856294095,-7.2026663857792785],[112.99283852344888,-7.2026573454005467],[112.99282947121254,-7.2026573848407738],[112.9928293922289,-7.2026393040832133],[112.99282033999286,-7.2026393435231597],[112.99282030050129,-7.2026303031443],[112.99281124826538,-7.202630342584019],[112.99281120877407,-7.2026213022051211],[112.99282026100977,-7.2026212627654527],[112.9928201820269,-7.2026031820077465],[112.99281112979155,-7.2026032214473146],[112.99281097182713,-7.2025670599316385],[112.99280191959241,-7.2025670993708282],[112.99280195908327,-7.2025761397498167],[112.99279290684834,-7.2025761791888776],[112.99279294633907,-7.2025852195678937],[112.99277484186867,-7.2025852984455812],[112.99277488135908,-7.2025943388246922],[112.99276582912364,-7.2025943782633188],[112.99276586861393,-7.2026034186424779],[112.99275681637823,-7.2026034580809721],[112.99275685586839,-7.2026124984601791],[112.9927478036325,-7.2026125378985446],[112.99274776414252,-7.2026034975192887],[112.99273871190675,-7.2026035369574277],[112.992738672417,-7.2025944965781177],[112.99270246347409,-7.2025946543286814],[112.9927023450073,-7.2025675331901153],[112.992693292772,-7.2025675726271583],[112.99269325328335,-7.2025585322476005],[112.99268420104815,-7.202558571684416],[112.99268424053662,-7.2025676120640227],[112.99267518830122,-7.2025676515007095],[112.99267514881292,-7.2025586111210531],[112.99268420104815,-7.202558571684416],[112.99268416155974,-7.202549531304788],[112.99267510932468,-7.2025495707413745],[112.99267506983649,-7.2025405303616905],[112.99265696536658,-7.2025406092342275],[112.99265684690339,-7.2025134880948594],[112.9926477946689,-7.2025135275307077],[112.99264775518145,-7.2025044871508621],[112.99262965071267,-7.2025045660219229],[112.99262961122562,-7.2024955256419725],[112.99260245452261,-7.2024956439470733],[112.99260241503616,-7.2024866035669701],[112.99258431056757,-7.2024866824360432],[112.99258423159554,-7.2024686016756219],[112.99257517936155,-7.2024686411097916],[112.9925751398758,-7.2024596007295258],[112.99254798317398,-7.2024597190308075],[112.99254794368881,-7.202450678650389],[112.99252983922108,-7.2024507575169148],[112.99252987870588,-7.2024597978974363],[112.99252082647173,-7.2024598373304798],[112.9925207869871,-7.2024507969499103],[112.99251173475311,-7.2024508363827273],[112.9925116952687,-7.2024417960021045],[112.99250264303483,-7.2024418354346915],[112.99250260355066,-7.2024327950540314],[112.9924844990831,-7.2024328739185686],[112.99248445959934,-7.2024238335377726],[112.99246635513194,-7.2024239124014944],[112.99246631564858,-7.2024148720206096],[112.99245726341501,-7.2024149114521538],[112.99245722393188,-7.202405871071214],[112.9924300672313,-7.202405989364622],[112.99243002774877,-7.2023969489835293],[112.99241192328185,-7.2023970278448051],[112.99241188379972,-7.2023879874636094],[112.99242093603303,-7.2023879480331106],[112.99242089655077,-7.2023789076519611],[112.99241184431764,-7.2023789470824102],[112.99241180483561,-7.2023699067012048],[112.99242990930145,-7.2023698278402293],[112.99242994878384,-7.2023788682213334],[112.99244805324986,-7.202378789359539],[112.99244809273264,-7.2023878297405401],[112.99248430166479,-7.2023876720146092],[112.99248426218126,-7.2023786316338088],[112.99245710548279,-7.2023787499283749],[112.99245706599987,-7.2023697095474226],[112.99248422269781,-7.2023695912530048],[112.9924841832144,-7.2023605508721804],[112.99244797428442,-7.2023607085975128],[112.99244801376712,-7.202369748978537],[112.99243896153432,-7.2023697884094728],[112.99243892205182,-7.202360748028398],[112.99241176535364,-7.2023608663199825],[112.99241172587172,-7.202351825938786],[112.99237551694081,-7.2023519836581942],[112.99237539849749,-7.2023248625139367],[112.99235729403281,-7.2023249413722681],[112.99235733351352,-7.2023339817537915],[112.99234828128093,-7.2023340211827369],[112.99234824180041,-7.2023249808011638],[112.99233013733543,-7.2023250596584232],[112.99233009785532,-7.2023160192767293],[112.99232104562294,-7.2023160587050379],[112.99232100614306,-7.2023070183233253],[112.99227574498126,-7.2023072154619463],[112.99227570550232,-7.202298175079962],[112.99225760103759,-7.2022982539340559],[112.99225756155907,-7.2022892135519694],[112.99224850932683,-7.2022892529786997],[112.99224846984853,-7.202280212596559],[112.99223941761639,-7.2022802520230584],[112.99223933866031,-7.2022621712586643],[112.9921940775007,-7.2022623683879852],[112.99219403802363,-7.2022533280055328],[112.99216688132779,-7.2022534462808299],[112.9921668418513,-7.2022444058982211],[112.99215778961945,-7.2022444453229122],[112.99215775014319,-7.2022354049402519],[112.99210343675198,-7.202235641484342]],[[112.99207643795454,-7.2022719212864086],[112.99206738572164,-7.2022719607094619],[112.99206734624703,-7.2022629203262953],[112.99207639847975,-7.2022628809032936],[112.99207643795454,-7.2022719212864086]],[[112.99189495910606,-7.2021732654881658],[112.99188590687412,-7.20217330490709],[112.99188586740364,-7.2021642645229003],[112.99189491963541,-7.2021642251040241],[112.99189495910606,-7.2021732654881658]],[[112.99160528765806,-7.2021745268050656],[112.99158718319082,-7.2021746056312903],[112.99158714372628,-7.2021655652454513],[112.99159619595972,-7.2021655258324788],[112.99159615649502,-7.2021564854466691],[112.99160520872827,-7.202156446033567],[112.99160528765806,-7.2021745268050656]],[[112.99218510422256,-7.2022804885783058],[112.99220320868737,-7.2022804097272726],[112.99220324816477,-7.2022894501096646],[112.99219419593221,-7.2022894895353193],[112.99219423540947,-7.2022985299177575],[112.99218518317669,-7.2022985693432853],[112.99218510422256,-7.2022804885783058]],[[112.99238464813644,-7.2023700249913292],[112.99239370036956,-7.2023699855614662],[112.99239373985122,-7.2023790259427702],[112.99238468761793,-7.2023790653726838],[112.99238464813644,-7.2023700249913292]],[[112.99272060743505,-7.2026036158331674],[112.9927296596709,-7.2026035763953864],[112.99272969916053,-7.2026126167747426],[112.99272064692448,-7.2026126562125725],[112.99272060743505,-7.2026036158331674]],[[112.99276709283795,-7.202883670394538],[112.99277614507912,-7.2028836309543136],[112.99277618457121,-7.2028926713333181],[112.99276713232987,-7.2028927107735923],[112.99276709283795,-7.202883670394538]],[[112.99275819856395,-7.2029198713509146],[112.9927672508059,-7.202919831910668],[112.99276729029802,-7.2029288722896911],[112.99277634254008,-7.2029288328492163],[112.99277638203243,-7.2029378732281684],[112.99275827754786,-7.20293795210904],[112.99275819856395,-7.2029198713509146]],[[112.99389253405624,-7.2035568063947419],[112.99390158630457,-7.2035567669285827],[112.99390166534086,-7.2035748476736012],[112.99389261309219,-7.2035748871398591],[112.99389253405624,-7.2035568063947419]],[[112.99447286609524,-7.2037802894326273],[112.99449097059423,-7.2037802104747319],[112.99449108918749,-7.2038073315821869],[112.9944820369375,-7.2038073710613721],[112.99448199740652,-7.2037983306921767],[112.99447294515663,-7.2037983701711346],[112.99447286609524,-7.2037802894326273]],[[112.99450911462442,-7.2037891718851794],[112.9945181668739,-7.2037891324055536],[112.9945182459372,-7.2038072131435538],[112.99450919368735,-7.2038072526232781],[112.99450911462442,-7.2037891718851794]],[[112.99453611324535,-7.2037528919701286],[112.99452706099667,-7.2037529314499098],[112.99452710052827,-7.2037619718188592],[112.99451804827935,-7.2037620112985117],[112.99451796921656,-7.2037439305604929],[112.99453607371362,-7.2037438516012093],[112.99453611324535,-7.2037528919701286]]],[[[112.99150484491265,-7.2019760718412167],[112.99153200160296,-7.2019759536097352],[112.9915319621406,-7.2019669132235142],[112.99150480545083,-7.2019670314548447],[112.99150484491265,-7.2019760718412167]]],[[[112.99150480545083,-7.2019670314548447],[112.99150476598903,-7.2019579910684657],[112.99152287044858,-7.2019579122478596],[112.9915228309865,-7.2019488718615623],[112.99151377875693,-7.2019489112719057],[112.99151373929507,-7.201939870885588],[112.99149901838064,-7.2019399349750035],[112.99149566314401,-7.2019464348667928],[112.99149575322078,-7.201967070864927],[112.99150480545083,-7.2019670314548447]]]]},"properties":{"FID":0,"Shape_Leng":18102566.929299999,"Shape_Area":236516885.403}}]
}