{
  "type" : "FeatureCollection",
  "features" : [{"type":"Feature","id":0,"geometry":{"type":"MultiPolygon","coordinates":[[[[112.69302795289251,-7.1545952858155113],[112.69301890007218,-7.1545953191016629],[112.69301893339836,-7.1546043610315291],[112.6930098805778,-7.1546043943175466],[112.6930098472518,-7.1545953523876378],[112.69296458314926,-7.1545955188148396],[112.6929646831247,-7.1546226446051602],[112.69297373594583,-7.1546226113199474],[112.69297370262045,-7.1546135693898929],[112.69299180826225,-7.1546135028190196],[112.69299184158797,-7.1546225447489897],[112.69300994722994,-7.1546224781773198],[112.69300991390385,-7.154613436247435],[112.69302801954525,-7.1546133696751397],[112.69302795289251,-7.1545952858155113]]],[[[112.6925933841498,-7.1545878414184241],[112.69259335083207,-7.1545787994865702],[112.69258429800999,-7.1545788327641038],[112.69258433132754,-7.1545878746960003],[112.6925933841498,-7.1545878414184241]]],[[[112.69454872602724,-7.1545625654502478],[112.69454869267113,-7.1545535235275661],[112.69453058704637,-7.154553590159086],[112.69453062040209,-7.1545626320818521],[112.69454872602724,-7.1545625654502478]]],[[[112.69296441652436,-7.1545503091642946],[112.6929553637046,-7.1545503424489905],[112.69295539702932,-7.1545593843791382],[112.69294634420935,-7.1545594176636982],[112.69294637753393,-7.1545684595939019],[112.69295543035408,-7.1545684263093001],[112.69295546367887,-7.1545774682394585],[112.69296451649917,-7.1545774349546365],[112.69296441652436,-7.1545503091642946]]],[[[112.69297343601903,-7.1545412339493213],[112.69297340269405,-7.1545321920192331],[112.6929643498747,-7.1545322253040204],[112.69296438319951,-7.1545412672341513],[112.69297343601903,-7.1545412339493213]]],[[[112.69256592582978,-7.154506563862653],[112.69253876736738,-7.1545066636921],[112.69253890063288,-7.1545428314206312],[112.69256605909743,-7.1545427315906744],[112.69256602578045,-7.1545336896586749],[112.69257507860172,-7.1545336563817097],[112.69257501196755,-7.1545155725177825],[112.69256595914663,-7.1545156057946642],[112.69256592582978,-7.154506563862653]]],[[[112.69300049450094,-7.1545140083038712],[112.69300046117554,-7.1545049663738984],[112.69299140835686,-7.1545049996590935],[112.69299144168208,-7.1545140415891071],[112.69300049450094,-7.1545140083038712]]],[[[112.69443073927845,-7.1544816212337325],[112.69443070592506,-7.1544725793104664],[112.69442165311375,-7.1544726126236213],[112.69442168646695,-7.154481654546931],[112.69443073927845,-7.1544816212337325]]],[[[112.69258396483691,-7.1544884134449367],[112.69258389820283,-7.1544703295810583],[112.69257484538286,-7.1544703628579036],[112.69257487869972,-7.1544794047898872],[112.69256582587953,-7.1544794380665984],[112.69256585919624,-7.1544884799986201],[112.69258396483691,-7.1544884134449367]]],[[[112.69446688381586,-7.1544634041329696],[112.6944487781939,-7.1544634707604375],[112.69444881154759,-7.1544725126836237],[112.69443975873634,-7.1544725459971339],[112.6944398254435,-7.1544906298435782],[112.69443077263186,-7.154490663156996],[112.69443083933885,-7.1545087470035105],[112.69445799777469,-7.1545086470624693],[112.69445803112878,-7.1545176889855941],[112.69446708394081,-7.1545176556715138],[112.69446698387816,-7.1544905299022581],[112.69447603668962,-7.1544904965881297],[112.69447613675283,-7.1545176223572584],[112.69448518956477,-7.1545175890428245],[112.69448515621013,-7.1545085471198275],[112.69449420902188,-7.1545085138052578],[112.69449407560313,-7.1544723461134048],[112.69446691716992,-7.1544724460560696],[112.69446688381586,-7.1544634041329696]]],[[[112.69452123403593,-7.1544722461691403],[112.69454839246833,-7.1544721462232754],[112.69454832575708,-7.1544540623778365],[112.69453022013623,-7.1544541290084211],[112.69453025349148,-7.1544631709312281],[112.69450309505935,-7.1544632708758975],[112.6945031284141,-7.1544723127988279],[112.69451218122504,-7.1544722794840725],[112.69451221458,-7.1544813214069567],[112.6945212673911,-7.154481288091981],[112.69452123403593,-7.1544722461691403]]],[[[112.69423104382916,-7.1543376832953474],[112.69423101393755,-7.1543376834053296],[112.69422199101956,-7.154337716603953],[112.69422219111203,-7.1543919681496826],[112.69421313830134,-7.1543920014583655],[112.69421343844137,-7.1544733787771175],[112.69423151417432,-7.1544733122687916],[112.69423154406594,-7.1544733121588067],[112.69423144401782,-7.1544461863861786],[112.69424049682952,-7.1544461530768837],[112.69424046348006,-7.1544371111527099],[112.69425856910294,-7.1544370445336734],[112.69425853575316,-7.1544280026095635],[112.69424948294191,-7.1544280359191283],[112.69424944959235,-7.1544189939950051],[112.69424039678124,-7.1544190273043506],[112.69424029673334,-7.1543919015317821],[112.6942312439227,-7.1543919348408211],[112.69423111052684,-7.1543557671438425],[112.69424016333677,-7.1543557338349739],[112.69424012998772,-7.1543466919107628],[112.69423107717797,-7.1543467252195887],[112.69423104382916,-7.1543376832953474]]],[[[112.69420361861552,-7.1542654478254004],[112.69420360693653,-7.154262281190098],[112.69420355191977,-7.1542473639765607],[112.69419449911183,-7.1542473972842089],[112.69419453245951,-7.1542564392086723],[112.69418547965131,-7.1542564725161846],[112.69418550131998,-7.1542623478053562],[112.69418551299884,-7.1542655144406879],[112.69420361861552,-7.1542654478254004]]],[[[112.69423084719413,-7.1542924737839684],[112.69423087708573,-7.1542924736739879],[112.694230765361,-7.154262181265878],[112.69423071034339,-7.1542472640525521],[112.69423068045178,-7.1542472641625325],[112.6942126047277,-7.154247330668734],[112.69421265974474,-7.1542622478822029],[112.69421277146827,-7.1542925402905952],[112.69423084719413,-7.1542924737839684]]],[[[112.69449226008919,-7.1542191755129503],[112.69447500321459,-7.1542103294249122],[112.69447503607903,-7.1542192388949957],[112.69449226008919,-7.1542191755129503]]],[[[112.69418531291427,-7.1542112628936128],[112.69417626010696,-7.1542112962007334],[112.6941763268013,-7.15422938004986],[112.69419443241662,-7.154229313435267],[112.69419439906908,-7.1542202715107752],[112.69418534626161,-7.154220304818117],[112.69418531291427,-7.1542112628936128]]],[[[112.69396787881183,-7.1541668525877036],[112.69396787768511,-7.1541665470385238],[112.69396130824009,-7.1541668767589419],[112.69396787881183,-7.1541668525877036]]],[[[112.69401314284859,-7.1541666860718243],[112.69402219565579,-7.1541666527681151],[112.69402218521435,-7.1541638213402035],[112.69397692894012,-7.1541660927559088],[112.69397693161928,-7.1541668192848835],[112.69400409004133,-7.1541667193753558],[112.69400412338486,-7.1541757613007633],[112.6940131761923,-7.1541757279971883],[112.69401314284859,-7.1541666860718243]]],[[[112.69410364650355,-7.1541597326074422],[112.69408712500001,-7.1541605619999595],[112.69405839023266,-7.1541620042045402],[112.69405840688424,-7.1541665195514987],[112.69406745969123,-7.1541664862469005],[112.69406749303603,-7.1541755281720105],[112.69407654584317,-7.1541754948671921],[112.69407657918819,-7.1541845367922221],[112.69410373760986,-7.154184436876573],[112.69410364650355,-7.1541597326074422]]],[[[112.69413080026472,-7.1541583694659314],[112.69412174901106,-7.1541588238466085],[112.69412180987821,-7.1541753283404335],[112.6941399154919,-7.1541752617284855],[112.69413988214569,-7.1541662198037157],[112.69413082933904,-7.1541662531097359],[112.69413080026472,-7.1541583694659314]]],[[[112.69425753527979,-7.1541567448850696],[112.6942665880857,-7.1541567115766025],[112.69426656411314,-7.1541502118190099],[112.69423033111424,-7.1541525457139779],[112.69422770300014,-7.1541527149999498],[112.69417210900031,-7.1541562959998757],[112.6941489027719,-7.154157460718169],[112.69414896829871,-7.1541752284222442],[112.69416707391215,-7.1541751618092286],[112.69416710725895,-7.154184203733835],[112.69420331848605,-7.1541840705055026],[112.69420328513854,-7.1541750285810668],[112.69418517952542,-7.1541750951955043],[112.69418514617833,-7.1541660532709477],[112.69420325179108,-7.1541659866565954],[112.69420321844366,-7.1541569447321356],[112.6942122712498,-7.154156911424737],[112.6942123045974,-7.1541659533491524],[112.69422135740366,-7.1541659200415317],[112.69422142409933,-7.1541840038902693],[112.69423044701431,-7.1541839706923662],[112.69423047690591,-7.1541839705823858],[112.69423051025399,-7.154193012506707],[112.69424861586738,-7.1541929458903226],[112.69424858251895,-7.1541839039660866],[112.69425763532539,-7.1541838706576701],[112.69425753527979,-7.1541567448850696]]],[[[112.69432049400008,-7.1541467379999313],[112.69428466566974,-7.1541490458329795],[112.6942846936973,-7.1541566449591363],[112.6943118521144,-7.1541565450316025],[112.69431195216319,-7.1541836708034383],[112.69429384655076,-7.1541837374222261],[112.69429391324947,-7.1542018212702683],[112.69432107166909,-7.1542017213415638],[112.69432097161952,-7.1541745955698959],[112.69433002442544,-7.1541745622600992],[112.69432995772559,-7.1541564784123581],[112.69433901053111,-7.15415644510247],[112.69433904388119,-7.1541654870262912],[112.69434809668685,-7.1541654537161818],[112.69434816338752,-7.1541835375637284],[112.69433911058151,-7.154183570873923],[112.69433914393171,-7.1541926127977327],[112.69434819673791,-7.1541925794874963],[112.69434823008834,-7.1542016214112598],[112.69435728289467,-7.1542015881008032],[112.69435724954407,-7.1541925461770814],[112.69436630235016,-7.1541925128664898],[112.69436626899942,-7.1541834709428072],[112.6943572161935,-7.1541835042533561],[112.69435718284296,-7.1541744623296442],[112.69439472672471,-7.1541743241828328],[112.69437024700005,-7.1541639379999467],[112.69432049400008,-7.1541467379999313]]]]},"properties":{"FID":0,"Shape_Leng":18102566.929299999,"Shape_Area":236516885.403}}]
}