{
  "type" : "FeatureCollection",
  "features" : [{"type":"Feature","id":0,"geometry":{"type":"MultiPolygon","coordinates":[[[[114.31232492416621,-7.0585453720172495],[114.31232485987509,-7.0585363412862829],[114.31231582018168,-7.0585364055135251],[114.31231588447261,-7.0585454362445761],[114.31232492416621,-7.0585453720172495]]],[[[114.31239659879064,-7.058454550889282],[114.31239656869923,-7.0584503240993755],[114.31237849545259,-7.0584513144009646],[114.31237851940821,-7.0584546793448917],[114.31239659879064,-7.058454550889282]]],[[[114.31255926445452,-7.0584465456103587],[114.31254117772252,-7.0584456412973919],[114.31254123383805,-7.0584535232192778],[114.31255027352778,-7.0584534589884189],[114.3125503378225,-7.0584624897173329],[114.31255937751234,-7.0584624254862174],[114.31255926445452,-7.0584465456103587]]],[[[114.31753965426205,-7.058345731455069],[114.31753958987166,-7.0583367007719753],[114.31753055023009,-7.0583367650984137],[114.31753061462028,-7.0583457957815909],[114.31753965426205,-7.058345731455069]]],[[[114.31755760476395,-7.0583275414356272],[114.31754856512268,-7.058327605762333],[114.31754862951315,-7.0583366364453637],[114.31755766915458,-7.0583365721185762],[114.31755760476395,-7.0583275414356272]]],[[[114.31751221338808,-7.058300771017306],[114.31751214899865,-7.0582917403339112],[114.31750310935767,-7.0582918046594099],[114.31750317374693,-7.0583008353428882],[114.31751221338808,-7.058300771017306]]],[[[114.31755760476395,-7.0583275414356272],[114.31757568404618,-7.0583274127816971],[114.31757549087369,-7.0583003207333457],[114.31758453051415,-7.0583002564063664],[114.31758446612332,-7.058291225723635],[114.31759350576353,-7.058291161396566],[114.31759344137259,-7.0582821307139314],[114.31757536209247,-7.0582822593677292],[114.31757542648303,-7.0582912900505299],[114.31756638684266,-7.0582913543772499],[114.31756658001436,-7.058318446425881],[114.31755754037337,-7.0583185107526765],[114.31755760476395,-7.0583275414356272]]],[[[114.3176929418002,-7.0582904537872846],[114.31769287740735,-7.0582814231055631],[114.31768383776824,-7.0582814874344697],[114.31768390216091,-7.0582905181162738],[114.3176929418002,-7.0582904537872846]]],[[[114.31765671885044,-7.0582816804201398],[114.31765665445837,-7.0582726497380808],[114.31764761481912,-7.0582727140662058],[114.31764767921101,-7.0582817447483475],[114.31765671885044,-7.0582816804201398]]],[[[114.31753913914137,-7.0582734859900933],[114.31753907475168,-7.0582644553069498],[114.31753003511149,-7.0582645196327238],[114.31753009950103,-7.0582735503159491],[114.31753913914137,-7.0582734859900933]]],[[[114.31756612928157,-7.0582552316456884],[114.31756619367171,-7.0582642623285841],[114.31757523331157,-7.0582641980021146],[114.31757516892127,-7.0582551673192997],[114.31756612928157,-7.0582552316456884]]],[[[114.31756612928157,-7.0582552316456884],[114.31756606489151,-7.0582462009627855],[114.31754798561226,-7.0582463296148719],[114.31754811439177,-7.0582643909810026],[114.31755715403179,-7.0582643266548812],[114.31755708964182,-7.0582552959719012],[114.31756612928157,-7.0582552316456884]]],[[[114.31749374777249,-7.0582467155669431],[114.31749368338392,-7.058237684883375],[114.31748464374384,-7.0582377492080264],[114.31748470813223,-7.0582467798916788],[114.31749374777249,-7.0582467155669431]]],[[[114.3176746049521,-7.0582544597175136],[114.31767447616787,-7.0582363983537011],[114.31766543652947,-7.0582364626818439],[114.31766556531333,-7.0582545240458208],[114.3176746049521,-7.0582544597175136]]],[[[114.31757504014088,-7.0582371059536584],[114.31757497575082,-7.058228075270832],[114.31756593611166,-7.058228139596971],[114.31756600050154,-7.0582371702798801],[114.31757504014088,-7.0582371059536584]]],[[[114.31752067352569,-7.0582194305417199],[114.31751163388623,-7.0582194948667265],[114.31751169827498,-7.05822852555014],[114.31750265863523,-7.0582285898750579],[114.31750278741265,-7.0582466512420359],[114.31752833583344,-7.0582464694418343],[114.31752990633269,-7.0582464582662601],[114.31752977755423,-7.0582283968997812],[114.31752820705503,-7.058228408075327],[114.31752073791463,-7.058228461225049],[114.31752067352569,-7.0582194305417199]]],[[[114.31767428299217,-7.0582093063079521],[114.31767434738398,-7.0582183369898743],[114.31768338702194,-7.0582182726617226],[114.31768332262995,-7.0582092419798856],[114.31767428299217,-7.0582093063079521]]],[[[114.31773762484795,-7.0582178866891612],[114.31773756045492,-7.0582088560078233],[114.31772852081761,-7.0582089203369351],[114.31772858521047,-7.0582179510183582],[114.31773762484795,-7.0582178866891612]]],[[[114.31751150510897,-7.0582014334998924],[114.31751144072047,-7.0581924028164682],[114.31750240108141,-7.058192467141053],[114.31750246546973,-7.0582014978245606],[114.31751150510897,-7.0582014334998924]]],[[[114.31771037715036,-7.0582000183130473],[114.31771941678764,-7.0581999539843663],[114.31771935239513,-7.0581909233028535],[114.31770127312083,-7.0581910519598754],[114.31770140190528,-7.0582091133232288],[114.31769236226765,-7.058209177651646],[114.31769242665983,-7.0582182083333995],[114.31770146629762,-7.0582181440048997],[114.31770153069003,-7.0582271746865679],[114.31769249105209,-7.0582272390151495],[114.31769255544441,-7.0582362696968932],[114.31770159508255,-7.0582362053682299],[114.31770172386781,-7.0582542667315433],[114.31771076350621,-7.0582542024025381],[114.3177106347206,-7.0582361410393908],[114.31771967435859,-7.0582360767103776],[114.31771948118025,-7.0582089846658755],[114.3177104415428,-7.0582090489946401],[114.31771037715036,-7.0582000183130473]]],[[[114.31773749606195,-7.0581998253264793],[114.31773743166909,-7.0581907946451334],[114.31772839203214,-7.0581908589740809],[114.31772845642483,-7.0581998896555103],[114.31773749606195,-7.0581998253264793]]],[[[114.31751150510897,-7.0582014334998924],[114.31751156949755,-7.0582104641833121],[114.31752807827696,-7.0582103467088029],[114.31753868841521,-7.0582102712080106],[114.31753843085929,-7.0581741484753024],[114.31752939122084,-7.0581742128002452],[114.3175295199983,-7.0581922741667746],[114.31752794949924,-7.0581922853422592],[114.31752048035942,-7.0581923384917067],[114.31752054474809,-7.0582013691750483],[114.31751150510897,-7.0582014334998924]]],[[[114.31772774810982,-7.0581005521595594],[114.3177096688392,-7.0581006808152686],[114.3177097332307,-7.0581097114969067],[114.31772781250169,-7.0581095828410314],[114.31772774810982,-7.0581005521595594]]],[[[114.31772774810982,-7.0581005521595594],[114.31774582738011,-7.0581004235031539],[114.3177459561646,-7.0581184848657577],[114.31775499579996,-7.0581184205371263],[114.31775473823062,-7.0580822978122342],[114.31774569859596,-7.0580823621405333],[114.317745762988,-7.0580913928218623],[114.31772768371806,-7.0580915214781026],[114.31772774810982,-7.0581005521595594]]],[[[114.31774569859596,-7.0580823621405333],[114.31774563420402,-7.0580733314592168],[114.31773659456945,-7.0580733957872583],[114.31773665896122,-7.0580824264686566],[114.31774569859596,-7.0580823621405333]]],[[[114.31774563420402,-7.0580733314592168],[114.31775467383849,-7.0580732671309994],[114.31775460944647,-7.0580642364497637],[114.31774556981216,-7.0580643007778967],[114.31774563420402,-7.0580733314592168]]],[[[114.31775460944647,-7.0580642364497637],[114.31776364908072,-7.0580641721214574],[114.31776358468858,-7.0580551414402981],[114.31775454505451,-7.0580552057685226],[114.31775460944647,-7.0580642364497637]]],[[[114.31773627261185,-7.0580282423802005],[114.31772723297806,-7.0580283067076515],[114.31772716858696,-7.058019276026144],[114.31771812895327,-7.0580193403533373],[114.31771819334419,-7.0580283710349274],[114.31770915371023,-7.0580284353620302],[114.31770928249196,-7.0580464967253658],[114.31773640139464,-7.0580463037430352],[114.31773627261185,-7.0580282423802005]]],[[[114.31773627261185,-7.0580282423802005],[114.31774531224555,-7.0580281780525729],[114.31774524785412,-7.0580191473712333],[114.31773620822059,-7.0580192116987766],[114.31773627261185,-7.0580282423802005]]],[[[114.31753624168833,-7.0578671052446555],[114.31753617730243,-7.0578580745613309],[114.3175271376701,-7.0578581388833648],[114.31752720205583,-7.0578671695667738],[114.31753624168833,-7.0578671052446555]]],[[[114.31759054386859,-7.0578757499911156],[114.3175904150946,-7.0578576886254663],[114.31757233583089,-7.0578578172714517],[114.3175724002175,-7.0578668479544451],[114.31758143984958,-7.0578667836314564],[114.31758150423643,-7.0578758143143627],[114.31759054386859,-7.0578757499911156]]],[[[114.31767428299217,-7.0582093063079521],[114.31767415420879,-7.0581912449441004],[114.31768319384622,-7.0581911806162001],[114.31768306506282,-7.0581731192524968],[114.31770114433675,-7.0581729905965052],[114.31770088676959,-7.0581368678697007],[114.31769184713337,-7.058136932197451],[114.31769191152486,-7.0581459628792524],[114.31768287188838,-7.0581460272069121],[114.31768280749705,-7.0581369965250254],[114.31766472822419,-7.0581371251796563],[114.3176646638333,-7.0581280944976319],[114.31765562419692,-7.0581281588246032],[114.3176555598063,-7.0581191281424731],[114.31767363907865,-7.0581189994885278],[114.31767351029696,-7.0581009381245927],[114.31768254993263,-7.0581008737975246],[114.3176823567602,-7.0580737817518422],[114.31767331712506,-7.0580738460786625],[114.31767338151559,-7.0580828767606443],[114.31766434188016,-7.0580829410873722],[114.31766453505179,-7.0581100331335387],[114.31765549541576,-7.0581100974603439],[114.31765543102532,-7.0581010667782094],[114.31764639138937,-7.0581011311047526],[114.31764645577967,-7.0581101617869733],[114.31763741614344,-7.0581102261134268],[114.31763728736331,-7.0580921647488362],[114.31765536663494,-7.0580920360960864],[114.31765530224465,-7.058083005413927],[114.31764626260906,-7.0580830697403041],[114.31764619821904,-7.0580740390580754],[114.31765523785447,-7.0580739747317791],[114.31765517346433,-7.0580649440496268],[114.3176461338291,-7.0580650083758387],[114.31764606943925,-7.0580559776936012],[114.31765510907431,-7.058055913367471],[114.31765504468436,-7.0580468826853116],[114.31762792577942,-7.0580470756629285],[114.31762779700082,-7.058029014298099],[114.31769107444207,-7.0580285640157108],[114.31769088127115,-7.0580014719701802],[114.31768184163745,-7.0580015362965112],[114.31768177724749,-7.0579925056145765],[114.31769081688101,-7.0579924412883299],[114.31769075249096,-7.0579834106064734],[114.3176997921242,-7.0579833462801362],[114.317699663344,-7.0579652849165786],[114.3176906237111,-7.0579653492427505],[114.31769049493158,-7.0579472878790108],[114.31769953456413,-7.0579472235530041],[114.31769914822655,-7.0578930394621855],[114.31772626712055,-7.05789284648462],[114.31772613834099,-7.0578747851214789],[114.31771709871009,-7.0578748494473436],[114.31771703432062,-7.0578658187656842],[114.31769895505892,-7.0578659474167198],[114.31769876189202,-7.0578388553712212],[114.31767164300039,-7.0578390483457216],[114.31767157861213,-7.0578300176636306],[114.31764445972027,-7.0578302106363111],[114.31764452410802,-7.0578392413186499],[114.31761740521488,-7.0578394342900097],[114.31761753398958,-7.0578574956551776],[114.31766273214612,-7.0578571740345408],[114.31766266775786,-7.0578481433523752],[114.31768074701955,-7.0578480147030671],[114.31768081140817,-7.0578570453850666],[114.31767177177719,-7.0578571097098921],[114.31767190055433,-7.0578751710740457],[114.31766286092289,-7.0578752353988623],[114.31766292531141,-7.0578842660810324],[114.31764484604801,-7.0578843947303103],[114.31764478165985,-7.0578753640479732],[114.31763574202816,-7.0578754283722649],[114.31763587080424,-7.0578934897370695],[114.31761779153997,-7.0578936183854637],[114.31761772715224,-7.0578845877029162],[114.31759964788797,-7.057884716350447],[114.31759958350069,-7.0578756856676943],[114.31759054386859,-7.0578757499911156],[114.3175907370302,-7.0579028420395611],[114.31757265776474,-7.057902970686377],[114.31757317286329,-7.0579752161500284],[114.31756413322903,-7.0579752804738396],[114.31756432639185,-7.0580023725229148],[114.31757336602665,-7.0580023081988541],[114.31757349480264,-7.0580203695647059],[114.3175554155323,-7.0580204982129864],[114.31755554430792,-7.0580385595791535],[114.31756458394348,-7.0580384952549338],[114.31756484149645,-7.0580746179868896],[114.31755580186018,-7.0580746823114406],[114.31755586624847,-7.0580837129945024],[114.31752717683995,-7.0580839171426728],[114.31751970770186,-7.058083970291297],[114.31751977208953,-7.0580930009747034],[114.31752724122776,-7.0580929478260108],[114.31752881172649,-7.0580929366506835],[114.31752894050241,-7.058110998017268],[114.31752737000363,-7.0581110091926247],[114.31751990086511,-7.058111062341454],[114.31752002964103,-7.0581291237082056],[114.3175109900033,-7.0581291880323827],[114.31751111877921,-7.0581472493992852],[114.31752015841728,-7.0581471850749411],[114.31752028719389,-7.0581652464416607],[114.31752775633328,-7.0581651932924174],[114.3175383664705,-7.0581651177921154],[114.31753830208181,-7.0581560871089248],[114.31752926244374,-7.0581561514337006],[114.31752913366695,-7.0581380900671231],[114.31757433185481,-7.0581377684423297],[114.31757446063334,-7.0581558298080758],[114.31756542099558,-7.0581558941335496],[114.31756535660644,-7.058146863450605],[114.31755631696879,-7.0581469277758195],[114.31755638135775,-7.0581559584588502],[114.3175473417198,-7.058156022783975],[114.31754740610867,-7.0581650534670821],[114.31755644574677,-7.0581649891418747],[114.31755657452513,-7.0581830505078953],[114.31756561416347,-7.0581829861823486],[114.31756567855294,-7.0581920168652923],[114.31755663891441,-7.0581920811909242],[114.31755670330378,-7.0582011118739336],[114.31756574294249,-7.0582010475482191],[114.31756587172185,-7.0582191089140585],[114.31758395099972,-7.0582189802617723],[114.31758388660965,-7.0582099495790205],[114.31759292624827,-7.0582098852526984],[114.31759299063852,-7.0582189159353677],[114.31760203027724,-7.058218851608788],[114.31760196588682,-7.0582098209262023],[114.31762004516368,-7.0582096922726869],[114.3176201739453,-7.0582277536375218],[114.31762921358393,-7.0582276893103364],[114.31762927797504,-7.0582367199926637],[114.31763831761377,-7.0582366556652198],[114.31763825322248,-7.0582276249829743],[114.31764729286097,-7.0582275606554408],[114.3176472284696,-7.0582185299732743],[114.3176562681078,-7.0582184656456484],[114.31765620371634,-7.0582094349635618],[114.31767428299217,-7.0582093063079521]],[[114.3176290204111,-7.0582005972633297],[114.31761998077299,-7.0582006615902646],[114.3176199163824,-7.0581916309078379],[114.31762895602033,-7.0581915665809847],[114.3176290204111,-7.0582005972633297]],[[114.31759273307804,-7.0581827932046544],[114.31758369343994,-7.0581828575307268],[114.31758356466057,-7.0581647961652036],[114.317601643936,-7.0581646675132159],[114.31760170832599,-7.0581736981958221],[114.31759266868815,-7.0581737625219851],[114.31759273307804,-7.0581827932046544]],[[114.3176558173693,-7.0581552508709589],[114.31766485700621,-7.0581551865437397],[114.31766498578855,-7.0581732479077921],[114.31765594615131,-7.0581733122351773],[114.3176558173693,-7.0581552508709589]],[[114.31761978760144,-7.058173569542971],[114.31762882723903,-7.0581735052162857],[114.31762889162964,-7.0581825358986192],[114.31761985199188,-7.0581826002253889],[114.31761978760144,-7.058173569542971]],[[114.31757426746567,-7.0581287377594748],[114.31756522782844,-7.0581288020846991],[114.31756516343955,-7.0581197714017412],[114.3175470841652,-7.0581199000515005],[114.31754701977675,-7.058110869368373],[114.31756509905077,-7.0581107407187798],[114.31756497027344,-7.0580926793528604],[114.31757400990999,-7.0580926150279666],[114.31757394552127,-7.0580835843450593],[114.31758298515753,-7.0580835200200767],[114.31758304954643,-7.0580925507029013],[114.31759208918277,-7.0580924863776593],[114.31759215357192,-7.0581015170603649],[114.31758311393538,-7.0581015813856878],[114.3175832427136,-7.0581196427512847],[114.31757420307663,-7.0581197070765995],[114.31757426746567,-7.0581287377594748]]]]},"properties":{"FID":0,"Shape_Leng":18102566.929299999,"Shape_Area":236516885.403}}]
}