{
  "type" : "FeatureCollection",
  "features" : [{"type":"Feature","id":0,"geometry":{"type":"MultiPolygon","coordinates":[[[[112.91906764340641,-6.8945213083482386],[112.91906760701876,-6.8945122674505388],[112.91905856036006,-6.8945123038149161],[112.91905859674753,-6.8945213447126648],[112.91906764340641,-6.8945213083482386]]],[[[112.91911273114631,-6.8944849629336824],[112.91910368448836,-6.894484999298772],[112.91910372087656,-6.8944940401962915],[112.91909467421839,-6.8944940765612577],[112.91909471060646,-6.8945031174588189],[112.91912185058133,-6.894503008363265],[112.91912181419275,-6.894493967465845],[112.91911276753468,-6.8944940038311531],[112.91911273114631,-6.8944849629336824]]],[[[112.9190855911723,-6.894485072028437],[112.91908555478452,-6.894476031130818],[112.91905841481059,-6.8944761402238859],[112.91905845119787,-6.8944851811216488],[112.9190855911723,-6.894485072028437]]],[[[112.91898596877296,-6.8944583493348972],[112.91898593238717,-6.8944493084367391],[112.91895879241316,-6.8944494175237256],[112.91895882879842,-6.8944584584220276],[112.91898596877296,-6.8944583493348972]]],[[[112.91908548200905,-6.8944579493355702],[112.91908544562139,-6.8944489084379406],[112.91907639896397,-6.8944489448023232],[112.91907643535144,-6.8944579857000017],[112.91908548200905,-6.8944579493355702]]],[[[112.9188863463794,-6.8944316266174388],[112.91888641914703,-6.8944497084148253],[112.91889546580548,-6.894449672054038],[112.91889550218956,-6.8944587129526766],[112.91890454884809,-6.8944586765916691],[112.91890447607967,-6.8944405947944816],[112.91889542942147,-6.8944406311553932],[112.9188953930375,-6.8944315902567457],[112.9188863463794,-6.8944316266174388]]],[[[112.91916682914672,-6.8944395402535914],[112.91917587580349,-6.8944395038875452],[112.91917583941421,-6.8944304629903899],[112.91914869944434,-6.894430572087872],[112.91914873583309,-6.8944396129851713],[112.91915778248993,-6.8944395766194688],[112.91915781887892,-6.8944486175167166],[112.91916686553589,-6.8944485811507921],[112.91916682914672,-6.8944395402535914]]],[[[112.9188863463794,-6.8944316266174388],[112.91888630999564,-6.894422585718722],[112.91887726333769,-6.894422622079194],[112.91887729972126,-6.8944316629779587],[112.9188863463794,-6.8944316266174388]]],[[[112.91906727953202,-6.8944308993710726],[112.91906724314485,-6.8944218584733212],[112.91904914983081,-6.8944219312009416],[112.91904918621763,-6.8944309720987915],[112.91906727953202,-6.8944308993710726]]],[[[112.91925729571204,-6.8944391765854247],[112.91925722293045,-6.8944210947919613],[112.91924817627449,-6.8944211311594499],[112.9192482126651,-6.894430172056242],[112.91923916600889,-6.8944302084236098],[112.91923920239937,-6.8944392493204267],[112.91925729571204,-6.8944391765854247]]],[[[112.91876870343819,-6.8944230583915171],[112.91876866705672,-6.8944140174922071],[112.91875962039829,-6.8944140538504062],[112.9187596567796,-6.8944230947497651],[112.91876870343819,-6.8944230583915171]]],[[[112.91921202604004,-6.8944303175246855],[112.91921195326026,-6.8944122357307496],[112.91920290660423,-6.8944122720973358],[112.91920297938366,-6.8944303538913685],[112.91921202604004,-6.8944303175246855]]],[[[112.91933867922431,-6.8944298083731503],[112.91933860643974,-6.8944117265805618],[112.91932955978437,-6.8944117629495452],[112.91932963256859,-6.8944298447422288],[112.91933867922431,-6.8944298083731503]]],[[[112.91915767332328,-6.8944124539277025],[112.9191576369345,-6.8944034130304397],[112.91914859027834,-6.8944034493959521],[112.91914862666695,-6.8944124902932638],[112.91915767332328,-6.8944124539277025]]],[[[112.91926619680467,-6.8944029766309498],[112.91926616041387,-6.8943939357342607],[112.91925711375845,-6.8943939721017795],[112.91925715014908,-6.8944030129985157],[112.91926619680467,-6.8944029766309498]]],[[[112.91928429011566,-6.8944029038953047],[112.91928425372451,-6.8943938629987125],[112.91927520706922,-6.8943938993665732],[112.91927524346018,-6.8944029402632125],[112.91928429011566,-6.8944029038953047]]],[[[112.91892238747405,-6.8943953175795949],[112.91892235108982,-6.8943862766810744],[112.91891330443272,-6.8943863130420393],[112.91891334081679,-6.8943953539406087],[112.91892238747405,-6.8943953175795949]]],[[[112.91900377100146,-6.8943859494246871],[112.9189947243448,-6.894385985787193],[112.91899479711606,-6.8944040675834604],[112.91897670380193,-6.8944041403081515],[112.91897677657269,-6.8944222221045806],[112.91898582323013,-6.8944221857422257],[112.91898585961577,-6.8944312266404095],[112.91899490627333,-6.8944311902778361],[112.91899497904507,-6.8944492720740671],[112.9190040257029,-6.8944492357112264],[112.91900406208902,-6.8944582766092877],[112.91901310874702,-6.8944582402462249],[112.91901314513335,-6.8944672811442356],[112.91903123844949,-6.8944672084175034],[112.91903127483621,-6.8944762493154146],[112.91904032149439,-6.8944762129517425],[112.9190402851075,-6.8944671720538793],[112.91904933176544,-6.8944671356900855],[112.91904925899144,-6.8944490538944443],[112.91902211901846,-6.894449162985028],[112.91902200985939,-6.894422040291091],[112.91901296320215,-6.8944220766541298],[112.91901292681607,-6.8944130357561182],[112.91900388015893,-6.8944130721189394],[112.91900377100146,-6.8943859494246871]]],[[[112.91931143008182,-6.8944027947905546],[112.91931135729857,-6.8943847129976552],[112.91930231064356,-6.8943847493659804],[112.919302347035,-6.8943937902624812],[112.91929330037979,-6.894393826630683],[112.9192933367711,-6.8944028675272255],[112.91931143008182,-6.8944027947905546]]],[[[112.91889521111841,-6.8943863857634557],[112.91889517473474,-6.8943773448648038],[112.91888612807766,-6.8943773812252074],[112.91888616446116,-6.8943864221239073],[112.91889521111841,-6.8943863857634557]]],[[[112.91875943849254,-6.8943688493534703],[112.9187594748736,-6.8943778902528816],[112.91876852153133,-6.8943778538948743],[112.91876848515011,-6.894368812995511],[112.91875943849254,-6.8943688493534703]]],[[[112.9189222783215,-6.8943681948840227],[112.91892231470564,-6.8943772357825672],[112.91893136136251,-6.8943771994214789],[112.91893132497819,-6.8943681585229823],[112.9189222783215,-6.8943681948840227]]],[[[112.91875943849254,-6.8943688493534703],[112.91875940211152,-6.8943598084540731],[112.91875035545407,-6.8943598448118122],[112.91875039183491,-6.8943688857112582],[112.91875943849254,-6.8943688493534703]]],[[[112.91880467177995,-6.8943686675619649],[112.91880463539809,-6.8943596266628075],[112.91879558874086,-6.8943596630214037],[112.91879562512256,-6.8943687039206072],[112.91880467177995,-6.8943686675619649]]],[[[112.9189222783215,-6.8943681948840227],[112.91892224193741,-6.8943591539854907],[112.91891319528082,-6.8943591903463117],[112.91891323166475,-6.8943682312448908],[112.9189222783215,-6.8943681948840227]]],[[[112.9186870288505,-6.8943600993111973],[112.91869607550829,-6.8943600629546555],[112.91869603912853,-6.8943510220549182],[112.91866889915551,-6.8943511311238828],[112.91866893553475,-6.8943601720237657],[112.91867798219265,-6.8943601356675668],[112.91867801857211,-6.8943691765673982],[112.91868706523013,-6.894369140210979],[112.9186870288505,-6.8943600993111973]]],[[[112.91882265594809,-6.8943414721469694],[112.91881360929132,-6.8943415085058115],[112.91881368205524,-6.8943595903040418],[112.91882272871234,-6.8943595539451037],[112.91882276509456,-6.8943685948441642],[112.91884085840898,-6.8943685221256796],[112.91884078564394,-6.894350440327746],[112.9188226923302,-6.8943505130460379],[112.91882265594809,-6.8943414721469694]]],[[[112.91931128451552,-6.8943666312047425],[112.91931117534131,-6.8943395085153458],[112.91930212868716,-6.8943395448834304],[112.91930223786086,-6.8943666675729709],[112.91931128451552,-6.8943666312047425]]],[[[112.91928407176958,-6.8943486585156988],[112.91929311842399,-6.8943486221479082],[112.91929304564202,-6.894330540354793],[112.91928399898795,-6.8943305767224849],[112.91928403537874,-6.8943396176190852],[112.91927498872447,-6.8943396539866564],[112.91927506150586,-6.8943577357799768],[112.9192479215417,-6.8943578448819514],[112.91924795793194,-6.8943668857787497],[112.91925700458688,-6.894366849411548],[112.91925704097736,-6.8943758903083125],[112.91926608763244,-6.8943758539408915],[112.91926605124178,-6.8943668130441749],[112.91927509789663,-6.8943667766766312],[112.9192751706783,-6.8943848584699285],[112.91928421733344,-6.8943848221021167],[112.91928414455141,-6.8943667403089153],[112.91929319120617,-6.8943667039410297],[112.91929315481507,-6.8943576630444703],[112.91928410816048,-6.8943576994123088],[112.91928407176958,-6.8943486585156988]]],[[[112.91891312251313,-6.8943411085491419],[112.91891304974564,-6.8943230267519562],[112.91890400308971,-6.8943230631124131],[112.91890407585687,-6.8943411449096939],[112.91891312251313,-6.8943411085491419]]],[[[112.91894919998458,-6.8943138404100113],[112.91894916360026,-6.8943047995116018],[112.91894011694488,-6.8943048358726475],[112.91894015332902,-6.894313876771105],[112.91894919998458,-6.8943138404100113]]],[[[112.91861447369575,-6.8943151856564722],[112.91861443731779,-6.8943061447562828],[112.91862348397494,-6.8943061084014001],[112.9186234112188,-6.8942880266011075],[112.9186053179051,-6.8942880993105096],[112.91860542703836,-6.8943152220112331],[112.91861447369575,-6.8943151856564722]]],[[[112.91891294059477,-6.8942959040561522],[112.91891290421124,-6.8942868631575429],[112.918903857556,-6.8942868995178079],[112.91890389393936,-6.8942959404164652],[112.91891294059477,-6.8942959040561522]]],[[[112.91935587347746,-6.8942850825684117],[112.91935650300013,-6.8942658849998697],[112.91935931035435,-6.8942579456240658],[112.91934703443118,-6.8942579949746268],[112.91934714360613,-6.8942851176635598],[112.91935587347746,-6.8942850825684117]]],[[[112.91936571326056,-6.8942398377985397],[112.9193650549521,-6.8942398404450236],[112.91936506235116,-6.8942416786117198],[112.91936571326056,-6.8942398377985397]]],[[[112.91929264534464,-6.8942310904922772],[112.91929260895427,-6.8942220495956654],[112.9192745156502,-6.894222122329726],[112.91927455204024,-6.8942311632264337],[112.91929264534464,-6.8942310904922772]]],[[[112.91859601660684,-6.8942248493628036],[112.9185959802297,-6.8942158084624641],[112.91858693357409,-6.8942158448163529],[112.91858696995105,-6.8942248857167394],[112.91859601660684,-6.8942248493628036]]],[[[112.91923825626293,-6.8942041860019829],[112.91922016295898,-6.8942042587337982],[112.91922019934789,-6.8942132996307848],[112.91922924600007,-6.8942132632649153],[112.91922928238918,-6.8942223041618851],[112.91922023573686,-6.8942223405278034],[112.91922027212586,-6.8942313814248006],[112.91926550538797,-6.894231199593257],[112.91926546899809,-6.8942221586965005],[112.91925642234594,-6.8942221950631035],[112.9192563859563,-6.8942131541662794],[112.91923829265218,-6.8942132268988736],[112.91923825626293,-6.8942041860019829]]],[[[112.91856884026276,-6.8942159175236162],[112.91856876750965,-6.8941978357226903],[112.91854162754329,-6.8941979447820154],[112.9185416639193,-6.894206985682632],[112.91853261726359,-6.8942070220354461],[112.91853265363949,-6.8942160629360902],[112.91856884026276,-6.8942159175236162]]],[[[112.91918393996228,-6.8941953632981736],[112.9191477533537,-6.8941955087568187],[112.91914778974119,-6.894204549654213],[112.91915683639357,-6.8942045132897594],[112.91915687278129,-6.8942135541870853],[112.91917496608627,-6.8942134814575686],[112.91917500247438,-6.8942225223548279],[112.91918404912697,-6.8942224859897649],[112.91918393996228,-6.8941953632981736]]],[[[112.91898484083661,-6.8941780814903026],[112.91898480445235,-6.8941690405920486],[112.9189757577997,-6.8941690769530561],[112.91897579418379,-6.894178117851359],[112.91898484083661,-6.8941780814903026]]],[[[112.9193753176193,-6.8942126760602749],[112.91939132488223,-6.8941674064967424],[112.91937381046962,-6.8941674769067811],[112.91937391964464,-6.8941945995953562],[112.9193648729936,-6.8941946359638679],[112.91936494577685,-6.8942127177563224],[112.9193753176193,-6.8942126760602749]]],[[[112.91897557587998,-6.8941238724614102],[112.91896652922816,-6.8941239088220057],[112.91896656561184,-6.8941329497203752],[112.91895751895979,-6.894132986080848],[112.91895759172692,-6.8941510678777016],[112.91897568503167,-6.8941509951563917],[112.91897557587998,-6.8941238724614102]]],[[[112.91897557587998,-6.8941238724614102],[112.91898462253178,-6.8941238361006416],[112.91898458614781,-6.8941147952023334],[112.9189755394962,-6.8941148315630523],[112.91897557587998,-6.8941238724614102]]],[[[112.9191292961803,-6.8941051725100211],[112.91912024952963,-6.8941052088734303],[112.91912032230266,-6.894123290668591],[112.91913841560461,-6.8941232179414076],[112.91913837921774,-6.8941141770439174],[112.91912933256695,-6.8941142134075468],[112.9191292961803,-6.8941051725100211]]],[[[112.91900267945087,-6.8941147224803814],[112.9190026066824,-6.894096640683979],[112.91899356003124,-6.8940966770449439],[112.91899363279937,-6.8941147588414431],[112.91900267945087,-6.8941147224803814]]],[[[112.91920166938381,-6.8941048815965811],[112.91920163299584,-6.8940958406994373],[112.91918353969558,-6.8940959134287283],[112.91918357608321,-6.8941049543259671],[112.91920166938381,-6.8941048815965811]]],[[[112.91883068392089,-6.8940882906139311],[112.91882163726895,-6.8940883269715965],[112.91882171003047,-6.8941064087699315],[112.91883980333498,-6.8941063360542367],[112.91883976695384,-6.8940972951551682],[112.9188307203018,-6.894097331513052],[112.91883068392089,-6.8940882906139311]]],[[[112.91934627021885,-6.8940681361513203],[112.9193281769212,-6.8940682088857992],[112.91932821331143,-6.8940772497822804],[112.91933725996047,-6.8940772134150778],[112.91933729635092,-6.8940862543115076],[112.91934634300006,-6.8940862179440856],[112.91934627021885,-6.8940681361513203]]],[[[112.91884870446223,-6.8940701361000265],[112.91884866808113,-6.8940610952009918],[112.91883057477844,-6.8940611679165462],[112.91883061115921,-6.8940702088156778],[112.91884870446223,-6.8940701361000265]]],[[[112.91874911853476,-6.8940524542284871],[112.91872197857957,-6.8940525632957703],[112.91872201495823,-6.8940616041954996],[112.91874010826209,-6.8940615314840521],[112.91874014464115,-6.8940705723836668],[112.91873109798908,-6.8940706087395229],[112.91873117074699,-6.894088690538835],[112.9187221240945,-6.8940887268946165],[112.91872216047335,-6.8940977677943147],[112.91874930043112,-6.8940976587263112],[112.91874926405175,-6.8940886178267551],[112.91876735735634,-6.8940885451139922],[112.91876739373606,-6.8940975860134515],[112.91877644038846,-6.894097549656764],[112.91877636762875,-6.8940794678579422],[112.91874922767244,-6.8940795769271981],[112.91874911853476,-6.8940524542284871]]],[[[112.91885767835116,-6.8940520179439497],[112.91885764196998,-6.8940429770449709],[112.91884859531908,-6.8940430134029107],[112.91884863170007,-6.8940520543019357],[112.91885767835116,-6.8940520179439497]]],[[[112.91931913027231,-6.8940682452527824],[112.91931898471255,-6.8940320816666292],[112.9193099380643,-6.8940321180332482],[112.91931008362336,-6.8940682816195942],[112.91931913027231,-6.8940682452527824]]],[[[112.9193823476401,-6.8940408679917118],[112.91938231124902,-6.8940318270955032],[112.91937326460109,-6.8940318634633204],[112.91937330099199,-6.8940409043595752],[112.9193823476401,-6.8940408679917118]]],[[[112.91940044093614,-6.8940407952554654],[112.91940040454473,-6.8940317543593546],[112.9193913578969,-6.8940317907275155],[112.91939139428813,-6.8940408316236752],[112.91940044093614,-6.8940407952554654]]],[[[112.9186947658678,-6.8940345905618035],[112.9186947294898,-6.8940255496619374],[112.91866758953527,-6.8940256587257052],[112.91866762591275,-6.8940346996257178],[112.9186947658678,-6.8940345905618035]]],[[[112.91786243735073,-6.8940288935834664],[112.91786240098855,-6.8940198526791674],[112.91785335433276,-6.8940198890181339],[112.91785339069479,-6.89402892992248],[112.91786243735073,-6.8940288935834664]]],[[[112.91864949623199,-6.894025731434029],[112.9186494598549,-6.8940166905339169],[112.91863136655178,-6.8940167632414591],[112.91863140292853,-6.8940258041416689],[112.91864949623199,-6.894025731434029]]],[[[112.91784430767692,-6.8940199253569281],[112.91784427131512,-6.8940108844525145],[112.91783522465941,-6.8940109207910902],[112.91783526102105,-6.8940199616955535],[112.91784430767692,-6.8940199253569281]]],[[[112.91916511891168,-6.8940146180811412],[112.91916505846226,-6.8939995984272544],[112.91915564848026,-6.8940146561481725],[112.91916511891168,-6.8940146180811412]]],[[[112.91866751678045,-6.8940075769256524],[112.91866748040312,-6.8939985360256459],[112.918658433752,-6.8939985723797488],[112.91865847012917,-6.894007613279804],[112.91866751678045,-6.8940075769256524]]],[[[112.91918313943479,-6.8939964635588451],[112.91918312001101,-6.8939916374407098],[112.91916703100003,-6.8939964419999393],[112.91916697692785,-6.8939965285254505],[112.91918313943479,-6.8939964635588451]]],[[[112.91925544673779,-6.8939798039726359],[112.91924640108577,-6.8939800876950139],[112.91924642958334,-6.8939871681100922],[112.91923738293553,-6.8939872044751009],[112.91923745571174,-6.8940052862690706],[112.91925554900797,-6.894005213538688],[112.9192555126195,-6.8939961726418106],[112.91927360591521,-6.8939960999108409],[112.91927356952644,-6.8939870590140373],[112.91925547623109,-6.8939871317449111],[112.91925544673779,-6.8939798039726359]]],[[[112.91777178898705,-6.8939840524419749],[112.91774464902015,-6.8939841614526483],[112.91774468537993,-6.8939932023575858],[112.9177627786916,-6.8939931296838779],[112.91776281505176,-6.894002170588716],[112.91777186170768,-6.8940021342515578],[112.91777178898705,-6.8939840524419749]]],[[[112.91779896531433,-6.8939929843344112],[112.91779892895353,-6.8939839434297632],[112.91778988229809,-6.893983979767337],[112.91778991865873,-6.8939930206720348],[112.91779896531433,-6.8939929843344112]]],[[[112.91862213801799,-6.893971595093638],[112.91861309136716,-6.8939716314467407],[112.91861305499104,-6.8939625905464297],[112.91856782173704,-6.8939627723091359],[112.9185678581123,-6.8939718132096868],[112.91855881146117,-6.8939718495617619],[112.91855884783631,-6.8939808904623741],[112.91854980118498,-6.8939809268143266],[112.91854983755999,-6.8939899677149832],[112.91855888421149,-6.8939899313629827],[112.91855892058673,-6.8939989722635859],[112.91854987393505,-6.8939990086156362],[112.91854991031016,-6.8940080495162679],[112.91860419022053,-6.8940078314011171],[112.91860422659673,-6.8940168723014912],[112.91861327324847,-6.8940168359483174],[112.9186132368721,-6.8940077950479921],[112.91863133017507,-6.8940077223412306],[112.91863129379843,-6.8939986814410315],[112.91864034044968,-6.893998645087442],[112.91864026769618,-6.8939805632870961],[112.91862217439433,-6.8939806359939109],[112.91862213801799,-6.893971595093638]]],[[[112.91862213801799,-6.893971595093638],[112.91864023131949,-6.8939715223869182],[112.91864015856629,-6.8939534405865492],[112.91863111191589,-6.893953476939898],[112.91863107553952,-6.8939444360396616],[112.91862202888927,-6.893944472392791],[112.91862213801799,-6.893971595093638]]],[[[112.91858584228773,-6.8939446178035979],[112.91858580591226,-6.8939355769031163],[112.91856771261156,-6.8939356496073971],[112.91856774898667,-6.8939446905079755],[112.91858584228773,-6.8939446178035979]]],[[[112.91884266176152,-6.8939345447057496],[112.91883908715101,-6.8939283584032287],[112.91883911210185,-6.8939345589713037],[112.91884266176152,-6.8939345447057496]]],[[[112.91865810635969,-6.8939172042789609],[112.91864001306045,-6.8939172769857882],[112.91864004943683,-6.8939263178859704],[112.91863100278695,-6.8939263542391753],[112.91863103916322,-6.8939353951394198],[112.91864913246326,-6.8939353224327435],[112.91864916883991,-6.8939443633328885],[112.91865821549001,-6.8939443269792449],[112.91865817911319,-6.8939352860791479],[112.9186672257631,-6.8939352497253816],[112.91866718938616,-6.8939262088253299],[112.91865814273642,-6.8939262451790482],[112.91865810635969,-6.8939172042789609]]],[[[112.91868517355388,-6.8938990134174922],[112.9186670802556,-6.8938990861251517],[112.91866711663241,-6.8939081270252149],[112.91867616328173,-6.893908090671423],[112.91867619965875,-6.8939171315714507],[112.91868524630823,-6.8939170952174376],[112.91868517355388,-6.8938990134174922]]],[[[112.91868517355388,-6.8938990134174922],[112.91870326685195,-6.8938989407091444],[112.91870323047452,-6.8938898998092712],[112.91868513717679,-6.8938899725175213],[112.91868517355388,-6.8938990134174922]]],[[[112.91881186301589,-6.8939075453439873],[112.91881179025685,-6.8938894635453973],[112.91880274360859,-6.8938894999016611],[112.91880281636729,-6.8939075817003479],[112.91881186301589,-6.8939075453439873]]],[[[112.91667677991346,-6.8938980388775626],[112.91667674357444,-6.8938889979669113],[112.91666769691481,-6.8938890342827346],[112.91666773325368,-6.8938980751934347],[112.91667677991346,-6.8938980388775626]]],[[[112.91879369696028,-6.8938895362577552],[112.91879366058117,-6.8938804953583599],[112.91880270722933,-6.8938804590023146],[112.91880269706917,-6.8938779340187066],[112.91879723346241,-6.8938714399543519],[112.91877553090606,-6.8938715271704387],[112.91877560366355,-6.8938896089694284],[112.91879369696028,-6.8938895362577552]]],[[[112.91476786101266,-6.8938876158927958],[112.91476782470988,-6.8938785749719989],[112.91475877804034,-6.8938786112516111],[112.91475881434295,-6.8938876521724568],[112.91476786101266,-6.8938876158927958]]],[[[112.9185945615593,-6.8938632133471218],[112.91854932831423,-6.8938633951054706],[112.91854936468862,-6.8938724360061743],[112.91855841133788,-6.8938723996547981],[112.91855852046184,-6.8938995223567403],[112.91854947381205,-6.8938995587082603],[112.91854951018662,-6.8939085996089497],[112.91856760348652,-6.8939085269056415],[112.91856763986148,-6.8939175678062483],[112.91857668651151,-6.8939175314542895],[112.91857665013637,-6.8939084905537307],[112.91859474343597,-6.8939084178493975],[112.91859481618698,-6.8939264996502825],[112.91862195613705,-6.8939263905922088],[112.91862191976099,-6.8939173496919297],[112.9186128731112,-6.8939173860447429],[112.91861280035961,-6.8938993042440284],[112.91856756711159,-6.8938994860050498],[112.91856749436191,-6.8938814042038548],[112.91859463430984,-6.8938812951480433],[112.9185945615593,-6.8938632133471218]]],[[[112.91873029766502,-6.8938717089461434],[112.91873026128721,-6.8938626680464026],[112.91872121463901,-6.8938627044009815],[112.91872125101665,-6.8938717453007712],[112.91873029766502,-6.8938717089461434]]],[[[112.91543727812213,-6.8938758898056909],[112.9154372418067,-6.8938668488884449],[112.91542819514093,-6.8938668851806764],[112.91542823145618,-6.8938759260979685],[112.91543727812213,-6.8938758898056909]]],[[[112.91639618810294,-6.8938630009413933],[112.9163871414423,-6.8938630372517657],[112.91638721410916,-6.8938811190761626],[112.91640530743102,-6.8938810464550526],[112.91640527109723,-6.8938720055429528],[112.91639622443651,-6.8938720418535446],[112.91639618810294,-6.8938630009413933]]],[[[112.91869403831711,-6.8938537725637561],[112.91869407469417,-6.8938628134636932],[112.91870312134249,-6.8938627771096277],[112.91870308496526,-6.8938537362097385],[112.91869403831711,-6.8938537725637561]]],[[[112.91869403831711,-6.8938537725637561],[112.91869400194008,-6.8938447316637994],[112.91866686199583,-6.8938448407246824],[112.91866689837232,-6.8938538816247839],[112.91869403831711,-6.8938537725637561]]],[[[112.91450539867731,-6.8938615451668745],[112.91450532608201,-6.8938434633224883],[112.91448723274137,-6.8938435358712322],[112.914487305336,-6.8938616177158103],[112.91450539867731,-6.8938615451668745]]],[[[112.91459579278222,-6.8938431005685041],[112.91457769944256,-6.8938431731206702],[112.91457773574156,-6.8938522140424885],[112.91453250239073,-6.8938523954201489],[112.9145325386889,-6.8938614363421884],[112.91459586538096,-6.8938611824119294],[112.9145959016804,-6.8938702233336615],[112.91461399502089,-6.893870150780522],[112.91461395872111,-6.8938611098588858],[112.91460491205105,-6.8938611461354933],[112.91460487575149,-6.8938521052138384],[112.91459582908156,-6.8938521414902265],[112.91459579278222,-6.8938431005685041]]],[[[112.91734601449249,-6.8938411055855227],[112.91734597814107,-6.8938320646784081],[112.91732788483108,-6.8938321373346367],[112.91732792118215,-6.8938411782418481],[112.91734601449249,-6.8938411055855227]]],[[[112.91865777897134,-6.8938358361778471],[112.9186577425951,-6.8938267952777075],[112.91864869594721,-6.893826831630725],[112.91864873232328,-6.8938358725309126],[112.91865777897134,-6.8938358361778471]]],[[[112.91737308175382,-6.8938229147858054],[112.91736403509918,-6.8938229511144709],[112.91736421685816,-6.8938681556495469],[112.91737326351367,-6.8938681193206408],[112.9173732271616,-6.8938590784136817],[112.91738227381688,-6.8938590420846531],[112.91738223746469,-6.8938500011777197],[112.91737319080958,-6.8938500375067013],[112.91737308175382,-6.8938229147858054]]],[[[112.91863060265129,-6.8938269043362475],[112.91863056627561,-6.8938178634359577],[112.91862151962775,-6.8938178997884147],[112.91862155600326,-6.8938269406887507],[112.91863060265129,-6.8938269043362475]]],[[[112.91543709654553,-6.8938306852194264],[112.91543706023035,-6.8938216443021636],[112.91542801356543,-6.8938216805941535],[112.91542804988043,-6.893830721511466],[112.91543709654553,-6.8938306852194264]]],[[[112.91755401483665,-6.8938221881765518],[112.91755394212622,-6.8938041063645006],[112.91754489547286,-6.8938041426964922],[112.91754496818298,-6.893822224508642],[112.91755401483665,-6.8938221881765518]]],[[[112.91851292347614,-6.8938092951036198],[112.91851288710279,-6.8938002542026826],[112.91850384045465,-6.893800290552818],[112.91850387682783,-6.8938093314538031],[112.91851292347614,-6.8938092951036198]]],[[[112.91713779602226,-6.8938057774590069],[112.91713775967499,-6.8937967365507893],[112.91712871301958,-6.893796772874861],[112.91712874936667,-6.8938058137831266],[112.91713779602226,-6.8938057774590069]]],[[[112.91724635588541,-6.8938053415562264],[112.91724631953609,-6.8937963006485834],[112.91723727288128,-6.8937963369747086],[112.91723730923042,-6.8938053778823987],[112.91724635588541,-6.8938053415562264]]],[[[112.91716486329319,-6.8937875866694531],[112.91714676998295,-6.8937876593183569],[112.91714680633035,-6.8937967002265461],[112.91715585298567,-6.8937966639021324],[112.91715588933329,-6.893805704810255],[112.91716493598871,-6.8938056684856219],[112.91716486329319,-6.8937875866694531]]],[[[112.91718299295131,-6.8937965549278655],[112.91718295660323,-6.8937875140198672],[112.91717390994822,-6.8937875503447454],[112.91717394629613,-6.8937965912527925],[112.91718299295131,-6.8937965549278655]]],[[[112.91732766672573,-6.8937778918912942],[112.91728243345503,-6.8937780735274297],[112.91728246980493,-6.8937871144349021],[112.91725532984142,-6.893787223414674],[112.91725540254038,-6.8938053052298809],[112.91726444919526,-6.8938052689033658],[112.91726448554499,-6.8938143098109421],[112.91727353220001,-6.8938142734842058],[112.91727356854996,-6.8938233143917129],[112.91728261520508,-6.893823278064759],[112.91728268790546,-6.8938413598796657],[112.91730078121628,-6.8938412872250527],[112.91730074486573,-6.8938322463176966],[112.91730979152088,-6.8938322099901814],[112.91730975517021,-6.8938231690828715],[112.91733689513491,-6.8938230600994421],[112.91733682243269,-6.8938049782850808],[112.91732777577819,-6.8938050146129646],[112.91732766672573,-6.8937778918912942]],[[112.9172825061549,-6.8937961553423719],[112.91729155280947,-6.8937961190153914],[112.91729158915966,-6.8938051599227927],[112.91728254250491,-6.8938051962498204],[112.9172825061549,-6.8937961553423719]]],[[[112.91750856344217,-6.89376812439769],[112.91748142348334,-6.8937682333900101],[112.91748145983698,-6.8937772742964292],[112.91747241318375,-6.8937773106269082],[112.91747244953726,-6.8937863515333726],[112.91745435623035,-6.8937864241939115],[112.91745442893682,-6.8938045060070046],[112.91746347559067,-6.8938044696767236],[112.91746354829768,-6.8938225514897367],[112.9174725949518,-6.8938225151591883],[112.91747263130556,-6.893831556065634],[112.91749072461398,-6.8938314834039272],[112.91749079732232,-6.8938495652165983],[112.91750889063125,-6.8938494925540148],[112.91750892698583,-6.893858533460274],[112.91753606694937,-6.8938584244649714],[112.91753603059426,-6.8938493835588579],[112.9175541239027,-6.893849310894562],[112.91755405119196,-6.893831229082565],[112.91754500453808,-6.8938312654147023],[112.91754504089327,-6.8938403063207581],[112.91753599423922,-6.893840342652771],[112.9175359578842,-6.8938313017466673],[112.91752691123027,-6.8938313380784617],[112.91752680216607,-6.8938042153599648],[112.91751775551258,-6.8938042516914422],[112.91751768280369,-6.893786169879025],[112.9175086361505,-6.893786206210236],[112.91750856344217,-6.89376812439769]]],[[[112.9175266931023,-6.8937770926414679],[112.91752665674781,-6.8937680517352877],[112.917517610095,-6.893768088066575],[112.91751764644931,-6.8937771289728014],[112.9175266931023,-6.8937770926414679]]],[[[112.91858515116243,-6.8937728406938303],[112.9185851147879,-6.8937637997932812],[112.91857606814082,-6.8937638361445925],[112.91857610451518,-6.8937728770451905],[112.91858515116243,-6.8937728406938303]]],[[[112.91474929574515,-6.8937701564800831],[112.91474922314156,-6.8937520746381828],[112.91474017647428,-6.8937521109167825],[112.91474024907752,-6.8937701927587778],[112.91474929574515,-6.8937701564800831]]],[[[112.91639571577096,-6.8937454690830879],[112.9163957521039,-6.8937545099952864],[112.91640479876239,-6.8937544736853198],[112.91640476242929,-6.8937454327731675],[112.91639571577096,-6.8937454690830879]]],[[[112.91644094906215,-6.8937452875317788],[112.91644098539595,-6.8937543284437384],[112.9164500320542,-6.8937542921329147],[112.91644999572024,-6.8937452512210049],[112.91644094906215,-6.8937452875317788]]],[[[112.91649530167965,-6.8937631514879154],[112.91649522900997,-6.8937450696645612],[112.91648618235212,-6.8937451059761923],[112.91648621868677,-6.8937541468879111],[112.91647717202869,-6.8937541831994187],[112.91647720836322,-6.8937632241111979],[112.91649530167965,-6.8937631514879154]]],[[[112.91854881907805,-6.8937368224952511],[112.91853977243127,-6.8937368588457328],[112.91853999067315,-6.8937911042504894],[112.9185580839687,-6.8937910315487745],[112.91855801122053,-6.8937729497473965],[112.91856705786788,-6.8937729133963792],[112.91856698511957,-6.8937548315951007],[112.91855793847255,-6.8937548679460203],[112.91855790209863,-6.8937458270453034],[112.91854885545175,-6.8937458633960054],[112.91854881907805,-6.8937368224952511]]],[[[112.91425165636979,-6.8937540697069171],[112.91425162007749,-6.8937450287833304],[112.9142335267379,-6.8937451013214321],[112.91423356302985,-6.8937541422451156],[112.91425165636979,-6.8937540697069171]]],[[[112.91644094906215,-6.8937452875317788],[112.91644091272842,-6.8937362466198175],[112.91642281941242,-6.8937363192407588],[112.91642285574582,-6.8937453601528178],[112.91644094906215,-6.8937452875317788]]],[[[112.91639571577096,-6.8937454690830879],[112.91639564310523,-6.8937273872586795],[112.91638659644718,-6.8937274235683308],[112.91638663277985,-6.8937364644805852],[112.91636853946329,-6.8937365370994721],[112.91636857579567,-6.8937455780118189],[112.91639571577096,-6.8937454690830879]]],[[[112.9175264749761,-6.8937228472043426],[112.91751742832415,-6.8937228835353892],[112.91751753738652,-6.8937500062541108],[112.91752658403898,-6.8937499699229203],[112.91752654768463,-6.8937409290167313],[112.91753559433687,-6.8937408926854182],[112.9175355579824,-6.8937318517792727],[112.91752651133035,-6.8937318881105405],[112.9175264749761,-6.8937228472043426]]],[[[112.91642278307907,-6.8937272783286963],[112.91642274674577,-6.893718237416647],[112.91641370008803,-6.8937182737267655],[112.91641373642116,-6.8937273146388618],[112.91642278307907,-6.8937272783286963]]],[[[112.91711933924394,-6.8937154410236312],[112.91709219928191,-6.8937155499930061],[112.91709223562789,-6.8937245909014981],[112.91707414231927,-6.8937246635469887],[112.91707417866495,-6.8937337044555891],[112.91708322531946,-6.8937336681328825],[112.9170833343573,-6.8937607908585345],[112.91710142766719,-6.8937607182123184],[112.91710150036002,-6.8937788000291809],[112.9171467336356,-6.8937786184101606],[112.91714666094107,-6.8937605365937795],[112.9171557075957,-6.8937605002695568],[112.91715567124834,-6.8937514593613836],[112.91714662459387,-6.8937514956855566],[112.91714655189962,-6.8937334138691346],[112.91712845859124,-6.8937334865167754],[112.91712842224453,-6.8937244456084628],[112.91711937559045,-6.8937244819319785],[112.91711933924394,-6.8937154410236312]]],[[[112.91852164276447,-6.893727890645283],[112.91852157001836,-6.8937098088434867],[112.91849443007901,-6.8937099178924477],[112.9184945028241,-6.8937279996945335],[112.91852164276447,-6.893727890645283]]],[[[112.91407061409519,-6.8937276722844549],[112.91407057780648,-6.8937186313598806],[112.91406153113626,-6.8937186676254489],[112.91406156742481,-6.893727708550073],[112.91407061409519,-6.8937276722844549]]],[[[112.91423345415413,-6.8937270194740723],[112.91423341786232,-6.8937179785503613],[112.91422437119297,-6.8937180148190107],[112.91422440748461,-6.8937270557427706],[112.91423345415413,-6.8937270194740723]]],[[[112.91649512000579,-6.893717946929546],[112.91649508367118,-6.8937089060178449],[112.91648603701402,-6.8937089423292832],[112.91648607334847,-6.8937179832410331],[112.91649512000579,-6.893717946929546]]],[[[112.91847637315807,-6.893719031492032],[112.9184763367859,-6.8937099905908994],[112.91848538343248,-6.8937099542417597],[112.91848534706018,-6.8937009133406386],[112.91846725376728,-6.8937009860386516],[112.91846732651125,-6.8937190678410492],[112.91847637315807,-6.893719031492032]]],[[[112.91408863485778,-6.8937095179037629],[112.9140886711468,-6.893718558828227],[112.91409771781689,-6.8937185225621445],[112.91409768152768,-6.8937094816377265],[112.91408863485778,-6.8937095179037629]]],[[[112.91543673339599,-6.8937402760466284],[112.91543658813755,-6.8937041123774083],[112.91542754147486,-6.8937041486687765],[112.91542768673263,-6.8937403123381866],[112.91543673339599,-6.8937402760466284]]],[[[112.91826815479637,-6.8936837038670822],[112.91826808206032,-6.8936656220625379],[112.9182590354134,-6.8936656584073299],[112.9182591081491,-6.8936837402119684],[112.91826815479637,-6.8936837038670822]]],[[[112.91396183632786,-6.8936738619096936],[112.91396187261428,-6.8936829028348452],[112.91397091928437,-6.8936828665713508],[112.91397088299776,-6.8936738256462471],[112.91396183632786,-6.8936738619096936]]],[[[112.91540933920753,-6.8936770984986069],[112.91540930289369,-6.8936680575811389],[112.91539120956932,-6.8936681301622871],[112.9153912458828,-6.8936771710798528],[112.91540933920753,-6.8936770984986069]]],[[[112.91546358286564,-6.8936678398335838],[112.91545453620377,-6.8936678761252708],[112.91545457251846,-6.893676917042499],[112.91546361918049,-6.893676880750764],[112.91546358286564,-6.8936678398335838]]],[[[112.91396183632786,-6.8936738619096936],[112.91396180004148,-6.8936648209845375],[112.91395275337167,-6.8936648572477655],[112.91395278965788,-6.8936738981729686],[112.91396183632786,-6.8936738619096936]]],[[[112.91530978960726,-6.8936684567689861],[112.91530975329536,-6.8936594158509861],[112.91530070663283,-6.8936594521397154],[112.91530074294455,-6.8936684930577634],[112.91530978960726,-6.8936684567689861]]],[[[112.91535502292001,-6.8936682753225318],[112.91535498660726,-6.8936592344047707],[112.91533689328264,-6.8936593069837695],[112.91533692959506,-6.8936683479016265],[112.91535502292001,-6.8936682753225318]]],[[[112.91626869924643,-6.8936555682750722],[112.91626880823674,-6.8936826910137841],[112.91625071492095,-6.8936827636276448],[112.9162507512508,-6.8936918045406363],[112.91624170459268,-6.8936918408473584],[112.91624174092239,-6.8937008817603971],[112.91625983423897,-6.8937008091466874],[112.91625979790889,-6.8936917682337446],[112.91629598454075,-6.8936916230044627],[112.91629583921821,-6.8936554593534298],[112.91626869924643,-6.8936555682750722]],[[112.91627781856425,-6.8936736137937453],[112.91628686522185,-6.8936735774864362],[112.91628690155233,-6.8936826183992386],[112.91627785489457,-6.8936826547065975],[112.91627781856425,-6.8936736137937453]]],[[[112.91395275337167,-6.8936648572477655],[112.91395271708552,-6.8936558163225401],[112.91394367041586,-6.8936558525855496],[112.91394370670184,-6.8936648935108211],[112.91395275337167,-6.8936648572477655]]],[[[112.91396180004148,-6.8936648209845375],[112.91397084671121,-6.8936647847211381],[112.91397081042471,-6.8936557437960104],[112.91396176375515,-6.8936557800593627],[112.91396180004148,-6.8936648209845375]]],[[[112.91408863485778,-6.8937095179037629],[112.91408856227989,-6.8936914360548203],[112.91411570228846,-6.893691327256489],[112.91411566599906,-6.8936822863321563],[112.914088525991,-6.8936823951303428],[112.91408848970218,-6.8936733542058626],[112.9140975363714,-6.8936733179400198],[112.91409746379357,-6.8936552360911278],[112.91408841712467,-6.8936552723568747],[112.9140884534134,-6.8936643132813789],[112.91407940674431,-6.8936643495470031],[112.91407958818782,-6.8937095541696269],[112.91408863485778,-6.8937095179037629]]],[[[112.91561730347453,-6.8936491410159633],[112.9156172671569,-6.8936401000996055],[112.9156082204964,-6.8936401363940583],[112.91560825681384,-6.8936491773104631],[112.91561730347453,-6.8936491410159633]]],[[[112.91395268079941,-6.8936467753973467],[112.91395264451336,-6.893637734472132],[112.91394359784404,-6.8936377707350447],[112.91394363412992,-6.8936468116603073],[112.91395268079941,-6.8936467753973467]]],[[[112.91569865078034,-6.8936307325258852],[112.91567151080044,-6.8936308414132057],[112.91567161975638,-6.8936579641614655],[112.91565352643519,-6.8936580367524458],[112.9156535627536,-6.8936670776686215],[112.91569879605709,-6.8936668961896483],[112.91569883237639,-6.8936759371055789],[112.9157078790371,-6.8936759008092228],[112.91570773375948,-6.8936397371456675],[112.91569868709945,-6.8936397734418318],[112.91569865078034,-6.8936307325258852]]],[[[112.91626869924643,-6.8936555682750722],[112.91626866291644,-6.8936465273621437],[112.91625056960201,-6.8936465999756189],[112.91625053327242,-6.8936375590626247],[112.91624148661531,-6.8936375953690572],[112.91624137762727,-6.8936104726298577],[112.91623233097064,-6.8936105089359749],[112.91623236729977,-6.8936195498490944],[112.916205227329,-6.8936196587665632],[112.91620529998637,-6.8936377405930784],[112.91619625332902,-6.8936377768986548],[112.91619628965761,-6.8936468178119377],[112.91620533631513,-6.8936467815063125],[112.91620537264393,-6.8936558224195785],[112.91622346595918,-6.8936557498077171],[112.91622342963004,-6.8936467088945479],[112.91624152294474,-6.8936466362820994],[112.91624159560376,-6.8936647181082229],[112.91625064226139,-6.8936646818016465],[112.91625067859114,-6.8936737227146478],[112.91625972524889,-6.8936736864078512],[112.91625965258909,-6.8936556045819417],[112.91626869924643,-6.8936555682750722]]],[[[112.9140973912159,-6.8936371542422545],[112.91409735492715,-6.8936281133178046],[112.91410640159549,-6.8936280770520302],[112.91410632901778,-6.8936099952031986],[112.91408823568176,-6.8936100677343832],[112.91408834454737,-6.8936371905079055],[112.9140973912159,-6.8936371542422545]]],[[[112.91682937386415,-6.8935990714551254],[112.9168112805575,-6.8935991440893423],[112.91681135323762,-6.8936172259094475],[112.91680230658386,-6.8936172622263951],[112.91680234292382,-6.8936263031364824],[112.91679329626986,-6.8936263394533066],[112.9167933326097,-6.8936353803634383],[112.91680237926383,-6.8936353440465652],[112.91680241560388,-6.8936443849566267],[112.91682050891235,-6.8936443123222704],[112.9168205452528,-6.8936533532322661],[112.91679340528952,-6.8936534621836882],[112.91679355064976,-6.8936896258241465],[112.91680259730489,-6.8936895895069856],[112.91680248828415,-6.8936624667767905],[112.91681153493876,-6.8936624304596021],[112.91681168030054,-6.8936985940996625],[112.91682977361094,-6.8936985214643851],[112.91682973727008,-6.8936894805544728],[112.91683878392506,-6.8936894442366263],[112.91683874758407,-6.8936804033267576],[112.91682970092927,-6.8936804396445561],[112.91682966458851,-6.8936713987346367],[112.91683871124314,-6.8936713624168853],[112.91683867490225,-6.8936623215070112],[112.91684772155665,-6.8936622851891363],[112.91684750351132,-6.8936080397300925],[112.91682941020451,-6.893608112365091],[112.91682937386415,-6.8935990714551254]]],[[[112.91722746290901,-6.8936065142369847],[112.9172274265611,-6.8935974733291356],[112.91721837990993,-6.8935975096538602],[112.91721841625768,-6.8936065505617599],[112.91722746290901,-6.8936065142369847]]],[[[112.91417866606973,-6.8936006641476002],[112.91414247939976,-6.8936008092145702],[112.91414251568921,-6.8936098501387741],[112.91415156235696,-6.8936098138722413],[112.91415159864664,-6.8936188547964257],[112.91417873865008,-6.8936187459956546],[112.91417866606973,-6.8936006641476002]]],[[[112.91440483273942,-6.8935997574169932],[112.91438673940696,-6.8935998299593786],[112.91438681199519,-6.8936179118052259],[112.91439585866178,-6.8936178755340221],[112.91439589495613,-6.893626916456892],[112.91441398828951,-6.8936268439138768],[112.91441395199482,-6.8936178029911019],[112.91440490532834,-6.8936178392626468],[112.91440483273942,-6.8935997574169932]]],[[[112.91613281774431,-6.8936109082919739],[112.91613274509,-6.89359282646467],[112.91612369843311,-6.8935928627686369],[112.91612373476008,-6.8936019036823231],[112.91611468810298,-6.8936019399861674],[112.91611472442983,-6.8936109808999309],[112.91613281774431,-6.8936109082919739]]],[[[112.91619625332902,-6.8936377768986548],[112.916196180672,-6.8936196950720445],[112.91616904070068,-6.8936198039874617],[112.91616896804489,-6.8936017221605317],[112.91615992138803,-6.8936017584652323],[112.91615988506038,-6.8935927175517406],[112.91615083840362,-6.8935927538562201],[112.91615098371385,-6.8936289175104308],[112.91616907702866,-6.8936288449009142],[112.91616914968475,-6.8936469267277865],[112.91618724300004,-6.8936468541173914],[112.91618720667162,-6.8936378132040614],[112.91619625332902,-6.8936377768986548]]],[[[112.91477570971034,-6.8935892292263699],[112.914775673409,-6.8935801883055019],[112.91476662674512,-6.8935802245837001],[112.91476666304631,-6.8935892655046169],[112.91477570971034,-6.8935892292263699]]],[[[112.91615080207619,-6.8935837129426591],[112.91615076574881,-6.8935746720290938],[112.91614171909237,-6.8935747083333077],[112.91614175541957,-6.8935837492469227],[112.91615080207619,-6.8935837129426591]]],[[[112.91464902011049,-6.8935806961847161],[112.91464898381159,-6.8935716552631732],[112.91463993714721,-6.893571691538928],[112.91463997344596,-6.8935807324605198],[112.91464902011049,-6.8935806961847161]]],[[[112.91568938620777,-6.8935765233257902],[112.91568934988916,-6.8935674824097708],[112.9156803032304,-6.8935675187052077],[112.91568033954884,-6.8935765596212759],[112.91568938620777,-6.8935765233257902]]],[[[112.91586127271829,-6.8935758336790505],[112.91586123639644,-6.8935667927639441],[112.91585218973859,-6.8935668290626335],[112.91585222606027,-6.8935758699777878],[112.91586127271829,-6.8935758336790505]]],[[[112.91415138090929,-6.8935646092513734],[112.91412424090849,-6.893564718049741],[112.91412427719742,-6.893573758974056],[112.91413332386456,-6.893573722708056],[112.9141333601537,-6.8935827636323364],[112.9141243134864,-6.8935827998983843],[112.91412434977542,-6.8935918408227081],[112.91414244311034,-6.8935917682903467],[112.91414240682097,-6.8935827273661179],[112.91416050015538,-6.8935826548331667],[112.91416046386571,-6.8935736139090311],[112.91415141719872,-6.8935736501755436],[112.91415138090929,-6.8935646092513734]]],[[[112.91563506993586,-6.8935677001798279],[112.91563514257105,-6.8935857820124387],[112.91564418923039,-6.8935857457177603],[112.91564422554825,-6.8935947866340133],[112.91565327220773,-6.8935947503391164],[112.91565323588972,-6.8935857094229123],[112.91566228254896,-6.8935856731278919],[112.91566224623082,-6.8935766322117331],[112.91567129288984,-6.8935765959165902],[112.91567122025337,-6.893558514084372],[112.91564408027716,-6.8935586229689996],[112.91564411659486,-6.8935676638852454],[112.91563506993586,-6.8935677001798279]]],[[[112.91598785327683,-6.8935572436499069],[112.91598788960103,-6.8935662845643257],[112.91599693625813,-6.8935662482630695],[112.91599689993376,-6.8935572073486986],[112.91598785327683,-6.8935572436499069]]],[[[112.9164854556694,-6.8935642877410706],[112.91648541933579,-6.8935552468292922],[112.91647637268147,-6.8935552831397429],[112.91647640901492,-6.8935643240515683],[112.9164854556694,-6.8935642877410706]]],[[[112.91793291975607,-6.8935584758569277],[112.91793288339505,-6.8935494349528446],[112.91792383674857,-6.8935494712906786],[112.91792387310943,-6.8935585121948106],[112.91793291975607,-6.8935584758569277]]],[[[112.91397044756238,-6.8935653345447312],[112.9139704112764,-6.8935562936195636],[112.91396136460872,-6.8935563298823856],[112.91396140089452,-6.8935653708076012],[112.91397044756238,-6.8935653345447312]]],[[[112.91441373422765,-6.893563557454403],[112.91441369793328,-6.8935545165315872],[112.91439560460265,-6.8935545890738341],[112.91439564089666,-6.8935636299967449],[112.91441373422765,-6.893563557454403]]],[[[112.91463081788581,-6.893553645971223],[112.91463085418427,-6.8935626868928859],[112.91463990084853,-6.8935626506173513],[112.9146398645499,-6.8935536096957355],[112.91463081788581,-6.893553645971223]]],[[[112.9150560110448,-6.8935519408382797],[112.91505466470851,-6.8935519462380288],[112.91505386100027,-6.8935538319999434],[112.91504696623738,-6.893552438907081],[112.9150470006893,-6.8935610180410958],[112.91505604735131,-6.8935609817576857],[112.9150560110448,-6.8935519408382797]]],[[[112.91598785327683,-6.8935572436499069],[112.91598781695266,-6.893548202735448],[112.91597877029587,-6.8935482390364369],[112.91597880661985,-6.8935572799509428],[112.91598785327683,-6.8935572436499069]]],[[[112.91418756757631,-6.893564464184486],[112.9141874949962,-6.893546382336468],[112.91417844832988,-6.8935464186033499],[112.91417852090963,-6.8935645004514647],[112.91418756757631,-6.893564464184486]]],[[[112.91589731405996,-6.893539524822712],[112.91587922074565,-6.8935395974210012],[112.91587929338979,-6.8935576792510549],[112.91588834004733,-6.893557642951901],[112.91588830372505,-6.8935486020369146],[112.91589735038235,-6.8935485657376372],[112.91589731405996,-6.893539524822712]]],[[[112.91608729384839,-6.8935387624993556],[112.91607824719229,-6.8935387988021803],[112.91607831984398,-6.893556880630122],[112.91608736650041,-6.8935568443272004],[112.91608729384839,-6.8935387624993556]]],[[[112.91500084964093,-6.8935431210056448],[112.91497453300585,-6.8935378037026434],[112.91497455478159,-6.8935432264625414],[112.91500084964093,-6.8935431210056448]]],[[[112.91444080163407,-6.8935453667942745],[112.91444076533929,-6.8935363258716125],[112.91443171867449,-6.8935363621432391],[112.91443175496909,-6.8935454030659482],[112.91444080163407,-6.8935453667942745]]],[[[112.91589731405996,-6.893539524822712],[112.91590636071706,-6.8935394885233112],[112.91590632439454,-6.8935304476084305],[112.9158972777376,-6.8935304839077833],[112.91589731405996,-6.893539524822712]]],[[[112.91608729384839,-6.8935387624993556],[112.91609634050445,-6.8935387261963603],[112.91609630417834,-6.8935296852824894],[112.91608725752245,-6.8935297215854368],[112.91608729384839,-6.8935387624993556]]],[[[112.91506498509335,-6.893533822716055],[112.91506496085955,-6.8935277881046488],[112.9150623844742,-6.8935338331463729],[112.91506498509335,-6.893533822716055]]],[[[112.91391605869984,-6.8935384293430442],[112.91391602241505,-6.8935293884175932],[112.91390697574757,-6.8935294246792456],[112.9139070120322,-6.8935384656047445],[112.91391605869984,-6.8935384293430442]]],[[[112.91749849889776,-6.8935150153501361],[112.91747135895318,-6.8935151243379034],[112.91747139530527,-6.8935241652444708],[112.91748948860206,-6.893524092586035],[112.91748956130708,-6.8935421743989673],[112.91748051465837,-6.8935422107283664],[112.91748047830602,-6.893533169821854],[112.91743524506259,-6.8935333514660444],[112.91743528141409,-6.8935423923727983],[112.91742623476507,-6.8935424287011706],[112.91742630746789,-6.8935605105147619],[112.91740821416906,-6.8935605831711868],[112.9174082505202,-6.8935696240780739],[112.91739015722084,-6.89356969673391],[112.91739012087002,-6.8935606558269278],[112.9173448876216,-6.8935608374632817],[112.91734492397153,-6.8935698783705046],[112.91733587732152,-6.893569914697312],[112.91733595002121,-6.8935879965118421],[112.91734499667157,-6.8935879601849415],[112.91734506937179,-6.8936060419993623],[112.91733602272109,-6.8936060783263589],[112.9173360590711,-6.8936151192336128],[112.91734510572198,-6.8936150829065665],[112.91734514207222,-6.8936241238137681],[112.91735418872319,-6.8936240874865025],[112.91735429777469,-6.8936512102079428],[112.91736334442616,-6.8936511738803619],[112.91736341712775,-6.8936692556945385],[112.91740865038595,-6.8936690740535864],[112.91740872308947,-6.8936871558672692],[112.91742681639309,-6.8936870832094996],[112.91742685274527,-6.8936961241162393],[112.91743589939719,-6.8936960877870481],[112.91743593574958,-6.8937051286937363],[112.91745402905359,-6.8937050560347464],[112.91745399270086,-6.8936960151281541],[112.91747208600435,-6.8936959424685744],[112.91747215871054,-6.8937140242815822],[112.91748120536256,-6.893713987951438],[112.91748116900928,-6.8937049470449772],[112.91749021566106,-6.8937049107147121],[112.91749017930765,-6.8936958698083117],[112.91750827261075,-6.8936957971473651],[112.9175083089645,-6.893704838053667],[112.91751735561614,-6.8937048017228886],[112.9175173192622,-6.8936957608166329],[112.91752636591366,-6.8936957244857311],[112.91752632955961,-6.8936866835795199],[112.91753537621079,-6.8936866472484954],[112.91753541256502,-6.8936956881546578],[112.91754445921634,-6.8936956518234158],[112.91754442286195,-6.8936866109172996],[112.91755346951308,-6.8936865745859324],[112.91755343315856,-6.8936775336798624],[112.91756247980943,-6.8936774973483717],[112.91756240710021,-6.8936594155363178],[112.91755336044967,-6.8936594518677108],[112.91755328774099,-6.8936413700555281],[112.91757138104136,-6.8936412973927617],[112.91757130833217,-6.8936232155807904],[112.91758035498194,-6.8936231792492473],[112.91758031862724,-6.8936141383432963],[112.91757127197765,-6.8936141746747923],[112.91757123562319,-6.893605133768788],[112.9175621889737,-6.8936051701000647],[112.917562225328,-6.893614211006116],[112.91754413202857,-6.8936142836682528],[112.91754416838256,-6.8936233245743965],[112.91753512173263,-6.8936233609052566],[112.91753508537879,-6.893614319999064],[112.91752603872897,-6.8936143563297039],[112.91752600237535,-6.8936053154234598],[112.91751695572562,-6.8936053517538829],[112.91751691937223,-6.8935963108475704],[112.91750787272265,-6.8935963471777715],[112.91750783636948,-6.893587306271443],[112.91751688301889,-6.8935872699412881],[112.91751684666561,-6.8935782290349854],[112.91750780001635,-6.8935782653650914],[112.91750772731027,-6.8935601835523794],[112.9175529605543,-6.8935600019006227],[112.91755292420048,-6.8935509609945189],[112.91756197084895,-6.8935509246637015],[112.917561934495,-6.8935418837576075],[112.9175800277915,-6.893541811095556],[112.91757999143725,-6.8935327701895721],[112.91751666489986,-6.8935330245034203],[112.91751662854686,-6.8935239835970972],[112.91749853525037,-6.8935240562565596],[112.91749849889776,-6.8935150153501361]],[[112.91744436441476,-6.893551396950973],[112.91746245771287,-6.8935513242932744],[112.91746249406499,-6.8935603651998587],[112.91744440076654,-6.8935604378576532],[112.91744436441476,-6.893551396950973]],[[112.917435717636,-6.8936508832535548],[112.91746285758887,-6.8936507742656774],[112.91746289394152,-6.8936598151722404],[112.91747194059256,-6.8936597788425562],[112.91747201329835,-6.8936778606555729],[112.91746296664699,-6.893677896985352],[112.91746293029423,-6.893668856078798],[112.91743579034032,-6.8936689650669623],[112.917435717636,-6.8936508832535548]]],[[[112.916069127885,-6.893520753276797],[112.91606909155949,-6.8935117123627752],[112.91606004490379,-6.8935117486651123],[112.91606008122912,-6.8935207895791821],[112.916069127885,-6.893520753276797]]],[[[112.91475739857688,-6.8935350562568587],[112.91476644523993,-6.8935350199790708],[112.9147663726382,-6.8935169381371937],[112.91477541930088,-6.8935169018593303],[112.91477540239548,-6.8935126914939442],[112.91475730506018,-6.8935117653121765],[112.9147573259755,-6.8935169744148848],[112.91474827931275,-6.8935170106924071],[112.91474831561324,-6.893526051613442],[112.91473926895026,-6.89352608789084],[112.91473930525062,-6.893535128811922],[112.91474835191379,-6.8935350925344752],[112.91474838821439,-6.8935441334555048],[112.91472124822427,-6.893544242287474],[112.91472121192417,-6.8935352013662996],[112.91471216526088,-6.8935352376432313],[112.9147122015608,-6.8935442785644536],[112.91468506157011,-6.8935443873943667],[112.9146850252707,-6.8935353464730014],[112.91466693194367,-6.8935354190253246],[112.91466696824273,-6.8935444599467868],[112.91467601490643,-6.8935444236706616],[112.9146760512057,-6.8935534645920722],[112.91468509786955,-6.8935534283157276],[112.9146851704686,-6.8935715101584414],[112.91477563710768,-6.8935711473846304],[112.91477556450522,-6.8935530655428785],[112.91476651784185,-6.8935531018209337],[112.91476648154088,-6.8935440609000045],[112.91475743487766,-6.8935440971778403],[112.91475739857688,-6.8935350562568587]]],[[[112.91405164984657,-6.8935107626228076],[112.91402450984727,-6.8935108714146622],[112.91402458242079,-6.8935289532644211],[112.91401553575393,-6.8935289895281269],[112.91401560832733,-6.8935470713779665],[112.91399751499274,-6.8935471439050584],[112.91399758756565,-6.8935652257550917],[112.91398854089795,-6.893565262018476],[112.91398872233022,-6.8936104666436631],[112.91400681566729,-6.8936103941162443],[112.91400685195423,-6.8936194350411988],[112.91403399196003,-6.8936193262486425],[112.91403395567256,-6.893610285323831],[112.91404300234088,-6.8936102490593507],[112.9140429660533,-6.8936012081346183],[112.91403391938516,-6.8936012443990506],[112.9140338830978,-6.8935922034742489],[112.91404292976577,-6.8935921672098663],[112.91404285719086,-6.8935740853603491],[112.91403381052322,-6.8935741216246376],[112.91403377423602,-6.8935650806998447],[112.91404282090346,-6.8935650444356042],[112.91404271204162,-6.8935379216612747],[112.91405175870851,-6.8935378853970075],[112.91405172242115,-6.8935288444722769],[112.91406076908784,-6.8935288082078872],[112.91406073280035,-6.8935197672832018],[112.91405168613383,-6.8935198035475436],[112.91405164984657,-6.8935107626228076]]],[[[112.91425067649485,-6.8935099647687972],[112.91424162982953,-6.8935100010366863],[112.9142416661204,-6.8935190419604142],[112.91422357278927,-6.8935191144957741],[112.91422353649874,-6.8935100735719486],[112.91419639650221,-6.8935101823735607],[112.91419646908226,-6.8935282642214943],[112.914214562414,-6.8935281916870652],[112.91421459870445,-6.8935372326109325],[112.91423269203636,-6.8935371600757236],[112.91423272832721,-6.8935462009994906],[112.91424177499326,-6.8935461647315792],[112.91424184757541,-6.8935642465790217],[112.91425994090805,-6.8935641740424982],[112.91425979574257,-6.8935280103479997],[112.91425074907696,-6.8935280466161553],[112.91425067649485,-6.8935099647687972]]],[[[112.91746231230489,-6.8935151606668157],[112.91746223960118,-6.8934970788535734],[112.91745319295318,-6.8934971151822184],[112.91745326565653,-6.8935151969955575],[112.91746231230489,-6.8935151606668157]]],[[[112.91764317255095,-6.893496352244715],[112.91760698596255,-6.8934964975719648],[112.91760702231711,-6.8935055384778172],[112.91762511561176,-6.8935054658144388],[112.91762515196672,-6.8935145067201926],[112.9176432452615,-6.8935144340560353],[112.91764317255095,-6.893496352244715]]],[[[112.9138255920213,-6.8935387919523405],[112.91382555573821,-6.8935297510264109],[112.91384364907395,-6.8935296785060167],[112.91384361279057,-6.8935206375801803],[112.9138617061258,-6.8935205650591964],[112.91386163355851,-6.8935024832077039],[112.91383449355665,-6.8935025919886321],[112.91383452983976,-6.8935116329145254],[112.91380738983692,-6.8935117416940583],[112.91380749868499,-6.8935388644721467],[112.9138255920213,-6.8935387919523405]]],[[[112.91400638022776,-6.8935019030167304],[112.91397924022824,-6.8935020118058752],[112.91397927651408,-6.8935110527310002],[112.91397022984731,-6.8935110889937539],[112.91397026613303,-6.8935201299189233],[112.91398835946688,-6.8935200573931477],[112.91398839575299,-6.8935290983182167],[112.914006489087,-6.8935290257916613],[112.91400638022776,-6.8935019030167304]]],[[[112.91405164984657,-6.8935107626228076],[112.91406069651292,-6.893510726358512],[112.91406066022554,-6.8935016854338196],[112.91405161355935,-6.8935017216980663],[112.91405164984657,-6.8935107626228076]]],[[[112.91409691946592,-6.8935196222241206],[112.91409684688973,-6.893501540375123],[112.91407875355775,-6.8935016129048137],[112.91407882613325,-6.8935196947540023],[112.91409691946592,-6.8935196222241206]]],[[[112.91449493644002,-6.8935089854711169],[112.91449490014442,-6.8934999445487275],[112.91446776015276,-6.8935000533655986],[112.91446779644785,-6.893509094288131],[112.91449493644002,-6.8935089854711169]]],[[[112.91463081788581,-6.893553645971223],[112.91463078158738,-6.8935446050495726],[112.91461268825942,-6.8935446775999392],[112.91461261566343,-6.8935265957564376],[112.91463070899069,-6.8935265232062619],[112.914630745289,-6.8935355641279195],[112.91465788528008,-6.8935354553012314],[112.91465784898125,-6.8935264143797186],[112.91463975565426,-6.8935264869309183],[112.91463971935582,-6.893517446009306],[112.91463067269241,-6.8935174822846008],[112.91463063639419,-6.8935084413629371],[112.91462158973093,-6.8935084776380124],[112.91462157504172,-6.8935048189264689],[112.91452404823104,-6.8934998276787516],[112.91452204013561,-6.8934998357303163],[112.91452207643174,-6.893508876652561],[112.91449493644002,-6.8935089854711169],[112.91449500903138,-6.8935270673158815],[112.9144588223737,-6.8935272124052762],[112.91445885866877,-6.8935362533278459],[112.9145493253132,-6.8935358905987441],[112.91454936161003,-6.8935449315208297],[112.91455840827436,-6.8935448952469303],[112.91455844457141,-6.8935539361689644],[112.9145674912359,-6.8935538998948456],[112.91456745493868,-6.8935448589728594],[112.9145855482671,-6.8935447864242052],[112.91458558456468,-6.8935538273460955],[112.91463081788581,-6.893553645971223]],[[112.91459455863358,-6.8935357092277751],[112.91458551196959,-6.8935357455023105],[112.91458543937472,-6.893517663658514],[112.91459448603837,-6.8935176273840728],[112.91459455863358,-6.8935357092277751]]],[[[112.9160961952003,-6.8935025625408528],[112.91609615887437,-6.8934935216269677],[112.91608711221916,-6.8934935579297223],[112.91608714854492,-6.8935025988436562],[112.9160961952003,-6.8935025625408528]]],[[[112.91743509965704,-6.8934971878389986],[112.91743506330577,-6.8934881469322251],[112.91742601665779,-6.8934881832603114],[112.91742605300888,-6.8934972241671293],[112.91743509965704,-6.8934971878389986]]],[[[112.91775169595417,-6.8934868753414529],[112.91772455601522,-6.8934869843431619],[112.91772462872875,-6.8935050661536241],[112.91773367537547,-6.8935050298197948],[112.91773371173248,-6.8935140707249714],[112.91771561843868,-6.8935141433925544],[112.91771554572539,-6.8934960615820033],[112.91770649907873,-6.8934960979154409],[112.91770646272234,-6.8934870570101126],[112.91767932278266,-6.8934871660092547],[112.91767935913855,-6.8934962069147288],[112.91765221919792,-6.8934963159124756],[112.91765229190881,-6.893514397723699],[112.91767038520331,-6.8935143250585122],[112.91767049427104,-6.8935414477750312],[112.91767954091873,-6.8935414114420368],[112.91767950456259,-6.8935323705365841],[112.91769759785747,-6.8935322978701778],[112.91769763421394,-6.8935413387755355],[112.91770668086147,-6.8935413024420287],[112.9177067899317,-6.8935684251579383],[112.91771583657972,-6.8935683888241153],[112.91771580022275,-6.8935593479188642],[112.91777008010871,-6.8935591299126227],[112.91777004375078,-6.8935500890076726],[112.91777909039811,-6.8935500526727482],[112.91777912675622,-6.8935590935776494],[112.91778817340365,-6.8935590572425047],[112.91778820976198,-6.8935680981473721],[112.91779725640954,-6.893568061812009],[112.91779722005104,-6.8935590209071904],[112.91781531334568,-6.8935589482360466],[112.91781534970453,-6.8935679891407711],[112.91783344299932,-6.8935679164688457],[112.91783329756285,-6.8935317528503184],[112.91781520426944,-6.8935318255218583],[112.91781516791079,-6.8935227846171214],[112.91777898132406,-6.8935229299579541],[112.91777894496614,-6.8935138890530219],[112.91775180502609,-6.8935139980567062],[112.91775169595417,-6.8934868753414529]]],[[[112.91444062016069,-6.8935001621809295],[112.91444060167338,-6.8934955570170811],[112.9144134556671,-6.893494167724576],[112.91441348016818,-6.8935002709947186],[112.91444062016069,-6.8935001621809295]]],[[[112.9160418426176,-6.8934846985267502],[112.91604187894244,-6.8934937394409284],[112.91605092559789,-6.8934937031390291],[112.91605088927288,-6.8934846622249006],[112.9160418426176,-6.8934846985267502]]],[[[112.91374402688056,-6.8935029545806064],[112.91374399059922,-6.8934939136542299],[112.91375303726689,-6.8934938773958505],[112.91375300098541,-6.8934848364695185],[112.91371681431517,-6.8934849815018167],[112.9137168868768,-6.8935030633548608],[112.91374402688056,-6.8935029545806064]]],[[[112.9160418426176,-6.8934846985267502],[112.91604180629281,-6.8934756576125684],[112.91603275963766,-6.8934756939142003],[112.91603279596228,-6.8934847348284292],[112.9160418426176,-6.8934846985267502]]],[[[112.9159784433822,-6.8934668708058746],[112.91597847970574,-6.8934759117203956],[112.91598752636118,-6.8934758754197913],[112.91598749003747,-6.8934668345053174],[112.9159784433822,-6.8934668708058746]]],[[[112.91603279596228,-6.8934847348284292],[112.91602374930693,-6.8934847711299385],[112.91602367665807,-6.8934666893013796],[112.91601463000299,-6.8934667256026207],[112.91601473897582,-6.8934938483455976],[112.91603283228694,-6.8934937757426562],[112.91603279596228,-6.8934847348284292]]],[[[112.91658464184755,-6.8934825201127747],[112.91658456917746,-6.8934644382901764],[112.91657552252542,-6.8934644746020277],[112.91657559519517,-6.8934825564247229],[112.91658464184755,-6.8934825201127747]]],[[[112.91582465023512,-6.8934674878891533],[112.91582461391454,-6.8934584469738107],[112.91581556725858,-6.8934584832712389],[112.91581560357899,-6.8934675241866277],[112.91582465023512,-6.8934674878891533]]],[[[112.91612322618697,-6.8934753308901833],[112.91612315353444,-6.8934572490626742],[112.91611410688007,-6.8934572853657494],[112.91611414320614,-6.8934663262795546],[112.91607795658749,-6.8934664714903384],[112.91607799291292,-6.8934755124043319],[112.91612322618697,-6.8934753308901833]]],[[[112.91383434080296,-6.8934645291063452],[112.91383434842471,-6.8934664282850244],[112.91384339509136,-6.8934663920250783],[112.91384343137445,-6.8934754329509378],[112.91387057137464,-6.893475324169926],[112.91387060765828,-6.8934843650956381],[112.91387965432509,-6.8934843288349104],[112.91387969060895,-6.89349336976057],[112.91388873727587,-6.8934933334996247],[112.91388877355995,-6.8935023744252328],[112.91389782022701,-6.8935023381640672],[112.91389778394274,-6.893493297238507],[112.91391587727637,-6.8934932247157583],[112.91391591356097,-6.8935022656412226],[112.91393400689469,-6.8935021931176932],[112.91393404317969,-6.893511234043058],[112.91395213651359,-6.8935111615187479],[112.91395210022826,-6.893502120593479],[112.91397019356164,-6.89350204806858],[112.91397015727601,-6.8934930071434035],[112.91399729727517,-6.8934928983549169],[112.91399726098909,-6.8934838574298816],[112.9140063076552,-6.8934838211667575],[112.91400634394145,-6.8934928620917457],[112.91420537058755,-6.893492064258675],[112.91420533627679,-6.8934835164293524],[112.91419640129685,-6.8934830591459679],[112.91417819430224,-6.8934831321348957],[112.91417819026822,-6.893482127123101],[112.91383434080296,-6.8934645291063452]],[[112.91393393432487,-6.8934841112669529],[112.91394298099134,-6.8934840750050279],[112.91394301727641,-6.8934931159303519],[112.91393397060976,-6.8934931521923248],[112.91393393432487,-6.8934841112669529]]],[[[112.91381625509126,-6.8934665008044043],[112.91382530175802,-6.8934664645448018],[112.91382529213224,-6.8934640659972128],[112.91375290276545,-6.8934603611176959],[112.91375292842264,-6.8934667546168429],[112.91376197508971,-6.8934667183584368],[112.91376204765285,-6.8934848002110165],[112.91377109432023,-6.8934847639523422],[112.91377105803846,-6.8934757230261026],[112.91378915137275,-6.8934756505083383],[112.91378918765486,-6.8934846914344812],[112.91379823432209,-6.8934846551752953],[112.91379827060442,-6.8934936961013875],[112.91380731727179,-6.8934936598419805],[112.9138072809893,-6.8934846189159371],[112.91382537432355,-6.8934845463967065],[112.91382533804075,-6.8934755054707555],[112.91381629137382,-6.8934755417304077],[112.91381625509126,-6.8934665008044043]]],[[[112.9149569132842,-6.8934528865585216],[112.91495609841419,-6.8934528898265048],[112.91495612840833,-6.89346035936153],[112.9149569132842,-6.8934528865585216]]],[[[112.9159784433822,-6.8934668708058746],[112.9159784070587,-6.8934578298913491],[112.91595126709312,-6.8934579387918493],[112.91595123077019,-6.8934488978771746],[112.91593313745987,-6.8934489704765562],[112.91593317378248,-6.8934580113913251],[112.91592412712706,-6.8934580476908058],[112.91592419977205,-6.8934761295204297],[112.91590610646045,-6.8934762021190714],[112.91590599749406,-6.893449079374343],[112.9158969508387,-6.8934491156732642],[112.91589705980456,-6.8934762384181356],[112.91587896649266,-6.8934763110157506],[112.91587900281436,-6.8934853519307984],[112.91586995615816,-6.8934853882293972],[112.91586999247976,-6.8934944291444866],[112.91587903913612,-6.8934943928458408],[112.91587907545792,-6.8935034337608796],[112.91588812211442,-6.8935033974620135],[112.91588808579246,-6.8934943565470217],[112.91589713244871,-6.893494320248033],[112.91589709612661,-6.8934852793330874],[112.91590614278267,-6.8934852430339744],[112.91590617910495,-6.893494283948872],[112.91592427241724,-6.8934942113500384],[112.91592438138538,-6.8935213340944239],[112.91590628807207,-6.8935214066935462],[112.91590632439454,-6.8935304476084305],[112.91593346436497,-6.8935303387093461],[112.91593342804198,-6.8935212977946057],[112.91595152135503,-6.8935212251944566],[112.91595155767835,-6.8935302661091002],[112.91596060433496,-6.8935302298087215],[112.9159606406585,-6.8935392707233127],[112.9160058739417,-6.893539089218609],[112.91600583761729,-6.8935300483042568],[112.91601488427361,-6.8935300120028495],[112.91601495692281,-6.8935480938314537],[112.916033050236,-6.8935480212279368],[112.916033086561,-6.8935570621421522],[112.91604213321769,-6.8935570258400896],[112.91604216954292,-6.8935660667542207],[112.91603312288608,-6.893566103056334],[112.91603315921118,-6.8935751439705255],[112.91605125252521,-6.8935750713660342],[112.91605121619975,-6.8935660304519368],[112.91606026285652,-6.8935659941494833],[112.91606029918213,-6.8935750350635319],[112.91606934583902,-6.8935749987608581],[112.91606927318749,-6.8935569169328703],[112.91606022653094,-6.8935569532354481],[112.9160601902054,-6.8935479123213739],[112.91604209689251,-6.8935479849259185],[112.91604202424229,-6.8935299030976038],[112.91603297758613,-6.8935299393995226],[112.91603294126126,-6.8935208984853134],[112.9160148479491,-6.8935209710885417],[112.91601481162462,-6.8935119301742303],[112.9159967183126,-6.8935120027766805],[112.91599664566449,-6.8934939209478543],[112.91598759900876,-6.8934939572487268],[112.91598756268495,-6.8934849163342609],[112.91596946937366,-6.8934849889353949],[112.91596939672687,-6.8934669071062604],[112.9159784433822,-6.8934668708058746]]],[[[112.91614117419002,-6.8934390946286621],[112.91614113786359,-6.8934300537150079],[112.91613209120982,-6.8934300900182821],[112.91613212753607,-6.8934391309319833],[112.91614117419002,-6.8934390946286621]]],[[[112.9169281965536,-6.8934268946750334],[112.91691914990407,-6.893426930993197],[112.91691918624524,-6.8934359719027176],[112.91691013959552,-6.8934360082207586],[112.91691010325452,-6.8934269673111901],[112.91688296330555,-6.8934270762641399],[112.91688299964603,-6.8934361171738532],[112.9168739529961,-6.8934361534912085],[112.91687409835781,-6.8934723171302998],[112.91682886510401,-6.8934724987154743],[112.91682893778344,-6.8934905805354694],[112.91684703108579,-6.8934905079017206],[112.9168471037661,-6.8935085897215105],[112.91683805711462,-6.8935086260385656],[112.91683812979478,-6.8935267078584372],[112.9168290831429,-6.8935267441754178],[112.91682933752381,-6.8935900305451892],[112.91683838417691,-6.8935899942278711],[112.91683820247515,-6.8935447896782938],[112.91684724912731,-6.893544753361045],[112.91684721278695,-6.8935357124511665],[112.91686530609081,-6.8935356398162524],[112.91686526975013,-6.893526598906468],[112.91687431640183,-6.8935265625888027],[112.91687428006102,-6.8935175216790618],[112.91688332671251,-6.8935174853612731],[112.91688325403072,-6.893499403541874],[112.91689230068179,-6.8934993672240106],[112.91689222799987,-6.893481285404695],[112.91688318134915,-6.8934813217224633],[112.91688314500843,-6.8934722808127509],[112.91691028495995,-6.8934721718590799],[112.91691024861878,-6.8934631309495087],[112.91691929526901,-6.8934630946313247],[112.91691925892771,-6.8934540537217979],[112.91692830557774,-6.8934540174034904],[112.9169281965536,-6.8934268946750334]]],[[[112.91612304455602,-6.8934301263213849],[112.91612300822997,-6.8934210854076143],[112.9161139615763,-6.8934211217104968],[112.91611399790217,-6.8934301626243171],[112.91612304455602,-6.8934301263213849]]],[[[112.91662064677834,-6.8934371703076893],[112.91662061044283,-6.8934281293965824],[112.91662965709398,-6.8934280930840668],[112.91662962075834,-6.8934190521729883],[112.91661152745638,-6.8934191247977523],[112.91661160012701,-6.8934372066200815],[112.91662064677834,-6.8934371703076893]]],[[[112.91681949999757,-6.8933933059522223],[112.9168195277387,-6.8934002077514824],[112.91682857438822,-6.8934001714353457],[112.91682868340628,-6.89342729416542],[112.91684677670624,-6.8934272215323444],[112.91684681304602,-6.8934362624422496],[112.91685585969611,-6.8934362261254067],[112.91685582335614,-6.8934271852155513],[112.91687391665579,-6.893427112581449],[112.91687383715694,-6.8934073344461266],[112.91681949999757,-6.8933933059522223]]],[[[112.91653904524517,-6.8933922925552444],[112.91652999859426,-6.8933923288658576],[112.91653007126152,-6.8934104106891088],[112.91650293130739,-6.8934105196202067],[112.9165029676406,-6.893419560531961],[112.91651201429218,-6.8934195242217182],[112.91651205062558,-6.8934285651334219],[112.91653919058055,-6.8934284562015229],[112.91653915424664,-6.893419415289963],[112.91655724754938,-6.8934193426679373],[112.91655717488101,-6.8934012608449988],[112.91653908157895,-6.8934013334668336],[112.91653904524517,-6.8933922925552444]]],[[[112.91656611252922,-6.8933741017995365],[112.9165660761951,-6.8933650608880992],[112.91657512284532,-6.8933650245769469],[112.91657508651106,-6.893355983665554],[112.91655699321092,-6.8933560562875904],[112.91655706587881,-6.8933741381105653],[112.91656611252922,-6.8933741017995365]]],[[[112.91659307080745,-6.8933287883089207],[112.91659306645204,-6.8933277045725623],[112.91658400872123,-6.893324983541139],[112.91658402415803,-6.8933288246202231],[112.91659307080745,-6.8933287883089207]]],[[[112.91605935473179,-6.8933399712970811],[112.9160774480366,-6.8933398986940615],[112.91607737538726,-6.8933218168659636],[112.91606832873522,-6.8933218531674632],[112.9160683650597,-6.8933308940815614],[112.91605931840742,-6.8933309303829375],[112.91605935473179,-6.8933399712970811]]],[[[112.91604104348342,-6.8932857984139266],[112.91604097083604,-6.8932677165854024],[112.91603192418482,-6.8932677528859285],[112.91603196050832,-6.8932767938002408],[112.91602291385689,-6.8932768301006435],[112.91602295018028,-6.893285871015002],[112.91604104348342,-6.8932857984139266]]],[[[112.91642994046094,-6.8932571145886694],[112.916420893812,-6.893257150896507],[112.91642093014282,-6.8932661918087579],[112.9163937901952,-6.893266300731387],[112.91639389918639,-6.8932934234685446],[112.91638485253657,-6.8932934597758893],[112.91638488886689,-6.8933025006883168],[112.91640298216683,-6.893302428073361],[112.91640301849755,-6.8933114689856874],[112.91639397184744,-6.8933115052932985],[112.9163941171701,-6.8933476689427842],[112.91640316382089,-6.8933476326349785],[112.91640320015186,-6.8933566735472711],[112.91643034010447,-6.8933565646226853],[112.916430303773,-6.8933475237105375],[112.91643935042362,-6.8933474874020479],[112.91643942308696,-6.8933655692262628],[112.91642132978501,-6.8933656418432623],[112.91642143877935,-6.8933927645798532],[112.91643953208234,-6.893392691962565],[112.91643964107814,-6.893419814698869],[112.91645773438192,-6.8934197420806074],[112.91645766171732,-6.8934016602566128],[112.91650289497427,-6.8934014787084461],[112.91650285864118,-6.8933924377966669],[112.91652095194327,-6.8933923651762985],[112.91652084294327,-6.8933652424412948],[112.91653893624415,-6.8933651698205294],[112.91653886357705,-6.8933470879973733],[112.91655695687705,-6.8933470153761149],[112.91655692054321,-6.8933379744646031],[112.91656596719295,-6.8933379381537661],[112.91656589452512,-6.8933198563308595],[112.91656692753628,-6.8933198521846277],[112.91652979100002,-6.8933086959999654],[112.91652195300003,-6.8933057019999024],[112.91646612995484,-6.8932576906552399],[112.91646616338789,-6.8932660102676175],[112.91642997679193,-6.8932661555008705],[112.91642994046094,-6.8932571145886694]]],[[[112.91646529517806,-6.8932569726943402],[112.91645483192124,-6.8932479736304657],[112.91643895077874,-6.8932480373685054],[112.91643898710984,-6.8932570782806613],[112.91646529517806,-6.8932569726943402]]],[[[112.91605935473179,-6.8933399712970811],[112.91605030807931,-6.8933400075983338],[112.91605023543099,-6.8933219257699481],[112.91605928208311,-6.8933218894687922],[112.91605924575886,-6.8933128485546407],[112.91595068593202,-6.893313284156652],[112.91595072225422,-6.8933223250713782],[112.9159416756015,-6.8933223613704824],[112.91594171192357,-6.893331402285253],[112.91593266527063,-6.8933314385842328],[112.91593270159258,-6.8933404794990496],[112.91590556163294,-6.8933405883951062],[112.91590559795445,-6.8933496293100802],[112.91588750464742,-6.8933497019066925],[112.91588746832628,-6.8933406609916226],[112.91584223505873,-6.8933408424799172],[112.91584227137903,-6.8933498833952278],[112.9158151314174,-6.8933499922862937],[112.91581509509763,-6.893340951370841],[112.91580604844383,-6.8933409876674734],[112.91580590316586,-6.893304824005499],[112.91583304312506,-6.8933047151156659],[112.91583300680519,-6.8932956742003055],[112.91585110011073,-6.893295601606324],[112.91585113643096,-6.8933046425215876],[112.91586018308384,-6.8933046062242918],[112.91586014676345,-6.8932955653090779],[112.91587824006868,-6.8932954927140679],[112.91587820374799,-6.8932864517989456],[112.91589629705271,-6.8932863792033485],[112.91589626073174,-6.8932773382883203],[112.91588721407959,-6.8932773745861571],[112.91588717775883,-6.8932683336710738],[112.9158690844547,-6.893268406266138],[112.91586897549374,-6.8932412835205827],[112.91585992884212,-6.8932413198177134],[112.91585989252208,-6.8932322789024569],[112.91585084587055,-6.8932323151993691],[112.91585080955073,-6.893223274284094],[112.91584176289935,-6.893223310580785],[112.91584172657974,-6.8932142696654424],[112.91583453939647,-6.8932142985014755],[112.91579542800025,-6.893263273999958],[112.91574786400008,-6.8933065339999811],[112.91569847400001,-6.8934056419999452],[112.91566668400024,-6.8934611139998765],[112.9156354500002,-6.8935156179999817],[112.91563486413708,-6.893516468292936],[112.91563488834872,-6.8935224955982353],[112.91563069966529,-6.8935225124027806],[112.91562586977071,-6.8935295222744148],[112.91562587800766,-6.8935315728087794],[112.91562445298619,-6.8935315785257956],[112.91559865600016,-6.8935690189999352],[112.91549110000015,-6.8935896529998706],[112.91548733590017,-6.8935893730557769],[112.9154180129489,-6.8935842173556106],[112.91541805904555,-6.8935956939508101],[112.91539091906319,-6.8935958028216371],[112.91539095537628,-6.8936048437392143],[112.9154000020373,-6.8936048074490621],[112.91540003835063,-6.8936138483666207],[112.91540908501175,-6.8936138120762482],[112.91540904869827,-6.8936047711587376],[112.91542714202004,-6.893604698577577],[112.91542717833387,-6.8936137394949926],[112.91541813167282,-6.8936137757857061],[112.91541816798653,-6.8936228167031484],[112.91540912132528,-6.8936228529937393],[112.91540915763888,-6.8936318939112278],[112.91542725096167,-6.8936318213297767],[112.91542728727566,-6.8936408622471648],[112.91543633393715,-6.8936408259561359],[112.91543637025134,-6.8936498668734547],[112.91542732358968,-6.8936499031645315],[112.91542746884627,-6.8936860668340465],[112.91543651550862,-6.8936860305427778],[112.91543640656559,-6.8936589077908028],[112.91546354655082,-6.8936587989164],[112.91546358286564,-6.8936678398335838],[112.91548167618923,-6.8936677672496964],[112.91548163987407,-6.8936587263326086],[112.91548761437826,-6.8936587023649336],[112.91549973319712,-6.8936586537481324],[112.91549976951262,-6.8936676946651243],[112.91557214280424,-6.8936674043199915],[112.91557217912116,-6.8936764452365953],[112.91559027244392,-6.8936763726485051],[112.91559023612666,-6.8936673317319954],[112.9155992827878,-6.8936672954377407],[112.91559931910521,-6.8936763363542006],[112.91563550574996,-6.893676191175282],[112.91563546943186,-6.8936671502590139],[112.91564451609274,-6.893667113963903],[112.91564447977451,-6.8936580730476784],[112.91563543311379,-6.8936581093427423],[112.91563536047782,-6.8936400275101866],[112.91564440713819,-6.8936399912152213],[112.9156443708201,-6.893630950298987],[112.91562627749964,-6.893631022888651],[112.91562635013517,-6.8936491047212911],[112.91561730347453,-6.8936491410159633],[112.91561733979221,-6.8936581819323521],[112.91562638645301,-6.8936581456376311],[112.91562642277091,-6.8936671865539507],[112.9156083294489,-6.8936672591433155],[112.91560825681384,-6.8936491773104631],[112.91559016349231,-6.8936492498989512],[112.91559012717519,-6.8936402089824496],[112.91558108051454,-6.8936402452763881],[112.91558104419764,-6.8936312043598171],[112.91549962425094,-6.8936315309971334],[112.91549955162039,-6.8936134491631176],[112.91550859828098,-6.8936134128708639],[112.91550856196561,-6.8936043719538809],[112.915517608626,-6.8936043356615029],[112.91551764494153,-6.8936133765784371],[112.91553573826249,-6.8936133039930736],[112.91553570194661,-6.8936042630762344],[112.91554474860683,-6.8936042267833431],[112.91554482123898,-6.8936223086169051],[112.91556291456,-6.8936222360304154],[112.91556284192714,-6.8936041541970479],[112.91558093524726,-6.893604081610067],[112.91558089893057,-6.8935950406934987],[112.91558994559038,-6.8935950043998],[112.91558990927358,-6.8935859634832601],[112.91562609591163,-6.8935858183069447],[112.91562602327679,-6.8935677364742389],[112.91563506993586,-6.8935677001798279],[112.91563496098343,-6.8935405774308824],[112.91564400764192,-6.8935405411364448],[112.91564397132436,-6.8935315002201714],[112.91565301798265,-6.8935314639256129],[112.91565305430038,-6.8935405048418383],[112.9156711476171,-6.8935404322521068],[112.91567107498102,-6.8935223504198433],[112.91568012163899,-6.8935223141248185],[112.91568023059371,-6.8935494368730623],[112.9156892772521,-6.8935494005777214],[112.91568924093366,-6.8935403596616913],[112.91571638090812,-6.8935402507747847],[112.91571652618428,-6.8935764144383072],[112.91572557284304,-6.8935763781421375],[112.91572560916237,-6.8935854190579606],[112.91573465582123,-6.8935853827615734],[112.91573458318226,-6.8935673009300169],[112.91574362984075,-6.8935672646335524],[112.91574366616037,-6.893576305549284],[112.91575271281896,-6.893576269252601],[112.91575267649915,-6.8935672283369174],[112.91576172315753,-6.8935671920401109],[112.91576168683761,-6.8935581511244886],[112.91577978015387,-6.8935580785304609],[112.91577985279444,-6.8935761603615235],[112.9158069927695,-6.8935760514689068],[112.91580702909036,-6.8935850923842974],[112.91581607574881,-6.8935850560863683],[112.91581593046492,-6.8935488924249739],[112.9158249771226,-6.8935488561270652],[112.91582501344367,-6.8935578970423883],[112.91583406010146,-6.8935578607442602],[112.91583398745902,-6.8935397789137243],[112.91582494080156,-6.8935398152117564],[112.91582490448059,-6.8935307742964431],[112.91581585782325,-6.8935308105942559],[112.91581589414406,-6.8935398515096162],[112.91580684748646,-6.8935398878073073],[112.91580677484527,-6.8935218059764845],[112.91581582150249,-6.893521769678892],[112.91581578518179,-6.8935127287635227],[112.91580673852472,-6.8935127650610681],[112.91580670220424,-6.8935037241456483],[112.91581574886114,-6.8935036878481508],[112.91581571254052,-6.8934946469327754],[112.91582475919718,-6.8934946106351553],[112.91582468655577,-6.8934765288044897],[112.91581563989945,-6.8934765651020129],[112.91581567621996,-6.8934856060173972],[112.91579758290683,-6.893485678612028],[112.91579761922705,-6.8934947195275029],[112.91578857257022,-6.8934947558246087],[112.91578853625018,-6.8934857149090858],[112.91577948959349,-6.8934857512059731],[112.91577945327367,-6.8934767102903987],[112.91577040661711,-6.8934767465870666],[112.91577033397795,-6.8934586647558085],[112.91577938063416,-6.8934586284592383],[112.91577927167528,-6.8934315057124698],[112.91582450495308,-6.8934313242277625],[112.91582446863268,-6.8934222833124066],[112.91584256194312,-6.8934222107174214],[112.91584252562244,-6.8934131698021588],[112.91583347896741,-6.8934132060996873],[112.91583344264696,-6.8934041651843723],[112.91584248930182,-6.8934041288868908],[112.91584245298122,-6.8933950879716015],[112.91585149963585,-6.8933950516739975],[112.91585146331515,-6.893386010758789],[112.91586050996956,-6.8933859744610588],[112.91586047364873,-6.8933769335458779],[112.91591475357315,-6.8933767157562027],[112.91591471725134,-6.8933676748413051],[112.91595090386598,-6.8933675296449586],[112.91595086754353,-6.8933584887302501],[112.91595991419688,-6.8933584524307827],[112.91595987787431,-6.8933494115161356],[112.91599606448658,-6.8933492663167506],[112.91599602816338,-6.893340225402258],[112.91603221477419,-6.8933400802003257],[112.91603225109809,-6.8933491211146283],[112.91605939105618,-6.8933490122112371],[112.91605935473179,-6.8933399712970811]],[[112.91577963487329,-6.8935219148682361],[112.91579772818798,-6.8935218422739064],[112.91579776450841,-6.8935308831893671],[112.9157887178509,-6.8935309194866656],[112.91578879049153,-6.8935490013176732],[112.91577974383365,-6.8935490376148971],[112.91577963487329,-6.8935219148682361]],[[112.91547244795305,-6.893622598956008],[112.91548149461396,-6.8936225626642189],[112.91548153092891,-6.8936316035813219],[112.91547248426784,-6.893631639873159],[112.91547244795305,-6.893622598956008]],[[112.91544534428429,-6.8936317487476435],[112.915436297623,-6.8936317850387958],[112.9154362613089,-6.893622744121453],[112.91544530797002,-6.8936227078303496],[112.91544534428429,-6.8936317487476435]],[[112.91549061390513,-6.8936406082063648],[112.91550870722739,-6.8936405356217385],[112.91550874354296,-6.8936495765386727],[112.91549065022036,-6.893649649123395],[112.91549061390513,-6.8936406082063648]]],[[[112.91610386149851,-6.8931589715095098],[112.9161129081473,-6.8931589352081915],[112.91611279917421,-6.8931318124664003],[112.91612184582242,-6.8931317761650543],[112.9161218106635,-6.8931230253391744],[112.91608565511548,-6.8931308974487555],[112.91608569555309,-6.8931409622835069],[112.91607664890454,-6.893140998584216],[112.91607679419951,-6.8931771622406668],[112.91606774755023,-6.8931771985413963],[112.91606778387391,-6.8931862394555372],[112.91607683052338,-6.8931862031547579],[112.91607690317126,-6.8932042849829802],[112.91606785652147,-6.8932043212838536],[112.9160679291692,-6.8932224031121416],[112.91608602246944,-6.8932223305100289],[112.91608598614522,-6.8932132895959839],[112.91611312609476,-6.8932131806916743],[112.9161130534454,-6.8931950988638615],[112.9161221000948,-6.8931950625621798],[112.91612206377003,-6.8931860216482992],[112.91611301712081,-6.8931860579499329],[112.91611294447175,-6.8931679761221138],[112.91610389782279,-6.893168012423482],[112.91610386149851,-6.8931589715095098]]]]},"properties":{"FID":0,"Shape_Leng":18102566.929299999,"Shape_Area":236516885.403}}]
}