{
  "type" : "FeatureCollection",
  "features" : [{"type":"Feature","id":0,"geometry":{"type":"MultiPolygon","coordinates":[[[[114.68102782191235,-7.1604924951839859],[114.68102045041728,-7.1604858551920927],[114.68102050420181,-7.1604925537967041],[114.68102782191235,-7.1604924951839859]]],[[[114.68101788799943,-7.1604835470531976],[114.68101134587938,-7.1604776541336363],[114.68101139361237,-7.1604835990711377],[114.68101788799943,-7.1604835470531976]]],[[[114.68100795408687,-7.1604745989219918],[114.68100224134177,-7.1604694530748141],[114.68100228302328,-7.1604746443452045],[114.68100795408687,-7.1604745989219918]]],[[[114.68099802017466,-7.160465650790373],[114.68099313680446,-7.1604612520156588],[114.68099317243453,-7.1604656896189054],[114.68099802017466,-7.160465650790373]]],[[[114.68092940505205,-7.1604038445917055],[114.6809295432794,-7.1604210607623475],[114.68093858138785,-7.1604209883722305],[114.68093865386622,-7.1604300154910101],[114.68094769197469,-7.160429943100624],[114.68094776445336,-7.1604389702193068],[114.68096584067044,-7.1604388254378204],[114.68096591314955,-7.1604478525563158],[114.68097495125811,-7.1604477801652147],[114.68097502373747,-7.1604568072836132],[114.68098808626283,-7.160456702658335],[114.68092940505205,-7.1604038445917055]]],[[[114.68092848279954,-7.1604030138573709],[114.68092030051724,-7.1603956435297569],[114.68092036021514,-7.1604030789143271],[114.68092848279954,-7.1604030138573709]]],[[[114.68091854889029,-7.1603940657224401],[114.6809111959827,-7.1603874424674405],[114.6809112496293,-7.1603941241848554],[114.68091854889029,-7.1603940657224401]]]]},"properties":{"FID":0,"Shape_Leng":18102566.929299999,"Shape_Area":236516885.403}}]
}