{
  "type" : "FeatureCollection",
  "features" : [{"type":"Feature","id":0,"geometry":{"type":"MultiPolygon","coordinates":[[[[113.94671354636864,-7.6941416386611383],[113.94671348395738,-7.6941326050140866],[113.94670442817812,-7.6941326672726857],[113.94670449058918,-7.694141700919813],[113.94671354636864,-7.6941416386611383]]],[[[113.94658539247794,-7.693943770006312],[113.94659444825419,-7.6939437077517452],[113.94659432344002,-7.6939256404555252],[113.94658526766416,-7.6939257027099446],[113.94658539247794,-7.693943770006312]]],[[[113.94662111632299,-7.6938712518036914],[113.94662105391589,-7.6938622181557728],[113.94663010969009,-7.6938621559011082],[113.94663004728288,-7.6938531222532562],[113.94661193573479,-7.6938532467622487],[113.9466120605485,-7.6938713140582404],[113.94662111632299,-7.6938712518036914]]],[[[113.94658539247794,-7.693943770006312],[113.94656728092528,-7.6939438945148773],[113.94656721851874,-7.6939348608665465],[113.94654910696613,-7.6939349853742014],[113.94654904456004,-7.6939259517257197],[113.94655810033618,-7.6939258894720615],[113.94655803792998,-7.6939168558236499],[113.94659426103304,-7.6939166068074103],[113.94659407381259,-7.6938895058630354],[113.94660312958759,-7.6938894436087208],[113.94660306718073,-7.6938804099606619],[113.94658495563102,-7.6938805344689518],[113.94658489322462,-7.693871500820741],[113.94656678167502,-7.6938716253281223],[113.94656671926907,-7.6938625916797587],[113.94659388659282,-7.6938624049186233],[113.94659369937374,-7.6938353039741543],[113.94657558782578,-7.6938354284813251],[113.94657552541996,-7.6938263948330352],[113.94656646964607,-7.6938264570862609],[113.9465665320517,-7.6938354907346236],[113.94654842050331,-7.6938356152406522],[113.94654848290864,-7.6938446488891925],[113.94655753868307,-7.6938445866362004],[113.94655760108866,-7.6938536202846457],[113.94653948953933,-7.6938537447905873],[113.94653955194462,-7.6938627784391764],[113.94653049616969,-7.6938628406919367],[113.94653087060189,-7.6939170425838279],[113.94653992637799,-7.6939169803306262],[113.94654017600172,-7.6939531149248568],[113.94654923177853,-7.6939530526711666],[113.94654935659123,-7.6939711199680838],[113.94655841236833,-7.693971057714057],[113.94655859958853,-7.693998158659185],[113.94656765536614,-7.6939980964047461],[113.94656740573861,-7.6939619618115218],[113.94657646151535,-7.6939618995571877],[113.9465765239223,-7.6939709332054314],[113.94658557969919,-7.6939708709508325],[113.94658539247794,-7.693943770006312]],[[113.94657602466872,-7.6938986640193718],[113.94656696889331,-7.6938987262731873],[113.94656690648713,-7.6938896926248361],[113.94657596226236,-7.6938896303710935],[113.94657602466872,-7.6938986640193718]],[[113.94654873253073,-7.6938807834832481],[113.94653967675545,-7.693880845736345],[113.94653961435,-7.6938718120877629],[113.9465486701251,-7.6938717498347406],[113.94654873253073,-7.6938807834832481]],[[113.94657571263767,-7.6938534957779448],[113.94656665686321,-7.6938535580313898],[113.94656659445742,-7.6938445243830182],[113.94657565023168,-7.6938444621296442],[113.94657571263767,-7.6938534957779448]]],[[[113.94653948953933,-7.6938537447905873],[113.94653936472898,-7.6938356774933787],[113.94653030895461,-7.6938357397459161],[113.94653024654973,-7.6938267060972558],[113.94652119077547,-7.6938267683495276],[113.94652112837086,-7.6938177347007723],[113.94651207259669,-7.6938177969527803],[113.94651201019234,-7.6938087633039487],[113.94649389864418,-7.6938088878072417],[113.94649396104815,-7.6938179214562226],[113.94650301682246,-7.6938178592045974],[113.94650307922669,-7.6938268928535001],[113.9465121350011,-7.6938268306016084],[113.9465121974056,-7.6938358642504179],[113.94652125318015,-7.6938358019982607],[113.9465213155849,-7.6938448356470257],[113.94651225981016,-7.6938448978992522],[113.94651238461954,-7.6938629651968808],[113.94652144039466,-7.6938629029445051],[113.94652137798974,-7.6938538692957659],[113.94653948953933,-7.6938537447905873]]],[[[113.94653005933556,-7.6937996051512005],[113.9465301217402,-7.6938086387998892],[113.94653917751401,-7.6938085765475739],[113.94653911510918,-7.6937995428989572],[113.94653005933556,-7.6937996051512005]]],[[[113.94647553748219,-7.6937728777132151],[113.9464664817086,-7.6937729399638997],[113.94646654411167,-7.6937819736131203],[113.94647559988546,-7.6937819113623611],[113.94647553748219,-7.6937728777132151]]],[[[113.94648459325569,-7.6937728154623413],[113.94648465565915,-7.6937818491114145],[113.94649371143275,-7.6937817868602716],[113.94649364902909,-7.6937727532112747],[113.94648459325569,-7.6937728154623413]]],[[[113.94653005933556,-7.6937996051512005],[113.94652987212206,-7.6937725042051053],[113.94653892789509,-7.6937724419530866],[113.94653886549057,-7.6937634083044548],[113.94651169817176,-7.6937635950597159],[113.94651182297976,-7.6937816623574209],[113.94652087875318,-7.6937816001057087],[113.94652094115747,-7.6937906337544657],[113.94649377383649,-7.6937908205092498],[113.94649383624031,-7.6937998541582564],[113.94653005933556,-7.6937996051512005]]],[[[113.9465387406817,-7.6937453410071912],[113.94653867827739,-7.6937363073585283],[113.94652962250512,-7.693736369610253],[113.94652968490925,-7.6937454032589905],[113.9465387406817,-7.6937453410071912]]],[[[113.94650233038095,-7.6937184890663843],[113.94650226797764,-7.6937094554174275],[113.9464932122056,-7.693709517668168],[113.94649327460873,-7.6937185513171951],[113.94650233038095,-7.6937184890663843]]],[[[113.94649308739956,-7.6936914503700979],[113.94650214317122,-7.6936913881195066],[113.94650208076811,-7.6936823544705399],[113.94649302499667,-7.6936824167210558],[113.94649308739956,-7.6936914503700979]]],[[[113.94648390682252,-7.6936734453222622],[113.94649296259384,-7.6936733830720128],[113.94649290019107,-7.6936643494229626],[113.94648384441996,-7.6936644116731392],[113.94648390682252,-7.6936734453222622]]],[[[113.9464380039521,-7.6935834200755222],[113.9464470597219,-7.6935833578269603],[113.94644699732086,-7.693574324177515],[113.94643794155125,-7.6935743864260004],[113.9464380039521,-7.6935834200755222]]],[[[113.9464380039521,-7.6935834200755222],[113.94642894818223,-7.6935834823238904],[113.946428823381,-7.6935654150246817],[113.94641071184181,-7.6935655395205504],[113.94641064944167,-7.6935565058707853],[113.94639253790255,-7.6935566303657437],[113.9463926003023,-7.693565664015658],[113.9464016560721,-7.6935656017682001],[113.94640184327235,-7.693592702717698],[113.94641995481282,-7.6935925782217645],[113.94642001721346,-7.6936016118714399],[113.94641096144305,-7.6936016741195754],[113.94641108624414,-7.6936197414190612],[113.94642014201493,-7.6936196791707809],[113.94642039161876,-7.6936558137694053],[113.94642944739024,-7.6936557515206356],[113.94642950979159,-7.6936647851702045],[113.9464204540199,-7.6936648474190497],[113.94642057882243,-7.6936829147183277],[113.94643869036645,-7.6936827902201541],[113.94643900237598,-7.6937279584675347],[113.9464661696943,-7.693727771717735],[113.94646610729167,-7.6937187380684886],[113.94647516306411,-7.6937186758182508],[113.94647522546694,-7.6937277094674208],[113.9464661696943,-7.693727771717735],[113.94646641930558,-7.6937639063146763],[113.94647547507898,-7.6937638440640654],[113.94647553748219,-7.6937728777132151],[113.94648459325569,-7.6937728154623413],[113.94648440604573,-7.6937457145151154],[113.94647535027281,-7.6937457767657698],[113.94647528786983,-7.6937367431165882],[113.94648434364255,-7.6937366808660101],[113.94648409403065,-7.6937005462696089],[113.94649314980255,-7.6937004840191339],[113.94649308739956,-7.6936914503700979],[113.94648403162786,-7.6936915126204974],[113.94648390682252,-7.6936734453222622],[113.94645673950811,-7.6936736320718762],[113.9464566771061,-7.6936645984225311],[113.94646573287746,-7.693664536172923],[113.94646567047535,-7.6936555025236482],[113.94643850316162,-7.693655689271675],[113.94643844076018,-7.6936466556221719],[113.94642938498897,-7.6936467178710579],[113.94642919778565,-7.6936196169223035],[113.94643825355625,-7.6936195546736386],[113.9464380039521,-7.6935834200755222]],[[113.94645680191016,-7.6936826657212167],[113.94647491345357,-7.6936825412215173],[113.94647497585609,-7.6936915748707078],[113.9464568643123,-7.6936916993705537],[113.94645680191016,-7.6936826657212167]]],[[[113.94636474660575,-7.6934664806051529],[113.94635569083778,-7.6934665428510343],[113.94635581563431,-7.693484610151538],[113.94634675986585,-7.6934846723973767],[113.94634682226403,-7.6934937060476951],[113.94635587803268,-7.6934936438017827],[113.94635594043113,-7.6935026774520221],[113.94637405196855,-7.6935025529594743],[113.94637417676644,-7.6935206202596467],[113.94638323253542,-7.6935205580129411],[113.94638329493468,-7.693529591662946],[113.94637423916549,-7.6935296539097262],[113.94637430156463,-7.6935386875598208],[113.94640146887251,-7.6935385008186827],[113.9464014064728,-7.6935294671688128],[113.94641046224174,-7.6935294049214589],[113.94641039984192,-7.6935203712716742],[113.94640134407317,-7.6935204335189544],[113.94640128167362,-7.6935113998690907],[113.94638317013624,-7.69351152436293],[113.94638304533812,-7.693493457062897],[113.94637398956969,-7.6934935193093832],[113.94637392717094,-7.6934844856592859],[113.94636487140265,-7.6934845479055083],[113.94636474660575,-7.6934664806051529]]],[[[113.94633726731348,-7.6934214990901388],[113.94632821154622,-7.6934215613350814],[113.94632846113576,-7.6934576959370595],[113.9463375169038,-7.6934576336918212],[113.94633757930157,-7.6934666673422276],[113.9463466350697,-7.6934666050967273],[113.94634651027386,-7.6934485377960602],[113.94635556604155,-7.6934484755505137],[113.94635550364356,-7.6934394419002476],[113.94633739210849,-7.6934395663909987],[113.94633726731348,-7.6934214990901388]]],[[[113.94633726731348,-7.6934214990901388],[113.94634632308066,-7.693421436845008],[113.94634619828558,-7.6934033695443134],[113.94633714251877,-7.6934034317892985],[113.94633726731348,-7.6934214990901388]]],[[[113.94629180128737,-7.6933947093605513],[113.94629173889116,-7.6933856757097416],[113.94628268312428,-7.6933857379534336],[113.94628274552031,-7.6933947716043178],[113.94629180128737,-7.6933947093605513]]],[[[113.94631003761468,-7.6934126521737589],[113.94630997521793,-7.6934036185231038],[113.94631903098495,-7.6934035562786933],[113.94631890619132,-7.6933854889775217],[113.94630985042468,-7.6933855512217848],[113.94630991282128,-7.6933945848724479],[113.94630085705435,-7.6933946471165937],[113.94630098184739,-7.6934127144180522],[113.94631003761468,-7.6934126521737589]]],[[[113.94630972563172,-7.6933674839204498],[113.94630966323535,-7.6933584502697734],[113.94629155170298,-7.6933585747572861],[113.94629161409897,-7.6933676084081091],[113.94630972563172,-7.6933674839204498]]],[[[113.9462913645155,-7.6933314738048093],[113.94628230874976,-7.6933315360480572],[113.94628237114533,-7.6933405696989521],[113.94629142691124,-7.6933405074556287],[113.9462913645155,-7.6933314738048093]]],[[[113.9462913645155,-7.6933314738048093],[113.94630042028112,-7.6933314115613696],[113.94630029548946,-7.6933133442598169],[113.9462912397242,-7.6933134065031084],[113.9462913645155,-7.6933314738048093]]],[[[113.94628218395886,-7.6933134687462088],[113.94628212156351,-7.6933044350952882],[113.94627306579831,-7.6933044973381213],[113.94627312819344,-7.6933135309891183],[113.94628218395886,-7.6933134687462088]]],[[[113.94627300340322,-7.6932954636871225],[113.94627294100823,-7.6932864300361183],[113.94626388524331,-7.6932864922786157],[113.94626394763813,-7.6932955259296927],[113.94627300340322,-7.6932954636871225]]],[[[113.94618194660617,-7.693223816890181],[113.94617289084184,-7.6932238791302536],[113.94617295323421,-7.6932329127821024],[113.94618200899873,-7.6932328505419543],[113.94618194660617,-7.693223816890181]]],[[[113.94619100237044,-7.6932237546499165],[113.94619118954891,-7.6932508556050045],[113.94620930107834,-7.693250731123463],[113.94620923868506,-7.6932416974719189],[113.94620018292056,-7.6932417597127118],[113.94620005813462,-7.6932236924094601],[113.94619100237044,-7.6932237546499165]]],[[[113.94619100237044,-7.6932237546499165],[113.94619093997777,-7.6932147209981947],[113.94618188421369,-7.6932147832383855],[113.94618194660617,-7.693223816890181],[113.94619100237044,-7.6932237546499165]]],[[[113.9461816346445,-7.6931786486312452],[113.94618150986038,-7.6931605813276391],[113.94616339833431,-7.6931607058065614],[113.94616352311768,-7.6931787731104615],[113.9461816346445,-7.6931786486312452]]],[[[113.94619037844711,-7.6931334181326756],[113.94619025366335,-7.6931153508291761],[113.94618119790137,-7.6931154130685533],[113.94618132268475,-7.6931334803722011],[113.94619037844711,-7.6931334181326756]]],[[[113.9461722045308,-7.6931245089596558],[113.94617207974794,-7.6931064416558348],[113.946163023986,-7.6931065038947564],[113.94616314876848,-7.6931245711987248],[113.9461722045308,-7.6931245089596558]]],[[[113.94615384344223,-7.693088498829372],[113.94614478768055,-7.6930885610677615],[113.94614485007121,-7.6930975947198981],[113.9461539058331,-7.6930975324814304],[113.94615384344223,-7.693088498829372]]],[[[113.94615384344223,-7.693088498829372],[113.94616289920384,-7.6930884365907879],[113.94616271203117,-7.6930613356348028],[113.94615365627013,-7.6930613978731621],[113.94615371866075,-7.6930704315252365],[113.94614466289946,-7.6930704937634804],[113.94614472528997,-7.6930795274156241],[113.94615378105146,-7.6930794651773056],[113.94615384344223,-7.693088498829372]]],[[[113.94613541996755,-7.6930434550448572],[113.94613548235763,-7.6930524886970701],[113.94614453811866,-7.6930524264591646],[113.94614447572837,-7.6930433928070237],[113.94613541996755,-7.6930434550448572]]],[[[113.94613541996755,-7.6930434550448572],[113.94613535757753,-7.6930344213926247],[113.94611724605605,-7.693034545867568],[113.94611730844569,-7.6930435795199488],[113.94613541996755,-7.6930434550448572]]],[[[113.946117121277,-7.6930164785627895],[113.9461171836665,-7.6930255122151801],[113.94612623942709,-7.6930254499778767],[113.94612617703741,-7.6930164163255625],[113.946117121277,-7.6930164785627895]]],[[[113.94606197567155,-7.6928994144949225],[113.94606191328427,-7.6928903808420284],[113.94605285752604,-7.6928904430768874],[113.94605291991313,-7.6928994767298553],[113.94606197567155,-7.6928994144949225]]],[[[113.946117121277,-7.6930164785627895],[113.94611693410901,-7.6929893776055929],[113.94610787834912,-7.6929894398424086],[113.94610781596013,-7.6929804061899274],[113.94611687171984,-7.6929803439531845],[113.94611680933072,-7.6929713103007717],[113.94610775357123,-7.6929713725374409],[113.94610762879361,-7.6929533052324564],[113.94609857303442,-7.6929533674687853],[113.94609851064591,-7.6929443338162127],[113.94608945488682,-7.6929443960522788],[113.94608926772234,-7.6929172950943299],[113.94608021196376,-7.6929173573299812],[113.94608002480055,-7.6928902563717374],[113.94607096904244,-7.6928903186069775],[113.94607103142991,-7.6928993522597988],[113.94606197567155,-7.6928994144949225],[113.94606203805891,-7.692908448147814],[113.94607109381745,-7.6929083859126157],[113.94607128098055,-7.6929354868710389],[113.94608033673961,-7.6929354246354285],[113.94608046151576,-7.6929534919408731],[113.94608951727513,-7.6929534297049251],[113.94608957966351,-7.6929624633575848],[113.94609863542298,-7.6929624011213722],[113.94609869781164,-7.6929714347739182],[113.94608964205196,-7.6929714970102063],[113.9460897044405,-7.6929805306628403],[113.94609876020037,-7.6929804684264793],[113.94609882258916,-7.6929895020790351],[113.9460897668291,-7.6929895643154707],[113.94608995399538,-7.6930166652733325],[113.94609900975601,-7.6930166030366758],[113.94609894736699,-7.6930075693841165],[113.94610800312734,-7.6930075071473425],[113.94610806551655,-7.6930165407998299],[113.946117121277,-7.6930164785627895]]],[[[113.94609813631651,-7.6928901319006844],[113.94609819870456,-7.6928991655532828],[113.9461072544626,-7.6928991033173979],[113.94610719207436,-7.6928900696648723],[113.94609813631651,-7.6928901319006844]]],[[[113.94605285752604,-7.6928904430768874],[113.94605279513902,-7.6928814094239151],[113.94604373938088,-7.6928814716585103],[113.94604380176771,-7.6928905053115564],[113.94605285752604,-7.6928904430768874]]],[[[113.94609813631651,-7.6928901319006844],[113.94609807392854,-7.6928810982480824],[113.94608901817078,-7.6928811604836289],[113.94608908055855,-7.6928901941363073],[113.94609813631651,-7.6928901319006844]]],[[[113.94607096904244,-7.6928903186069775],[113.94607078188048,-7.6928632176484903],[113.94605267036523,-7.6928633421179571],[113.94605260797843,-7.6928543084649705],[113.94603449646324,-7.6928544329335251],[113.94603443407691,-7.6928453992803716],[113.94605254559173,-7.6928452748119645],[113.94605248320508,-7.6928362411589868],[113.9460434274479,-7.6928363033932117],[113.94604330267524,-7.6928182360870636],[113.94602519116144,-7.6928183605546456],[113.94602550309176,-7.6928635288207268],[113.94604361460746,-7.6928634043524031],[113.94604367699414,-7.6928724380054589],[113.94605273275208,-7.6928723757709374],[113.94605279513902,-7.6928814094239151],[113.94606185089707,-7.6928813471891289],[113.94606191328427,-7.6928903808420284],[113.94607096904244,-7.6928903186069775]]],[[[113.94603412214639,-7.69280023101462],[113.94603418453235,-7.6928092646677957],[113.94604324028901,-7.6928092024339811],[113.94604317790287,-7.6928001687808791],[113.94603412214639,-7.69280023101462]]],[[[113.94604286597328,-7.6927550005154233],[113.94605192172875,-7.692754938281861],[113.94605185934287,-7.6927459046288096],[113.94606091509804,-7.6927458423951309],[113.94606085271204,-7.6927368087421648],[113.94604274120196,-7.6927369332091793],[113.94604286597328,-7.6927550005154233]]],[[[113.94607902660819,-7.6927457179272052],[113.94607896422181,-7.6927366842743874],[113.94606990846697,-7.6927367465083707],[113.94606997085315,-7.692745780161264],[113.94607902660819,-7.6927457179272052]]],[[[113.94604267881643,-7.6927278995560604],[113.94605173457133,-7.692727837322721],[113.94605167218567,-7.6927188036696705],[113.94604261643097,-7.6927188659029353],[113.94604267881643,-7.6927278995560604]]],[[[113.9459513726658,-7.6926201180323091],[113.94595143504853,-7.692629151686222],[113.94596049080207,-7.6926290894556031],[113.94596042841916,-7.6926200558017674],[113.9459513726658,-7.6926201180323091]]],[[[113.9459513726658,-7.6926201180323091],[113.94595131028315,-7.6926110843783952],[113.94594225452992,-7.6926111466086748],[113.94594231691238,-7.6926201802626633],[113.9459513726658,-7.6926201180323091]]],[[[113.94597829039317,-7.692583796725307],[113.94597822801026,-7.6925747630715957],[113.94596917225802,-7.6925748253021524],[113.94596923464074,-7.6925838589559365],[113.94597829039317,-7.692583796725307]]],[[[113.94594231691238,-7.6926201802626633],[113.9459332611589,-7.6926202424928274],[113.94593307401233,-7.692593141530609],[113.94594212976524,-7.6925930793006669],[113.94594206738302,-7.692584045646683],[113.94596017888826,-7.692583921186376],[113.9459601165057,-7.6925748875325164],[113.9459510607533,-7.692574949762693],[113.94595093598883,-7.6925568824548156],[113.94594188023677,-7.6925569446846511],[113.94594181785484,-7.6925479110306494],[113.94595087360672,-7.6925478488008867],[113.94595081122466,-7.6925388151469223],[113.94594175547299,-7.6925388773766104],[113.9459416307095,-7.69252081006855],[113.94591446345511,-7.6925209967560289],[113.94591433869307,-7.6925029294475085],[113.94590528294182,-7.6925029916761378],[113.94590515818047,-7.692484924367454],[113.94589610242954,-7.6924849865957459],[113.94589641433254,-7.6925301548677956],[113.94590547008441,-7.6925300926391342],[113.94590634342549,-7.6926565637992681],[113.94591539917998,-7.6926565015693811],[113.9459153367978,-7.6926474679151893],[113.945924392552,-7.6926474056851841],[113.94592445493439,-7.692656439339304],[113.94591539917998,-7.6926565015693811],[113.94591552394458,-7.6926745688777567],[113.94592457969935,-7.6926745066475295],[113.94592451731684,-7.6926654729934194],[113.94593357307137,-7.6926654107630767],[113.94593363545408,-7.6926744444171131],[113.94592457969935,-7.6926745066475295],[113.94592464208196,-7.6926835403016369],[113.94593369783689,-7.6926834780711459],[113.9459338226027,-7.6927015453791983],[113.94595193411304,-7.692701420917353],[113.9459518717297,-7.6926923872634747],[113.94596092748459,-7.692692325032338],[113.94596098986811,-7.6927013586861408],[113.945979101378,-7.6927012342231498],[113.94597903899411,-7.6926922005694953],[113.9459971505033,-7.6926920761058888],[113.94599727527195,-7.6927101434129144],[113.9459610522517,-7.6927103923399569],[113.94596098986811,-7.6927013586861408],[113.94595193411304,-7.692701420917353],[113.94595205887991,-7.6927194882250918],[113.94596111463538,-7.6927194259937322],[113.94596117701911,-7.6927284596475225],[113.94597928853017,-7.6927283351840874],[113.94597935091437,-7.692737368837725],[113.94598840666995,-7.6927373066056468],[113.94598846905444,-7.6927463402592062],[113.94599752481014,-7.6927462780268643],[113.94599777434954,-7.6927824126407609],[113.94600683010594,-7.6927823504079322],[113.94600689249118,-7.6927913840613211],[113.94602500400416,-7.6927912595949461],[113.94602506638984,-7.6928002932481654],[113.94603412214639,-7.69280023101462],[113.94603399737471,-7.6927821637083023],[113.94604305313081,-7.6927821014747133],[113.94604286597328,-7.6927550005154233],[113.94603381021776,-7.6927550627487911],[113.94603393498898,-7.692773130055131],[113.94602487923301,-7.6927731922884579],[113.94602475446216,-7.6927551249819697],[113.94601569870647,-7.6927551872149582],[113.94601557393631,-7.6927371199082719],[113.94602462969161,-7.6927370576754317],[113.94602469207686,-7.6927460913286936],[113.94603374783226,-7.6927460290955878],[113.94603368544684,-7.6927369954424005],[113.94604274120196,-7.6927369332091793],[113.94604267881643,-7.6927278995560604],[113.94603362306148,-7.6927279617892053],[113.9460335606762,-7.6927189281360091],[113.94604261643097,-7.6927188659029353],[113.94604255404558,-7.6927098322498244],[113.94602444253636,-7.692709956715631],[113.94602438015143,-7.6927009230623344],[113.94601532439688,-7.692700985294878],[113.94601526201222,-7.6926919516415193],[113.94600620625782,-7.6926920138738],[113.94600608148909,-7.6926739465669192],[113.94599702573497,-7.6926740087988623],[113.9459970881191,-7.6926830424523773],[113.94598803236472,-7.6926831046842024],[113.94598796998079,-7.6926740710306127],[113.94597891422653,-7.6926741332621749],[113.94597897661028,-7.6926831669158355],[113.94596992085575,-7.6926832291472795],[113.94596985847218,-7.6926741954935434],[113.94597891422653,-7.6926741332621749],[113.94597885184285,-7.6926650996085053],[113.94599696335091,-7.6926649751453429],[113.94599677619919,-7.692637874184741],[113.94594244167753,-7.6926382475706125],[113.94594231691238,-7.6926201802626633]],[[113.94595155981419,-7.6926472189940291],[113.94596061556813,-7.6926471567632628],[113.94596067795126,-7.692656190417086],[113.94595162219714,-7.6926562526479252],[113.94595155981419,-7.6926472189940291]],[[113.94595168458018,-7.6926652863018203],[113.94596074033448,-7.6926652240709066],[113.94596080271778,-7.6926742577247218],[113.94595174696327,-7.692674319955711],[113.94595168458018,-7.6926652863018203]]],[[[113.94587792854747,-7.6924760773971865],[113.94587786616756,-7.692467043742611],[113.9458688104168,-7.6924671059701835],[113.94586887279652,-7.6924761396248327],[113.94587792854747,-7.6924760773971865]]],[[[113.94589541624963,-7.6923856163968409],[113.94588636050074,-7.6923856786241291],[113.94588642288015,-7.6923947122786842],[113.94587736713098,-7.6923947745058543],[113.94587730475175,-7.6923857408512237],[113.9458682490027,-7.6923858030781318],[113.94586874803716,-7.6924580723155298],[113.94587780378772,-7.692458010088032],[113.94587761664867,-7.6924309091242513],[113.94588667239861,-7.6924308468967828],[113.94588648525966,-7.692403745933218],[113.94590459675813,-7.6924036214781566],[113.94590453437826,-7.6923945878237703],[113.94589547862924,-7.6923946500513223],[113.94589541624963,-7.6923856163968409]]],[[[113.94586762521642,-7.6922954665310348],[113.94585856946918,-7.6922955287570112],[113.94585875660371,-7.6923226297214127],[113.94586781235152,-7.6923225674952134],[113.94586818662373,-7.6923767694234559],[113.94587724237259,-7.6923767071966243],[113.9458771176145,-7.6923586398873738],[113.94588617336292,-7.6923585776604995],[113.94588611098379,-7.6923495440059408],[113.94587705523557,-7.6923496062327432],[113.94587693047792,-7.6923315389234679],[113.94588598622578,-7.6923314766968138],[113.94588586146806,-7.6923134093876708],[113.94587680572059,-7.6923134716141766],[113.94587674334204,-7.6923044379595229],[113.9458676875947,-7.6923045001857648],[113.94586762521642,-7.6922954665310348]]],[[[113.94589485483648,-7.6923043135064679],[113.94589479245762,-7.6922952798519626],[113.94588573671064,-7.6922953420785083],[113.9458857990893,-7.6923043757330918],[113.94589485483648,-7.6923043135064679]]],[[[113.94589441818603,-7.692241077924816],[113.94587630669426,-7.6922412023768372],[113.94587636907229,-7.6922502360315193],[113.94588542481841,-7.6922501738055304],[113.94588561195351,-7.6922772747693315],[113.94589466770013,-7.6922772125429288],[113.94589441818603,-7.692241077924816]]],[[[113.94584901470137,-7.6922233217435974],[113.94583995895553,-7.6922233839686029],[113.94584020846445,-7.6922595185885401],[113.94585831995757,-7.69225939413775],[113.94585813282463,-7.6922322931732587],[113.94584907707868,-7.6922323553985272],[113.94584901470137,-7.6922233217435974]]],[[[113.94583065370269,-7.6921873115731456],[113.94582159795748,-7.6921873737974717],[113.94582178508698,-7.6922144747629178],[113.94583084083277,-7.6922144125383678],[113.945830778456,-7.6922053788832994],[113.94583983420155,-7.6922053166586313],[113.94583977182467,-7.6921962830036312],[113.9458307160793,-7.6921963452282256],[113.94583065370269,-7.6921873115731456]]],[[[113.94577538360718,-7.6920521800829107],[113.94577544598152,-7.6920612137384978],[113.94578450172445,-7.6920611515161585],[113.94578443934991,-7.692052117860646],[113.94577538360718,-7.6920521800829107]]],[[[113.94577538360718,-7.6920521800829107],[113.94577525885873,-7.6920341127717275],[113.94576620311631,-7.6920341749936529],[113.94576626549029,-7.6920432086493227],[113.94575720974758,-7.6920432708711308],[113.94575727212147,-7.6920523045268707],[113.94577538360718,-7.6920521800829107]]],[[[113.94576620311631,-7.6920341749936529],[113.94576607836852,-7.6920161076822868],[113.9457570226264,-7.6920161699038738],[113.94575714737377,-7.69203423721539],[113.94576620311631,-7.6920341749936529]]],[[[113.94572036304902,-7.6919531831958929],[113.94572055016634,-7.6919802841641109],[113.94572960590799,-7.6919802219435791],[113.94572966828078,-7.6919892555995686],[113.94573872402253,-7.6919891933787738],[113.94573853690385,-7.6919620924110133],[113.94572948116264,-7.6919621546315851],[113.94572941879011,-7.6919531209755823],[113.94572036304902,-7.6919531831958929]]],[[[113.94575639889398,-7.6919258333461622],[113.94575629587159,-7.6919109122784901],[113.94575627414841,-7.691907766034543],[113.9457472184085,-7.6919078282550553],[113.94574724013162,-7.6919109744990255],[113.9457473431537,-7.6919258955668193],[113.94575639889398,-7.6919258333461622]]],[[[113.9457101222509,-7.6917816059483295],[113.94571005988023,-7.6917725722920922],[113.94570100414282,-7.6917726345105413],[113.94570106651329,-7.6917816681668505],[113.9457101222509,-7.6917816059483295]]],[[[113.94567402404003,-7.6917999221343276],[113.94567389930002,-7.6917818548212757],[113.9456648435621,-7.6917819170390365],[113.94566478119239,-7.6917728833824288],[113.94565572545459,-7.6917729455999257],[113.94565541360814,-7.6917277773164594],[113.94566446934498,-7.6917277150993328],[113.94566440697571,-7.691718681442719],[113.94567346271229,-7.6917186192254743],[113.94567340034293,-7.6917095855688951],[113.94566434460654,-7.691709647786066],[113.94566415749945,-7.6916825468161312],[113.94565510176356,-7.6916826090328856],[113.94565516413233,-7.6916916426896096],[113.94563705265995,-7.6916917671227001],[113.94563736450299,-7.6917369354069898],[113.94562830876575,-7.6917369976236181],[113.94562837113438,-7.6917460312805366],[113.94563742687183,-7.6917459690638346],[113.94563780108641,-7.6918001710048163],[113.94564685682494,-7.6918001087874801],[113.94564679445546,-7.6917910751307321],[113.9456558501937,-7.6917910129132814],[113.94565603730294,-7.6918181138832837],[113.94566509304167,-7.6918180516654173],[113.94566521778192,-7.6918361189785829],[113.94567427352099,-7.6918360567603807],[113.94567433589143,-7.6918450904168809],[113.9456833916306,-7.6918450281984123],[113.94568370348482,-7.6918901964804913],[113.94569275922487,-7.6918901342614632],[113.94569269685367,-7.69188110060513],[113.94570175259346,-7.6918810383859855],[113.94570196143061,-7.6919112855988487],[113.94570206445111,-7.6919262066672536],[113.94571112019177,-7.6919261444475477],[113.94571130730783,-7.6919532454160091],[113.94572036304902,-7.6919531831958929],[113.94572023830452,-7.6919351158837248],[113.94572929404521,-7.6919350536635642],[113.94572912865145,-7.6919110989395252],[113.94572898218433,-7.6918898853834428],[113.94571992644458,-7.6918899476032339],[113.94571998881641,-7.6918989812593397],[113.9457109330764,-7.6918990434790153],[113.94571087070474,-7.6918900098228349],[113.94571992644458,-7.6918899476032339],[113.94571980170113,-7.6918718802910062],[113.94571074596168,-7.6918719425104589],[113.94571068359026,-7.691862908854266],[113.94570162785094,-7.6918629710734532],[113.94570156547979,-7.691853937417183],[113.94571062121892,-7.6918538751980687],[113.94571055884765,-7.6918448415418661],[113.94569244736968,-7.6918449659797554],[113.94569232262813,-7.6918268986670411],[113.94570137836678,-7.6918268364483398],[113.94570144073771,-7.691835870104625],[113.94571049647647,-7.6918358078856572],[113.94571024699245,-7.6917996732607881],[113.94570119125446,-7.6917997354794609],[113.94570131599593,-7.6918178027920519],[113.94569226025747,-7.6918178650106794],[113.94569213551638,-7.6917997976979402],[113.94570119125446,-7.6917997354794609],[113.94570112888384,-7.6917907018231579],[113.945683017408,-7.6917908262597807],[113.94568307977825,-7.6917998599162294],[113.94567402404003,-7.6917999221343276],[113.94567408641016,-7.6918089557908305],[113.94566503067168,-7.6918090180088114],[113.94566496830173,-7.6917999843522367],[113.94567402404003,-7.6917999221343276]]],[[[113.94549884677096,-7.691349421340326],[113.94549890913369,-7.6913584549984462],[113.94548985340333,-7.691358517209113],[113.94548991576593,-7.6913675508673203],[113.94548086003529,-7.6913676130778681],[113.94548092239778,-7.6913766467361455],[113.94548997812862,-7.6913765845255249],[113.94549004049138,-7.691385618183725],[113.94549909622231,-7.691385555972837],[113.94549922094843,-7.6914036232890783],[113.94550827667969,-7.6914035610778528],[113.9455084014065,-7.6914216283939263],[113.94549934567486,-7.6914216906052992],[113.94549947040159,-7.6914397579214864],[113.94550852613361,-7.6914396957099669],[113.94550846377003,-7.6914306620519559],[113.94551751950176,-7.6914305998403192],[113.94551776895734,-7.6914667344721046],[113.94552682468976,-7.6914666722599812],[113.94552694941839,-7.6914847395757002],[113.9455450608838,-7.6914846151505847],[113.94554531034349,-7.6915207497813789],[113.94555436607686,-7.6915206875682394],[113.94555430371163,-7.691511653910637],[113.94556335944471,-7.6915115916973829],[113.94556354654119,-7.6915386926699867],[113.94557260227477,-7.6915386304563178],[113.9455729141047,-7.6915837987435607],[113.94558196983918,-7.6915837365293331],[113.94558209457206,-7.6916018038440361],[113.94559115030683,-7.6916017416294684],[113.94559152450843,-7.691655943573096],[113.94560963598003,-7.6916558191425057],[113.94560969834762,-7.6916648527996117],[113.9456187540835,-7.6916647905839559],[113.94561887881926,-7.691682857898007],[113.94563699029158,-7.6916827334658278],[113.94563692792326,-7.6916736998089528],[113.94562787218734,-7.6916737620250641],[113.94562762271565,-7.691637627397224],[113.94561856698041,-7.6916376896128469],[113.94561850461287,-7.6916286559558031],[113.94560944887775,-7.6916287181711631],[113.94560919940909,-7.6915925835426462],[113.94560014367467,-7.6915926457575177],[113.94560008130789,-7.6915836121003061],[113.94559102557356,-7.6915836743149129],[113.94559090084059,-7.6915656070003262],[113.94558184510659,-7.6915656692145964],[113.94558178274042,-7.6915566355572382],[113.94559083847423,-7.6915565733430427],[113.94559077610792,-7.6915475396857191],[113.94558172037432,-7.691547601899841],[113.94558165800828,-7.6915385682424589],[113.94559071374171,-7.6915385060284098],[113.94559065137557,-7.691529472371097],[113.94558159564234,-7.6915295345850714],[113.94558153327645,-7.6915205009276795],[113.9455905890095,-7.6915204387137788],[113.94559052664351,-7.6915114050564721],[113.94558147091065,-7.6915114672702991],[113.94558140854492,-7.6915024336128814],[113.94556329707936,-7.691502558039816],[113.94556323471409,-7.6914935243822651],[113.9455541789814,-7.6914935865953726],[113.94555399188663,-7.6914664856224668],[113.94556304761875,-7.6914664234095813],[113.94556292288888,-7.6914483560944387],[113.94554481142531,-7.6914484805197221],[113.94554474906087,-7.6914394468619776],[113.94553569332918,-7.6914395090742609],[113.94553575569341,-7.6914485427320791],[113.94552669996143,-7.6914486049442461],[113.94552657523342,-7.6914305376284933],[113.94554468669652,-7.6914304132042659],[113.94554462433224,-7.691421379546532],[113.94553556860093,-7.6914214417586644],[113.9455353815091,-7.6913943407851955],[113.94551727004736,-7.6913944652084503],[113.94551714532064,-7.6913763978925163],[113.94552620105115,-7.6913763356811327],[113.9455261386877,-7.6913673020232238],[113.94551708295737,-7.6913673642345346],[113.9455169582311,-7.6913492969185722],[113.94549884677096,-7.691349421340326]]],[[[113.94552588923466,-7.6913311673915459],[113.94552582687159,-7.6913221337336175],[113.94551677114222,-7.6913221959445579],[113.94551683350511,-7.6913312296025627],[113.94552588923466,-7.6913311673915459]]],[[[113.94550765305017,-7.6913132244972253],[113.94550759068763,-7.6913041908391557],[113.94549853495847,-7.6913042530495668],[113.94549859732082,-7.6913132867077092],[113.94550765305017,-7.6913132244972253]]],[[[113.94552576450859,-7.691313100075682],[113.94552570214567,-7.6913040664177608],[113.94551664641669,-7.6913041286285546],[113.94551670877942,-7.6913131622865487],[113.94552576450859,-7.691313100075682]]],[[[113.94548941686718,-7.6912952816015325],[113.94549847259621,-7.6912952193913844],[113.94549841023401,-7.691286185733218],[113.94548935450518,-7.6912862479432897],[113.94548941686718,-7.6912952816015325]]],[[[113.94548935450518,-7.6912862479432897],[113.94548929214325,-7.6912772142850425],[113.94548023641453,-7.6912772764948523],[113.94548029877626,-7.6912863101531714],[113.94548935450518,-7.6912862479432897]]],[[[113.94547093124031,-7.6912412040708462],[113.94547998696832,-7.6912411418615232],[113.94547986224568,-7.6912230745448342],[113.94547080651803,-7.6912231367540089],[113.94547093124031,-7.6912412040708462]]],[[[113.94548879325053,-7.6912049450189111],[113.94548873088928,-7.6911959113606247],[113.94547061943521,-7.6911960357787228],[113.94547068179608,-7.6912050694371548],[113.94548879325053,-7.6912049450189111]]],[[[113.94547093124031,-7.6912412040708462],[113.94546187551221,-7.6912412662799783],[113.94546175079032,-7.6912231989629936],[113.94545269506251,-7.6912232611717855],[113.9454525703413,-7.6912051938546364],[113.94544351461381,-7.6912052560630908],[113.94544345225351,-7.6911962224044368],[113.94546156370807,-7.6911960979874845],[113.94546150134747,-7.6911870643289548],[113.9454524456204,-7.6911871265374527],[113.94545238326008,-7.6911780928788795],[113.94544332753316,-7.6911781550871128],[113.9454432651731,-7.6911691214284437],[113.9454251537194,-7.6911692458441889],[113.94542509135979,-7.6911602121853706],[113.94543414708649,-7.6911601499776667],[113.94543408472677,-7.6911511163189168],[113.94544314045318,-7.6911510541110966],[113.94544301573357,-7.6911329867937281],[113.94543396000755,-7.6911330490014018],[113.94543389764804,-7.6911240153426359],[113.9454248419221,-7.6911240775500458],[113.94542477956287,-7.6911150438912035],[113.94543383528863,-7.69111498168387],[113.94543371056999,-7.6910969143663204],[113.94541559911922,-7.6910970387805024],[113.94541528732589,-7.6910518704858175],[113.94539717587671,-7.6910519948984994],[113.94539711351865,-7.6910429612393996],[113.94540616924307,-7.6910428990332287],[113.9454061068849,-7.6910338653741999],[113.94539705116067,-7.6910339275802979],[113.94539698880276,-7.6910248939211741],[113.94540604452681,-7.6910248317151524],[113.94540598216878,-7.6910157980561324],[113.94539692644493,-7.6910158602620804],[113.9453968017295,-7.6909977929438442],[113.94538774600596,-7.6909978551494573],[113.94538749657676,-7.6909617205126395],[113.94537844085387,-7.6909617827177641],[113.94537837849695,-7.6909527490584759],[113.94536932277423,-7.6909528112633385],[113.94536907334805,-7.6909166766258448],[113.94536001762599,-7.6909167388302189],[113.94535989291373,-7.690898671511297],[113.94535083719198,-7.6908987337153318],[113.94535096190384,-7.690916801034402],[113.94534190618165,-7.6909168632383942],[113.94534178147016,-7.6908987959191784],[113.94533272574826,-7.6908988581228339],[113.94533291281502,-7.6909259591018717],[113.94534196853751,-7.6909258968979968],[113.94534209324944,-7.690943964217186],[113.94535114897222,-7.6909439020129726],[113.94535139839775,-7.6909800366509877],[113.94536950984462,-7.6909799122413958],[113.94536957220159,-7.6909889459007621],[113.94536051647798,-7.6909890081057277],[113.94536082826293,-7.6910341764027814],[113.94537893971196,-7.6910340519919211],[113.94537912678499,-7.6910611529696586],[113.94539723823485,-7.6910610285575931],[113.94539730059304,-7.6910700622166823],[113.94538824486797,-7.6910701244228852],[113.94538855665918,-7.6911152927186359],[113.94539761238522,-7.6911152305120645],[113.94539798653831,-7.6911694324663804],[113.94540704226542,-7.6911693702591757],[113.94540729170308,-7.6912055048950068],[113.94542540315859,-7.6912053804794294],[113.94542552787865,-7.6912234477970234],[113.9454345836067,-7.6912233855888026],[113.94543470832743,-7.6912414529062314],[113.94544376405575,-7.6912413906976695],[113.94544395113799,-7.6912684916735579],[113.94545300686681,-7.6912684294645857],[113.94545325631162,-7.6913045640987674],[113.94546231204116,-7.6913045018893076],[113.94546237440274,-7.6913135355477458],[113.94547143013236,-7.6913134733380222],[113.94547161721813,-7.6913405743131431],[113.94548972867834,-7.6913404498926816],[113.94548979104079,-7.6913494835509164],[113.94549884677096,-7.691349421340326],[113.94549872204574,-7.691331354024018],[113.94550777777546,-7.6913312918133832],[113.94550771541277,-7.6913222581553056],[113.94548960395366,-7.6913223825762342],[113.94548941686718,-7.6912952816015325],[113.9454713054089,-7.6912954060212551],[113.94547118068573,-7.6912773387044693],[113.94548023641453,-7.6912772764948523],[113.94548011169127,-7.6912592091781962],[113.94547105596287,-7.6912592713876657],[113.94547093124031,-7.6912412040708462]]],[[[113.94531448959417,-7.6908809152098963],[113.94531461430422,-7.6908989825295704],[113.94532367002627,-7.6908989203262967],[113.94532354531586,-7.6908808530067683],[113.94531448959417,-7.6908809152098963]]],[[[113.94531448959417,-7.6908809152098963],[113.94531442723927,-7.6908718815500503],[113.94530537151772,-7.6908719437529101],[113.94530543387243,-7.6908809774128288],[113.94531448959417,-7.6908809152098963]]],[[[113.94526827568338,-7.6907457213189954],[113.94526821333055,-7.6907366876587169],[113.94525915761149,-7.6907367498595178],[113.94525921996411,-7.6907457835198709],[113.94526827568338,-7.6907457213189954]]],[[[113.94532354531586,-7.6908808530067683],[113.94533260103746,-7.690880790803452],[113.94533266339282,-7.6908898244631452],[113.94535077483617,-7.6908897000557932],[113.94535065012477,-7.6908716327366982],[113.9453415944035,-7.69087169494032],[113.94534128262725,-7.6908265266421409],[113.94535033834755,-7.690826464438886],[113.94535027599234,-7.6908174307792967],[113.94534122027224,-7.6908174929824762],[113.94534103320761,-7.6907903920035192],[113.94533197748798,-7.6907904542062884],[113.94533191513345,-7.6907814205465481],[113.94532285941396,-7.6907814827490517],[113.9453227970597,-7.6907724490892173],[113.94531374134031,-7.6907725112914553],[113.94531367898631,-7.6907634776315765],[113.94530462326706,-7.690763539833549],[113.94530456091333,-7.6907545061735743],[113.94531361663238,-7.6907544439716764],[113.94531349192476,-7.6907363766518611],[113.94530443620609,-7.6907364388536141],[113.94530431149916,-7.6907183715336336],[113.9452862000623,-7.6907184959362711],[113.94528638712167,-7.6907455969166785],[113.94527733140256,-7.6907456591179324],[113.94527739375565,-7.690754692778131],[113.94526833803626,-7.6907547549792721],[113.94526846274228,-7.6907728222997909],[113.94527751846204,-7.690772760098505],[113.94527758081534,-7.6907817937587106],[113.94528663653522,-7.6907817315571592],[113.94528707301183,-7.6908449671778367],[113.94529612873299,-7.6908449049755765],[113.94529600402461,-7.6908268376555542],[113.94530505974529,-7.6908267754532504],[113.94530518445404,-7.690844842773128],[113.94531424017501,-7.6908447805704885],[113.94531436488444,-7.6908628478901999],[113.94532342060575,-7.690862785687222],[113.94532354531586,-7.6908808530067683]],[[113.94530499739103,-7.6908177417932917],[113.94529594167055,-7.6908178039955173],[113.94529581696264,-7.6907997366754834],[113.94530487268274,-7.6907996744734062],[113.94530499739103,-7.6908177417932917]]],[[[113.94525903290646,-7.6907186825387992],[113.94525897055406,-7.6907096488784337],[113.9452499148355,-7.6907097110788207],[113.9452499771877,-7.6907187447392582],[113.94525903290646,-7.6907186825387992]]],[[[113.9452499148355,-7.6907097110788207],[113.94524985248337,-7.690700677418377],[113.94524079676491,-7.6907007396184985],[113.94524085911684,-7.6907097732790168],[113.9452499148355,-7.6907097110788207]]],[[[113.9452226229763,-7.6906918303575011],[113.9452135672578,-7.6906918925569805],[113.94521375431189,-7.6907189935391971],[113.94523186574996,-7.6907188691396096],[113.94523174104637,-7.6907008018184309],[113.94522268532778,-7.6907008640181722],[113.9452226229763,-7.6906918303575011]]],[[[113.94528613770932,-7.6907094622761285],[113.9452951934276,-7.6907094000749776],[113.94529506872151,-7.6906913327548247],[113.94528601300361,-7.6906913949558264],[113.94528613770932,-7.6907094622761285]]],[[[113.94529506872151,-7.6906913327548247],[113.9453041244393,-7.690691270553633],[113.94530406208618,-7.6906822368936236],[113.94529500636857,-7.6906822990947425],[113.94529506872151,-7.6906913327548247]]],[[[113.94519514406714,-7.6906468486508404],[113.94519508171669,-7.6906378149899224],[113.94518602599913,-7.6906378771883857],[113.94518608834939,-7.6906469108493765],[113.94519514406714,-7.6906468486508404]]],[[[113.94528601300361,-7.6906913949558264],[113.94528588829819,-7.6906733276355075],[113.9452949440157,-7.690673265434655],[113.94529481931021,-7.6906551981144666],[113.94528576359306,-7.6906552603151725],[113.94528563888825,-7.6906371929948225],[113.94527658317145,-7.6906372551951874],[113.9452768949331,-7.6906824234964075],[113.94524972777933,-7.6906826100974737],[113.94524985248337,-7.690700677418377],[113.94525890820174,-7.690700615218061],[113.94525897055406,-7.6907096488784337],[113.94526802627256,-7.6907095866778539],[113.94526808862514,-7.6907186203381466],[113.94525903290646,-7.6907186825387992],[113.94525909525893,-7.6907277161991763],[113.94527720669663,-7.6907275917975362],[113.94527714434378,-7.6907185581373039],[113.9452862000623,-7.6907184959362711],[113.94528613770932,-7.6907094622761285],[113.94527708199098,-7.6907095244770867],[113.94527695728564,-7.6906914571566398],[113.94528601300361,-7.6906913949558264]]],[[[113.94518602599913,-7.6906378771883857],[113.94518596364894,-7.6906288435273886],[113.94517690793148,-7.6906289057255854],[113.94517697028149,-7.6906379393866544],[113.94518602599913,-7.6906378771883857]]],[[[113.94524910426365,-7.6905922734927135],[113.9452490419125,-7.6905832398322138],[113.94523998619651,-7.6905833020313752],[113.94524004854748,-7.6905923356919494],[113.94524910426365,-7.6905922734927135]]],[[[113.94516716637101,-7.6905295976507313],[113.94515811065551,-7.6905296598477344],[113.9451581730043,-7.6905386935090005],[113.94516722872,-7.6905386313119228],[113.94516716637101,-7.6905295976507313]]],[[[113.94515767421609,-7.6904664242187621],[113.9451576118679,-7.690457390557464],[113.94514855615384,-7.6904574527536838],[113.94514861850185,-7.6904664864150574],[113.94515767421609,-7.6904664242187621]]],[[[113.94516660523357,-7.6904482946998218],[113.94516654288535,-7.6904392610385859],[113.94515748717177,-7.6904393232348527],[113.94515754951979,-7.6904483568961588],[113.94516660523357,-7.6904482946998218]]],[[[113.94513918870184,-7.6904123466424172],[113.9451301329886,-7.6904124088378873],[113.945130382378,-7.6904485434840302],[113.945139438092,-7.6904484812882643],[113.94513918870184,-7.6904123466424172]]],[[[113.94512070319458,-7.6903582690633971],[113.94512057850162,-7.6903402017400841],[113.94511152278974,-7.6903402639345808],[113.94511164748232,-7.690358331258043],[113.94512070319458,-7.6903582690633971]]],[[[113.94511152278974,-7.6903402639345808],[113.94511139809748,-7.6903221966111186],[113.94510234238591,-7.6903222588052804],[113.94510246707779,-7.6903403261288892],[113.94511152278974,-7.6903402639345808]]],[[[113.94519514406714,-7.6906468486508404],[113.94519520641768,-7.690655882311753],[113.94521331785337,-7.6906557579139623],[113.94521338020436,-7.6906647915747222],[113.94522243592229,-7.6906647293754675],[113.94522249827355,-7.690673763036151],[113.94524060970953,-7.6906736386369197],[113.94524054735788,-7.6906646049763845],[113.94526771451073,-7.6906644183763317],[113.94526765215859,-7.6906553847160133],[113.94525859644125,-7.6906554469161499],[113.94525840938586,-7.6906283459349485],[113.94524029795208,-7.6906284703342012],[113.94524036030342,-7.690637503994755],[113.94522224886897,-7.6906376283933922],[113.94522218651801,-7.6906285947326936],[113.94523124223508,-7.690628532533542],[113.94523117988402,-7.6906194988729126],[113.94524023560081,-7.6906194366736447],[113.94524017324963,-7.6906104030130678],[113.94522206181632,-7.6906105274112635],[113.9452219994656,-7.6906014937505676],[113.94520388803235,-7.6906016181478529],[113.94520357628174,-7.6905564498434842],[113.94519452056595,-7.6905565120414714],[113.94519408411961,-7.6904932764146601],[113.94520313983405,-7.690493214217188],[113.94520295278618,-7.690466113234427],[113.94521200849996,-7.6904660510369878],[113.94521194615064,-7.6904570173761329],[113.94520289043705,-7.6904570795734966],[113.94520264104122,-7.6904209449297358],[113.9451935853283,-7.6904210071266146],[113.94519364767696,-7.6904300407876356],[113.94518459196378,-7.6904301029843953],[113.94518446726694,-7.6904120356622059],[113.94519352297974,-7.69041197346559],[113.94519346063123,-7.6904029398045441],[113.94518440491863,-7.6904030020010827],[113.94518421787417,-7.6903759010177657],[113.94516610644988,-7.690376025409833],[113.94516604410225,-7.6903669917485642],[113.9451569883902,-7.6903670539442359],[113.94515692604284,-7.6903580202829049],[113.9451659817547,-7.6903579580873078],[113.94516591940723,-7.6903489244260159],[113.94515686369556,-7.6903489866215384],[113.94515673900122,-7.6903309192988241],[113.94516579471251,-7.6903308571034481],[113.9451656700181,-7.6903127897808812],[113.94515661430718,-7.6903128519761115],[113.94515624022689,-7.690258650007797],[113.94512907309712,-7.6902588365910125],[113.94512901075124,-7.690249802929392],[113.94513806646104,-7.6902497407352515],[113.94513800411505,-7.690240707073702],[113.94511989269573,-7.6902408314616446],[113.94512014207864,-7.6902769661084101],[113.94510203065748,-7.6902770904961821],[113.94510228004008,-7.6903132251434849],[113.94511133575145,-7.6903131629493995],[113.9451112734055,-7.6903041292876431],[113.94512032911659,-7.6903040670934386],[113.94512045380895,-7.6903221344167703],[113.94512950952038,-7.6903220722222283],[113.94512975890677,-7.6903582068685612],[113.94513881461884,-7.6903581446735334],[113.94513900166001,-7.6903852456579864],[113.94512994594734,-7.6903853078532354],[113.94512975890677,-7.6903582068685612],[113.94512070319458,-7.6903582690633971],[113.94512095258139,-7.6903944037099219],[113.94514811971999,-7.6903942171239539],[113.94514818206746,-7.690403250785339],[113.94513912635448,-7.6904033129809264],[113.94513918870184,-7.6904123466424172],[113.94514824441499,-7.6904122844467544],[113.94514836911031,-7.6904303517695407],[113.94517553625055,-7.6904301651809677],[113.94517572329579,-7.6904572661644472],[113.94516666758189,-7.6904573283610516],[113.94516672993025,-7.690466362022276],[113.94515767421609,-7.6904664242187621],[113.94515786126109,-7.6904935252026325],[113.94516691697584,-7.6904934630059252],[113.94516716637101,-7.6905295976507313],[113.94517622208645,-7.6905295354535372],[113.94517634678486,-7.6905476027757675],[113.94516729106904,-7.6905476649731073],[113.94516754046603,-7.6905837996178112],[113.94517659618262,-7.690583737420174],[113.94517653383306,-7.6905747037590784],[113.94518558954937,-7.6905746415613248],[113.94518583894877,-7.6906107762053688],[113.94517678323172,-7.6906108384034182],[113.94517672088193,-7.690601804742351],[113.94516766516497,-7.6906018669401366],[113.94516778986421,-7.6906199342624459],[113.945194957016,-7.6906197476680767],[113.94519501936631,-7.690628781329],[113.94520407508362,-7.690628719130423],[113.9452041374342,-7.6906377527912708],[113.94521319315162,-7.6906376905924256],[113.94521325550245,-7.6906467242531971],[113.94519514406714,-7.6906468486508404]],[[113.9451855271997,-7.6905656079002824],[113.94517647148359,-7.6905656700979614],[113.94517640913419,-7.6905566364368738],[113.9451854648501,-7.6905565742392685],[113.9451855271997,-7.6905656079002824]],[[113.94516641818912,-7.6904211937161069],[113.94515736247591,-7.6904212559122227],[113.94515730012812,-7.6904122222509024],[113.94516635584112,-7.6904121600548621],[113.94516641818912,-7.6904211937161069]],[[113.94517534920597,-7.6904030641974357],[113.94516629349319,-7.6904031263935924],[113.94516616879757,-7.6903850590710938],[113.94517522450997,-7.6903849968750837],[113.94517534920597,-7.6904030641974357]],[[113.94514755859618,-7.6903129141711499],[113.94513850288511,-7.6903129763659983],[113.9451384405386,-7.6903039427044604],[113.94514749624946,-7.6903038805096875],[113.94514755859618,-7.6903129141711499]],[[113.94514743390283,-7.6902948468482348],[113.94513837819214,-7.6902949090429384],[113.94513831584578,-7.6902858753814103],[113.94514737155627,-7.6902858131867831],[113.94514743390283,-7.6902948468482348]],[[113.94514730920977,-7.6902767795253233],[113.94513825349948,-7.6902768417198759],[113.94513819115326,-7.6902678080583398],[113.94514724686336,-7.6902677458638582],[113.94514730920977,-7.6902767795253233]]],[[[113.94511970565937,-7.6902137304765255],[113.94511976800474,-7.6902227641382366],[113.94512882371407,-7.6902227019445082],[113.94512876136849,-7.6902136682828717],[113.94511970565937,-7.6902137304765255]]],[[[113.94500123332499,-7.6901061350243118],[113.94500110864121,-7.6900880676988361],[113.94499205293371,-7.690088129888788],[113.9449921776171,-7.6901061972144111],[113.94500123332499,-7.6901061350243118]]],[[[113.94511970565937,-7.6902137304765255],[113.94511951862364,-7.6901866294913681],[113.94511046291504,-7.6901866916846089],[113.94511033822532,-7.6901686243610019],[113.94511939393357,-7.6901685621679077],[113.94511933158863,-7.6901595285061726],[113.94512838729661,-7.6901594663129602],[113.94512832495157,-7.6901504326513113],[113.94514643636688,-7.6901503082644647],[113.94514637402153,-7.690141274602925],[113.94515542972891,-7.6901412124092916],[113.94515536738344,-7.6901321787478354],[113.94514631167625,-7.6901322409413986],[113.94514618698592,-7.6901141736183281],[113.94512807557213,-7.6901142980045831],[113.94512785354478,-7.6900821264808696],[113.94501918983258,-7.6900835638087202],[113.94501934474052,-7.690106010643543],[113.94500123332499,-7.6901061350243118],[113.94500129566697,-7.6901151686870186],[113.94501035137499,-7.6901151064966546],[113.94501041371726,-7.6901241401592975],[113.94502852513338,-7.6901240157778519],[113.94502858747612,-7.6901330494403455],[113.94503764318428,-7.6901329872492612],[113.94503776787033,-7.6901510545741036],[113.94502871216179,-7.6901511167653354],[113.94502896153402,-7.6901872514152094],[113.94503801724333,-7.6901871892236837],[113.94503814193028,-7.6902052565484578],[113.94505625334941,-7.6902051321645368],[113.94505650272576,-7.6902412668134392],[113.945065558436,-7.6902412046208966],[113.94506568312501,-7.6902592719451777],[113.94509285025636,-7.6902590853659634],[113.94509291260155,-7.6902681190278734],[113.94508385689099,-7.6902681812212093],[113.94508391923605,-7.6902772148831913],[113.94510203065748,-7.6902770904961821],[113.94510196831203,-7.6902680568343467],[113.94511102402247,-7.6902679946406325],[113.94511083698598,-7.6902408936553286],[113.9450927255662,-7.6902410180421281],[113.94509253853154,-7.6902139170563455],[113.94510159424088,-7.690213854863261],[113.94510171893097,-7.6902319221869746],[113.94511077464063,-7.6902318599935526],[113.94511064995017,-7.6902137926699901],[113.94511970565937,-7.6902137304765255]]],[[[113.94624767723884,-7.6896278010258081],[113.94624236101727,-7.6896278375482625],[113.94624554180545,-7.6896368497774548],[113.94624773960328,-7.6896368346785531],[113.94624767723884,-7.6896278010258081]]],[[[113.94624767723884,-7.6896278010258081],[113.9462567329263,-7.6896277388130647],[113.94625660819729,-7.6896096715076938],[113.9462656638843,-7.6896096092949069],[113.94626560151971,-7.6896005756423147],[113.94625654583288,-7.6896006378550226],[113.94625648346856,-7.6895916042023362],[113.94626553915519,-7.6895915419896976],[113.94626547679076,-7.6895825083370797],[113.94625642110431,-7.6895825705496437],[113.94625635874013,-7.6895735368969467],[113.94627447011256,-7.6895734124717752],[113.94627440774808,-7.6895643788192052],[113.94624882846379,-7.6895645545485198],[113.94624280107183,-7.6896188004438564],[113.94624761487449,-7.6896187673730587],[113.94624767723884,-7.6896278010258081]]],[[[113.94625610928421,-7.6895374022861152],[113.94625231161544,-7.689537428375889],[113.94625145000008,-7.6895409610000014],[113.94624983302921,-7.6895555135660194],[113.94626528969789,-7.6895554073791974],[113.94626522733375,-7.6895463737265617],[113.94625617164807,-7.6895464359388299],[113.94625610928421,-7.6895374022861152]]],[[[113.94626510260571,-7.6895283064212769],[113.9462650402418,-7.6895192727686448],[113.94625672587937,-7.6895193298878519],[113.94625451874742,-7.6895283791318532],[113.94626510260571,-7.6895283064212769]]]]},"properties":{"FID":0,"Shape_Leng":18102566.929299999,"Shape_Area":236516885.403}}]
}