{
  "type" : "FeatureCollection",
  "features" : [{"type":"Feature","id":0,"geometry":{"type":"MultiPolygon","coordinates":[[[[113.69308513539472,-7.1110132684846485],[113.69308463700018,-7.1110089809998778],[113.69308434233051,-7.1110083092439487],[113.69308437126607,-7.1110132729292479],[113.69308513539472,-7.1110132684846485]]],[[[113.69303751633699,-7.1108960752227413],[113.69302941126298,-7.1108961223647231],[113.69302946393523,-7.1109051582306497],[113.69303850980971,-7.1109051056165633],[113.6930385624822,-7.1109141414824011],[113.69304302372103,-7.1109141155341202],[113.69303954100019,-7.1109061759998964],[113.69303751633699,-7.1108960752227413]]],[[[113.69249565189563,-7.1108901904101085],[113.69249559923394,-7.11088115454021],[113.69248655335585,-7.1108812071435201],[113.69248660601737,-7.1108902430134888],[113.69249565189563,-7.1108901904101085]]],[[[113.6922875440209,-7.1108823643717995],[113.69228749136333,-7.1108733285003414],[113.69227844548385,-7.1108733810995322],[113.69227849814125,-7.1108824169710561],[113.6922875440209,-7.1108823643717995]]],[[[113.69303570717926,-7.1108870495732459],[113.69302916821465,-7.1108544275344334],[113.69302935859082,-7.1108870864988276],[113.69303570717926,-7.1108870495732459]]],[[[113.69204319994068,-7.1108657127433732],[113.69204314728802,-7.1108566768700685],[113.69202505552599,-7.1108567820584891],[113.69202510817831,-7.1108658179319297],[113.69204319994068,-7.1108657127433732]]],[[[113.69213355343962,-7.1108471150447912],[113.69213350078532,-7.1108380791721713],[113.69212445490538,-7.1108381317680962],[113.69212450755953,-7.1108471676407854],[113.69213355343962,-7.1108471150447912]]],[[[113.69290240032899,-7.1108336078744214],[113.6929022949906,-7.1108155361406462],[113.69289324911686,-7.1108155887514153],[113.69289330178584,-7.1108246246183731],[113.69288425591184,-7.1108246772290329],[113.69288430858072,-7.1108337130960537],[113.69290240032899,-7.1108336078744214]]],[[[113.6925042238194,-7.1108088149779318],[113.69249517794282,-7.1108088675808787],[113.69249549391074,-7.110863082800396],[113.69250453978839,-7.1108630301970432],[113.6925046977738,-7.1108901378065523],[113.69251196492877,-7.1108900955464929],[113.69251373812465,-7.1108891368228733],[113.692513375019,-7.1108268341143814],[113.69250432914212,-7.1108268867176383],[113.6925042238194,-7.1108088149779318]]],[[[113.69287505203211,-7.110797622238227],[113.6928749993637,-7.1107885863711227],[113.69286595349027,-7.1107886389811608],[113.69286600615851,-7.1107976748483308],[113.69287505203211,-7.110797622238227]]],[[[113.69257632751702,-7.1107632148013069],[113.69256728164187,-7.1107632674053276],[113.69256733430407,-7.1107723032747385],[113.69255828842867,-7.11077235587865],[113.69255865706486,-7.1108356069648933],[113.69256770294153,-7.1108355543605075],[113.69256775560429,-7.1108445902298874],[113.69255870972745,-7.1108446428343397],[113.69255876239012,-7.1108536787037666],[113.69256780826711,-7.1108536260992468],[113.69256780987561,-7.1108539020832486],[113.69258697000009,-7.1108371769999597],[113.69258844097597,-7.1108354337621842],[113.69257674881808,-7.1108355017559486],[113.69257669615521,-7.1108264658866309],[113.69259478790781,-7.1108263606771169],[113.69259479688773,-7.1108279014390803],[113.69260378101714,-7.1108172544429067],[113.69260351780501,-7.1107720928573306],[113.69259447192989,-7.1107721454619472],[113.69259452459271,-7.1107811813311503],[113.69258547871733,-7.1107812339356595],[113.69258553138003,-7.1107902698049275],[113.69259457725559,-7.1107902172003525],[113.69259462991855,-7.1107992530695503],[113.692576538167,-7.1107993582786593],[113.69257632751702,-7.1107632148013069]]],[[[113.69261235302811,-7.1107358967762186],[113.69261230036528,-7.1107268609071301],[113.69260325449109,-7.1107269135115834],[113.69260330715373,-7.1107359493807412],[113.69261235302811,-7.1107358967762186]]],[[[113.69293789912099,-7.1107159311627326],[113.69292885324944,-7.1107159837734635],[113.69292911659477,-7.1107611631070764],[113.6929381624672,-7.1107611104960071],[113.69293821513665,-7.1107701463626505],[113.69295630688163,-7.1107700411398493],[113.69295625421184,-7.110761005273341],[113.69294720833953,-7.1107610578847629],[113.69294705033109,-7.1107339502850122],[113.69293800445926,-7.1107340028960531],[113.69293789912099,-7.1107159311627326]]],[[[113.69290240032899,-7.1108336078744214],[113.69290245299828,-7.1108426437413046],[113.6929114988725,-7.1108425911301572],[113.69291160421164,-7.1108606628637734],[113.69290255833707,-7.1108607154750567],[113.69290261100657,-7.1108697513419257],[113.69291165688134,-7.1108696987305766],[113.69291170955107,-7.1108787345973754],[113.6929207554259,-7.1108786819857821],[113.69292112411726,-7.1109419330527919],[113.69293016999328,-7.1109418804405502],[113.69293022266392,-7.1109509163071829],[113.69292117678773,-7.110950968919493],[113.69292122945828,-7.1109600047861896],[113.69293027533463,-7.110959952173812],[113.69293048601817,-7.1109960956402878],[113.69292144014111,-7.1109961482529362],[113.69292149281199,-7.1110051841196125],[113.69293053868923,-7.1110051315068983],[113.69293059136037,-7.1110141673735194],[113.69292506421279,-7.1110141995206284],[113.6929636430001,-7.1110786769999734],[113.69298989200011,-7.1111369109998996],[113.69302252800014,-7.1111775589998825],[113.69305381000004,-7.1111765439998695],[113.69307735100017,-7.1111514519999419],[113.69309451400022,-7.1110987609999414],[113.69309429700012,-7.1110920819999128],[113.693089334161,-7.1110493887494233],[113.69308458196326,-7.1110494163910225],[113.69308447661452,-7.1110313446601348],[113.69307543073792,-7.111031397276049],[113.69307527271587,-7.1110042896794852],[113.69308256053046,-7.1110042472896247],[113.69307860684859,-7.110995234114502],[113.69306617416601,-7.1109953064294231],[113.69306612149238,-7.1109862705638234],[113.69305707561652,-7.1109863231790467],[113.69305686492336,-7.1109501797163359],[113.69303877317283,-7.1109502849457149],[113.69303872050007,-7.1109412490798922],[113.6930296746249,-7.1109413016942487],[113.69302956927993,-7.1109232299624576],[113.69302052340501,-7.1109232825765032],[113.69302031271661,-7.1108871391126032],[113.69301126684235,-7.1108871917262011],[113.6930111614989,-7.1108691199940939],[113.69300211562494,-7.1108691726073836],[113.6930020629535,-7.1108601367412554],[113.69301110882729,-7.1108600841280349],[113.69301105615574,-7.1108510482619538],[113.69300201028213,-7.1108511008751067],[113.69300195761083,-7.1108420650089874],[113.69301100348427,-7.110842012395902],[113.69301095081286,-7.1108329765298288],[113.69301999668606,-7.110832923916635],[113.69302004935764,-7.1108419597826398],[113.69302666139268,-7.1108419213251324],[113.69302238100022,-7.1108205669998892],[113.69304429400017,-7.110814279999949],[113.69298266270408,-7.1106357612256357],[113.69298281245914,-7.1106614529084009],[113.69297376658899,-7.1106615055196079],[113.6929738192584,-7.1106705413860247],[113.69295572751759,-7.1106706466080452],[113.69295588552514,-7.1106977542076741],[113.69296493139611,-7.1106977015965498],[113.69296487872668,-7.110688665730061],[113.6929739245974,-7.1106886131188274],[113.692973977267,-7.1106976489852487],[113.69296493139611,-7.1106977015965498],[113.69296514207451,-7.1107338450623985],[113.69295609620283,-7.1107338976737937],[113.69295614887244,-7.1107429335403127],[113.69297424061607,-7.1107428283172123],[113.69297434595616,-7.1107609000499696],[113.69298339182826,-7.1107608474380211],[113.69298349716898,-7.1107789191706283],[113.69299254304133,-7.1107788665583671],[113.69299275372433,-7.1108150100232654],[113.69298370785127,-7.1108150626357967],[113.69298365518058,-7.1108060267695254],[113.69297460930763,-7.1108060793818151],[113.6929745566372,-7.1107970435154391],[113.69296551076435,-7.1107970961274836],[113.69296545809418,-7.1107880602610543],[113.69294736634863,-7.110788165484478],[113.69294741901847,-7.1107972013510423],[113.69295646489145,-7.1107971487393513],[113.69295657023167,-7.1108152204723325],[113.69294752435833,-7.1108152730841585],[113.69294757702836,-7.1108243089507104],[113.69295662290189,-7.1108242563388169],[113.69295678091294,-7.1108513639382318],[113.69294773503889,-7.1108514165503278],[113.69294757702836,-7.1108243089507104],[113.69292948528113,-7.1108244141739698],[113.69292953795087,-7.1108334500406531],[113.69290240032899,-7.1108336078744214]]],[[[113.69295415453378,-7.1105531855087971],[113.69293695108881,-7.1105532855621343],[113.69293710909263,-7.1105803931623202],[113.69294615496145,-7.1105803405524277],[113.69294652364066,-7.1106435916189055],[113.69297366125039,-7.1106434337867466],[113.6929736085812,-7.110634397920335],[113.69298217484065,-7.1106343480987606],[113.69295415453378,-7.1105531855087971]],[[113.69295525349864,-7.1105893238089433],[113.69296429936749,-7.110589271198628],[113.6929644047049,-7.1106073429316545],[113.6929553588357,-7.1106073955421039],[113.69295525349864,-7.1105893238089433]]],[[[113.69282803200562,-7.1104906657917795],[113.69282797934041,-7.1104816299241902],[113.69281893347265,-7.1104816825310504],[113.69281898613768,-7.1104907183987081],[113.69282803200562,-7.1104906657917795]]],[[[113.69293636410326,-7.1104525796652824],[113.69293652974832,-7.1104809986281117],[113.69292748388136,-7.1104810512370866],[113.69292758921571,-7.1104991229707633],[113.69293663508304,-7.1104990703616542],[113.69293674041802,-7.1105171420951629],[113.69294578628561,-7.1105170894857412],[113.69294594428912,-7.1105441970857717],[113.69295104116726,-7.1105441674428969],[113.69294884600004,-7.1105378089998759],[113.69293636410326,-7.1104525796652824]]],[[[113.6929091814808,-7.1104450129866201],[113.69290013561434,-7.1104450655947975],[113.69290018828067,-7.1104541014618476],[113.69289114241398,-7.1104541540699158],[113.69289124774653,-7.1104722258041386],[113.69290029361356,-7.1104721731959355],[113.69290039894672,-7.1104902449300074],[113.69289135307933,-7.1104902975383455],[113.69289156374577,-7.1105264410067139],[113.69290060961387,-7.1105263883981058],[113.69290092561666,-7.1105806036001367],[113.69290997148578,-7.1105805509909477],[113.69290991881829,-7.1105715151240201],[113.69291896468714,-7.1105714625147227],[113.69291854334837,-7.1104991755796991],[113.69290949748093,-7.1104992281884556],[113.6929091814808,-7.1104450129866201]]],[[[113.69291804482609,-7.110327491187749],[113.69291754268639,-7.1103274941080175],[113.69291770068401,-7.1103546017089041],[113.69290865481939,-7.1103546543165814],[113.69290870748523,-7.1103636901836031],[113.69291775335,-7.1103636375758574],[113.69291780601608,-7.1103726734428081],[113.69292465595566,-7.1103726336056665],[113.69291804482609,-7.110327491187749]]],[[[113.69288135922962,-7.1103277045368634],[113.69288125389964,-7.1103096328023794],[113.69287220803564,-7.110309685409014],[113.69287231336527,-7.110327757143633],[113.69288135922962,-7.1103277045368634]]],[[[113.69288093791133,-7.1102554175988359],[113.69285380032227,-7.1102555754169989],[113.69285390565038,-7.1102736471519163],[113.6928719973772,-7.1102735419397147],[113.69287215537094,-7.1103006495416992],[113.69288120123475,-7.1103005969351312],[113.69288093791133,-7.1102554175988359]]],[[[113.69291255617505,-7.1102733060679855],[113.69291081520744,-7.1102552438461171],[113.69289902963703,-7.1102553123858465],[113.69289913496689,-7.1102733841200898],[113.69291255617505,-7.1102733060679855]]],[[[113.69285369499445,-7.1102375036820469],[113.69285374765833,-7.1102465395495242],[113.69286279352124,-7.1102464869437147],[113.69286274085719,-7.110237451076304],[113.69285369499445,-7.1102375036820469]]],[[[113.69286274085719,-7.110237451076304],[113.69287178671985,-7.1102373984703853],[113.69287168139159,-7.110219326735689],[113.69286263552928,-7.110219379341471],[113.69286274085719,-7.110237451076304]]],[[[113.69285369499445,-7.1102375036820469],[113.69285364233063,-7.1102284678145828],[113.69284459646802,-7.1102285204200824],[113.69284443847752,-7.1102014128173954],[113.69283539261536,-7.1102014654225156],[113.69283565593231,-7.1102466447606165],[113.69284470179535,-7.1102465921551588],[113.69284464913166,-7.110237556287613],[113.69285369499445,-7.1102375036820469]]],[[[113.69290789907129,-7.1102249894551459],[113.69290472182395,-7.1101920260689688],[113.69289866098465,-7.1101920613158134],[113.69289881897811,-7.1102191689172791],[113.69288977311601,-7.1102192215235922],[113.69288987844497,-7.1102372932580176],[113.69289892430743,-7.1102372406515704],[113.6928989769722,-7.1102462765187102],[113.69290802283477,-7.110246223912017],[113.69290789907129,-7.1102249894551459]]],[[[113.69289850299181,-7.1101649537143112],[113.69289860832031,-7.1101830254486664],[113.692903851341,-7.1101829949578939],[113.69290211037537,-7.1101649327356409],[113.69289850299181,-7.1101649537143112]]],[[[113.69267230378527,-7.1101572329402796],[113.69266325792267,-7.1101572855417157],[113.69266331058225,-7.1101663214106461],[113.69265426471941,-7.1101663740119712],[113.69265437003838,-7.1101844457499714],[113.69267246176467,-7.1101843405468736],[113.6926724091048,-7.1101753046780027],[113.69268145496768,-7.1101752520762549],[113.6926814023077,-7.110166216207463],[113.692672356445,-7.1101662688091425],[113.69267230378527,-7.1101572329402796]]],[[[113.6928441751614,-7.1101562334795352],[113.69282608343876,-7.1101563386889239],[113.6928261887643,-7.1101744104243503],[113.69285332634921,-7.110174252609597],[113.6928533790126,-7.1101832884771179],[113.69287147073588,-7.1101831832662654],[113.69287136540846,-7.1101651115315052],[113.69284422782449,-7.1101652693471129],[113.6928441751614,-7.1101562334795352]]],[[[113.69289850299181,-7.1101649537143112],[113.69289845032766,-7.1101559178471376],[113.69290123989271,-7.1101559016244975],[113.69289862844535,-7.1101288082909608],[113.6928892464753,-7.1101288628512265],[113.6928894044668,-7.1101559704529764],[113.69288035860585,-7.1101560230586403],[113.69288041126964,-7.1101650589259497],[113.69289850299181,-7.1101649537143112]]],[[[113.69282587278852,-7.1101201952180251],[113.69281682692781,-7.1101202478221852],[113.69281693225244,-7.1101383195577785],[113.69283502397451,-7.1101382143490088],[113.69283497131181,-7.1101291784813512],[113.69282592545098,-7.1101292310857565],[113.69282587278852,-7.1101201952180251]]],[[[113.69053558410549,-7.1098443501380109],[113.69053553148993,-7.1098353142530764],[113.69052648561768,-7.109835366810433],[113.69052653823307,-7.1098444026954342],[113.69053558410549,-7.1098443501380109]]],[[[113.6863834689205,-7.1098594195601104],[113.68637442301677,-7.1098594720365957],[113.68637447555122,-7.1098685079525366],[113.68636542964727,-7.1098685604289118],[113.68636537711302,-7.1098595245129044],[113.68635633120918,-7.1098595769890363],[113.68635627867516,-7.1098505410729738],[113.6863200950598,-7.1098507509754718],[113.68632014759309,-7.1098597868918034],[113.68633823940128,-7.1098596819407724],[113.686338291935,-7.1098687178569824],[113.68632924603077,-7.1098687703326533],[113.68632929856437,-7.1098778062489263],[113.68633834446881,-7.1098777537731888],[113.68633839700267,-7.1098867896893907],[113.68634744290718,-7.1098867372134089],[113.68634739037313,-7.1098777012972745],[113.68638357398979,-7.1098774913918534],[113.6863834689205,-7.1098594195601104]]],[[[113.6863834689205,-7.1098594195601104],[113.68639251482413,-7.10985936708345],[113.68639246228942,-7.1098503311676575],[113.68638341638595,-7.1098503836442504],[113.6863834689205,-7.1098594195601104]]],[[[113.69049929538571,-7.1098264885962559],[113.69049924277098,-7.1098174527110265],[113.69049019689879,-7.1098175052675447],[113.69049024951335,-7.1098265411528381],[113.69049929538571,-7.1098264885962559]]],[[[113.68673089165679,-7.1097218607089827],[113.68669024150493,-7.1097220965505832],[113.68669027339701,-7.1097275814479568],[113.68673089165679,-7.1097218607089827]]],[[[113.68675095824996,-7.1097127080684928],[113.68674446435533,-7.1097127457448526],[113.68674448598021,-7.1097164647891296],[113.68675095824996,-7.1097127080684928]]],[[[113.68680752293243,-7.1096671987988307],[113.68679847703565,-7.1096672512821817],[113.68679852957695,-7.1096762871950387],[113.6867894836799,-7.1096763396782805],[113.68678956485225,-7.1096902995098157],[113.68681385920772,-7.1096761982538998],[113.68680757547389,-7.1096762347116185],[113.68680752293243,-7.1096671987988307]]],[[[113.6861472248157,-7.1096800655381376],[113.68614717228711,-7.1096710296204311],[113.68615621818881,-7.1096709771497659],[113.68615611313149,-7.1096529053144755],[113.68614706723014,-7.1096529577850056],[113.68614711975859,-7.109661993702721],[113.68613807385697,-7.1096620461731419],[113.68613817891372,-7.1096801180086944],[113.6861472248157,-7.1096800655381376]]],[[[113.68684349635092,-7.1096308452135446],[113.6868434438091,-7.1096218093010064],[113.68683439791344,-7.109621861784726],[113.68683445045509,-7.1096308976973317],[113.68684349635092,-7.1096308452135446]]],[[[113.68722380592973,-7.1095382763721631],[113.68722289842367,-7.1095382816381498],[113.68722290057134,-7.1095386509400198],[113.68722380592973,-7.1095382763721631]]],[[[113.68819985426636,-7.1095326116257906],[113.68818176249877,-7.1095327166446953],[113.68818185385253,-7.109548419621996],[113.68821805850396,-7.109551839076496],[113.6882180511698,-7.1095505784108424],[113.68820900528581,-7.1095506309208698],[113.68820895271791,-7.1095415950184737],[113.68819990683403,-7.1095416475282578],[113.68819985426636,-7.1095326116257906]]],[[[113.68830845743601,-7.1095410173992235],[113.68824513625272,-7.1095413849775762],[113.68824508368417,-7.1095323490754474],[113.68823603780075,-7.1095324015858692],[113.68823614293755,-7.109550473390259],[113.6882270970537,-7.1095505259006391],[113.68822710966673,-7.1095526939396549],[113.68831762129274,-7.1095612425606909],[113.68831760845917,-7.1095590366904959],[113.68832665434252,-7.1095589841782871],[113.68832667245518,-7.1095620974217635],[113.68835382594226,-7.1095646620038062],[113.68835379199213,-7.1095588266406029],[113.688344746109,-7.1095588791533402],[113.68834469353837,-7.1095498432519584],[113.68830851000587,-7.109550053300878],[113.68830845743601,-7.1095410173992235]]],[[[113.68830845743601,-7.1095410173992235],[113.68831750331906,-7.1095409648873256],[113.68831745074908,-7.109531928985735],[113.68830840486623,-7.1095319814975655],[113.68830845743601,-7.1095410173992235]]],[[[113.68837156833229,-7.1095045062074673],[113.6883716209031,-7.1095135421086484],[113.68838066678512,-7.1095134895957202],[113.68838061421415,-7.1095044536946075],[113.68837156833229,-7.1095045062074673]]],[[[113.68716841288609,-7.1095024529379458],[113.6871593669952,-7.1095025054271312],[113.68715941954233,-7.1095115413373637],[113.68715037365121,-7.1095115938264408],[113.68715042619822,-7.1095206297367186],[113.68717756387188,-7.1095204722687573],[113.68717751132435,-7.109511436358682],[113.68716846543337,-7.1095114888481108],[113.68716841288609,-7.1095024529379458]]],[[[113.68724595782481,-7.1095291116162631],[113.68724656600023,-7.1095288599998918],[113.6872499817467,-7.1095287785767436],[113.68724993099866,-7.1095200523464417],[113.68725897688921,-7.1095199998553591],[113.68725887179104,-7.1095019280363978],[113.6872407800106,-7.1095020330181171],[113.68724088510805,-7.1095201048373475],[113.68723183921738,-7.1095201573280775],[113.68723189176603,-7.1095291932377798],[113.68724595782481,-7.1095291116162631]]],[[[113.68838061421415,-7.1095044536946075],[113.68838966009595,-7.1095044011815682],[113.68838960752485,-7.1094953652805009],[113.68838056164321,-7.1094954177934717],[113.68838061421415,-7.1095044536946075]]],[[[113.68716841288609,-7.1095024529379458],[113.68718650466764,-7.1095023479590456],[113.68718645212006,-7.109493312049012],[113.68716836033887,-7.1094934170277764],[113.68716841288609,-7.1095024529379458]]],[[[113.68838056164321,-7.1094954177934717],[113.68838050907237,-7.1094863818923333],[113.68836241730926,-7.1094864869176106],[113.68836252245033,-7.109504558720154],[113.68837156833229,-7.1095045062074673],[113.68837151576155,-7.1094954703062658],[113.68838056164321,-7.1094954177934717]]],[[[113.68713343983028,-7.1094936196543568],[113.68715931444817,-7.1094934695168952],[113.6871592619012,-7.1094844336066547],[113.68713338728381,-7.1094845837439244],[113.68713212422922,-7.1094845910727509],[113.68713217677568,-7.1094936269831939],[113.68713343983028,-7.1094936196543568]]],[[[113.68724072746197,-7.1094929971084868],[113.68724067491341,-7.1094839611988538],[113.68723162902343,-7.1094840136893138],[113.6872316815718,-7.1094930495990152],[113.68724072746197,-7.1094929971084868]]],[[[113.68602915535065,-7.1095994243742693],[113.6860201094494,-7.1095994768419288],[113.68602005692391,-7.1095904409232276],[113.68597482741743,-7.1095907032585481],[113.68597477489287,-7.1095816673395236],[113.68595668309015,-7.1095817722722838],[113.68595663056604,-7.1095727363531189],[113.68594758466476,-7.1095727888191682],[113.68594742709331,-7.1095456810614515],[113.68596551889475,-7.109545576129582],[113.68596562394302,-7.1095636479677946],[113.6859837157449,-7.1095635430349517],[113.68598376826948,-7.1095725789539177],[113.6860109059723,-7.1095724215531284],[113.68601085344719,-7.1095633856343659],[113.68602894524835,-7.1095632806997608],[113.68602889272294,-7.109554244781128],[113.68603793862327,-7.1095541923136283],[113.68603778104693,-7.1095270845578913],[113.6860196892473,-7.1095271894923107],[113.68601963672234,-7.1095181535736112],[113.6860105908226,-7.10951820604049],[113.68601069587224,-7.1095362778780515],[113.68593832866898,-7.1095366976078083],[113.68593843371606,-7.1095547694464321],[113.68592938781498,-7.1095548219119937],[113.68592933529159,-7.1095457859926174],[113.68591124348958,-7.1095458909230764],[113.68591119096662,-7.1095368550035607],[113.68589309916473,-7.1095369599331804],[113.6858929941197,-7.1095188880938673],[113.68591108592088,-7.1095187831645168],[113.68591098087541,-7.1095007113254569],[113.68589288907492,-7.1095008162545383],[113.68589294159727,-7.1095098521742051],[113.68588389569673,-7.1095099046385482],[113.68588400074128,-7.1095279764779882],[113.68587495484034,-7.1095280289422895],[113.68587484979614,-7.1095099571027163],[113.68586580389547,-7.1095100095667085],[113.68586590893931,-7.109528081406415],[113.68585686303824,-7.1095281338703655],[113.68585696808201,-7.1095462057102266],[113.68583887627891,-7.1095463106378665],[113.68583882375736,-7.1095372747178134],[113.68582977785589,-7.1095373271813012],[113.68582983037727,-7.1095463631014235],[113.68582078447555,-7.1095464155648038],[113.68582083699684,-7.1095554514849884],[113.68582988289874,-7.1095553990215414],[113.68582998794186,-7.1095734708617666],[113.6858209420396,-7.1095735233253485],[113.68582088951818,-7.1095644874051702],[113.68577566000685,-7.1095647497201],[113.68577560748639,-7.1095557137995824],[113.68572133207155,-7.1095560285712791],[113.68572122703294,-7.1095379567294232],[113.68570313522815,-7.1095380616516444],[113.68570318774708,-7.10954709757271],[113.68569414184441,-7.1095471500336211],[113.68569403680699,-7.1095290781913372],[113.68568499090462,-7.1095291306519384],[113.68568493838619,-7.1095200947307493],[113.68569398428839,-7.1095200422702138],[113.68569382673299,-7.109492934506771],[113.68568478083131,-7.1094929869671031],[113.68568483334953,-7.1095020228883232],[113.68566674154562,-7.1095021278085948],[113.68566668902774,-7.1094930918872414],[113.68563955132188,-7.1094932492661265],[113.68563949880462,-7.1094842133445502],[113.68563045290269,-7.1094842658037587],[113.68563040038565,-7.1094752298821451],[113.68560326268003,-7.1094753872585112],[113.68560321016361,-7.1094663513366747],[113.68558511835987,-7.1094664562532364],[113.68558522339208,-7.1094845280971581],[113.68556713158738,-7.1094846330132855],[113.68556707907159,-7.1094755970911994],[113.68554898726694,-7.1094757020064883],[113.68554919732911,-7.1095118456954118],[113.68554015142598,-7.1095118981530607],[113.68554025645712,-7.1095299699976175],[113.68553400352282,-7.1095300062586873],[113.6855224550003,-7.1095789379999568],[113.68549825700006,-7.1096909449998966],[113.6855027690001,-7.1098298269999329],[113.68551423300016,-7.109968482999939],[113.68555169900003,-7.1100506859999273],[113.68562816800012,-7.110048206999978],[113.685696558,-7.1100112329999154],[113.68576899808161,-7.1099749441980471],[113.68576897758827,-7.1099714186048741],[113.68577611858289,-7.1099713771877466],[113.68577801803193,-7.1099704256600376],[113.68577791845166,-7.1099532942986974],[113.6857688725416,-7.1099533467640503],[113.6857687674952,-7.1099352749232114],[113.68577781340493,-7.1099352224579926],[113.68577776088165,-7.109926186537634],[113.68582299042826,-7.1099259242092367],[113.68582309547664,-7.1099439960492594],[113.68584118729552,-7.109943891116397],[113.68584122569035,-7.1099504962594358],[113.68589175400005,-7.1099423419999015],[113.68593163291679,-7.1099410494189694],[113.68593159385945,-7.1099343305223233],[113.68594063976794,-7.1099342780539327],[113.68594058724149,-7.1099252421347856],[113.68594963314972,-7.1099251896662876],[113.68594968567633,-7.1099342255853664],[113.68595873158468,-7.109934173116625],[113.68595867905786,-7.1099251371976129],[113.68596772496598,-7.1099250847287614],[113.68596756738545,-7.1098979769718884],[113.68598565920038,-7.1098978720340629],[113.68598581678195,-7.1099249797905308],[113.68600390859764,-7.1099248748515942],[113.68600396112532,-7.1099339107702697],[113.68601300703327,-7.1099338583004705],[113.68601305956119,-7.1099428942190572],[113.68602210546922,-7.1099428417490138],[113.68602213142623,-7.1099473068851484],[113.68607903100018,-7.1099634969999688],[113.68615142000021,-7.1099915879998967],[113.68620636100002,-7.1099869099999848],[113.68628727700002,-7.1099784939999617],[113.6863568485274,-7.1099485557401145],[113.68635680401837,-7.1099409002335578],[113.68634775811287,-7.1099409527101205],[113.68634770557841,-7.1099319167940251],[113.686365797389,-7.1099318118408599],[113.6863658721618,-7.1099446726577114],[113.68636734700023,-7.1099440379999654],[113.68638390883487,-7.1099350841554889],[113.68638388919931,-7.1099317068869885],[113.68639022370553,-7.1099316701392041],[113.6864129400002,-7.1099193889999732],[113.68641998883328,-7.1099170517966224],[113.68641996774757,-7.1099134251459759],[113.68641092184308,-7.1099134776235697],[113.68641086930761,-7.1099044417079176],[113.68640182340322,-7.1099044941852672],[113.68640177086796,-7.109895458269528],[113.68638367905936,-7.1098955632235645],[113.68638362652455,-7.1098865273077196],[113.68635648881163,-7.1098866847372513],[113.68635654134592,-7.1098957206532978],[113.68634749544128,-7.1098957731295238],[113.68634754797546,-7.1099048090456671],[113.68633850207061,-7.1099048615217839],[113.68633839700267,-7.1098867896893907],[113.68632935109807,-7.1098868421651975],[113.68632929856437,-7.1098778062489263],[113.68632025265993,-7.1098778587244889],[113.68632020012647,-7.1098688228081475],[113.68631115422212,-7.1098688752834667],[113.68631120675539,-7.1098779111998747],[113.68630216085077,-7.1098779636750846],[113.68630210831768,-7.1098689277586091],[113.6862568787945,-7.1098691901316782],[113.68625682626234,-7.1098601542148616],[113.68624778035769,-7.1098602066888787],[113.68624783288965,-7.1098692426057637],[113.68623878698473,-7.1098692950796734],[113.68623873445293,-7.1098602591627218],[113.68622968854814,-7.1098603116363872],[113.68622958348512,-7.1098422398023384],[113.6862205375806,-7.109842292275693],[113.68622048504938,-7.1098332563585958],[113.68621143914496,-7.1098333088317061],[113.68621133408305,-7.109815236997366],[113.68620228817892,-7.1098152894701663],[113.68620223564825,-7.1098062535529385],[113.68619318974422,-7.1098063060254946],[113.68619324227471,-7.109815341942789],[113.68618419637046,-7.1098153944152376],[113.68618414384014,-7.1098063584978757],[113.686175097936,-7.1098064109700809],[113.68617504540592,-7.1097973750526124],[113.68618409130988,-7.1097973225804765],[113.68618388118956,-7.1097611789109072],[113.68620197299592,-7.1097610739666441],[113.68620186793547,-7.1097430021321051],[113.68619282203265,-7.1097430546041913],[113.68619287456268,-7.1097520905215292],[113.68617478275657,-7.1097521954653047],[113.68617462516778,-7.1097250877128735],[113.68616557926512,-7.1097251401842962],[113.68616552673585,-7.1097161042667434],[113.68614743493073,-7.1097162092089237],[113.68614732987308,-7.1096981373735391],[113.68610210036081,-7.1096983997252332],[113.68610204783297,-7.1096893638071812],[113.68607491012531,-7.1096895212158815],[113.68607480507089,-7.1096714493794115],[113.68608385097318,-7.1096713969101559],[113.68608390350052,-7.1096804328283341],[113.68612008710959,-7.1096802229492786],[113.68611998205354,-7.109662151113457],[113.68611093615174,-7.1096622035833512],[113.6861107785687,-7.1096350958293879],[113.68609268676593,-7.109635200768242],[113.68609258171162,-7.1096171289319781],[113.68608353581048,-7.1096171814010063],[113.68608348328361,-7.1096081454828015],[113.68607443738257,-7.1096081979515864],[113.68607438485594,-7.1095991620333265],[113.68605629305405,-7.1095992669702319],[113.68605624052785,-7.1095902310518007],[113.68602910282497,-7.1095903884556346],[113.68602915535065,-7.1095994243742693],[113.68603820125186,-7.1095993719064321],[113.6860382537778,-7.109608407824962],[113.68605634558033,-7.1096083028886259],[113.68605645063309,-7.1096263747254369],[113.68607454243605,-7.1096262697881274],[113.68607459496288,-7.1096353057063917],[113.68606554906125,-7.1096353581752014],[113.68606560158798,-7.1096443940935465],[113.68605655568611,-7.1096444465622488],[113.68605645063309,-7.1096263747254369],[113.6860474047315,-7.1096264271938274],[113.68604750978417,-7.1096444990307743],[113.68602941798007,-7.109644603967296],[113.68602931292811,-7.1096265321300809],[113.68601122112446,-7.1096266370656283],[113.68601116859892,-7.1096176011468879],[113.68595689318738,-7.109617915948899],[113.68595684066297,-7.109608880029751],[113.68594779476098,-7.1096089324960694],[113.68594774223682,-7.1095998965768663],[113.68598392584367,-7.1095996867108084],[113.68598397836854,-7.1096087226297398],[113.6860292078764,-7.1096084602928649],[113.68602915535065,-7.1095994243742693]],[[113.68597503751633,-7.1096268469346091],[113.68598408341846,-7.109626794467629],[113.68598413594354,-7.1096358303865665],[113.68597509004121,-7.109635882853615],[113.68597503751633,-7.1096268469346091]],[[113.68605660821272,-7.1096534824806223],[113.68606565411477,-7.1096534300118552],[113.68606575916857,-7.1096715018484913],[113.68605671326618,-7.1096715543173952],[113.68605660821272,-7.1096534824806223]],[[113.68601143122727,-7.1096627807405488],[113.68600238532463,-7.1096628332083291],[113.68600233279899,-7.1096537972895373],[113.68601137870147,-7.1096537448218244],[113.68601143122727,-7.1096627807405488]],[[113.68606602180427,-7.1097166814400161],[113.68607506770746,-7.1097166289705989],[113.68607512023497,-7.109725664888825],[113.68606607433161,-7.1097257173583088],[113.68606602180427,-7.1097166814400161]],[[113.68610231047288,-7.1097345433973187],[113.68611135637617,-7.109734490927063],[113.68611140890454,-7.1097435268450289],[113.68612950071126,-7.1097434219038531],[113.6861296057689,-7.1097614937394686],[113.68610246805764,-7.1097616511513726],[113.68610231047288,-7.1097345433973187]],[[113.68573195359153,-7.1098270537337243],[113.68575004540716,-7.1098269488061367],[113.68575009792916,-7.1098359847267405],[113.68576818974491,-7.1098358797983137],[113.68576824226732,-7.1098449157187789],[113.68575015045121,-7.1098450206473398],[113.68575020297334,-7.1098540565679516],[113.68573211115664,-7.1098541614959432],[113.68573195359153,-7.1098270537337243]],[[113.68616620962186,-7.1098335711946188],[113.68618430143131,-7.1098334662499836],[113.68618435396183,-7.1098425021673499],[113.68619339986662,-7.1098424496946988],[113.68619345239739,-7.1098514856120119],[113.68618440649243,-7.1098515380847296],[113.68618445902308,-7.1098605740020711],[113.68615732130725,-7.1098607314193671],[113.68615726877711,-7.1098516955018241],[113.68614822287186,-7.1098517479738366],[113.68614811781217,-7.1098336761385506],[113.68615716371706,-7.109833623666673],[113.68615721624704,-7.1098426595842419],[113.68616626215203,-7.109842607112121],[113.68616620962186,-7.1098335711946188]],[[113.68621159673832,-7.1098604165831896],[113.68622064264328,-7.1098603641098768],[113.68622074770622,-7.1098784359440437],[113.68621170180091,-7.1098784884174924],[113.68621159673832,-7.1098604165831896]],[[113.68624788542169,-7.1098782785226433],[113.68626597723166,-7.1098781735741623],[113.68626613482922,-7.109905281324373],[113.68627518073464,-7.1099052288496667],[113.68627523326747,-7.1099142647663287],[113.68625714145622,-7.1099143697157015],[113.68625703639131,-7.109896297882087],[113.68624799048595,-7.109896350356375],[113.68624788542169,-7.1098782785226433]],[[113.68560594110876,-7.1099362192670119],[113.6856149870197,-7.1099361668049648],[113.68561503953987,-7.1099452027265153],[113.68562408545093,-7.1099451502642248],[113.68562413797135,-7.1099541861857363],[113.6856150920601,-7.1099542386480943],[113.68561514458041,-7.1099632745696537],[113.68562419049182,-7.1099632221072291],[113.68562429553297,-7.1099812939502005],[113.68561524962122,-7.1099813464127593],[113.68561519710079,-7.1099723104912087],[113.68560615118915,-7.1099723629535241],[113.68560594110876,-7.1099362192670119]]],[[[113.68714995327767,-7.1094393065439343],[113.68714990073128,-7.109430270633621],[113.68714085484169,-7.1094303231219147],[113.6871409073879,-7.1094393590322964],[113.68714995327767,-7.1094393065439343]]],[[[113.68813590228673,-7.1094245483533189],[113.68813334274097,-7.1094245632104114],[113.68813439570404,-7.1094697381389338],[113.68813616511547,-7.1094697278681744],[113.68813600741801,-7.1094426201592693],[113.68814505330043,-7.1094425676514605],[113.68814500073458,-7.1094335317485458],[113.68813595485234,-7.1094335842562879],[113.68813590228673,-7.1094245483533189]]],[[[113.68555787562285,-7.1094485417824007],[113.68555777059223,-7.1094304699380269],[113.68555749500054,-7.1094304715361858],[113.68555322382296,-7.1094485687582969],[113.68555787562285,-7.1094485417824007]]],[[[113.68719513017825,-7.1094300081895065],[113.68719507763105,-7.1094209722794908],[113.68718603174197,-7.1094210247685989],[113.687186084289,-7.1094300606786813],[113.68719513017825,-7.1094300081895065]]],[[[113.68723131373456,-7.1094297982310426],[113.68723126118665,-7.1094207623212968],[113.68721316940899,-7.109420867300746],[113.68721322195655,-7.1094299032106267],[113.68723131373456,-7.1094297982310426]]],[[[113.68715889407432,-7.1094211822348656],[113.68715878898153,-7.1094031104143189],[113.68714974309255,-7.1094031629025878],[113.68714984818496,-7.1094212347232695],[113.68715889407432,-7.1094211822348656]]],[[[113.68840228883812,-7.1094139658073239],[113.68840369748045,-7.1093958852175803],[113.68839807512693,-7.1093959178560979],[113.68839818026804,-7.1094139896581803],[113.68840228883812,-7.1094139658073239]]],[[[113.68559369161856,-7.1093850804977317],[113.68557559981787,-7.1093851854127292],[113.68557565233314,-7.1093942213348029],[113.68556603735543,-7.1093942770921865],[113.68556390176676,-7.1094033257031573],[113.68557570484849,-7.1094032572568731],[113.68557575736392,-7.1094122931789387],[113.68559384916568,-7.1094121882635379],[113.68559369161856,-7.1093850804977317]]],[[[113.68718592664813,-7.1094029529484564],[113.6871857690079,-7.1093758452182136],[113.68717672311962,-7.1093758977068093],[113.68717688075934,-7.1094030054372537],[113.68718592664813,-7.1094029529484564]]],[[[113.68687820876843,-7.109377629731604],[113.68687815622782,-7.1093685938192257],[113.68686911033741,-7.1093686463017614],[113.68686916287784,-7.1093776822142081],[113.68687820876843,-7.109377629731604]]],[[[113.68839786484556,-7.1093597742518879],[113.68837072720862,-7.1093599317877665],[113.68837077977834,-7.1093689676890275],[113.68833459626075,-7.1093691777346688],[113.68833454369174,-7.1093601418331378],[113.68829836017379,-7.10936035187569],[113.68829857044742,-7.1093964954828666],[113.68828952456704,-7.1093965479933336],[113.68828962970392,-7.1094146197970334],[113.68827153794226,-7.1094147248177091],[113.68827169564702,-7.1094418325236326],[113.68828074152842,-7.1094417800131806],[113.688280794097,-7.1094508159150811],[113.68828983997848,-7.109450763404384],[113.68828989254729,-7.1094597993062143],[113.6882989384289,-7.1094597467952738],[113.68829899099796,-7.1094687826970135],[113.6883170827613,-7.1094686776744727],[113.68831713533078,-7.1094777135761067],[113.68832618121255,-7.1094776610645054],[113.68832623378226,-7.1094866969660524],[113.68833527966412,-7.109486644454206],[113.68833512195462,-7.1094595367497559],[113.68834416783589,-7.1094594842379362],[113.68834401012649,-7.109432376533654],[113.68833496424574,-7.1094324290452713],[113.68833501681529,-7.1094414649467694],[113.68831692505327,-7.1094415699696114],[113.68831681991493,-7.1094234981663567],[113.68832586579563,-7.1094234456551577],[113.68832581322638,-7.1094144097535672],[113.68834390498722,-7.1094143047307776],[113.68834374727884,-7.1093871970264377],[113.6883527931586,-7.1093871445149786],[113.68835274058911,-7.1093781086135914],[113.68837987822751,-7.1093779510783666],[113.68837993079754,-7.1093869869795521],[113.68840440180168,-7.1093868449227182],[113.68840581044421,-7.1093687643330092],[113.6883979174158,-7.1093688101529473],[113.68839786484556,-7.1093597742518879]]],[[[113.68722190001294,-7.1093665993522546],[113.68722184746569,-7.1093575634424306],[113.68721280157807,-7.1093576159315965],[113.68721285412514,-7.1093666518414862],[113.68722190001294,-7.1093665993522546]]],[[[113.68706848772243,-7.1094307430219281],[113.68707753361259,-7.1094306905350431],[113.68707748106767,-7.1094216546241515],[113.68708652695757,-7.109421602137159],[113.68708647441255,-7.1094125662263474],[113.68709552030224,-7.1094125137392457],[113.6870954677571,-7.1094034778284989],[113.68710451364652,-7.1094034253412879],[113.68710456619181,-7.1094124612519671],[113.68711361208132,-7.1094124087645119],[113.68711350699044,-7.1093943369432839],[113.68710446110128,-7.1093943894306033],[113.68710435601103,-7.1093763176092253],[113.68709531012216,-7.1093763700962356],[113.68709536266708,-7.109385406006993],[113.68707727088875,-7.1093855109806192],[113.68707732343337,-7.1093945468915072],[113.68706827754393,-7.1093945993781231],[113.68706833008845,-7.1094036352890768],[113.68705928419877,-7.1094036877755826],[113.68705923165443,-7.1093946518645614],[113.68705018576485,-7.1093947043508257],[113.68705023830903,-7.1094037402619135],[113.68704119241919,-7.1094037927480676],[113.68704113987521,-7.1093947568369122],[113.6870230480957,-7.1093948618085578],[113.68702299555211,-7.1093858258972649],[113.68698681199304,-7.1093860358381713],[113.68698675945024,-7.1093769999266048],[113.6869596217807,-7.1093771573802327],[113.68695951669638,-7.1093590855566831],[113.68691428724756,-7.1093593479752002],[113.68691423470638,-7.1093503120630821],[113.68690518881658,-7.1093503645461888],[113.68690529389866,-7.1093684363705547],[113.68691433978881,-7.109368383887313],[113.68691439233014,-7.1093774197994231],[113.68687820876843,-7.109377629731604],[113.68687826130912,-7.1093866656439797],[113.68688730719984,-7.1093866131611314],[113.68688735974077,-7.1093956490734351],[113.68691449741297,-7.1093954916236308],[113.68691444487152,-7.1093864557115287],[113.68693253665231,-7.1093863507442476],[113.68693243156889,-7.1093682789203001],[113.6869505233487,-7.1093681739525829],[113.68695057589072,-7.109377209864423],[113.68694153000068,-7.1093772623484375],[113.6869415825426,-7.1093862982603406],[113.68695967432298,-7.1093861932920017],[113.68695972686531,-7.1093952292037672],[113.68694163508459,-7.1093953341722411],[113.6869415825426,-7.1093862982603406],[113.68693253665231,-7.1093863507442476],[113.68693264173601,-7.1094044225681774],[113.68691454995451,-7.1094045275357285],[113.68691465503777,-7.1094225993599132],[113.68692370092889,-7.1094225468760905],[113.68692375347079,-7.1094315827881269],[113.68691470757949,-7.1094316352720162],[113.68691476012128,-7.1094406711840819],[113.68694189779553,-7.1094405137316814],[113.68694205542295,-7.1094676214672994],[113.6869239636391,-7.1094677264361463],[113.68692401618135,-7.1094767623481294],[113.68691497028917,-7.1094768148323562],[113.68691502283131,-7.1094858507444361],[113.68692406872367,-7.1094857982601418],[113.68692422635104,-7.1095129059961053],[113.68690613456518,-7.1095130109649221],[113.68690623964973,-7.1095310827891476],[113.6868610101821,-7.1095313452087785],[113.68686111526515,-7.1095494170336613],[113.68684302347694,-7.1095495220005498],[113.68684312855956,-7.1095675938256884],[113.68685217445406,-7.109567541342197],[113.68685212191254,-7.1095585054296979],[113.68686116780678,-7.1095584529460973],[113.68686122034849,-7.1095674888585298],[113.68687026624286,-7.1095674363746859],[113.68687031878481,-7.1095764722870465],[113.68687936467927,-7.109576419802961],[113.68687931213715,-7.1095673838906661],[113.6868883580314,-7.1095673314064713],[113.6868885156585,-7.1095944391431543],[113.68687946976372,-7.1095944916275515],[113.68687941722146,-7.1095854557152487],[113.68687037132682,-7.1095855081994035],[113.6868704238689,-7.1095945441117721],[113.686861377974,-7.1095945965958194],[113.68686143051598,-7.1096036325082181],[113.68687047641104,-7.1096035800241051],[113.68687058149555,-7.1096216518487934],[113.68685248970463,-7.1096217568171109],[113.68685254224664,-7.1096307927295825],[113.68686158814229,-7.1096307402454446],[113.6868617541647,-7.1096592917774029],[113.68706127300004,-7.1096055199999473],[113.68709655778524,-7.1095909218748261],[113.68709641357977,-7.1095661242213435],[113.68710545947235,-7.1095660717329192],[113.6871052492869,-7.1095299280904438],[113.68709620339504,-7.1095299805785981],[113.68709615084902,-7.1095209446678851],[113.68708710495724,-7.1095209971557969],[113.68708699986577,-7.1095029253342759],[113.6870960457572,-7.1095028728464982],[113.68709594066567,-7.1094848010250793],[113.68707784888346,-7.1094849060001861],[113.68707779633814,-7.1094758700893195],[113.6870687504471,-7.1094759225765412],[113.68706864535702,-7.1094578507547102],[113.6870867371383,-7.1094577457803609],[113.68708668459303,-7.1094487098695653],[113.68705954692155,-7.1094488673306255],[113.68705949437684,-7.1094398314196239],[113.68706854026723,-7.109439778932849],[113.68706848772243,-7.1094307430219281],[113.68705944183222,-7.1094307955086364],[113.68705938928767,-7.1094217595976108],[113.68706843517769,-7.1094217071109691],[113.68706848772243,-7.1094307430219281]]],[[[113.68527677001138,-7.1093327008625931],[113.68526772410974,-7.1093327533136099],[113.68526773039234,-7.1093338344480328],[113.68527687467341,-7.10935071142507],[113.68527677001138,-7.1093327008625931]]],[[[113.6852585206823,-7.1093056979910649],[113.6852525044048,-7.1093057328750096],[113.68525858611207,-7.1093169574705044],[113.6852585206823,-7.1093056979910649]]],[[[113.68524936976462,-7.1092876785924499],[113.68524213990314,-7.1092877205128131],[113.6852461110002,-7.1092939329998961],[113.68524944183267,-7.1093000804925657],[113.68524936976462,-7.1092876785924499]]],[[[113.6852673565495,-7.1092695018427952],[113.68526730404116,-7.1092604659183767],[113.68525825814085,-7.1092605183686803],[113.685258310649,-7.1092695542931645],[113.6852673565495,-7.1092695018427952]]],[[[113.68524006132461,-7.109242551419503],[113.68521336621508,-7.1092427062016945],[113.68521912095217,-7.1092517090642362],[113.68522202203155,-7.1092516922433671],[113.6852220487453,-7.1092562893808422],[113.68524030714094,-7.1092848532920705],[113.68524021884782,-7.1092696591933739],[113.68524926474845,-7.1092696067433563],[113.68524921224048,-7.1092605708188046],[113.68524016634001,-7.109260623268753],[113.68524006132461,-7.109242551419503]]],[[[113.68521287111686,-7.1092336728430743],[113.68520761147829,-7.1092337033390116],[113.68521291954848,-7.1092420074246041],[113.68521287111686,-7.1092336728430743]]],[[[113.68520377270984,-7.1092246893671955],[113.68520185674173,-7.109224700476136],[113.6852037903523,-7.1092277254680001],[113.68520377270984,-7.1092246893671955]]],[[[113.68515817566906,-7.1091617001326339],[113.68515340633654,-7.1091617277848886],[113.68515820916413,-7.10916746446639],[113.68515817566906,-7.1091617001326339]]],[[[113.6851122636191,-7.1090444953348841],[113.68509417182455,-7.1090446002260919],[113.68509427683128,-7.1090626720776688],[113.68509406904965,-7.1090626732823283],[113.68512718486039,-7.1091257348946009],[113.68513082795224,-7.1091257137725252],[113.68513067043867,-7.1090986059960439],[113.6851216245405,-7.1090986584424911],[113.68512151953215,-7.1090805865913484],[113.68513056542997,-7.1090805341450354],[113.68513046042155,-7.1090624622940135],[113.68512141452408,-7.1090625147401925],[113.68512146702808,-7.1090715506657558],[113.68511242113038,-7.1090716031118255],[113.68511236862655,-7.1090625671861938],[113.68510332272896,-7.1090626196320192],[113.68510327022538,-7.1090535837063005],[113.6851123161228,-7.1090535312605416],[113.6851122636191,-7.1090444953348841]]],[[[113.6851122636191,-7.1090444953348841],[113.68513035541339,-7.1090443904429748],[113.68513030290941,-7.1090353545174496],[113.68511221111548,-7.1090354594092267],[113.6851122636191,-7.1090444953348841]]],[[[113.68713070750478,-7.1090237523066806],[113.68713849033321,-7.1090237071499418],[113.68713843779015,-7.1090146712393798],[113.68713065496188,-7.1090147163960618],[113.68712939190858,-7.1090147237244006],[113.68712944445147,-7.1090237596350283],[113.68713070750478,-7.1090237523066806]]],[[[113.6851211520051,-7.1090173351122301],[113.6851210995015,-7.1090082991866241],[113.68511205360502,-7.1090083516322231],[113.68511210610845,-7.1090173875578948],[113.6851211520051,-7.1090173351122301]]],[[[113.68513903378282,-7.1089810865184688],[113.68512998788701,-7.108981138964217],[113.68513004039058,-7.1089901748897644],[113.68513908628654,-7.1089901224439505],[113.68513903378282,-7.1089810865184688]]],[[[113.68513903378282,-7.1089810865184688],[113.68514807967856,-7.1089810340725439],[113.68514802717469,-7.1089719981471262],[113.68513898127912,-7.1089720505929828],[113.68513903378282,-7.1089810865184688]]],[[[113.68508439089011,-7.1089181497090115],[113.68508433838798,-7.1089091137830769],[113.68507529249317,-7.1089091662272308],[113.68507534499511,-7.1089182021532302],[113.68508439089011,-7.1089181497090115]]],[[[113.68512025945331,-7.1088637243764117],[113.6851202069509,-7.1088546884507577],[113.68511116105743,-7.1088547408952119],[113.68511121355968,-7.1088637768209324],[113.68512025945331,-7.1088637243764117]]],[[[113.68486686941041,-7.1088471209013058],[113.68483068582917,-7.1088473306580626],[113.68483084331952,-7.1088744384415365],[113.68484893511136,-7.1088743335631053],[113.68484904010597,-7.1088924054184668],[113.68485808600212,-7.1088923529788532],[113.68485813849971,-7.1089013889064603],[113.68486718439597,-7.1089013364666034],[113.68486697440532,-7.1088651927564035],[113.68487602030083,-7.108865140316639],[113.68487596780317,-7.1088561043891678],[113.68486692190784,-7.108856156828864],[113.68486686941041,-7.1088471209013058]]],[[[113.6850840233766,-7.1088548982275155],[113.68508397087496,-7.1088458623015711],[113.68507492498138,-7.1088459147452534],[113.68507487247996,-7.1088368788192389],[113.68505678069299,-7.1088369837059364],[113.68505683319405,-7.1088460196320877],[113.68504778730026,-7.1088460720752407],[113.68504783980121,-7.1088551080014533],[113.68505688569518,-7.1088550555582328],[113.68505693819637,-7.1088640914843584],[113.68504789230224,-7.1088641439276454],[113.68504783980121,-7.1088551080014533],[113.6850387939072,-7.1088551604444978],[113.68503895140994,-7.108882268223315],[113.68504799730447,-7.1088822157800688],[113.68504804980569,-7.1088912517062663],[113.68503900391097,-7.10889130414958],[113.68503905641209,-7.1089003400758397],[113.68502096462208,-7.1089004449620736],[113.68502122712692,-7.108945624593991],[113.68499408943876,-7.1089457819230306],[113.68499424292811,-7.1089721990608483],[113.68499527154256,-7.1089728837626822],[113.68500329283755,-7.1089728372597012],[113.68500332425256,-7.1089782440850584],[113.68503946300018,-7.1090022999999327],[113.68506694626559,-7.1090296353695042],[113.68506656161001,-7.1089634342274701],[113.68503942392182,-7.1089635915595561],[113.68503937142023,-7.1089545556333231],[113.68504841731618,-7.1089545031895387],[113.68504831231283,-7.1089364313371943],[113.68506640410385,-7.1089363264493652],[113.68506619409659,-7.1089001827451694],[113.68508428588592,-7.1089000778571743],[113.68508418088199,-7.1088820060053219],[113.68509322677617,-7.1088819535611956],[113.68509306927028,-7.1088548457835889],[113.6850840233766,-7.1088548982275155],[113.68508407587832,-7.1088639341534385],[113.6850750299844,-7.1088639865972532],[113.68507497748284,-7.1088549506712644],[113.6850840233766,-7.1088548982275155]]],[[[113.68505672819201,-7.1088279477797851],[113.68505667569109,-7.1088189118536445],[113.68504762979782,-7.1088189642965949],[113.68504768229856,-7.108828000222803],[113.68505672819201,-7.1088279477797851]]],[[[113.68458623665991,-7.1088126027238214],[113.68458464683155,-7.1088126119391299],[113.68458624073273,-7.1088133038197503],[113.68458623665991,-7.1088126027238214]]],[[[113.68464940045605,-7.1087851278952332],[113.684622262769,-7.1087852851989677],[113.68462231526118,-7.1087943211283706],[113.68461326936517,-7.1087943735626649],[113.68461332185724,-7.1088034094921309],[113.68462236775343,-7.1088033570577718],[113.68462247273814,-7.1088214289165776],[113.68460955959283,-7.1088215037675075],[113.68477659301878,-7.1088790693820858],[113.68477646295088,-7.1088566812161451],[113.6847855088469,-7.1088566287782093],[113.68478545635107,-7.1088475928500436],[113.6847945022468,-7.1088475404120013],[113.68479444975087,-7.1088385044838978],[113.6847854038553,-7.1088385569218753],[113.68478529886397,-7.108820485065543],[113.68475816117788,-7.1088206423780127],[113.68475810868283,-7.1088116064496125],[113.68472192510112,-7.1088118161968357],[113.68472187260684,-7.1088027802681806],[113.68469473492037,-7.108802937576546],[113.68469468242672,-7.1087939016476849],[113.68467659063573,-7.108794006518913],[113.68467664312905,-7.1088030424479101],[113.68465855133745,-7.108803147318568],[113.68465849884448,-7.1087941113894377],[113.68464945294878,-7.1087941638244345],[113.68464940045605,-7.1087851278952332]],[[113.68468579401193,-7.108821061870179],[113.68469483990791,-7.1088210094342745],[113.68469489240178,-7.1088300453631081],[113.68468584650562,-7.1088300977990801],[113.68468579401193,-7.108821061870179]]],[[[113.68448646934557,-7.1087679998330167],[113.68448193351306,-7.1087680261234425],[113.68448648096496,-7.1087700000829406],[113.68448646934557,-7.1087679998330167]]],[[[113.68454079721357,-7.108776721170643],[113.68454074472312,-7.1087676852406263],[113.68453169882704,-7.1087677376731309],[113.68453175131732,-7.1087767736032168],[113.68454079721357,-7.108776721170643]]],[[[113.68458597420253,-7.1087674230754549],[113.68456788241097,-7.1087675279420521],[113.68456793490195,-7.1087765638718672],[113.6845588890059,-7.1087766163049695],[113.68455894149679,-7.1087856522348476],[113.68457703328919,-7.1087855473683339],[113.68457713827186,-7.1088036192278112],[113.6845952300647,-7.1088035143603241],[113.68459507258974,-7.108776406571506],[113.68458602669388,-7.1087764590051359],[113.68458597420253,-7.1087674230754549]]],[[[113.68495685586916,-7.1087652731549307],[113.68495680337067,-7.1087562372280058],[113.68493871158509,-7.1087563421089124],[113.68493876408324,-7.1087653780359741],[113.68495685586916,-7.1087652731549307]]],[[[113.68103997782853,-7.1087879634621611],[113.68103987298433,-7.1087698915500521],[113.68103082706213,-7.1087699439142469],[113.68103087948403,-7.1087789798703716],[113.68102183356157,-7.1087790322344553],[113.68102188598336,-7.1087880681906421],[113.68103997782853,-7.1087879634621611]]],[[[113.68111643379352,-7.1087423395779767],[113.68111208308942,-7.1087423647635761],[113.68111209654707,-7.1087446843968172],[113.68111643379352,-7.1087423395779767]]],[[[113.68449525279516,-7.1087227677495628],[113.68448620689962,-7.1087228201808506],[113.68448631187779,-7.1087408920417285],[113.68449535777368,-7.1087408396103067],[113.68449541026305,-7.1087498755406724],[113.68451350205501,-7.1087497706771634],[113.68451344956529,-7.1087407347469318],[113.68450440366954,-7.1087407871787063],[113.68450435118005,-7.1087317512484045],[113.68449530528439,-7.1087318036799365],[113.68449525279516,-7.1087227677495628]]],[[[113.68107558487054,-7.1086883584892462],[113.68106653895019,-7.1086884108535404],[113.68106659137216,-7.1086974468094288],[113.68107563729269,-7.108697394445068],[113.68107558487054,-7.1086883584892462]]],[[[113.68120379411489,-7.1086966525612896],[113.68121130428823,-7.1086928508194456],[113.68121122124266,-7.1086785370488972],[113.68120217532353,-7.1086785894157645],[113.68120228017271,-7.1086966613255171],[113.68120379411489,-7.1086966525612896]]],[[[113.68107558487054,-7.1086883584892462],[113.68110272263114,-7.1086882013953074],[113.68110261778597,-7.1086701294840529],[113.68109357186617,-7.1086701818487406],[113.68109362428855,-7.108679217804454],[113.68108457836853,-7.1086792701690333],[113.68108452594633,-7.1086702342132524],[113.68106643410641,-7.1086703389417476],[113.68106648652827,-7.1086793748976609],[113.68107553244845,-7.1086793225334359],[113.68107558487054,-7.1086883584892462]]],[[[113.68469389503001,-7.1086583627143085],[113.68469384253746,-7.1086493267853674],[113.68468479664483,-7.108649379219993],[113.68468484913723,-7.1086584151490015],[113.68469389503001,-7.1086583627143085]]],[[[113.68121116881798,-7.1086695010940568],[113.68121106396885,-7.108651429184401],[113.68120201805026,-7.1086514815510684],[113.68120212289904,-7.1086695534608602],[113.68121116881798,-7.1086695010940568]]],[[[113.68186237124955,-7.1086478858720419],[113.68186236992904,-7.1086476583213818],[113.68184427810159,-7.108647763079909],[113.68184428185779,-7.10864841035061],[113.68184564100024,-7.1086484279999835],[113.68186237124955,-7.1086478858720419]]],[[[113.68434094770295,-7.1086332997421104],[113.68432285591298,-7.1086334045971746],[113.68432301336878,-7.1086605123922553],[113.68434110515982,-7.108660407536787],[113.68434115764556,-7.1086694434683153],[113.68435020354114,-7.108669391040249],[113.68435030851322,-7.1086874629031938],[113.68434126261728,-7.1086875153313942],[113.68434131510325,-7.108696551262927],[113.68429285312149,-7.1086968321362116],[113.68444476500032,-7.1087518919999324],[113.68447741189577,-7.108766063378166],[113.68447731847085,-7.1087499804034753],[113.68446827257462,-7.1087500328346147],[113.68446822008578,-7.1087409969040456],[113.68445917418968,-7.1087410493349399],[113.68445901672411,-7.1087139415430114],[113.68444997082844,-7.1087139939735273],[113.68444991834022,-7.108704958042793],[113.6844408724447,-7.1087050104730665],[113.68444076746883,-7.108686938611501],[113.68437744620061,-7.1086873056175346],[113.68437739371402,-7.1086782696862665],[113.68435930192285,-7.1086783745434134],[113.68435914446452,-7.1086512667491819],[113.68434105267413,-7.1086513716052204],[113.68434094770295,-7.1086332997421104]]],[[[113.68438617717666,-7.1086330376013658],[113.68437713128205,-7.1086330900298673],[113.68437718376831,-7.1086421259611559],[113.6843862296631,-7.1086420735325868],[113.68438617717666,-7.1086330376013658]]],[[[113.68132173505181,-7.1086417522395875],[113.68131051664264,-7.1086418171853358],[113.68131054394155,-7.1086465222920863],[113.68132173505181,-7.1086417522395875]]],[[[113.68177185835368,-7.1086391461563023],[113.68175376652523,-7.108639250911172],[113.68175381285953,-7.1086472355417625],[113.68177190665968,-7.1086474705049572],[113.68177185835368,-7.1086391461563023]]],[[[113.68434094770295,-7.1086332997421104],[113.68434999359782,-7.1086332473143141],[113.68434994111216,-7.1086242113828204],[113.68434089521747,-7.1086242638105501],[113.68434094770295,-7.1086332997421104]]],[[[113.68446759022501,-7.1086325657369285],[113.68446753773708,-7.1086235298063096],[113.68444944594937,-7.1086236346661718],[113.68444949843698,-7.1086326705969247],[113.68446759022501,-7.1086325657369285]]],[[[113.68117482787027,-7.1086426026949106],[113.68117477544656,-7.1086335667398197],[113.68116572952803,-7.1086336191056478],[113.68116578195155,-7.1086426550608053],[113.68117482787027,-7.1086426026949106]]],[[[113.68120196562596,-7.1086424455961659],[113.68120191320175,-7.1086334096412767],[113.68119286728343,-7.108633462007635],[113.68119291970747,-7.1086424979625891],[113.68120196562596,-7.1086424455961659]]],[[[113.68178090426781,-7.1086390937786055],[113.6817808518323,-7.1086300578280186],[113.68177180591836,-7.1086301102056515],[113.68177185835368,-7.1086391461563023],[113.68178090426781,-7.1086390937786055]]],[[[113.68157274336279,-7.1086222265168004],[113.68156944173825,-7.1086222456323753],[113.68157274724538,-7.108622895635941],[113.68157274336279,-7.1086222265168004]]],[[[113.68189844870743,-7.1086293769027797],[113.68190749462043,-7.1086293245226813],[113.68190744218252,-7.1086202885729994],[113.6818983962697,-7.1086203409530313],[113.68189844870743,-7.1086293769027797]]],[[[113.68438617717666,-7.1086330376013658],[113.68444045254286,-7.1086327230266582],[113.68444034756807,-7.1086146511650314],[113.68443130167424,-7.1086147035944549],[113.68443124918714,-7.1086056676635421],[113.6844041115057,-7.1086058249505548],[113.68440416399228,-7.1086148608816684],[113.68438607220401,-7.1086149657389308],[113.68438617717666,-7.1086330376013658]]],[[[113.68155459910106,-7.1086132953113577],[113.68154555318576,-7.1086133476844502],[113.68154557758649,-7.1086175529223503],[113.68155463413945,-7.1086193338270736],[113.68155459910106,-7.1086132953113577]]],[[[113.68159988110841,-7.1086220693952065],[113.68159982867657,-7.1086130334432518],[113.68158173684658,-7.1086131381910223],[113.68158178927806,-7.1086221741431128],[113.68159988110841,-7.1086220693952065]]],[[[113.68178090426781,-7.1086390937786055],[113.68178095355965,-7.1086475879863],[113.68183523495823,-7.1086482928705319],[113.68183523218777,-7.1086478154589097],[113.68182618627387,-7.1086478678377318],[113.68182608140103,-7.1086297959372198],[113.68181703548743,-7.1086298483157311],[113.68181698305128,-7.108620812365376],[113.68180793713778,-7.1086208647436466],[113.68180788470187,-7.1086118287932374],[113.68179883878848,-7.1086118811712629],[113.6817988912242,-7.1086209171217396],[113.68178984531056,-7.1086209694996541],[113.68178995018185,-7.1086390414007292],[113.68178090426781,-7.1086390937786055]]],[[[113.68189844870743,-7.1086293769027797],[113.68188940279437,-7.1086294292827024],[113.68188929791933,-7.1086113573830803],[113.68188025200654,-7.1086114097626929],[113.68188030444384,-7.1086204457125639],[113.68187125853083,-7.1086204980920664],[113.68187136340531,-7.1086385699919292],[113.68189850114521,-7.1086384128524909],[113.68189844870743,-7.1086293769027797]]],[[[113.68190744218252,-7.1086202885729994],[113.68193457992055,-7.1086201314318531],[113.68193452748218,-7.1086110954823845],[113.68190738974468,-7.1086112526233309],[113.68190744218252,-7.1086202885729994]]],[[[113.68419600344534,-7.1085979948323237],[113.68418695755001,-7.108598047256856],[113.68418701003229,-7.1086070831895727],[113.68419605592779,-7.108607030764972],[113.68419600344534,-7.1085979948323237]]],[[[113.68422319361393,-7.1086068734901158],[113.68422314113096,-7.1085978375576691],[113.6842140952358,-7.1085978899827298],[113.68421414771862,-7.1086069259152449],[113.68422319361393,-7.1086068734901158]]],[[[113.68208830798309,-7.1086102049870732],[113.6820882555418,-7.1086011690387441],[113.68207016371956,-7.108601273805407],[113.6820702161605,-7.1086103097538693],[113.68208830798309,-7.1086102049870732]]],[[[113.68419600344534,-7.1085979948323237],[113.68420504934062,-7.1085979424076147],[113.68420499685804,-7.1085889064750285],[113.68419595096294,-7.10858895889967],[113.68419600344534,-7.1085979948323237]]],[[[113.68152746135495,-7.1086134524301068],[113.68152735649429,-7.1085953805251103],[113.68151831057914,-7.1085954328975411],[113.68151840792768,-7.1086122102069123],[113.68152480334373,-7.1086134678190449],[113.68152746135495,-7.1086134524301068]]],[[[113.68416881327727,-7.1085891161725376],[113.68416876079547,-7.1085800802396779],[113.68415971490029,-7.1085801326635485],[113.6841597673819,-7.1085891685964739],[113.68416881327727,-7.1085891161725376]]],[[[113.68144604109735,-7.1086127146638027],[113.68144589082678,-7.1085868159175263],[113.68143684491116,-7.1085868682883033],[113.68143694976816,-7.1086049401946552],[113.68142790385217,-7.1086049925653887],[113.68142795205846,-7.108613300843408],[113.68144604109735,-7.1086127146638027]]],[[[113.68213343265415,-7.1085918711710114],[113.68213332777013,-7.1085737992750087],[113.68214237368031,-7.108573746890734],[113.68214232123822,-7.1085647109427947],[113.68211518350807,-7.1085648680948852],[113.68211528839126,-7.1085829399911669],[113.6821062424807,-7.1085829923749797],[113.68210629492221,-7.10859202832318],[113.68213343265415,-7.1085918711710114]]],[[[113.68424097050533,-7.1085525530453957],[113.68423192461123,-7.1085526054704733],[113.68423202957693,-7.1085706773352673],[113.68425012136579,-7.1085705724846679],[113.68425006888256,-7.1085615365524069],[113.68424102298833,-7.1085615889777278],[113.68424097050533,-7.1085525530453957]]],[[[113.68378862324177,-7.108546138147724],[113.6837614855495,-7.1085462953957999],[113.68376159049673,-7.1085643672676193],[113.68374349870082,-7.108564472099058],[113.68374355117419,-7.1085735080350867],[113.68373450527596,-7.1085735604506093],[113.68373445280278,-7.108564524514513],[113.68370731510821,-7.1085646817598214],[113.68370747252638,-7.108591789568707],[113.68372556432389,-7.1085916847382729],[113.68372551185074,-7.1085826488021162],[113.68373455774922,-7.1085825963867029],[113.68373462494745,-7.1085941679560856],[113.68380628600016,-7.1085918459999178],[113.68383412910816,-7.108593467315627],[113.68383406262791,-7.1085820198055254],[113.68382501673017,-7.1085820722228767],[113.68382506920527,-7.1085911081582935],[113.68381602330732,-7.1085911605755356],[113.6838159708324,-7.1085821246400522],[113.68379787903662,-7.1085822294738739],[113.68379782656211,-7.1085731935382528],[113.68378878066432,-7.1085732459548323],[113.68378862324177,-7.108546138147724]]],[[[113.68412353131885,-7.1085803423572642],[113.68415066900505,-7.1085801850872414],[113.68415061652367,-7.108571149154244],[113.6841325247333,-7.1085712540009665],[113.68413247225234,-7.1085622180678305],[113.68411438046206,-7.1085623229137154],[113.68411432798153,-7.1085532869804409],[113.68410528208648,-7.1085533394030511],[113.68410522960619,-7.1085443034696887],[113.68408713781619,-7.1085444083142475],[113.68408719029611,-7.108553444247744],[113.68406005261009,-7.1085536015134627],[113.68406010508956,-7.1085626374471405],[113.68405105919389,-7.1085626898687613],[113.6840510067146,-7.1085536539350169],[113.68402386902774,-7.10855381119862],[113.68402381654904,-7.10854477526465],[113.68400572475781,-7.1085448801060389],[113.68400588219305,-7.1085719879083022],[113.68399683629681,-7.1085720403289336],[113.68399688877518,-7.1085810762630759],[113.68398784287868,-7.108581128683598],[113.68398779040048,-7.1085720927493883],[113.68397874450412,-7.1085721451696671],[113.68397879698213,-7.1085811811039434],[113.68394261339523,-7.1085813907835673],[113.68394266587261,-7.1085904267181084],[113.68393361997552,-7.1085904791376411],[113.68393367099272,-7.1085992636666724],[113.68395967700019,-7.1086007779999312],[113.68407135700009,-7.108611060999972],[113.68416009568192,-7.1086456928285218],[113.68415997730905,-7.1086253123281402],[113.68415093141292,-7.1086253647521698],[113.68415082644957,-7.1086072928862114],[113.68414178055369,-7.1086073453099292],[113.6841417280723,-7.1085983093768768],[113.68412363628072,-7.1085984142236525],[113.68412353131885,-7.1085803423572642],[113.68411448542331,-7.1085803947802528],[113.68411443294266,-7.1085713588469854],[113.68412347883799,-7.1085713064240652],[113.68412353131885,-7.1085803423572642]]],[[[113.68300157745709,-7.108541661756691],[113.68298348565075,-7.1085417665581332],[113.6829835381091,-7.108550802499809],[113.68300162991579,-7.1085506976982336],[113.68300157745709,-7.108541661756691]]],[[[113.68246776415893,-7.1085266812118943],[113.68245871825211,-7.1085267336021731],[113.68245877070009,-7.1085357695477764],[113.68244972479303,-7.1085358219379478],[113.68244977724092,-7.1085448578836115],[113.68244073133361,-7.1085449102736753],[113.68244067888591,-7.1085358743279405],[113.68242258707146,-7.1085359791074039],[113.68242263951879,-7.1085450150532701],[113.68241359361129,-7.1085450674428037],[113.68241364605852,-7.1085541033887187],[113.6824679215036,-7.1085537890484698],[113.68246776415893,-7.1085266812118943]]],[[[113.68300157745709,-7.108541661756691],[113.68301062336015,-7.1085416093557079],[113.68301051844261,-7.1085235374727125],[113.68299242663711,-7.1085236422742382],[113.6829924790955,-7.1085326782158713],[113.68300152499846,-7.1085326258151298],[113.68300157745709,-7.108541661756691]]],[[[113.68303770860959,-7.1085324162104051],[113.68303765615032,-7.1085233802691077],[113.68302861024783,-7.108523432670486],[113.68302866270692,-7.1085324686118501],[113.68303770860959,-7.1085324162104051]]],[[[113.68328194795615,-7.1085310013047858],[113.68328189549213,-7.1085219653653064],[113.68326380369074,-7.1085220701773997],[113.68326385615441,-7.1085311061170149],[113.68328194795615,-7.1085310013047858]]],[[[113.6837251445406,-7.1085193972489122],[113.68372535443172,-7.1085555409936241],[113.68373440032966,-7.1085554885784124],[113.68373419043787,-7.1085193448339696],[113.6837251445406,-7.1085193972489122]]],[[[113.68399657390597,-7.1085268606581664],[113.68399652142803,-7.1085178247240028],[113.68397842963743,-7.108517929563928],[113.68397848211505,-7.1085269654982284],[113.68399657390597,-7.1085268606581664]]],[[[113.68269385935456,-7.1085163354537828],[113.6826214921132,-7.1085167546057857],[113.68262154456428,-7.1085257905501802],[113.68252203959837,-7.1085263668665144],[113.68252209204759,-7.1085354028116443],[113.68251304614103,-7.1085354552030502],[113.68251320348854,-7.1085625630386211],[113.6825584330234,-7.1085623010788277],[113.68255832812322,-7.1085442291891257],[113.68259451174845,-7.1085440196186571],[113.68259456419922,-7.1085530555632266],[113.68260361010555,-7.108553003170103],[113.6826035576546,-7.1085439672256001],[113.68261260356067,-7.1085439148323672],[113.6826126560118,-7.1085529507768026],[113.68262170191795,-7.1085528983833237],[113.68262175436932,-7.1085619343277227],[113.68263984618183,-7.1085618295401041],[113.68263979373012,-7.1085527935958437],[113.6826488396361,-7.108552741201839],[113.68264878718428,-7.1085437052576745],[113.68266687899568,-7.108543600469269],[113.68266682654355,-7.1085345645252191],[113.682675872449,-7.1085345121308192],[113.68267581999677,-7.1085254761868324],[113.68269391180705,-7.10852537139764],[113.68269385935456,-7.1085163354537828]]],[[[113.6837251445406,-7.1085193972489122],[113.68372509206802,-7.1085103613127245],[113.68371604617089,-7.1085104137274238],[113.68371609864332,-7.1085194496636781],[113.6837251445406,-7.1085193972489122]]],[[[113.68176213078782,-7.1085217311739397],[113.68176207835354,-7.1085126952231343],[113.6817439865299,-7.1085127999757685],[113.6817440389638,-7.1085218359267079],[113.68176213078782,-7.1085217311739397]]],[[[113.68269385935456,-7.1085163354537828],[113.68273908887818,-7.1085160734780564],[113.68273903642486,-7.1085070375345145],[113.68269380690214,-7.1085072995099052],[113.68269385935456,-7.1085163354537828]]],[[[113.68325475778994,-7.1085221225831816],[113.68325470532652,-7.1085130866434936],[113.68326375122712,-7.10851303423778],[113.6832636987636,-7.1085039982981399],[113.68323656106206,-7.1085041555145558],[113.68323666598815,-7.108522227394217],[113.68325475778994,-7.1085221225831816]]],[[[113.68339039382863,-7.1085123005392719],[113.68339034136262,-7.108503264600575],[113.68338129546312,-7.1085033170086902],[113.68338134792896,-7.1085123529474545],[113.68339039382863,-7.1085123005392719]]],[[[113.68343562332591,-7.1085120384957241],[113.68343557085902,-7.108503002557363],[113.68340843316136,-7.1085031597838171],[113.68340848562772,-7.1085121957223816],[113.68343562332591,-7.1085120384957241]]],[[[113.68180788470187,-7.1086118287932374],[113.68182597652846,-7.108611724036658],[113.68182592409227,-7.1086026880863802],[113.68181687817921,-7.1086027404646899],[113.68181682574325,-7.108593704514341],[113.68182587165616,-7.1085936521360971],[113.68182576678413,-7.1085755802355237],[113.68180767495895,-7.1085756849915649],[113.68180757008791,-7.108557613090686],[113.68182566191237,-7.1085575083349148],[113.6818255570409,-7.1085394364343237],[113.68183460295266,-7.108539384056308],[113.68183455051685,-7.1085303481060658],[113.68180741278186,-7.1085305052393855],[113.6818073079115,-7.1085124333384684],[113.68179826200004,-7.1085124857157531],[113.68179820956514,-7.1085034497652471],[113.68178916365379,-7.1085035021422902],[113.68178921608852,-7.1085125380928629],[113.68177112426528,-7.1085126428465539],[113.68177122913424,-7.1085307147480075],[113.68178932095817,-7.1085306099940482],[113.68178947826317,-7.1085577178457555],[113.68179852417559,-7.1085576654683083],[113.6817985766109,-7.108566701418825],[113.68178953069831,-7.1085667537963371],[113.68178963556878,-7.1085848256974584],[113.68179868148172,-7.1085847733198122],[113.68179873391723,-7.1085938092703005],[113.68178064209096,-7.108593914025553],[113.6817806945262,-7.1086029499761718],[113.68177164861278,-7.1086030023535995],[113.68177170104791,-7.1086120383042823],[113.68179883878848,-7.1086118811712629],[113.68179878635283,-7.1086028452207826],[113.68180783226605,-7.1086027928428246],[113.68180788470187,-7.1086118287932374]]],[[[113.68183444564544,-7.1085122762055546],[113.68183439320983,-7.1085032402553185],[113.68182534729877,-7.1085032926330651],[113.68182539973419,-7.1085123285833678],[113.68183444564544,-7.1085122762055546]]],[[[113.68282944301016,-7.1084974776276839],[113.68282039710662,-7.1084975300248079],[113.68282044956146,-7.1085065659677147],[113.68279331184988,-7.1085067231582331],[113.68279325939557,-7.1084976872151246],[113.68277516758786,-7.108497792007789],[113.68277522004179,-7.1085068279510324],[113.68276617413767,-7.1085068803471669],[113.68276622659151,-7.1085159162905072],[113.68277527249582,-7.1085158638943042],[113.68277537740406,-7.1085339357808035],[113.68282060692637,-7.1085336737964768],[113.68282071183663,-7.1085517456822709],[113.68282975774123,-7.1085516932847428],[113.68282981019665,-7.1085607292275919],[113.68282076429188,-7.1085607816251875],[113.68282088786987,-7.1085820691296577],[113.68288986171568,-7.1085798339688528],[113.68291133294535,-7.1085791381718586],[113.6829112757937,-7.1085692935835283],[113.6828898012473,-7.1085694179765611],[113.68288413808048,-7.1085694507807435],[113.68288398071105,-7.1085423429534567],[113.68288964387753,-7.1085423101494003],[113.68289302661499,-7.1085422905547633],[113.68289307907158,-7.1085513264971123],[113.68291117087963,-7.1085512216990612],[113.68291111842269,-7.1085421857568472],[113.68292921023013,-7.1085420809582249],[113.6829291577729,-7.1085330450161246],[113.68292011186939,-7.1085330974154557],[113.68292005941241,-7.1085240614732852],[113.68289292170203,-7.1085242186700208],[113.68289281678933,-7.1085061467852446],[113.68288943405216,-7.1085061663797831],[113.68287472498278,-7.1085062515819191],[113.68287477743874,-7.1085152875244528],[113.68284763972785,-7.1085154447183436],[113.68284758727242,-7.10850640877561],[113.68282949546517,-7.1085065135705214],[113.68282944301016,-7.1084974776276839]],[[113.68279336430425,-7.1085157591013717],[113.68280241020834,-7.1085157067046403],[113.68280246266296,-7.1085247426476901],[113.68279341675868,-7.1085247950444881],[113.68279336430425,-7.1085157591013717]]],[[[113.68303755123199,-7.1085053083864862],[113.68306468893806,-7.1085051511816983],[113.68306463647846,-7.108496115240607],[113.68300131516462,-7.1084964820488432],[113.68300136762298,-7.1085055179904044],[113.68302850532984,-7.1085053607877295],[113.6830285577888,-7.1085143967291184],[113.68303760369112,-7.1085143443278076],[113.68303755123199,-7.1085053083864862]]],[[[113.68329083646451,-7.1085038410801387],[113.6832907840005,-7.1084948051407322],[113.68328173810045,-7.1084948575468418],[113.68328179056427,-7.1085038934863167],[113.68329083646451,-7.1085038410801387]]],[[[113.68354401670558,-7.1084843017606154],[113.68352592490959,-7.1084844065823871],[113.6835259773781,-7.108493442520067],[113.68353502327631,-7.108493390109202],[113.68353507574507,-7.1085024260467939],[113.68354412164338,-7.1085023736356847],[113.68354401670558,-7.1084843017606154]]],[[[113.68350778064521,-7.1084754754656352],[113.68348968884901,-7.108475580285865],[113.68348963638132,-7.1084665443479071],[113.68347154458519,-7.1084666491672985],[113.68347159705252,-7.1084756851053896],[113.68346255115419,-7.1084757375148868],[113.68346260362141,-7.108484773453041],[113.6834535577228,-7.1084848258624298],[113.68345366265709,-7.1085028977388456],[113.68346270855604,-7.1085028453293218],[113.68346265608869,-7.1084938093911925],[113.68348979378456,-7.1084936521617665],[113.68348974131675,-7.1084846162238176],[113.68349878721504,-7.1084845638137244],[113.68349883968304,-7.1084935997516059],[113.68350788558148,-7.1084935473412694],[113.68350778064521,-7.1084754754656352]]],[[[113.68350778064521,-7.1084754754656352],[113.6835168265432,-7.1084754230552569],[113.683516774075,-7.1084663871175042],[113.68350772817718,-7.1084664395278141],[113.68350778064521,-7.1084754754656352]]],[[[113.68238603631715,-7.1084729370411521],[113.68238598387106,-7.1084639010950017],[113.68237693796488,-7.1084639534832252],[113.68237699041079,-7.1084729894294423],[113.68238603631715,-7.1084729370411521]]],[[[113.68384247882558,-7.1084735361643139],[113.68384253130021,-7.1084825720996418],[113.68386062309143,-7.1084824672655387],[113.68386051814156,-7.1084643953951474],[113.68386956403671,-7.1084643429779639],[113.6838695115617,-7.1084553070428482],[113.68376096081745,-7.1084559360365889],[113.68376106576331,-7.1084740079084536],[113.68375201986714,-7.1084740603235881],[113.68375191492164,-7.1084559884515892],[113.68373382312986,-7.1084560932810632],[113.68373392807466,-7.1084741651533294],[113.68374297397094,-7.1084741127385467],[113.68374302644362,-7.1084831486746154],[113.68373398054716,-7.1084832010894647],[113.68373403301973,-7.1084922370255974],[113.68372498712301,-7.1084922894403366],[113.68372503959549,-7.1085013253765172],[113.68375217728592,-7.1085011681315642],[113.68375212481293,-7.108492132195587],[113.68379735429477,-7.1084918701174775],[113.68379730182096,-7.1084828341818174],[113.68380634771697,-7.1084827817657352],[113.68380640019095,-7.1084918177013288],[113.68383353787902,-7.108491660451822],[113.68383348540451,-7.1084826245164301],[113.68382443950873,-7.1084826769330416],[113.68382438703443,-7.1084736409975777],[113.68384247882558,-7.1084735361643139],[113.68384242635103,-7.1084645002289797],[113.68385147224635,-7.1084644478121524],[113.68385152472108,-7.1084734837474173],[113.68384247882558,-7.1084735361643139]]],[[[113.68261134475441,-7.1083270521643822],[113.682611292305,-7.1083180162198332],[113.68260224640335,-7.1083180686113856],[113.68260229885257,-7.1083271045560021],[113.68261134475441,-7.1083270521643822]]],[[[113.68323545935463,-7.1083144007773509],[113.68323540689312,-7.1083053648374408],[113.68322636099637,-7.1083054172410804],[113.6832264134577,-7.108314453181058],[113.68323545935463,-7.1083144007773509]]],[[[113.68301751850092,-7.1081710833528176],[113.68301746604475,-7.1081620474112288],[113.68300842014914,-7.1081620998095634],[113.68300847260515,-7.1081711357512196],[113.68301751850092,-7.1081710833528176]]],[[[113.68267345971793,-7.1081188587033521],[113.68267340726887,-7.1081098227591859],[113.68266436137172,-7.1081098751504213],[113.68266441382062,-7.1081189110946559],[113.68267345971793,-7.1081188587033521]]]]},"properties":{"FID":0,"Shape_Leng":18102566.929299999,"Shape_Area":236516885.403}}]
}