{
  "type" : "FeatureCollection",
  "features" : [{"type":"Feature","id":0,"geometry":{"type":"MultiPolygon","coordinates":[[[[113.01141860690988,-6.8889518805549166],[113.01140956086022,-6.8889519186379857],[113.01140959896703,-6.8889609590345424],[113.01140055291711,-6.8889609971174917],[113.01140059102381,-6.8889700375140945],[113.01140963707391,-6.8889699994310947],[113.01140967518083,-6.8889790398276274],[113.01142776728116,-6.8889789636610157],[113.0114277291739,-6.8889699232645834],[113.01141868312392,-6.8889699613479269],[113.01141860690988,-6.8889518805549166]]],[[[113.01141860690988,-6.8889518805549166],[113.01142765295951,-6.8889518424716778],[113.01142761485239,-6.888942802075217],[113.01141856880294,-6.888942840158407],[113.01141860690988,-6.8889518805549166]]],[[[113.01142761485239,-6.888942802075217],[113.01143666090182,-6.8889427639918557],[113.01143662279459,-6.8889337235954597],[113.01142757674533,-6.8889337616787714],[113.01142761485239,-6.888942802075217]]],[[[113.01146372283431,-6.888924568948223],[113.01145467678541,-6.8889246070319947],[113.01145475300051,-6.8889426878246214],[113.01147284509896,-6.8889426116567032],[113.01147280699104,-6.8889335712605089],[113.01146376094201,-6.8889336093445035],[113.01146372283431,-6.888924568948223]]],[[[113.01149086098074,-6.8889244546958786],[113.01149082287259,-6.8889154142997597],[113.01148177682401,-6.8889154523839951],[113.011481814932,-6.8889244927801627],[113.01149086098074,-6.8889244546958786]]],[[[113.01177877189718,-6.8885525797308622],[113.01177873378566,-6.8885435393362124],[113.0117696877457,-6.8885435774238513],[113.01176972585705,-6.8885526178185517],[113.01177877189718,-6.8885525797308622]]],[[[113.01151620807451,-6.8884994418276921],[113.01151620768107,-6.8884993484830614],[113.01151616306478,-6.8884994420171752],[113.01151620807451,-6.8884994418276921]]],[[[113.01172403833304,-6.8884443235147481],[113.01172400022315,-6.8884352831197511],[113.01171495418495,-6.8884353212057583],[113.01171499229467,-6.888444361600806],[113.01172403833304,-6.8884443235147481]]],[[[113.01172380967445,-6.8883900811447099],[113.01172377156487,-6.8883810407496924],[113.011732817602,-6.8883810026638148],[113.01173277949228,-6.8883719622688435],[113.01171468741835,-6.8883720384403224],[113.01171476363712,-6.8883901192304657],[113.01172380967445,-6.8883900811447099]]],[[[113.01159697461162,-6.888345412351061],[113.01159265865647,-6.888345430520916],[113.01158307500008,-6.888359166999968],[113.01152048413687,-6.8884903832695379],[113.01152521600861,-6.8884903633490069],[113.01152525411506,-6.8884994037450928],[113.01154334619594,-6.8884993275793818],[113.01154338430277,-6.888508367975362],[113.01158861450493,-6.8885081775578412],[113.01158865261267,-6.8885172179535834],[113.01164292885458,-6.8885169894466118],[113.01164289074582,-6.8885079490511725],[113.01165193678578,-6.8885079109661307],[113.01165197489472,-6.8885169513615176],[113.01167911301484,-6.888516837105211],[113.01167892246812,-6.8884716351290551],[113.011669876429,-6.8884716732144087],[113.01166983831997,-6.8884626328191203],[113.0116517462419,-6.8884627089892154],[113.01165167002469,-6.8884446281984237],[113.01166071606343,-6.8884445901135631],[113.01166052552045,-6.8883993881367571],[113.01164243344468,-6.8883994643058042],[113.01164239533658,-6.8883904239103515],[113.01163334929876,-6.8883904619945682],[113.01163331119089,-6.8883814215990444],[113.0116152191155,-6.8883814977668631],[113.01161514290058,-6.8883634169756043],[113.01160609686313,-6.8883634550591557],[113.01160605875593,-6.8883544146634534],[113.01159701271861,-6.8883544527467837],[113.01159697461162,-6.888345412351061]],[[113.01163342551466,-6.888408542785605],[113.01164247155282,-6.8884085047012871],[113.01164254776927,-6.8884265854922075],[113.01163350173077,-6.8884266235766258],[113.01163342551466,-6.888408542785605]]],[[[113.01203866768566,-6.8879728899421666],[113.01203862957244,-6.8879638495487461],[113.01202958354496,-6.8879638876381151],[113.012029621658,-6.8879729280315845],[113.01203866768566,-6.8879728899421666]]],[[[113.01214706755302,-6.8879362712845138],[113.0121289755002,-6.88793634746688],[113.01212901361498,-6.8879453878598218],[113.01214710566812,-6.8879453116773552],[113.01214706755302,-6.8879362712845138]]],[[[113.01193900893338,-6.8879371473404278],[113.01193897082227,-6.8879281069464557],[113.01192087876744,-6.8879281831208559],[113.01192091687822,-6.8879372235149301],[113.01193900893338,-6.8879371473404278]]],[[[113.01214706755302,-6.8879362712845138],[113.01215611357934,-6.8879362331930745],[113.01215607546409,-6.8879271928003138],[113.01214702943795,-6.8879272308917008],[113.01214706755302,-6.8879362712845138]]],[[[113.01190278671241,-6.887928259294573],[113.01190274860203,-6.8879192189003779],[113.01188465654712,-6.887919295073309],[113.01188469465717,-6.8879283354676053],[113.01190278671241,-6.887928259294573]]],[[[113.01187561051961,-6.8879193331595179],[113.01187557240978,-6.8879102927651692],[113.01186652638239,-6.8879103308511569],[113.01186656449205,-6.8879193712455571],[113.01187561051961,-6.8879193331595179]]],[[[113.01215607546409,-6.8879271928003138],[113.01216512149021,-6.8879271547087537],[113.01216508337485,-6.8879181143160215],[113.01217412940073,-6.8879180762243415],[113.01217405316983,-6.8878999954389686],[113.0121830991953,-6.8878999573472184],[113.01218306107977,-6.8878909169545937],[113.01219210710504,-6.8878908788627236],[113.01219206898936,-6.887881838470113],[113.01220111501441,-6.8878818003781195],[113.01220108040931,-6.887873592659898],[113.01217395733832,-6.8878772656250105],[113.01217401505446,-6.8878909550462941],[113.0121649690291,-6.8878909931378232],[113.01216504525955,-6.8879090739232867],[113.01215599923377,-6.8879091120147455],[113.01215607546409,-6.8879271928003138]]],[[[113.01459228102404,-6.8864433200213337],[113.01459224287102,-6.8864342796415947],[113.01458319688675,-6.886434317770858],[113.01458323503959,-6.8864433581506477],[113.01459228102404,-6.8864433200213337]]],[[[113.01454686034107,-6.8863983087662053],[113.01454441110633,-6.8863983190895777],[113.01454028275258,-6.8864435391945333],[113.01454705110136,-6.8864435106662008],[113.01454697479708,-6.886425429906212],[113.01455602078138,-6.8864253917776814],[113.01455594447697,-6.8864073110177797],[113.01454689849302,-6.8864073491462099],[113.01454686034107,-6.8863983087662053]]],[[[113.01460991515587,-6.8863347592062913],[113.01460983885043,-6.8863166784469243],[113.01460079286849,-6.8863167165758732],[113.01460086917358,-6.8863347973353406],[113.01460991515587,-6.8863347592062913]]]]},"properties":{"FID":0,"Shape_Leng":18102566.929299999,"Shape_Area":236516885.403}}]
}