{
  "type" : "FeatureCollection",
  "features" : [{"type":"Feature","id":0,"geometry":{"type":"Polygon","coordinates":[[[113.78248210928017,-7.1241102132522292],[113.78249115473352,-7.1241101587914253],[113.78249104568805,-7.1240920884279682],[113.78247295478199,-7.124092197349122],[113.78247300930434,-7.1241012325310002],[113.78246396385104,-7.1241012869913813],[113.78246404874744,-7.1241153556383709],[113.78249126669894,-7.1241287129832358],[113.78249126377928,-7.1241282291548487],[113.7825003092329,-7.1241281746937277],[113.78250033934968,-7.1241331654310134],[113.78251475300011,-7.124140238999936],[113.78252752805325,-7.1241416758274516],[113.78252750011703,-7.124137046490735],[113.78250940920979,-7.1241371554139974],[113.7825093001632,-7.12411908505086],[113.78248216380283,-7.1241192484340132],[113.78248210928017,-7.1241102132522292]]]},"properties":{"FID":0,"Shape_Leng":18102566.929299999,"Shape_Area":236516885.403}}]
}