{
  "type" : "FeatureCollection",
  "features" : [{"type":"Feature","id":0,"geometry":{"type":"MultiPolygon","coordinates":[[[[113.98013095539578,-7.0164934838805166],[113.98013089898497,-7.0164846215515366],[113.98013931404172,-7.0164845680840253],[113.98013975100015,-7.0164841019998789],[113.98013993651938,-7.0164838971492873],[113.98013982576202,-7.0164664968130968],[113.9801488675413,-7.016466439363489],[113.98014869503736,-7.0164393384304002],[113.9801758203732,-7.0164391660812049],[113.9801757053699,-7.0164210987929074],[113.98015762181348,-7.0164212136922464],[113.98015767931473,-7.0164302473365288],[113.98013959575761,-7.0164303622353223],[113.9801396532586,-7.016439395879785],[113.98013061147974,-7.0164394533289958],[113.98013066898064,-7.0164484869735118],[113.98012162720156,-7.016448544422623],[113.98012174220321,-7.0164666117117926],[113.98010365864411,-7.016466726609794],[113.98010371614471,-7.0164757602545231],[113.98009467436486,-7.0164758177033368],[113.98009473186538,-7.016484851348137],[113.98008769256467,-7.0164848960737221],[113.98008569008526,-7.0164849087968522],[113.98008580508615,-7.0165029760865876],[113.98007676330563,-7.0165030335352796],[113.98007682080602,-7.0165120671802166],[113.98006777902526,-7.0165121246288082],[113.98006783652554,-7.0165211582738163],[113.98005879474452,-7.0165212157223085],[113.9800588522447,-7.0165302493673876],[113.98004981046344,-7.0165303068157803],[113.98004986796353,-7.0165393404609304],[113.98004082618201,-7.0165393979092263],[113.98004088368199,-7.0165484315544617],[113.98003184190023,-7.0165484890026582],[113.98003189940013,-7.0165575226479326],[113.98002285761812,-7.0165575800960296],[113.98002291511791,-7.0165666137413911],[113.98000483155332,-7.0165667286372138],[113.9800050040521,-7.0165938295737034],[113.97999596226917,-7.01659388702158],[113.97999601976875,-7.0166029206671654],[113.97998697798555,-7.0166029781149417],[113.97998703548502,-7.0166120117605821],[113.9799779937016,-7.0166120692082581],[113.97997810870042,-7.0166301364996766],[113.97996002513263,-7.0166302513948073],[113.97996008263182,-7.016639285040644],[113.97995104084764,-7.0166393424880242],[113.97995115584588,-7.0166574097798833],[113.97994211406126,-7.0166574672272377],[113.97994217156032,-7.016666500873229],[113.97996025512981,-7.0166663859781941],[113.97996014013107,-7.0166483186865092],[113.97996918191535,-7.0166482612388803],[113.97996912441592,-7.0166392275930907],[113.97998720798391,-7.0166391126974617],[113.97998715048419,-7.0166300790518505],[113.98000299040474,-7.0166299784110002],[113.98000521901147,-7.0166276012566007],[113.98000506155185,-7.0166028632192159],[113.98002855109296,-7.0166027139750549],[113.98004114369985,-7.0165892820067262],[113.98004111368272,-7.0165845661352844],[113.98004559155017,-7.0165845376843308],[113.98005012487107,-7.0165797021941927],[113.98005009796464,-7.0165754750414866],[113.98005411177827,-7.0165754495389416],[113.98006263200607,-7.0165663613935321],[113.98005908224619,-7.0165663839476604],[113.9800590247457,-7.0165573503025964],[113.98006806652742,-7.0165572928538049],[113.98006800902684,-7.0165482592088306],[113.9800770508083,-7.0165482017599397],[113.98007699330761,-7.0165391681150027],[113.98008803756845,-7.0165390979427844],[113.98008819268753,-7.0165390969571977],[113.98009503072171,-7.0165318031312509],[113.98009496186813,-7.0165209859272935],[113.98010400364883,-7.0165209284781049],[113.98010394614785,-7.0165118948333971],[113.98011375336607,-7.0165118325206928],[113.98013095539578,-7.0164934838805166]],[[113.98010383114614,-7.0164938275439672],[113.98012191470629,-7.0164937126455182],[113.98012197220746,-7.0165027462900857],[113.98010388864695,-7.016502861188683],[113.98010383114614,-7.0164938275439672]]],[[[113.98034629155552,-7.0162303007162707],[113.98032820800924,-7.0162304156190718],[113.98032826551221,-7.0162394492620352],[113.9803192237388,-7.0162395067132497],[113.98031933874462,-7.0162575739993143],[113.98031029697076,-7.0162576314505056],[113.9803103544736,-7.016266665093605],[113.98030131269952,-7.0162667225446995],[113.98030137020227,-7.0162757561878699],[113.98029232842791,-7.0162758136388632],[113.98029238593055,-7.0162848472821056],[113.9802743023813,-7.01628496218372],[113.98027435988369,-7.0162939958271071],[113.98026531810875,-7.0162940532777291],[113.98026537561104,-7.0163030869211873],[113.98025633383587,-7.016303144371709],[113.98025650634267,-7.0163302453022869],[113.98022033923912,-7.0163304751035342],[113.98022039674083,-7.0163395087473681],[113.9802113549646,-7.0163395661973196],[113.98021164247346,-7.0163847344166825],[113.98020260069627,-7.0163847918668356],[113.98020265819811,-7.0163938255107938],[113.98022074175276,-7.016393710610167],[113.98022068425058,-7.0163846769663571],[113.98022972602763,-7.0163846195158577],[113.98022966852535,-7.0163755858721517],[113.98023807501892,-7.0163755324580874],[113.98023870589364,-7.0163748358450215],[113.98023859529746,-7.0163574611342474],[113.98025453268687,-7.01635735986941],[113.98025666395695,-7.0163550065167728],[113.98025662134756,-7.0163483125893178],[113.98026276152038,-7.0163482735750522],[113.98026564298804,-7.0163450918526431],[113.98026560562094,-7.0163392214949996],[113.98027099035359,-7.0163391872806979],[113.9802746220188,-7.0163351771884797],[113.98027453239129,-7.016321096757248],[113.98028357416665,-7.016321039306229],[113.98028351666387,-7.0163120056629289],[113.98029255843899,-7.0163119482118104],[113.98029250093609,-7.0163029145685796],[113.98030154271099,-7.0163028571173625],[113.98030142770509,-7.0162847898310385],[113.98031046947953,-7.0162847323797974],[113.98031041197653,-7.0162756987367034],[113.98031945375074,-7.0162756412853646],[113.98031939624765,-7.0162666076423408],[113.98032843802159,-7.0162665501909034],[113.98032838051837,-7.0162575165479506],[113.98033742229207,-7.016257459096412],[113.98033736478878,-7.016248425453532],[113.98034640656223,-7.0162483680018948],[113.98034629155552,-7.0162303007162707]]],[[[113.98034629155552,-7.0162303007162707],[113.9803643751015,-7.0162301858127734],[113.9803643175979,-7.0162211521700888],[113.9803733593706,-7.0162210947181549],[113.9803733018669,-7.0162120610755734],[113.98038234363935,-7.01621200362354],[113.98038222863185,-7.0161939363384818],[113.98036414508759,-7.0161940512420751],[113.98036420259095,-7.0162030848847552],[113.98034611904602,-7.016203199787804],[113.98034629155552,-7.0162303007162707]]],[[[113.98041805069467,-7.0161395046757331],[113.9804179931908,-7.01613047103349],[113.98039086787882,-7.0161306433891353],[113.98039092538218,-7.0161396770316022],[113.98039996715308,-7.0161396195798194],[113.98040002465667,-7.016148653222225],[113.98040906642768,-7.0161485957701935],[113.98040900892391,-7.0161395621278633],[113.98041805069467,-7.0161395046757331]]],[[[113.98041805069467,-7.0161395046757331],[113.98041810819861,-7.0161485383179887],[113.98043619174025,-7.0161484234130587],[113.98043613423594,-7.0161393897709523],[113.98044517600646,-7.0161393323182999],[113.98044511850208,-7.0161302986762815],[113.98042703496128,-7.0161304135812603],[113.98042709246533,-7.0161394472234297],[113.98041805069467,-7.0161395046757331]]],[[[113.98041782067962,-7.01610337010667],[113.98041776317605,-7.016094336464394],[113.98042680494585,-7.0160942790124636],[113.98042674744218,-7.0160852453702587],[113.98040866390285,-7.016085360273796],[113.98040877890956,-7.0161034275585008],[113.98041782067962,-7.01610337010667]]],[[[113.98045387275063,-7.0160850730136488],[113.98044483098123,-7.0160851304660259],[113.98044488848525,-7.0160941641080807],[113.98043584671559,-7.0160942215603592],[113.98043601922758,-7.0161213224867263],[113.98045410276785,-7.0161212075815493],[113.98045404526343,-7.0161121739395789],[113.98046308703329,-7.0161121164868048],[113.98046297202434,-7.0160940492030042],[113.98045393025482,-7.0160941066556299],[113.98045387275063,-7.0160850730136488]]],[[[113.9804896947998,-7.0160306413522298],[113.98048963729543,-7.0160216077105204],[113.98049867906323,-7.0160215502577978],[113.98049862155878,-7.0160125166161418],[113.98048053802346,-7.0160126315212636],[113.98048065303173,-7.0160306988048529],[113.9804896947998,-7.0160306413522298]]],[[[113.9806959302267,-7.0157583106925117],[113.98069587272063,-7.0157492770523842],[113.98068683095971,-7.0157493345066868],[113.98068688846563,-7.015758368146888],[113.9806959302267,-7.0157583106925117]]],[[[113.98072305550954,-7.0157581383283398],[113.98072299800296,-7.0157491046884362],[113.98071395624227,-7.0157491621432593],[113.9807140137487,-7.0157581957832367],[113.98072305550954,-7.0157581383283398]]],[[[113.98052281420823,-7.015551628539809],[113.9805227567072,-7.0155425948981724],[113.98051371494883,-7.0155426523474569],[113.98051377244967,-7.015551685989168],[113.98052281420823,-7.015551628539809]]],[[[113.98081209293503,-7.015540756429373],[113.98080305117909,-7.0155408138842139],[113.98080310868551,-7.0155498475235349],[113.98081215044162,-7.0155497900686186],[113.98081209293503,-7.015540756429373]]],[[[113.98081209293503,-7.015540756429373],[113.98082113469088,-7.0155406989743563],[113.9808210771842,-7.0155316653351987],[113.98081203542851,-7.015531722790139],[113.98081209293503,-7.015540756429373]]],[[[113.98095674669109,-7.0155488712228502],[113.98095681799379,-7.0155487866683046],[113.9809567035105,-7.0155308034902504],[113.98094766175595,-7.0155308609477958],[113.98094771926507,-7.015539894585908],[113.98093867751028,-7.0155399520433548],[113.98093873501931,-7.0155489856815549],[113.98095674669109,-7.0155488712228502]]],[[[113.98084820245084,-7.0155314929693349],[113.98084814494371,-7.0155224593303966],[113.9808391031884,-7.0155225167857829],[113.98083916069537,-7.0155315504247966],[113.98084820245084,-7.0155314929693349]]],[[[113.98052281420823,-7.015551628539809],[113.98052287170934,-7.0155606621814082],[113.98051382995061,-7.0155607196308418],[113.98051388745161,-7.015569753272529],[113.98050484569265,-7.015569810721864],[113.98050490319355,-7.0155788443636204],[113.98049586143432,-7.0155789018128569],[113.98049597643602,-7.0155969690964923],[113.98051405995507,-7.0155968541975469],[113.98051400245384,-7.0155878205558899],[113.98054112773134,-7.0155876482063944],[113.98054101272805,-7.0155695809234819],[113.98055005448674,-7.0155695234734505],[113.98054988198186,-7.0155424225492764],[113.98055892373992,-7.0155423650992974],[113.98055898124164,-7.0155513987406355],[113.9805770647579,-7.015551283840006],[113.98057689225192,-7.0155241829164625],[113.98056785049437,-7.0155242403666396],[113.9805677929927,-7.0155152067253823],[113.98055875123521,-7.0155152641753116],[113.98055869373378,-7.0155062305339912],[113.98054965197642,-7.0155062879836709],[113.98054982448038,-7.015533388907877],[113.9805407827224,-7.0155334463576082],[113.9805408402237,-7.0155424799990822],[113.98053179846549,-7.0155425374487139],[113.9805318559667,-7.0155515710902758],[113.98052281420823,-7.015551628539809]]],[[[113.98084808743666,-7.015513425691454],[113.98084802992967,-7.0155043920525246],[113.98083898817471,-7.0155044495077616],[113.98083904568152,-7.0155134831467656],[113.98084808743666,-7.015513425691454]]],[[[113.98058564650009,-7.0154789572605303],[113.98060373001312,-7.0154788423600536],[113.98060361500922,-7.0154607750780915],[113.98058553149689,-7.0154608899782689],[113.98058558899844,-7.0154699236194018],[113.98057654724201,-7.0154699810693044],[113.98057660474346,-7.0154790147105075],[113.98056756298678,-7.0154790721603106],[113.98056762048815,-7.0154881058015848],[113.98055857873118,-7.0154881632512902],[113.98055863623244,-7.0154971968926336],[113.98056767798958,-7.0154971394428545],[113.98056773549109,-7.0155061730841366],[113.98058581900544,-7.0155060581839077],[113.9805859340094,-7.0155241254661123],[113.98060401752417,-7.0155240105648895],[113.9806040750266,-7.0155330442058448],[113.98062215854141,-7.0155329293037783],[113.98062210103862,-7.0155238956629722],[113.98061305928142,-7.0155239531140179],[113.98061300177889,-7.0155149194731337],[113.98059491826464,-7.0155150343745536],[113.98059486076254,-7.0155060007335335],[113.98060390251952,-7.0155059432829843],[113.9806038450173,-7.0154969096420006],[113.9805948032605,-7.0154969670924743],[113.98059474575852,-7.0154879334514284],[113.98058570400178,-7.0154879909016543],[113.98058564650009,-7.0154789572605303]]],[[[113.98093804491603,-7.0154405820230759],[113.98093798740793,-7.0154315483848269],[113.98091990390226,-7.0154316632974068],[113.98091996141002,-7.0154406969358041],[113.98093804491603,-7.0154405820230759]]],[[[113.98092888814726,-7.0154225722029109],[113.98092883063947,-7.015413538564597],[113.98091978888695,-7.0154135960206503],[113.98091984639457,-7.0154226296590396],[113.98092888814726,-7.0154225722029109]]],[[[113.98092877313177,-7.0154045049262796],[113.98092865811657,-7.0153864376496173],[113.98091961636457,-7.0153864951054459],[113.98091973137942,-7.0154045623822592],[113.98092877313177,-7.0154045049262796]]],[[[113.98094668411252,-7.0153772890992743],[113.98094674162034,-7.0153863227374371],[113.98093769986851,-7.0153863801936138],[113.98093781488404,-7.0154044474701269],[113.98094685663624,-7.0154043900138019],[113.98094679912825,-7.0153953563756302],[113.98095584088018,-7.0153952989192048],[113.98095578337211,-7.0153862652810872],[113.98096482512382,-7.0153862078245623],[113.98096476761566,-7.0153771741865496],[113.98094668411252,-7.0153772890992743]]],[[[113.98075680731137,-7.0153784956409471],[113.98075674980727,-7.0153694620011944],[113.98074770805417,-7.015369519453575],[113.98074776555809,-7.0153785530934023],[113.98075680731137,-7.0153784956409471]]],[[[113.98094668411252,-7.0153772890992743],[113.98094662660476,-7.0153682554610901],[113.98093758485327,-7.0153683129171176],[113.98093764236086,-7.0153773465553764],[113.98094668411252,-7.0153772890992743]]],[[[113.98052172170168,-7.0153799893483457],[113.9805216642021,-7.0153709557066506],[113.980539747712,-7.0153708408103999],[113.98053969021214,-7.0153618071688495],[113.98054873196681,-7.0153617497205385],[113.98054867446686,-7.0153527160790601],[113.98055771622127,-7.0153526586306496],[113.98055754372135,-7.0153255577064151],[113.98054850196745,-7.0153256151546017],[113.98054855946718,-7.0153346487960917],[113.9805304759588,-7.0153347636920937],[113.98053059095778,-7.0153528309753606],[113.98052154920315,-7.0153528884232506],[113.9805216067026,-7.0153619220649528],[113.98051256494767,-7.0153619795127442],[113.98051267994643,-7.0153800467962864],[113.98052172170168,-7.0153799893483457]]],[[[113.98061196674618,-7.0153523139365381],[113.98061179424312,-7.0153252130136483],[113.98060275248969,-7.0153252704628768],[113.98060292499223,-7.0153523713859904],[113.98061196674618,-7.0153523139365381]]],[[[113.98059353823484,-7.0152982269885751],[113.98058449648177,-7.0152982844372334],[113.98058455398196,-7.0153073180784178],[113.98057551222864,-7.0153073755269766],[113.98057556972874,-7.0153164091682516],[113.98058461148223,-7.0153163517196182],[113.98058466898257,-7.0153253853608133],[113.98059371073617,-7.0153253279119321],[113.98059353823484,-7.0152982269885751]]],[[[113.98129305490653,-7.0152395779309229],[113.98128940791258,-7.0152396011081368],[113.98128943236526,-7.0152434419002212],[113.98129305490653,-7.0152395779309229]]],[[[113.98126216764847,-7.0152217062210793],[113.98124408415626,-7.0152218211427257],[113.98124414166854,-7.0152308547785234],[113.98123509992213,-7.0152309122391605],[113.98123521494657,-7.0152489795108615],[113.98125329843997,-7.0152488645891138],[113.98125341346541,-7.0152669318605012],[113.9812674939925,-7.0152668423771471],[113.98128045124271,-7.0152530215786841],[113.98128042367951,-7.0152486922051924],[113.98127138193307,-7.0152487496666724],[113.98127132442012,-7.0152397160311235],[113.9812622826738,-7.0152397734923566],[113.98126216764847,-7.0152217062210793]]],[[[113.98054798447332,-7.0152443123810144],[113.98054781197663,-7.015217211456414],[113.98053877022474,-7.0152172689035313],[113.9805389427209,-7.0152443698283555],[113.98054798447332,-7.0152443123810144]]],[[[113.98055679622954,-7.0152081203676566],[113.98055673873068,-7.0151990867261871],[113.98054769697923,-7.0151991441733275],[113.9805477544779,-7.0152081778148734],[113.98055679622954,-7.0152081203676566]]],[[[113.98128906283439,-7.0151853992956532],[113.98128900532163,-7.0151763656602091],[113.98127092183161,-7.0151764805821495],[113.98127097934402,-7.0151855142177437],[113.98128906283439,-7.0151853992956532]]],[[[113.98106290416628,-7.0151687684972606],[113.98106296167464,-7.0151778021345432],[113.98107200342142,-7.0151777446776533],[113.9810719459129,-7.0151687110404461],[113.98106290416628,-7.0151687684972606]]],[[[113.9810719459129,-7.0151687110404461],[113.98108098765945,-7.0151686535834576],[113.98108093015084,-7.0151596199463038],[113.98107188840446,-7.0151596774032177],[113.9810719459129,-7.0151687110404461]]],[[[113.98126165003829,-7.0151404035002303],[113.9812706917827,-7.0151403460398187],[113.98127063427066,-7.0151313124042387],[113.98126159252641,-7.0151313698645748],[113.98126165003829,-7.0151404035002303]]],[[[113.98127051924682,-7.0151132451330174],[113.9812705767587,-7.0151222787686223],[113.9812796185027,-7.0151222213081867],[113.98127956099064,-7.0151131876726573],[113.98127051924682,-7.0151132451330174]]],[[[113.98127956099064,-7.0151131876726573],[113.98129764447806,-7.015113072751415],[113.98129758696574,-7.0151040391160304],[113.98127950347865,-7.0151041540371226],[113.98127956099064,-7.0151131876726573]]],[[[113.98102633462764,-7.0151057628594877],[113.98103537637336,-7.0151057054038892],[113.98103531886615,-7.0150966717663348],[113.98102627712061,-7.0150967292218578],[113.98102633462764,-7.0151057628594877]]],[[[113.98127051924682,-7.0151132451330174],[113.98127040422328,-7.0150951778617969],[113.98126136247971,-7.0150952353218337],[113.98126147750291,-7.0151133025932042],[113.98127051924682,-7.0151132451330174]]],[[[113.98126165003829,-7.0151404035002303],[113.98123452480453,-7.0151405758804213],[113.98123458231595,-7.0151496095163131],[113.98122554057106,-7.0151496669761038],[113.98122548305982,-7.0151406333401374],[113.98121644131503,-7.0151406907996803],[113.98121649882609,-7.0151497244357213],[113.9811984153359,-7.0151498393544358],[113.98119824280397,-7.0151227384458519],[113.98117111756969,-7.0151229108219493],[113.98117106005971,-7.0151138771855219],[113.98116201831495,-7.0151139346437992],[113.98116196080524,-7.0151049010072946],[113.98118004429429,-7.0151047860907161],[113.98117998678428,-7.0150957524543562],[113.98117094503998,-7.0150958099126584],[113.98117088753024,-7.0150867762762195],[113.981161845786,-7.0150868337342729],[113.98116178827651,-7.0150778000977558],[113.9811527465324,-7.0150778575555597],[113.98115280404173,-7.0150868911921505],[113.98114376229735,-7.0150869486498566],[113.98114381980658,-7.0150959822865193],[113.98113477806196,-7.015096039744126],[113.98113483557108,-7.0151050733808589],[113.98112579382622,-7.0151051308383661],[113.98112585133525,-7.0151141644751691],[113.98110776784493,-7.0151142793898122],[113.98110771033625,-7.0151052457528609],[113.98109866859116,-7.0151053032098458],[113.98109878360826,-7.0151233704838987],[113.98110782535369,-7.0151233130267627],[113.98110794037143,-7.0151413803006495],[113.9811260238628,-7.0151412653855578],[113.98112596635353,-7.0151322317487823],[113.98113500809892,-7.0151321742910504],[113.98113495058956,-7.0151231406543131],[113.98114399233471,-7.0151230831964817],[113.98114404984425,-7.0151321168331453],[113.98113500809892,-7.0151321742910504],[113.98113512311785,-7.0151502415644638],[113.98112608137212,-7.0151502990223449],[113.98112613888154,-7.0151593326591293],[113.98111709713554,-7.0151593901169118],[113.98111715464485,-7.0151684237537673],[113.98112619639102,-7.0151683662959101],[113.98112625390058,-7.0151773999326696],[113.98111721215423,-7.0151774573906005],[113.98111738468285,-7.0152045583011473],[113.98109930118892,-7.0152046732169371],[113.98109907115231,-7.0151685386689584],[113.98109002940591,-7.0151685961262942],[113.98109037446024,-7.0152227979486694],[113.98108133271275,-7.0152228554062805],[113.98108139022189,-7.0152318890434229],[113.98107234847411,-7.0152319465009354],[113.9810724634923,-7.0152500137753249],[113.98106342174412,-7.0152500712328116],[113.98106353676225,-7.0152681385073361],[113.98105449501365,-7.0152681959647989],[113.9810546675409,-7.0152952968767952],[113.98104562579168,-7.0152953543343086],[113.98104591333772,-7.0153405225212371],[113.98103687158759,-7.0153405799789503],[113.98103692909686,-7.0153496136163822],[113.98102788734646,-7.0153496710739969],[113.98102794485563,-7.0153587047115158],[113.98101890310498,-7.015358762169031],[113.98101907563242,-7.0153858630817734],[113.98101003388118,-7.0153859205393383],[113.9810100913903,-7.0153949541770082],[113.98100104963879,-7.0153950116344754],[113.98100116465693,-7.0154130789099183],[113.98099212290502,-7.0154131363673615],[113.98099218041402,-7.0154221700051522],[113.98098313866186,-7.0154222274624951],[113.98098331118881,-7.0154493283760671],[113.9809652276832,-7.0154494432906827],[113.98096534270084,-7.0154675105666762],[113.98095630094757,-7.0154675680238725],[113.98095658849213,-7.0155127362141618],[113.98096563024629,-7.0155126787565916],[113.98096579916943,-7.0155392133866368],[113.98104498900022,-7.0154826469998852],[113.98111303500002,-7.0154387719999365],[113.98117994700021,-7.015360223999898],[113.98119933154086,-7.0153395475662785],[113.98119058132977,-7.0153396031742083],[113.98119052381763,-7.0153305695380093],[113.98118148206886,-7.0153306269984252],[113.98118125202174,-7.015294492453374],[113.98119029376981,-7.0152944349932556],[113.98119012123475,-7.015267334084621],[113.98119916298221,-7.0152672766245532],[113.98119904795887,-7.0152492093522705],[113.9812080897059,-7.0152491518921778],[113.9812079746825,-7.0152310846200301],[113.98121701642914,-7.0152310271599143],[113.98121690140572,-7.0152129598878981],[113.9812259431519,-7.0152129024277583],[113.9812257706168,-7.0151858015199302],[113.98123481236239,-7.0151857440598402],[113.98123475485066,-7.0151767104239475],[113.98125283834129,-7.0151765955033953],[113.98125272331738,-7.0151585282319475],[113.98124368157247,-7.0151585856921619],[113.9812436240608,-7.0151495520563483],[113.98126170755022,-7.0151494371358973],[113.98126165003829,-7.0151404035002303]]],[[[113.98110742279398,-7.0150600775680347],[113.98110748030228,-7.0150691112050074],[113.98111652204659,-7.015069053748145],[113.98111663706378,-7.0150871210219314],[113.98112567880838,-7.0150870635647467],[113.9811256212996,-7.0150780299279312],[113.98113466304392,-7.0150779724706478],[113.98113460553503,-7.0150689388339025],[113.98112556379087,-7.0150689962911112],[113.98112550628221,-7.0150599626542878],[113.98110742279398,-7.0150600775680347]]],[[[113.98125209069129,-7.0150591582386106],[113.98124304894829,-7.0150592156980016],[113.98124310645919,-7.0150682493338534],[113.98125214820237,-7.0150681918743878],[113.98125209069129,-7.0150591582386106]]],[[[113.98117071500145,-7.0150596753668824],[113.98117065749202,-7.0150506417304275],[113.98116161574848,-7.0150506991881816],[113.98116167325774,-7.0150597328247102],[113.98117071500145,-7.0150596753668824]]],[[[113.98106204155025,-7.0150332639373003],[113.98106198404311,-7.0150242302999386],[113.9810529422992,-7.0150242877553834],[113.98105299980617,-7.0150333213928215],[113.98106204155025,-7.0150332639373003]]],[[[113.98121557865807,-7.0150051862585929],[113.98120653691578,-7.0150052437168418],[113.98120665193537,-7.0150233109891875],[113.981215693678,-7.0150232535307895],[113.98121575118809,-7.0150322871668811],[113.9812247929308,-7.0150322297082353],[113.98122467791036,-7.0150141624361781],[113.981215636168,-7.0150142198946757],[113.98121557865807,-7.0150051862585929]]],[[[113.98090798686654,-7.0149800388256844],[113.98090792936281,-7.0149710051870118],[113.98088984587444,-7.0149711200909293],[113.98088990337781,-7.0149801537297511],[113.98090798686654,-7.0149800388256844]]],[[[113.98100733103803,-7.0149613395652244],[113.98099828929486,-7.0149613970191069],[113.98099834680023,-7.0149704306570033],[113.98100738854357,-7.0149703732030471],[113.98100733103803,-7.0149613395652244]]],[[[113.9814142669146,-7.0149677875953111],[113.98142330865446,-7.0149677301333684],[113.98142319362744,-7.014949662864578],[113.98141415188793,-7.0149497203263724],[113.9814142669146,-7.0149677875953111]]],[[[113.98078122993536,-7.0149537422204533],[113.98078111493331,-7.0149356749410225],[113.98076303144417,-7.0149357898394804],[113.98076314644553,-7.0149538571192096],[113.98078122993536,-7.0149537422204533]]],[[[113.98085362139413,-7.0149623162575905],[113.98085344888678,-7.0149352153402429],[113.98081728191065,-7.0149354451420205],[113.98081733941233,-7.0149444787814401],[113.98079021417891,-7.0149446511311746],[113.98079032918145,-7.0149627184104482],[113.98085362139413,-7.0149623162575905]]],[[[113.98089871510849,-7.0149439617228593],[113.98089865760525,-7.014934928084112],[113.98090769934871,-7.0149348706323655],[113.98090764184535,-7.0149258369937071],[113.98088051661527,-7.0149260093482031],[113.98088057411809,-7.0149350429870854],[113.98087153237439,-7.0149351004383114],[113.98087158987713,-7.0149441340772816],[113.98089871510849,-7.0149439617228593]]],[[[113.98104338299758,-7.0149430424728747],[113.98104326798561,-7.0149249751977854],[113.98103422624347,-7.0149250326520622],[113.9810343412551,-7.0149430999273008],[113.98104338299758,-7.0149430424728747]]],[[[113.98125140056422,-7.0149507546089724],[113.98125134305413,-7.0149417209731437],[113.98124230131337,-7.0149417784315631],[113.98124218629376,-7.0149237111597609],[113.98122410281272,-7.0149238260757816],[113.98122427534122,-7.0149509269839356],[113.98125140056422,-7.0149507546089724]]],[[[113.98124218629376,-7.0149237111597609],[113.98125122803415,-7.0149236537014898],[113.98125117052429,-7.0149146200656327],[113.98124212878406,-7.0149146775238291],[113.98124218629376,-7.0149237111597609]]],[[[113.98083525039505,-7.0149172629629302],[113.98083519289324,-7.0149082293236491],[113.98081710940606,-7.0149083442237421],[113.98081716690751,-7.0149173778631733],[113.98083525039505,-7.0149172629629302]]],[[[113.98101608525357,-7.014916113922296],[113.98101602774831,-7.0149070802845079],[113.98100698600629,-7.0149071377381143],[113.98100704351138,-7.014916171375976],[113.98101608525357,-7.014916113922296]]],[[[113.98104315297395,-7.0149069079226463],[113.98103411123215,-7.0149069653767739],[113.98103416873778,-7.014915999014411],[113.98104321047974,-7.0149159415602105],[113.98104315297395,-7.0149069079226463]]],[[[113.9810884191885,-7.0149156542865931],[113.98108836168184,-7.0149066206494046],[113.98107931994042,-7.0149066781044001],[113.9810793774469,-7.0149157117416641],[113.9810884191885,-7.0149156542865931]]],[[[113.98141397934849,-7.0149226194229257],[113.98143206282634,-7.0149225044996113],[113.981432005313,-7.014913470865249],[113.98142296357429,-7.0149135283269173],[113.9814229060612,-7.0149044946924928],[113.98141386432258,-7.0149045521539133],[113.98141397934849,-7.0149226194229257]]],[[[113.98104315297395,-7.0149069079226463],[113.98105219471569,-7.0149068504683454],[113.9810521372098,-7.0148978168308531],[113.98104309546822,-7.0148978742850803],[113.98104315297395,-7.0149069079226463]]],[[[113.98100733103803,-7.0149613395652244],[113.98102541452408,-7.0149612246569424],[113.98102524200684,-7.0149341237438527],[113.98101620026435,-7.0149341811978569],[113.98101614275893,-7.0149251475600947],[113.98097997578897,-7.0149253773740767],[113.98097974577081,-7.0148892428217104],[113.98097070402881,-7.014889300274473],[113.9809708765418,-7.014916401188966],[113.98096183479922,-7.0149164586417783],[113.98096189230353,-7.0149254922800273],[113.98095285056068,-7.014925549732741],[113.98095290806488,-7.0149345833710255],[113.98094386632181,-7.0149346408236415],[113.9809439813301,-7.0149527081003828],[113.98095302307354,-7.0149526506476176],[113.98095313808248,-7.0149707179241769],[113.9809440963387,-7.0149707753770905],[113.98094421134762,-7.0149888426538185],[113.98093516960343,-7.0149889001067081],[113.98093534211682,-7.0150160010219507],[113.980926300372,-7.01501605847489],[113.98092635787646,-7.0150250921133948],[113.98091731613142,-7.0150251495662355],[113.98091737363578,-7.0150341832047927],[113.98090833189046,-7.0150342406575357],[113.98090838939471,-7.0150432742961639],[113.98089030590356,-7.0150433892012769],[113.98089036340753,-7.0150524228400508],[113.98086323816965,-7.015052595196642],[113.98086329567319,-7.0150616288356362],[113.98088137916552,-7.0150615139312666],[113.98088143666948,-7.0150705475701063],[113.98085431143036,-7.0150707199266256],[113.98085436893388,-7.0150797535656855],[113.98084532718717,-7.0150798110175865],[113.98084538469058,-7.0150888446567183],[113.98081825944949,-7.0150890170116007],[113.98081831695247,-7.0150980506509519],[113.98079119171018,-7.0150982230044967],[113.98079136421798,-7.0151253239231997],[113.98078232246988,-7.0151253813742578],[113.98078226496739,-7.0151163477346197],[113.98077322321939,-7.01511640518543],[113.98077316571714,-7.0151073715457128],[113.98076412396922,-7.0151074289962745],[113.98076429647568,-7.015134529915656],[113.98077333822413,-7.0151344724648688],[113.9807733957266,-7.0151435061045575],[113.98074627048055,-7.015143678456619],[113.98074655799148,-7.0151888466562067],[113.98071039099226,-7.0151890764580163],[113.98071044849398,-7.015198110098221],[113.98070140674379,-7.0151981675483146],[113.98070146424541,-7.0152072011885895],[113.98071050599577,-7.0152071437384214],[113.98071056349762,-7.015216177378619],[113.98069247999651,-7.0152162922789296],[113.98069253749811,-7.0152253259192552],[113.98068349574727,-7.0152253833692253],[113.98068361075035,-7.0152434506500638],[113.98066552724772,-7.015243565549782],[113.98066558474903,-7.0152525991903358],[113.98065654299742,-7.0152526566400084],[113.98065665799992,-7.0152707239212555],[113.9806385744958,-7.0152708388203786],[113.98063851699487,-7.0152618051796081],[113.98062947524286,-7.0152618626288357],[113.98062959024446,-7.0152799299105215],[113.98063863199683,-7.0152798724611447],[113.98063868949791,-7.0152889061019081],[113.98062964774537,-7.0152889635513596],[113.98062982024857,-7.0153160644738488],[113.98062077849545,-7.0153161219233491],[113.98062089349762,-7.015334189205138],[113.98062993525107,-7.0153341317554885],[113.98062999275244,-7.0153431653963194],[113.98062095099881,-7.0153432228460435],[113.98062106600143,-7.0153612901277933],[113.98061202424735,-7.0153613475774934],[113.98061219675132,-7.0153884485003193],[113.98062123850592,-7.0153883910503936],[113.98062141101109,-7.0154154919729939],[113.98063949452109,-7.0154153770721752],[113.98063955202331,-7.0154244107128783],[113.98065763553332,-7.015424295811215],[113.98065757803074,-7.0154152621706602],[113.9806847032947,-7.0154150898170871],[113.98068464579168,-7.0154060561767526],[113.98067560403727,-7.0154061136280434],[113.98067554653451,-7.0153970799876291],[113.98071171355096,-7.0153968501817268],[113.98071159854426,-7.0153787829014869],[113.98072064029782,-7.0153787254497262],[113.98072058279442,-7.0153696918096751],[113.98072962454775,-7.0153696343578158],[113.98072968205135,-7.0153786679977923],[113.98073872380476,-7.0153786105456843],[113.98073860879731,-7.015360543265877],[113.98075669230325,-7.015360428361439],[113.98075657729541,-7.015342361081931],[113.98077466080034,-7.0153422461770969],[113.98077460329618,-7.0153332125374614],[113.98078364504836,-7.0153331550848597],[113.98078358754411,-7.0153241214453113],[113.98079262929602,-7.0153240639926082],[113.98079268680046,-7.0153330976320829],[113.98080172855248,-7.015333040179133],[113.98080178605716,-7.0153420738185437],[113.98081082780926,-7.015342016365345],[113.98081077030442,-7.0153329827260089],[113.98081981205628,-7.0153329252727117],[113.98081958203697,-7.0152967907157082],[113.98085574904093,-7.0152965609019775],[113.9808556915356,-7.015287527262994],[113.98089185853763,-7.0152872974467844],[113.98089197354976,-7.0153053647241146],[113.98090101530042,-7.0153053072694789],[113.98090107280677,-7.0153143409080636],[113.98091011455753,-7.0153142834531801],[113.98091022957081,-7.015332350730187],[113.98091927132187,-7.0153322932749802],[113.9809193863358,-7.0153503605518237],[113.98093746983832,-7.0153502456405894],[113.9809372973165,-7.015323144725766],[113.98096442256818,-7.0153229723582839],[113.98096436506053,-7.0153139387202259],[113.98097340681075,-7.0153138812641265],[113.98097346431857,-7.0153229149021099],[113.98096442256818,-7.0153229723582839],[113.9809644800759,-7.0153320059963375],[113.98098256357699,-7.0153318910836662],[113.98098262108513,-7.015340924721583],[113.98095549583286,-7.0153410970905554],[113.98095555334055,-7.0153501307286605],[113.98099172034412,-7.0153499009027174],[113.98099143280291,-7.0153047327135676],[113.98100951630249,-7.0153046178003011],[113.98100934377763,-7.0152775168872124],[113.98101838552678,-7.0152774594305427],[113.98101832801846,-7.0152684257929137],[113.98102736976736,-7.0152683683361463],[113.98102731225896,-7.0152593346985874],[113.98104539575621,-7.0152592197846779],[113.98104533824753,-7.0152501861472647],[113.98103629649913,-7.0152502436042319],[113.98103612397406,-7.0152231426917275],[113.98105420746975,-7.0152230277780703],[113.98105403494435,-7.0151959268660118],[113.98106307669154,-7.0151958694091467],[113.98106301918305,-7.0151868357718543],[113.98105397743603,-7.0151868932286456],[113.98105391992779,-7.0151778595912591],[113.98104487818081,-7.0151779170478017],[113.98104482067282,-7.0151688834103689],[113.98106290416628,-7.0151687684972606],[113.98106278914983,-7.0151507012226508],[113.98105374740349,-7.015150758679142],[113.98105363238768,-7.0151326914043839],[113.98106267413367,-7.0151326339480411],[113.98106261662571,-7.0151236003107051],[113.98101740789583,-7.0151238875903079],[113.98101735038881,-7.0151148539526114],[113.98102639213475,-7.0151147964971123],[113.98102633462764,-7.0151057628594877],[113.98101729288187,-7.0151058203149113],[113.98101723537499,-7.0150967866772067],[113.98099915188357,-7.0150969015873841],[113.98099909437711,-7.0150878679495259],[113.98098101088573,-7.0150879828588595],[113.9809807233564,-7.0150428146687647],[113.98098976510124,-7.0150427572145588],[113.9809898801131,-7.0150608244904582],[113.98099892185824,-7.0150607670359308],[113.98099897936444,-7.0150698006737997],[113.98098993761914,-7.0150698581284034],[113.98098999512527,-7.0150788917663434],[113.98100807861617,-7.0150787768568126],[113.98100813612271,-7.0150878104945988],[113.9810171778682,-7.0150877530394986],[113.9810171203615,-7.0150787194017861],[113.98102616210674,-7.0150786619465864],[113.9810260470932,-7.0150605946712998],[113.98103508883804,-7.0150605372160761],[113.9810350313312,-7.0150515035785022],[113.98104407307578,-7.015051446123179],[113.98104401556884,-7.0150424124856752],[113.98103497382445,-7.0150424699409228],[113.98103491631775,-7.0150334363033409],[113.98099874934005,-7.0150336661222985],[113.98099869183412,-7.0150246324844128],[113.98098965008968,-7.0150246899386435],[113.9809894200675,-7.0149885553867648],[113.98098037832368,-7.014988612840523],[113.98098032081849,-7.0149795792024685],[113.98097127907477,-7.014979636655978],[113.98097122156982,-7.0149706030178285],[113.98098026331338,-7.0149705455643927],[113.98098020580835,-7.014961511926348],[113.98098924755165,-7.0149614544728145],[113.98098919004651,-7.0149524208348231],[113.98100727353254,-7.0149523059273831],[113.98100733103803,-7.0149613395652244]],[[113.98095319558708,-7.0149797515624766],[113.98096223733096,-7.0149796941093143],[113.98096229483579,-7.0149887277475171],[113.98095325309173,-7.0149887852007549],[113.98095319558708,-7.0149797515624766]],[[113.9809462240526,-7.0153050199936944],[113.98095526580282,-7.0153049625380151],[113.98095532331021,-7.015313996176153],[113.98094628155984,-7.0153140536319061],[113.9809462240526,-7.0153050199936944]]],[[[113.98100687099631,-7.0148890704623801],[113.98100692850126,-7.0148981041002498],[113.98101597024312,-7.0148980466467181],[113.98101591273799,-7.014889013008923],[113.98100687099631,-7.0148890704623801]]],[[[113.98097064652464,-7.0148802666362995],[113.98095256304076,-7.014880381541154],[113.980952505537,-7.0148713479028295],[113.98092538031119,-7.0148715202585858],[113.98092543781442,-7.0148805538971359],[113.98093447955662,-7.0148804964453157],[113.98093453706011,-7.0148895300837868],[113.98094357880238,-7.0148894726317197],[113.98094363630612,-7.0148985062701108],[113.98096171979083,-7.0148983913653034],[113.98096166228675,-7.0148893577270615],[113.98097070402881,-7.014889300274473],[113.98097064652464,-7.0148802666362995]]],[[[113.98099765674067,-7.0148620270018069],[113.98098861499936,-7.0148620844546929],[113.98098855749507,-7.014853050816658],[113.98097951575386,-7.0148531082692962],[113.98097957325798,-7.0148621419074058],[113.9809705315165,-7.0148621993599436],[113.98097064652464,-7.0148802666362995],[113.98097968826646,-7.0148802091836115],[113.98097974577081,-7.0148892428217104],[113.98100687099631,-7.0148890704623801],[113.98100681349145,-7.0148800368245068],[113.98099777174984,-7.0148800942777161],[113.98099765674067,-7.0148620270018069]]],[[[113.98160305062467,-7.0147949418321431],[113.98160293559357,-7.0147768745661754],[113.98161197732816,-7.0147768171021543],[113.98161180478156,-7.014749716203398],[113.98159372131335,-7.0147498311308167],[113.98159400888964,-7.0147949992961403],[113.98160305062467,-7.0147949418321431]]],[[[113.98081618939318,-7.0147638059923061],[113.98081607439293,-7.0147457387133239],[113.98080703265236,-7.0147457961617663],[113.98080714765226,-7.0147638634408969],[113.98081618939318,-7.0147638059923061]]],[[[113.98151142549631,-7.0146058101551585],[113.98151136798406,-7.0145967765213291],[113.9815023262521,-7.0145968339819458],[113.98150238376418,-7.0146058676158507],[113.98151142549631,-7.0146058101551585]]],[[[113.98123095924483,-7.0145804904474529],[113.9812309017382,-7.0145714568113133],[113.98122186000442,-7.014571514266323],[113.98122191751089,-7.014580547902538],[113.98123095924483,-7.0145804904474529]]],[[[113.98203555821861,-7.0145573089905504],[113.98202651649176,-7.0145573664609389],[113.98202657401362,-7.0145664000905086],[113.98201753228652,-7.0145664575607958],[113.98201758980828,-7.0145754911904357],[113.98200854808091,-7.014575548660626],[113.98200860560257,-7.0145845822903361],[113.98199052214729,-7.0145846972303456],[113.98199057966868,-7.0145937308601845],[113.98199962139654,-7.0145936733901912],[113.98199983616362,-7.014627401965245],[113.98207197488078,-7.0145963017638362],[113.98207184017078,-7.0145751463656456],[113.98206279844386,-7.0145752038368787],[113.98206274092124,-7.0145661702076127],[113.98203561574063,-7.0145663426200437],[113.98203555821861,-7.0145573089905504]]],[[[113.98186365035825,-7.0145403336363996],[113.98184556690228,-7.0145404485701057],[113.9818456244205,-7.0145494822011587],[113.98179137404975,-7.0145498269985591],[113.98179143156702,-7.0145588606300899],[113.98180047329582,-7.014558803164217],[113.98180053081333,-7.0145678367956528],[113.98171915524962,-7.0145683539829404],[113.98171909773369,-7.0145593203508305],[113.98174622292174,-7.0145591479568559],[113.98174616540535,-7.0145501143249502],[113.98160149773057,-7.0145510337402328],[113.98160144021702,-7.014542000107161],[113.98156527329598,-7.0145422299537374],[113.98156533080882,-7.0145512635871086],[113.9815562890782,-7.0145513210483923],[113.98155634659093,-7.0145603546818673],[113.98153826312911,-7.0145604696040653],[113.98153832064159,-7.0145695032376691],[113.98152927891037,-7.0145695606985816],[113.98152933642274,-7.0145785943322565],[113.98153837815413,-7.0145785368712676],[113.98153855069221,-7.0146056377720427],[113.98154759242402,-7.0146055803106577],[113.98154764993706,-7.0146146139441665],[113.98158381686427,-7.0146143840965882],[113.98158375935056,-7.0146053504633779],[113.98160184281336,-7.0146052355386965],[113.98160161275786,-7.0145691010064137],[113.98161969621896,-7.0145689860816365],[113.98161981124724,-7.0145870533474861],[113.98162885297805,-7.0145869958846863],[113.98162908303624,-7.01462313041604],[113.98158387437806,-7.0146234177297933],[113.98158393189193,-7.0146324513629956],[113.98157489015989,-7.0146325088252999],[113.98157494767365,-7.0146415424585733],[113.98156590594137,-7.014641599920779],[113.98156584842778,-7.0146325662874309],[113.98154776496332,-7.0146326812111717],[113.98154782247657,-7.0146417148446698],[113.98153878074407,-7.0146417723063541],[113.98153889577044,-7.0146598395734863],[113.9815298540375,-7.0146598970351457],[113.98152991155064,-7.0146689306687815],[113.98152086981744,-7.0146689881303423],[113.98152092733049,-7.0146780217640483],[113.98150284386352,-7.0146781366867987],[113.98150318894123,-7.0147323384898472],[113.9814941472066,-7.0147323959514107],[113.98149420471964,-7.014741429585313],[113.98148516298475,-7.014741487046777],[113.98148533552381,-7.0147685879486845],[113.98149437725922,-7.0147685304869949],[113.981494492286,-7.0147865977547639],[113.98148545055024,-7.0147866552166027],[113.98148550806356,-7.0147956888505556],[113.98147646632758,-7.014795746312295],[113.98147669638094,-7.0148318808483685],[113.98146765464418,-7.0148319383102322],[113.98146771215752,-7.0148409719443157],[113.98145867042049,-7.0148410294060808],[113.98145890047398,-7.0148771639426721],[113.98146794221171,-7.0148771064806077],[113.98146799972544,-7.0148861401146707],[113.98145895798754,-7.0148861975768098],[113.98145901550119,-7.0148952312109438],[113.98144997376305,-7.0148952886729843],[113.98145020381767,-7.0149314232097817],[113.98144116207874,-7.0149314806719465],[113.98144121959241,-7.0149405143062102],[113.98143217785325,-7.0149405717682765],[113.9814323503942,-7.0149676726712515],[113.98144139213387,-7.0149676152089624],[113.98144144964785,-7.0149766488432252],[113.98145953312734,-7.0149765339179737],[113.98145959064173,-7.0149855675520687],[113.98147767412127,-7.0149854526259725],[113.98147761660653,-7.0149764189920267],[113.9814957000854,-7.014976304065387],[113.9814957576005,-7.0149853376991826],[113.98152288281875,-7.014985165307694],[113.98152294033443,-7.0149941989412623],[113.98152739997785,-7.0149941705982783],[113.98154898200005,-7.0149594179999299],[113.9815402250001,-7.0149041679999344],[113.9815312391095,-7.0148774480935163],[113.98153129188853,-7.0148857378748346],[113.98151320841376,-7.0148858528013696],[113.98151309338462,-7.0148677855339869],[113.9815279578266,-7.0148676910657759],[113.98152189452868,-7.0148496616017013],[113.98151297835579,-7.0148497182665883],[113.98151292084148,-7.0148406846328824],[113.98151886288002,-7.0148406468695574],[113.98151713300003,-7.0148355029999152],[113.98153995152624,-7.0148256655822259],[113.98153993102153,-7.0148224449769652],[113.98153088928545,-7.0148225024399702],[113.98153077425668,-7.0148044351728132],[113.98154885772806,-7.0148043202469283],[113.98154874269891,-7.0147862529800875],[113.98155778443413,-7.0147861955170336],[113.98155772691949,-7.0147771618836749],[113.98156676865445,-7.0147771044205225],[113.98156665362505,-7.0147590371539241],[113.98155761189045,-7.0147590946169283],[113.98155755437602,-7.0147500609835731],[113.98156659611047,-7.0147500035206445],[113.98156648108153,-7.014731936254039],[113.98158456454951,-7.0147318213279615],[113.9815845070348,-7.0147227876948017],[113.98161163223567,-7.0147226153046045],[113.9816115747205,-7.0147135816716828],[113.98163869992017,-7.014713409280148],[113.98163858488907,-7.01469534201469],[113.98162954315627,-7.0146953994785592],[113.98162937061069,-7.014668298580145],[113.98163841234296,-7.0146682411164996],[113.9816382973126,-7.0146501738510194],[113.98164733904446,-7.0146501163873491],[113.98164728152921,-7.0146410827546779],[113.98167440672381,-7.0146409103628526],[113.98167434920812,-7.0146318767304008],[113.98168339093931,-7.014631819266187],[113.98168344845517,-7.0146408528985642],[113.98175578230344,-7.0146403931779995],[113.98175572478618,-7.0146313595462209],[113.98176476651672,-7.0146313020804438],[113.98176482403414,-7.014640335712147],[113.98181003268645,-7.0146400483802838],[113.98181014772327,-7.0146581156429324],[113.9818011059926,-7.0146581731098019],[113.98180116351095,-7.014667206741195],[113.98181924697253,-7.0146670918071337],[113.98181936201014,-7.0146851590696082],[113.98180127854786,-7.0146852740039689],[113.98180133606643,-7.0146943076353514],[113.98182846126026,-7.0146941352333254],[113.98182840374118,-7.0146851016021676],[113.98183744547214,-7.014685044134553],[113.98183738795295,-7.0146760105034662],[113.98185547141426,-7.0146758955678665],[113.98185541389479,-7.0146668619369255],[113.98190062254592,-7.0146665745952594],[113.98190056502567,-7.0146575409646879],[113.9818824815658,-7.0146576559017246],[113.98188236652622,-7.0146395886402724],[113.98189140825585,-7.0146395311719898],[113.98189135073599,-7.0146304975413312],[113.98190039246536,-7.0146304400729509],[113.98190016238601,-7.0145943055505615],[113.98190920411463,-7.0145942480823047],[113.98190914659482,-7.0145852144517944],[113.98190010486636,-7.0145852719199757],[113.98189987478854,-7.0145491373975091],[113.98186370787683,-7.0145493672673034],[113.98186365035825,-7.0145403336363996]],[[113.98167394660047,-7.0145686413031338],[113.9816649048704,-7.0145686987666513],[113.98166484735549,-7.0145596651340938],[113.98167388908539,-7.01455960767065],[113.98167394660047,-7.0145686413031338]],[[113.98159297362389,-7.0146323939005182],[113.98161105708759,-7.014632278975041],[113.9816111721166,-7.0146503462409848],[113.98159308865219,-7.0146504611667613],[113.98159297362389,-7.0146323939005182]],[[113.98154787998989,-7.0146507484781617],[113.98156596345505,-7.0146506335541234],[113.9815660209688,-7.0146596671874617],[113.98154793750331,-7.0146597821116519],[113.98154787998989,-7.0146507484781617]],[[113.98151194310998,-7.0146871128592876],[113.9815209848436,-7.0146870553977498],[113.98152109987004,-7.0147051226651413],[113.98151205813608,-7.0147051801268274],[113.98151194310998,-7.0146871128592876]],[[113.98151211564925,-7.0147142137606098],[113.98152115738337,-7.0147141562988473],[113.98152121489677,-7.0147231899325169],[113.98151217316249,-7.014723247394353],[113.98151211564925,-7.0147142137606098]],[[113.98151251824351,-7.014777449196834],[113.98152155997884,-7.0147773917345493],[113.9815216750068,-7.0147954590018626],[113.98151263327112,-7.0147955164642966],[113.98151251824351,-7.014777449196834]]],[[[113.98142953231101,-7.0145250245846293],[113.981429474801,-7.0145159909501098],[113.9814113913388,-7.0145161058666989],[113.98141144884845,-7.0145251395013686],[113.98142953231101,-7.0145250245846293]]],[[[113.98123049919387,-7.0145082213582421],[113.98123055669998,-7.0145172549943924],[113.98125768189774,-7.0145170826296654],[113.98125762439113,-7.0145080489937399],[113.98123049919387,-7.0145082213582421]]],[[[113.98139325036706,-7.014507187147788],[113.98139313534882,-7.0144891198781156],[113.98137505188704,-7.0144892347928671],[113.9813751669046,-7.0145073020628397],[113.98139325036706,-7.014507187147788]]],[[[113.98079638094991,-7.0144929116982198],[113.98079632345237,-7.0144838780584555],[113.98077823998092,-7.0144839929501392],[113.98077829747811,-7.0144930265900536],[113.98079638094991,-7.0144929116982198]]],[[[113.9811670920548,-7.0144905562625945],[113.98116703455014,-7.0144815226258936],[113.98115799281754,-7.0144815800789404],[113.98115805032204,-7.0144906137157168],[113.9811670920548,-7.0144905562625945]]],[[[113.9811670920548,-7.0144905562625945],[113.98116714955952,-7.0144995898992928],[113.98118523302516,-7.0144994749923795],[113.98118529053031,-7.01450850862894],[113.98114912359809,-7.0145087384423732],[113.98114906609361,-7.0144997048055124],[113.98114002436054,-7.014499762258362],[113.98114008186484,-7.0145087958952965],[113.9811310401315,-7.0145088533480475],[113.9811310976357,-7.0145178869850202],[113.9811401393692,-7.0145178295321946],[113.98114025437816,-7.0145358968060112],[113.9811221709104,-7.0145360117117876],[113.98112199839811,-7.0145089108006236],[113.98111295666462,-7.0145089682530282],[113.98111289916085,-7.014499934615869],[113.98110385742748,-7.014499992068024],[113.98110379992396,-7.0144909584308035],[113.98109475819069,-7.0144910158827098],[113.98109470068742,-7.0144819822454103],[113.98106757548763,-7.0144821545998637],[113.98106763299039,-7.0144911882373879],[113.98102242432171,-7.0144914754917114],[113.98102236681984,-7.0144824418538141],[113.98101332508605,-7.0144824993040835],[113.98101326758442,-7.014473465666109],[113.98097710064921,-7.0144736954651492],[113.98097727315225,-7.014500796379961],[113.98096823141772,-7.0145008538295128],[113.98096817391681,-7.0144918201911706],[113.98095913218239,-7.0144918776404728],[113.98095918968313,-7.0145009112788888],[113.98095014794846,-7.0145009687280924],[113.9809502054491,-7.0145100023665954],[113.98093212197921,-7.0145101172646314],[113.98093206447892,-7.0145010836259774],[113.98092302274399,-7.0145011410746605],[113.98092296524396,-7.0144921074359452],[113.98090488177429,-7.01449222233264],[113.98090493927398,-7.0145012559715036],[113.98089589753886,-7.0145013134196645],[113.98089601253814,-7.0145193806975321],[113.98092313774433,-7.0145192083520786],[113.98092319524459,-7.0145282419907824],[113.98093223698002,-7.0145281845418745],[113.98093229448054,-7.0145372181804992],[113.98092325274494,-7.0145372756294817],[113.98092331024537,-7.0145463092681766],[113.98091426850954,-7.0145463667170578],[113.98091432600987,-7.0145554003558068],[113.98088720080138,-7.0145555727016351],[113.98088714330156,-7.0145465390626631],[113.98087810156541,-7.0145465965108507],[113.98087798656637,-7.0145285292327086],[113.98086894483052,-7.0145285866805738],[113.98086900232981,-7.0145376203197216],[113.98085996059369,-7.0145376777674873],[113.98085990309455,-7.0145286441282648],[113.98085086135855,-7.0145287015757818],[113.98085103385564,-7.0145558024936436],[113.98086007559218,-7.0145557450459028],[113.98086001809288,-7.0145467114067044],[113.98086905982919,-7.0145466539588641],[113.98086911732867,-7.014555687597988],[113.98087815906504,-7.014555630149899],[113.98087821656475,-7.0145646637889767],[113.98085109135482,-7.0145648361329451],[113.98085114885409,-7.0145738697722262],[113.98084210711713,-7.0145739272199439],[113.98084227961485,-7.0146010281379709],[113.98086036308973,-7.0146009132419156],[113.98086024809048,-7.0145828459635382],[113.98087833156438,-7.0145827310670859],[113.98087844656433,-7.0146007983451639],[113.98089653003863,-7.0146006834477186],[113.98089658753906,-7.0146097170866275],[113.98088754580179,-7.0146097745355114],[113.98088766080254,-7.0146278418134331],[113.98089670254016,-7.0146277843643992],[113.98089681754156,-7.0146458516421557],[113.98090585927946,-7.0146457941927984],[113.98090597428151,-7.0146638614703898],[113.98091501601971,-7.0146638040207101],[113.98091507352102,-7.0146728376594245],[113.98093315699748,-7.0146727227593955],[113.98093321449922,-7.0146817563979571],[113.98095129797571,-7.0146816414970834],[113.98095135547787,-7.0146906751354923],[113.9809423137395,-7.0146907325860903],[113.98094237124155,-7.0146997662245685],[113.9809242877642,-7.0146998811253933],[113.98092440276784,-7.0147179484026552],[113.98093344450693,-7.0147178909521815],[113.98093350200904,-7.0147269245907058],[113.98090637679108,-7.0147270969418338],[113.98090631928949,-7.0147180633030866],[113.9808972775502,-7.0147181207530398],[113.98089722004886,-7.014709087114178],[113.98090626178798,-7.0147090296642984],[113.98090608928388,-7.0146819287479643],[113.98088800580661,-7.0146820436471025],[113.98088794830574,-7.0146730100081678],[113.98086986482851,-7.0146731249064604],[113.98086992232902,-7.0146821585455452],[113.98087896406784,-7.01468210109641],[113.98087925157246,-7.0147272692913996],[113.98087020983277,-7.0147273267409078],[113.98087026733374,-7.0147363603799686],[113.9808793090736,-7.0147363029303866],[113.98087936657483,-7.0147453365693684],[113.98085224135447,-7.0147455089178203],[113.98085235635611,-7.0147635761962031],[113.98087043983712,-7.014763461297111],[113.9808704973384,-7.0147724949361736],[113.98088858081945,-7.0147723800362369],[113.98088863832116,-7.0147814136751281],[113.98089768006174,-7.0147813562248249],[113.98089773756369,-7.014790389863637],[113.98090677930438,-7.0147903324130869],[113.98090683680657,-7.0147993660518209],[113.98091587854736,-7.0147993086010203],[113.98091599355234,-7.0148173758783274],[113.98096120225685,-7.0148170886209753],[113.98096125976032,-7.0148261222592501],[113.98097030150116,-7.0148260648071838],[113.98097035900489,-7.0148350984453804],[113.98097940074584,-7.0148350409930655],[113.98097934324194,-7.0148260073549435],[113.98102455194464,-7.0148257200911415],[113.98102466695426,-7.0148437873666332],[113.98100658347271,-7.0148439022729736],[113.98100664097727,-7.0148529359108629],[113.9809975992362,-7.0148529933638484],[113.98099765674067,-7.0148620270018069],[113.98100669848192,-7.0148619695487486],[113.98100675598664,-7.014871003186629],[113.98101579772798,-7.014870945733322],[113.98101585523295,-7.0148799793711234],[113.98102489697436,-7.0148799219175677],[113.98102495447958,-7.0148889555552927],[113.98106112144528,-7.0148887257390324],[113.98106106393935,-7.0148796921016077],[113.9810701056804,-7.0148796346471833],[113.98106999066846,-7.0148615673724697],[113.98108807414965,-7.014861452463399],[113.98108818916229,-7.0148795197378133],[113.98109723090313,-7.0148794622828676],[113.98109728840974,-7.014888495919994],[113.98110633015067,-7.0148884384648005],[113.98110627264388,-7.0148794048277487],[113.9811514813465,-7.0148791175495502],[113.98115159636188,-7.0148971848229014],[113.98113351288035,-7.0148972997350016],[113.98113357038781,-7.0149063333718207],[113.98112452864677,-7.0149063908276847],[113.98112458615414,-7.0149154244645748],[113.9810884191885,-7.0149156542865931],[113.98108847669523,-7.0149246879237959],[113.98107943495347,-7.0149247453789405],[113.98107954996684,-7.014942812653433],[113.981097633451,-7.0149426977426694],[113.98109769095815,-7.0149517313797691],[113.98108864921591,-7.0149517888353108],[113.98108870672294,-7.0149608224724815],[113.98109774846536,-7.0149607650168635],[113.98109803600259,-7.0150059332022794],[113.98110707774576,-7.0150058757461142],[113.98110713525361,-7.0150149093830931],[113.98109809351027,-7.0150149668393329],[113.981098151018,-7.0150240004764184],[113.98110719276153,-7.0150239430201031],[113.98110725026953,-7.0150329766570918],[113.98109820852582,-7.0150330341134808],[113.981098151018,-7.0150240004764184],[113.98108910927438,-7.0150240579325587],[113.98108928179757,-7.0150511588439608],[113.9810983235417,-7.0150511013875967],[113.98109838104976,-7.0150601350246475],[113.98110742279398,-7.0150600775680347],[113.98110736528577,-7.0150510439310576],[113.98111640702972,-7.0150509864743462],[113.9811163495214,-7.0150419528374401],[113.98115251649587,-7.015041723009154],[113.98115240147806,-7.0150236557359271],[113.98116144322113,-7.0150235982785709],[113.98116127069446,-7.0149964973689274],[113.98117031243694,-7.0149964399116218],[113.98117025492803,-7.0149874062751394],[113.98117929667026,-7.0149873488177352],[113.98117900912597,-7.014942180635642],[113.98118805086727,-7.0149421231784368],[113.98118799335846,-7.0149330895420823],[113.98119703509948,-7.0149330320847785],[113.9811969775906,-7.0149239984485101],[113.98120601933137,-7.0149239409911077],[113.9812058468046,-7.0148968400824367],[113.98117872158357,-7.0148970124534502],[113.98117854905907,-7.0148699115440891],[113.98118759079897,-7.0148698540874825],[113.98118764830724,-7.0148788877238646],[113.98121477352697,-7.0148787153527783],[113.98121483103584,-7.014887748988933],[113.98120578929583,-7.014887806446211],[113.9812058468046,-7.0148968400824367],[113.9812239302849,-7.0148967251675591],[113.98122387277577,-7.0148876915314826],[113.98123291451564,-7.0148876340738582],[113.98123285700642,-7.0148786004378518],[113.98124189874605,-7.0148785429801279],[113.98124184123672,-7.0148695093441935],[113.98125088297608,-7.014869451886371],[113.98125094048558,-7.0148784855222308],[113.98125998222505,-7.0148784280641605],[113.98126021226446,-7.014914562607264],[113.98128733748446,-7.0149143902311124],[113.98128739499504,-7.0149234238666711],[113.98127835325492,-7.0149234813256367],[113.98127846827593,-7.0149415485968412],[113.98126942653541,-7.0149416060557819],[113.98126948404585,-7.0149506396914614],[113.98125140056422,-7.0149507546089724],[113.98125151558463,-7.0149688218806014],[113.98122439036059,-7.0149689942560132],[113.98122444787039,-7.0149780278920701],[113.98124253135353,-7.0149779129751542],[113.98124264637404,-7.0149959802469253],[113.98123360463217,-7.01499603770562],[113.98123383467343,-7.0150321722494144],[113.981242876416,-7.0150321147904213],[113.98124299143745,-7.0150501820621454],[113.98125203318028,-7.015050124602829],[113.98125209069129,-7.0150591582386106],[113.98126113243424,-7.0150591007790455],[113.98126101741195,-7.0150410335076288],[113.98127005915447,-7.0150409760480388],[113.98127011666574,-7.0150500096836748],[113.98128820015089,-7.015049894763826],[113.98128814263926,-7.0150408611283384],[113.98129718438155,-7.0150408036682297],[113.98129724189334,-7.015049837303641],[113.98130628363575,-7.0150497798432836],[113.98130634114779,-7.0150588134786167],[113.98131538289026,-7.0150587560180098],[113.98131544040257,-7.0150677896532638],[113.98130639865991,-7.0150678471139454],[113.98130645617212,-7.0150768807492714],[113.98131549791493,-7.0150768232885143],[113.98131561293991,-7.0150948905590047],[113.98132465468301,-7.0150948330979253],[113.98132442463266,-7.0150586985572287],[113.98134250811724,-7.0150585836351471],[113.9813424506045,-7.0150495500001124],[113.98135149234652,-7.0150494925388855],[113.98135143483367,-7.015040458903921],[113.98136951831709,-7.0150403439810978],[113.98136957583029,-7.0150493776159122],[113.9813967010554,-7.015049205230147],[113.98139675856919,-7.015058238864734],[113.98141484205254,-7.0150581239398733],[113.98141489956676,-7.0150671575743075],[113.98143298305017,-7.015067042648603],[113.98143304056481,-7.0150760762828819],[113.98145085872841,-7.0150759630425341],[113.9814511223267,-7.0150756909551539],[113.98145100901839,-7.015057894088069],[113.98143292553561,-7.0150580090143189],[113.98143286802113,-7.015048975380032],[113.98144190976237,-7.0150489179170687],[113.98144179473329,-7.0150308506486319],[113.98145083647411,-7.0150307931856437],[113.98145072144499,-7.0150127259173232],[113.98146880492571,-7.0150126109911266],[113.98146874741091,-7.0150035773571355],[113.98145066393054,-7.0150036922831829],[113.98145060641616,-7.0149946586490213],[113.98144156467603,-7.014994716111711],[113.9814415071619,-7.0149856824774703],[113.98142342368178,-7.0149857974021765],[113.98142336616809,-7.0149767637677831],[113.98141432442807,-7.0149768212298023],[113.9814142669146,-7.0149677875953111],[113.98140522517471,-7.0149678450570816],[113.98140528268799,-7.0149768786916464],[113.98139624094783,-7.0149769361533165],[113.98139612592171,-7.0149588688840687],[113.9813870841818,-7.0149589263454173],[113.98138696915632,-7.0149408590760043],[113.9814140943747,-7.0149406866918884],[113.98141397934849,-7.0149226194229257],[113.98140493760945,-7.0149226768843214],[113.98140488009663,-7.0149136432497334],[113.9813958383577,-7.0149137007108822],[113.98139572333262,-7.0148956334415802],[113.98140476507122,-7.0148955759805816],[113.98140459253366,-7.0148684750768222],[113.98141363427165,-7.0148684176158751],[113.98141346173425,-7.014841316712304],[113.98142250347166,-7.0148412592514076],[113.98142244595918,-7.0148322256169511],[113.98143148769633,-7.0148321681559533],[113.98143131515879,-7.0148050672527686],[113.98144035689533,-7.0148050097918224],[113.98144001182128,-7.0147508079858429],[113.98144905355673,-7.0147507505251712],[113.98144882350819,-7.014714615988078],[113.98145786524285,-7.0147145585275315],[113.98145780773073,-7.0147055248933023],[113.98146684946515,-7.0147054674326563],[113.98146679195294,-7.0146964337985152],[113.9814758336871,-7.0146963763377705],[113.98147577617478,-7.0146873427037004],[113.9814667344408,-7.0146874001643704],[113.98146656190484,-7.0146602992619069],[113.98147560363829,-7.0146602418014634],[113.98147548861434,-7.014642174533285],[113.98146644688123,-7.0146422319935802],[113.98146633185793,-7.0146241647252374],[113.9814753735907,-7.0146241072650914],[113.981475316079,-7.0146150736309885],[113.98146627434639,-7.0146151310910589],[113.98146621683495,-7.0146060974568787],[113.9814843002997,-7.0146059825367111],[113.98148412776473,-7.0145788816345913],[113.98146604430102,-7.0145789965543104],[113.98146598678986,-7.0145699629201133],[113.98145694505804,-7.0145700203796384],[113.98145688754714,-7.0145609867453622],[113.98142976235179,-7.0145611591226693],[113.98142970484149,-7.0145521254881489],[113.98140257964597,-7.0145522978636681],[113.98140252213626,-7.0145432642289531],[113.98139348040445,-7.0145433216870368],[113.9813933653856,-7.0145252544174133],[113.98137528192244,-7.0145253693327616],[113.98137522441347,-7.0145163356977944],[113.98135714095034,-7.0145164506122999],[113.98135708344181,-7.0145074169771959],[113.98134804171031,-7.0145074744341125],[113.98134798420203,-7.0144984407988957],[113.98136606766458,-7.014498325885036],[113.98136601015604,-7.0144892922499817],[113.98134792669381,-7.0144894071636932],[113.98134786918567,-7.0144803735284835],[113.98130266052964,-7.0144806608093475],[113.9813027180369,-7.0144896944449284],[113.98131175976843,-7.0144896369890288],[113.98131181727595,-7.0144986706245316],[113.9813389424706,-7.0144984982555663],[113.98133905748692,-7.0145165655261108],[113.98133001575509,-7.0145166229827556],[113.98132995824707,-7.0145075893474278],[113.98127570785556,-7.0145079340832046],[113.9812758803767,-7.0145350349905558],[113.98124875517837,-7.014535207356773],[113.98124881268505,-7.0145442409927785],[113.98125785441809,-7.0145441835374713],[113.9812580269391,-7.0145712844452417],[113.98124898520554,-7.0145713419007727],[113.98124904271252,-7.0145803755367631],[113.98123095924483,-7.0145804904474529],[113.98123101675155,-7.014589524083588],[113.98122197501743,-7.0145895815387469],[113.98122191751089,-7.014580547902538],[113.98121287577686,-7.0145806053574473],[113.98121281827058,-7.0145715717211594],[113.98120377653663,-7.0145716291758218],[113.9812037190306,-7.0145625955394539],[113.98121276076436,-7.0145625380848662],[113.98121258824618,-7.0145354371759634],[113.98120354651293,-7.0145354946303282],[113.98120343150154,-7.0145174273575561],[113.98121247323444,-7.0145173699033414],[113.98121241572869,-7.014508336267042],[113.98123049919387,-7.0145082213582421],[113.98123044168786,-7.0144991877220537],[113.98119427475784,-7.0144994175386612],[113.98119421725258,-7.0144903839021868],[113.9811670920548,-7.0144905562625945]],[[113.98105887877082,-7.0145364138765327],[113.98106792050527,-7.014536356424947],[113.98106803551175,-7.0145544236999262],[113.9810770772465,-7.0145543662480181],[113.98107713475002,-7.0145633998854517],[113.98105905128014,-7.0145635147892449],[113.9810591087834,-7.0145725484268073],[113.98104102531288,-7.0145726633300551],[113.98104119782207,-7.0145997642431528],[113.9810502395579,-7.0145997067913912],[113.98105035456474,-7.0146177740666484],[113.98105939630084,-7.0146177166145645],[113.98105945380455,-7.0146267502521038],[113.98106849554073,-7.0146266927997711],[113.98106855304471,-7.0146357264372314],[113.98105951130835,-7.0146357838896387],[113.98105968382016,-7.0146628848022203],[113.98104160034616,-7.0146629997069629],[113.98104142783538,-7.0146358987939319],[113.98101430262538,-7.0146360711490701],[113.98101424512247,-7.0146270375111612],[113.98100520338582,-7.014627094962453],[113.98100514588316,-7.0146180613244651],[113.9809961041466,-7.0146181187755072],[113.98099598914183,-7.0146000514993547],[113.98098694740557,-7.0146001089500736],[113.98098688990346,-7.0145910753119418],[113.9809778481673,-7.0145911327624129],[113.98097767566199,-7.0145640318477191],[113.98098671739763,-7.014563974397471],[113.98098665989583,-7.0145549407592904],[113.98099570163124,-7.0145548833089446],[113.98099564412935,-7.0145458496708679],[113.98098660239413,-7.0145459071211391],[113.98098654489249,-7.0145368734829665],[113.98097750315735,-7.014536930932989],[113.98097744565597,-7.0145278972947382],[113.98100457086062,-7.0145277249443723],[113.98100480086873,-7.0145638594964561],[113.98104096780996,-7.0145636296923444],[113.98104091030714,-7.0145545960546105],[113.9810499520421,-7.0145545386032229],[113.98104989453917,-7.0145455049655938],[113.98102276933459,-7.0145456773190116],[113.98102265432999,-7.0145276100432614],[113.98103169606458,-7.0145275525924449],[113.98103175356701,-7.014536586230248],[113.98104079530169,-7.0145365287791837],[113.98104073779908,-7.0145274951414551],[113.98105882126788,-7.0145273802389543],[113.98105887877082,-7.0145364138765327]],[[113.98116749458956,-7.0145537917193819],[113.98117653632343,-7.0145537342655633],[113.98117659382888,-7.0145627679021745],[113.98116755209482,-7.0145628253560695],[113.98116749458956,-7.0145537917193819]],[[113.98125814195349,-7.0145893517170697],[113.98126718368732,-7.0145892942612145],[113.98126729870236,-7.0146073615328772],[113.98127634043645,-7.0146073040767005],[113.98127645545213,-7.0146253713481972],[113.9812674137177,-7.014625428804524],[113.98126747122549,-7.0146344624403421],[113.98125842949081,-7.0146345198965676],[113.98125837198319,-7.0146254862606758],[113.98124933024857,-7.0146255437166545],[113.98124938775602,-7.0146345773526209],[113.98124034602118,-7.0146346348085018],[113.98124023100672,-7.0146165675364145],[113.98125831447565,-7.0146164526247796],[113.98125814195349,-7.0145893517170697]],[[113.9812132208162,-7.0146348071750984],[113.98122226255126,-7.0146347497197405],[113.98122243507247,-7.0146618506282898],[113.98123147680799,-7.0146617931725324],[113.98123153431538,-7.0146708268086329],[113.98120440910807,-7.0146709991756069],[113.98120435160121,-7.0146619655392817],[113.98121339333689,-7.0146619080838724],[113.98121327832303,-7.0146438408113614],[113.98120423658769,-7.0146438982666215],[113.98120417908103,-7.0146348646302856],[113.98119513734582,-7.014634922085297],[113.98119519485229,-7.0146439557217084],[113.98118615311682,-7.0146440131766212],[113.98118609561052,-7.0146349795401344],[113.98117705387514,-7.0146350369948003],[113.98117699636909,-7.0146260033582353],[113.98118603810431,-7.0146259459036466],[113.98118598059816,-7.0146169122671527],[113.98115885539282,-7.0146170846301761],[113.98115879788728,-7.0146080509934565],[113.98120400656155,-7.0146077637212532],[113.98120412157446,-7.0146258309939453],[113.98121316330945,-7.0146257735388344],[113.9812132208162,-7.0146348071750984]],[[113.98124040352852,-7.0146436684445383],[113.98124944526353,-7.0146436109885837],[113.98124950277112,-7.014652644624543],[113.98124046103594,-7.0146527020805722],[113.98124040352852,-7.0146436684445383]],[[113.98134003513776,-7.0146701373251092],[113.98134907687248,-7.0146700798670212],[113.98134919189202,-7.0146881471372664],[113.98134015015695,-7.0146882045955055],[113.98134003513776,-7.0146701373251092]],[[113.9811047199894,-7.0146354966258659],[113.98108663651719,-7.0146356115318964],[113.98108652150866,-7.0146175442572698],[113.98109556324445,-7.0146174868044904],[113.98109550574011,-7.014608453167245],[113.98110454747565,-7.0146083957143688],[113.9811047199894,-7.0146354966258659]],[[113.98124921523393,-7.0146074764447093],[113.98124017349961,-7.0146075339003664],[113.98124011599258,-7.0145985002642961],[113.98124915772672,-7.0145984428087145],[113.98124921523393,-7.0146074764447093]],[[113.98096840392093,-7.014527954744513],[113.98094127871535,-7.0145281270927944],[113.98094122121474,-7.0145190934542407],[113.98096834641977,-7.0145189211061831],[113.98096840392093,-7.014527954744513]],[[113.9812316493304,-7.0146888940808214],[113.98124973280225,-7.0146887791683383],[113.98124990532639,-7.0147158800761611],[113.98123182185348,-7.0147159949890918],[113.9812316493304,-7.0146888940808214]],[[113.98134930691185,-7.0147062144074974],[113.98135834864718,-7.0147061569489377],[113.98135840615738,-7.0147151905839884],[113.9813493644219,-7.0147152480426236],[113.98134930691185,-7.0147062144074974]],[[113.98128607227127,-7.0147156502482142],[113.9812951140073,-7.014715592790794],[113.98129517151636,-7.0147246264263305],[113.98128612978017,-7.0147246838838253],[113.98128607227127,-7.0147156502482142]],[[113.98112337851553,-7.014725718089049],[113.98113242025309,-7.0147256606346788],[113.98113247775912,-7.0147346942715743],[113.98112343602138,-7.014734751726019],[113.98112337851553,-7.014725718089049]],[[113.9810691855933,-7.0147350964490389],[113.98108726906963,-7.0147349815420608],[113.98108749909098,-7.0147711160910928],[113.98106941561325,-7.0147712309986705],[113.9810691855933,-7.0147350964490389]],[[113.98112366604549,-7.0147708862738556],[113.98112360853935,-7.0147618526368856],[113.98113265027762,-7.014761795182217],[113.98113270778393,-7.0147708288191124],[113.98112366604549,-7.0147708862738556],[113.98112395357737,-7.0148160544585636],[113.98111491183796,-7.0148161119135075],[113.98111462430697,-7.0147709437284265],[113.98112366604549,-7.0147708862738556]],[[113.98106048888438,-7.0147893557271388],[113.98105144714501,-7.0147894131806421],[113.98105138964009,-7.0147803795430992],[113.9810604313793,-7.0147803220896705],[113.98106048888438,-7.0147893557271388]],[[113.98091553353424,-7.014745106769003],[113.98088840831481,-7.0147452791195377],[113.9808883508134,-7.0147362454806306],[113.98091547603232,-7.0147360731303197],[113.98091553353424,-7.014745106769003]],[[113.98106077641091,-7.0148345239144216],[113.9810698181511,-7.0148344664603721],[113.98106987565681,-7.0148435000977418],[113.98106083391644,-7.0148435575518668],[113.98106077641091,-7.0148345239144216]],[[113.98111519937086,-7.0148612800984909],[113.9811423245914,-7.0148611077320195],[113.98114238209872,-7.01487014136878],[113.98111525687767,-7.0148703137354751],[113.98111519937086,-7.0148612800984909]],[[113.98114284216008,-7.0149424104627238],[113.98113380041841,-7.0149424679190613],[113.98113397294215,-7.0149695688294313],[113.98112493119989,-7.0149696262858177],[113.98112498870778,-7.0149786599226989],[113.98113403045021,-7.0149786024662371],[113.98113408795835,-7.0149876361030215],[113.98112504621575,-7.0149876935595579],[113.9811251037238,-7.0149967271964124],[113.98110702023799,-7.0149968421091131],[113.98110679020768,-7.0149607075610723],[113.98111583194991,-7.0149606501051078],[113.98111577444233,-7.0149516164681618],[113.98110673270028,-7.0149516739240516],[113.98110667519296,-7.0149426402870283],[113.98111571693485,-7.0149425828312131],[113.98111565942743,-7.0149335491942599],[113.98114278465215,-7.0149333768259954],[113.98114284216008,-7.0149424104627238],[113.98115188390166,-7.014942353006214],[113.98115194140985,-7.0149513866428643],[113.98114289966809,-7.0149514440994487],[113.98114284216008,-7.0149424104627238]],[[113.98112516123192,-7.0150057608332634],[113.98113420297486,-7.0150057033765778],[113.98113426048323,-7.0150147370133338],[113.9811252187401,-7.015014794470094],[113.98112516123192,-7.0150057608332634]],[[113.98126908147434,-7.0148874042416232],[113.98127812321383,-7.0148873467831301],[113.98127818072398,-7.014896380418759],[113.98126913898432,-7.0148964378773258],[113.98126908147434,-7.0148874042416232]],[[113.98126061483634,-7.0149777980575418],[113.98126965657764,-7.0149777405984759],[113.98126971408838,-7.0149867742341394],[113.98126067234692,-7.01498683169328],[113.98126061483634,-7.0149777980575418]]],[[[113.98107650221536,-7.0144640298736425],[113.98107655971813,-7.0144730635111001],[113.98113081011549,-7.0144727188000369],[113.98113075261168,-7.0144636851630269],[113.98107650221536,-7.0144640298736425]]],[[[113.98122122743835,-7.0144721442677058],[113.98122116993279,-7.0144631106314437],[113.98120308646918,-7.0144632255391501],[113.98120314397438,-7.0144722591755606],[113.98122122743835,-7.0144721442677058]]],[[[113.98107650221536,-7.0144640298736425],[113.98107644471266,-7.0144549962361813],[113.98105836124697,-7.014455111138183],[113.98105841874931,-7.0144641447757925],[113.98107650221536,-7.0144640298736425]]],[[[113.98095890218021,-7.014455743086768],[113.98095884467983,-7.0144467094483334],[113.98094076121251,-7.0144468243456695],[113.98094081871251,-7.0144558579842542],[113.98095890218021,-7.014455743086768]]],[[[113.98098602738114,-7.014455570739238],[113.98098596988025,-7.0144465371010263],[113.98096788641338,-7.0144466519994042],[113.98096794391391,-7.0144556856377651],[113.98098602738114,-7.014455570739238]]],[[[113.9809399562203,-7.0143203534050622],[113.98093989872143,-7.0143113197664171],[113.98093085699027,-7.0143113772137049],[113.98093091448897,-7.0143204108524237],[113.9809399562203,-7.0143203534050622]]],[[[113.98094888295353,-7.0143022286803998],[113.98094882545463,-7.0142931950418053],[113.98093978372391,-7.0142932524891171],[113.98093984122262,-7.0143022861277862],[113.98094888295353,-7.0143022286803998]]],[[[113.98098481987856,-7.0142658643359637],[113.98098435988638,-7.0141935952294983],[113.98097531815785,-7.0141936526766822],[113.98097577814863,-7.0142659217837453],[113.98098481987856,-7.0142658643359637]]],[[[113.98095539479711,-7.0139046911349761],[113.98095522231014,-7.0138775902189368],[113.98093713886472,-7.0138777051068617],[113.98093731135064,-7.0139048060233486],[113.98095539479711,-7.0139046911349761]]]]},"properties":{"FID":0,"Shape_Leng":18102566.929299999,"Shape_Area":236516885.403}}]
}