{
  "type" : "FeatureCollection",
  "features" : [{"type":"Feature","id":0,"geometry":{"type":"MultiPolygon","coordinates":[[[[113.37971360730729,-6.8932971372560949],[113.37969487057511,-6.8932972306523759],[113.37969635404227,-6.8933062616353951],[113.37970460852827,-6.8933062204895821],[113.37970486740429,-6.8933580888746757],[113.37971415565701,-6.8934146334297086],[113.37971419373612,-6.8934146332398916],[113.37971410351562,-6.8933965569347313],[113.379732191296,-6.8933964667712635],[113.37973187552382,-6.8933331997039167],[113.37971378774584,-6.8933332898665487],[113.37971360730729,-6.8932971372560949]]],[[[113.37968620498901,-6.893243043581136],[113.37968596977454,-6.8932430447535822],[113.37968621236563,-6.8932445215891693],[113.37968620498901,-6.893243043581136]]],[[[113.37963936170969,-6.8929178954642847],[113.37963256505689,-6.8929179293405047],[113.37963957484742,-6.8929606033564097],[113.37963936170969,-6.8929178954642847]]],[[[113.37962064247851,-6.8927914514703641],[113.37961179659531,-6.8927914955592993],[113.37963024735721,-6.8929038197065928],[113.37963022761724,-6.8928998642345913],[113.37963927149862,-6.8928998191577628],[113.37963882044681,-6.8928094376249218],[113.37962977656716,-6.8928094827011535],[113.37962973146249,-6.89280044454779],[113.37962068758297,-6.8928004896237915],[113.37962064247851,-6.8927914514703641]]],[[[113.3796115534949,-6.8927824583926443],[113.37961031313459,-6.8927824645747267],[113.3796115923903,-6.8927902524039713],[113.3796115534949,-6.8927824583926443]]],[[[113.37948097045624,-6.8919877318394542],[113.3794797690379,-6.8919877378264403],[113.3794810081241,-6.8919952811653271],[113.37948097045624,-6.8919877318394542]]],[[[113.3794809253598,-6.8919786936847824],[113.37948088026344,-6.8919696555301391],[113.37947680213682,-6.891969675852458],[113.37947828558731,-6.8919787068394456],[113.3794809253598,-6.8919786936847824]]],[[[113.3794716560145,-6.8919335479789856],[113.37947086833603,-6.8919335519041516],[113.37947168071017,-6.8919384974974269],[113.3794716560145,-6.8919335479789856]]],[[[113.37941053910389,-6.8905600187636047],[113.37940149526537,-6.8905600638208817],[113.37940154035093,-6.8905691019765811],[113.3794105841896,-6.8905690569192437],[113.37941053910389,-6.8905600187636047]]],[[[113.37941053910389,-6.8905600187636047],[113.37941958294235,-6.890559973706158],[113.37941953785652,-6.8905509355505599],[113.37941049401822,-6.8905509806079479],[113.37941053910389,-6.8905600187636047]]],[[[113.37937364239708,-6.8904155884968867],[113.37937346206141,-6.8903794358730375],[113.37938250589669,-6.8903793908174666],[113.37938241572886,-6.8903613145056219],[113.379364132993,-6.8903614055881475],[113.37936612581977,-6.8904156259438611],[113.37937364239708,-6.8904155884968867]]],[[[113.37939996239265,-6.8902527665243811],[113.37940900622533,-6.8902527214691309],[113.3794089160582,-6.8902346451575589],[113.37939082839343,-6.8902347352676454],[113.37939087347664,-6.8902437734235544],[113.37937278581126,-6.8902438635330778],[113.37937314647631,-6.8903161687811414],[113.37936410264216,-6.890316213836126],[113.37936405755897,-6.8903071756800855],[113.37936214016881,-6.8903071852321913],[113.37936313658058,-6.8903342954102138],[113.37938228047759,-6.8903342000378709],[113.37938232556129,-6.8903432381937968],[113.37939136939583,-6.8903431931382926],[113.37939127922816,-6.8903251168265562],[113.37940032306228,-6.8903250717710014],[113.37940027797836,-6.8903160336151696],[113.37940932181226,-6.8903159885595038],[113.37940927672823,-6.8903069504037626],[113.37940023289451,-6.8903069954593672],[113.37939996239265,-6.8902527665243811]]],[[[113.3793726956456,-6.8902257872210368],[113.37937265056286,-6.8902167490649857],[113.37936360673059,-6.8902167941193113],[113.37936365181315,-6.890225832275422],[113.3793726956456,-6.8902257872210368]]],[[[113.37939978205928,-6.8902166139009813],[113.3793997369761,-6.890207575745122],[113.37939069314419,-6.8902076207999015],[113.37939073822722,-6.8902166589558185],[113.37939978205928,-6.8902166139009813]]],[[[113.37936347148326,-6.8901896796510078],[113.37936356164809,-6.8902077559632131],[113.37937260548019,-6.8902077109089479],[113.37937251531501,-6.890189634596859],[113.37936347148326,-6.8901896796510078]]],[[[113.37936347148326,-6.8901896796510078],[113.37936342640093,-6.8901806414948998],[113.37937247023252,-6.8901805964408096],[113.37937238006771,-6.8901625201287011],[113.37936333623647,-6.8901625651826697],[113.37936338131867,-6.8901716033387865],[113.37935715811955,-6.8901716343410548],[113.37935782239185,-6.8901897077933061],[113.37936347148326,-6.8901896796510078]]],[[[113.37937238006771,-6.8901625201287011],[113.37938142389888,-6.890162475074562],[113.37938146898142,-6.8901715132305581],[113.37939051281272,-6.890171468176189],[113.37939064806123,-6.8901985826439791],[113.37940873572462,-6.8901984925343687],[113.37940869064138,-6.8901894543785618],[113.37939964680989,-6.8901894994333919],[113.37939960172689,-6.8901804612775219],[113.37940864555821,-6.8901804162227505],[113.37940860047509,-6.8901713780669347],[113.37939955664393,-6.8901714231216475],[113.37939937631276,-6.8901352704981154],[113.37940842014322,-6.8901352254436423],[113.37940837506041,-6.8901261872878097],[113.3793812435693,-6.890126322450536],[113.37938133373396,-6.8901443987625557],[113.37937228990315,-6.8901444438165758],[113.37937238006771,-6.8901625201287011]]],[[[113.37945354912745,-6.8901169238576401],[113.37944450529761,-6.8901169689128476],[113.37944455038105,-6.8901260070684458],[113.37945359421104,-6.8901259620131778],[113.37945354912745,-6.8901169238576401]]],[[[113.37946259295722,-6.8901168788022611],[113.37946263804101,-6.8901259169577385],[113.37947168187088,-6.8901258719021294],[113.37947163678693,-6.8901168337467107],[113.37946259295722,-6.8901168788022611]]],[[[113.37946259295722,-6.8901168788022611],[113.3794625478735,-6.8901078406467615],[113.37945350404388,-6.890107885702081],[113.37945354912745,-6.8901169238576401],[113.37946259295722,-6.8901168788022611]]],[[[113.37960643759308,-6.8899444329562805],[113.37960639250777,-6.8899353948017001],[113.3795973486824,-6.8899354398586192],[113.37959739376753,-6.8899444780132599],[113.37960643759308,-6.8899444329562805]]],[[[113.37956094795889,-6.8898904293100518],[113.3795609028748,-6.8898813911551322],[113.37954281522541,-6.8898814812663778],[113.37954286030916,-6.8898905194214137],[113.37956094795889,-6.8898904293100518]]],[[[113.38307095537421,-6.8882641021566213],[113.38307091023441,-6.8882550640242828],[113.38306186646376,-6.8882551091358168],[113.38306191160339,-6.8882641472682158],[113.38307095537421,-6.8882641021566213]]],[[[113.38259991199338,-6.8881127994296536],[113.38259982173369,-6.8880947231586012],[113.38259077796295,-6.888094768260177],[113.38259082309258,-6.8881038063957485],[113.38258177932163,-6.8881038514972142],[113.38258182445115,-6.8881128896328745],[113.38259991199338,-6.8881127994296536]]]]},"properties":{"FID":0,"Shape_Leng":18102566.929299999,"Shape_Area":236516885.403}}]
}