{
  "type" : "FeatureCollection",
  "features" : [{"type":"Feature","id":0,"geometry":{"type":"MultiPolygon","coordinates":[[[[113.54745423345554,-7.1607286466756079],[113.54744518554376,-7.1607286967941022],[113.54744523572326,-7.1607377336982472],[113.54743618781121,-7.1607377838166304],[113.54743622319651,-7.1607441564269969],[113.54745479330117,-7.1607376807565206],[113.54745428363522,-7.1607376835796881],[113.54745423345554,-7.1607286466756079]]],[[[113.54748112728969,-7.1607284977033352],[113.54747232927893,-7.1607285464380865],[113.54747234601184,-7.1607315598656029],[113.54748112728969,-7.1607284977033352]]],[[[113.54750746127664,-7.1607193146490253],[113.54749037492174,-7.1607194092960418],[113.54749040741844,-7.1607252615841173],[113.54750746127664,-7.1607193146490253]]],[[[113.54756266048616,-7.1607014098171069],[113.54756265784691,-7.160700934529908],[113.54755360993643,-7.1607009846503411],[113.5475536328307,-7.1607051075583126],[113.54756266048616,-7.1607014098171069]]],[[[113.5475355141153,-7.1607010848906762],[113.54753546393428,-7.1606920479871876],[113.54752641602379,-7.1606920981070239],[113.54752646620462,-7.1607011350105765],[113.5475355141153,-7.1607010848906762]]],[[[113.54758455593688,-7.1606917760447066],[113.54758274944386,-7.1606827488705962],[113.54758065330394,-7.1606827604821337],[113.54758070348576,-7.1606917973853399],[113.54758455593688,-7.1606917760447066]]]]},"properties":{"FID":0,"Shape_Leng":18102566.929299999,"Shape_Area":236516885.403}}]
}