{
  "type" : "FeatureCollection",
  "features" : [{"type":"Feature","id":0,"geometry":{"type":"MultiPolygon","coordinates":[[[[113.54759874912371,-7.160682660240278],[113.54758274944386,-7.1606827488705962],[113.54758455593688,-7.1606917760447066],[113.54758596248514,-7.1606917682531313],[113.54759876520602,-7.1606855563744682],[113.54759874912371,-7.160682660240278]]],[[[113.54759874912371,-7.160682660240278],[113.54760480327671,-7.1606826267031201],[113.54760778908083,-7.1606811779911821],[113.54760774685121,-7.1606735732160836],[113.54759869894157,-7.1606736233372139],[113.54759874912371,-7.160682660240278]]],[[[113.54787848148943,-7.160545552884046],[113.54787843130278,-7.1605365159829049],[113.54786938339777,-7.1605365661084006],[113.54786943358425,-7.1605456030096093],[113.54787848148943,-7.160545552884046]]],[[[113.54795966169246,-7.1604999172431274],[113.54794156588498,-7.1605000174966298],[113.54794161607262,-7.1605090543973411],[113.54795971188045,-7.1605089541437108],[113.54795966169246,-7.1604999172431274]]],[[[113.54795966169246,-7.1604999172431274],[113.54796870959609,-7.1604998671161102],[113.54796865940799,-7.1604908302155881],[113.54795961150452,-7.1604908803425404],[113.54795966169246,-7.1604999172431274]]],[[[113.54794151569742,-7.1604909805959158],[113.54794146550991,-7.1604819436952134],[113.54793241760643,-7.1604819938215707],[113.54793246779377,-7.1604910307223353],[113.54794151569742,-7.1604909805959158]]],[[[113.5502390281011,-7.1603607632369117],[113.55023824485535,-7.1603607675800305],[113.5502390292135,-7.160360963361458],[113.5502390281011,-7.1603607632369117]]],[[[113.5501846403297,-7.1603429904885187],[113.55017559244484,-7.1603430406580086],[113.55017560406924,-7.1603451319842257],[113.55018466480404,-7.1603473936101905],[113.5501846403297,-7.1603429904885187]]],[[[113.54828438230825,-7.1603173745922026],[113.54828433211523,-7.1603083376938219],[113.54827528421761,-7.1603083878257117],[113.54827533441045,-7.1603174247241554],[113.54828438230825,-7.1603173745922026]]],[[[113.54986751230354,-7.1602634143304718],[113.54985846441798,-7.1602634644931733],[113.54985847837013,-7.1602659749433926],[113.5498675391039,-7.1602682365767079],[113.54986751230354,-7.1602634143304718]]],[[[113.55022927697931,-7.1602342970229049],[113.55022922674858,-7.1602252601382546],[113.55022017886635,-7.1602253103078013],[113.55022022909691,-7.1602343471925165],[113.55022927697931,-7.1602342970229049]]],[[[113.55012964981178,-7.1602167751081511],[113.55012959958316,-7.1602077382227902],[113.5501115038179,-7.1602078385575441],[113.55011155404618,-7.1602168754430338],[113.55012964981178,-7.1602167751081511]]],[[[113.54846488848386,-7.160235039841929],[113.54846483828786,-7.1602260029448077],[113.54847388618252,-7.1602259528097658],[113.54847378579036,-7.1602078790156387],[113.54845569000169,-7.1602079792852917],[113.54845574019738,-7.1602170161824841],[113.54844669230275,-7.1602170663171076],[113.54844674249833,-7.1602261032143595],[113.54843769460348,-7.1602261533488702],[113.54843774479893,-7.1602351902461825],[113.54846488848386,-7.160235039841929]]],[[[113.54850082907996,-7.1601896548160751],[113.54848273329236,-7.1601897550865345],[113.54848278348847,-7.160198791983527],[113.54849183138246,-7.1601987418483217],[113.54849188157878,-7.1602077787452778],[113.54850092947291,-7.1602077286098318],[113.54850082907996,-7.1601896548160751]]],[[[113.54993044570189,-7.1601907680924732],[113.54993039547736,-7.1601817312057108],[113.54990325182671,-7.1601818816952845],[113.54990330205071,-7.1601909185822388],[113.54993044570189,-7.1601907680924732]]],[[[113.55006611372185,-7.1601809787338757],[113.55002992219143,-7.1601811793969361],[113.55002997241793,-7.1601902162829969],[113.5500480681836,-7.1601901159516936],[113.55004811841052,-7.1601991528376541],[113.55009335782454,-7.160198902005968],[113.55009330759673,-7.1601898651203273],[113.55006616394905,-7.1601900156196789],[113.55006611372185,-7.1601809787338757]]],[[[113.54853702065434,-7.1601894542730227],[113.54853697045723,-7.1601804173763934],[113.54852792256393,-7.160180467512359],[113.54852797276084,-7.1601895044090513],[113.54853702065434,-7.1601894542730227]]],[[[113.54995753912743,-7.1601815807145384],[113.54995748890242,-7.1601725438279473],[113.54994844101932,-7.1601725939917849],[113.54994849124415,-7.1601816308784398],[113.54995753912743,-7.1601815807145384]]],[[[113.54983986641687,-7.1601731959439867],[113.54983981619424,-7.160164159056559],[113.54982172042662,-7.1601642593793127],[113.54982177064889,-7.1601732962668683],[113.54983986641687,-7.1601731959439867]]],[[[113.54990320160277,-7.160172844808308],[113.5499031513789,-7.1601638079213297],[113.54988505561218,-7.1601639082465685],[113.54988510583568,-7.1601729451336755],[113.54990320160277,-7.160172844808308]]],[[[113.54998458232592,-7.1601633564489653],[113.54996648656036,-7.1601634567774006],[113.54996663723591,-7.1601905674369668],[113.54999378088573,-7.1601904169434736],[113.54999368043424,-7.1601723431708217],[113.5499846325514,-7.1601723933353698],[113.54998458232592,-7.1601633564489653]]],[[[113.54855506624368,-7.1601803171039302],[113.54855496584898,-7.1601622433109142],[113.54854591795613,-7.1601622934471072],[113.54854601835049,-7.1601803672402511],[113.54855506624368,-7.1601803171039302]]],[[[113.54989405327196,-7.1601548211969899],[113.54989400304839,-7.1601457843099219],[113.54988495516535,-7.1601458344723241],[113.54988500538873,-7.1601548713594578],[113.54989405327196,-7.1601548211969899]]],[[[113.54977638056386,-7.1601464364073122],[113.54977633034267,-7.1601373995194422],[113.54976728245896,-7.1601374496794739],[113.54976733267996,-7.1601464865674069],[113.54977638056386,-7.1601464364073122]]],[[[113.54983961530439,-7.1601280115068109],[113.54981247165499,-7.1601281619899089],[113.54981252187683,-7.1601371988775426],[113.54983061764352,-7.160137098555527],[113.54983066786578,-7.1601461354430143],[113.5498397157492,-7.1601460852816761],[113.54983961530439,-7.1601280115068109]]],[[[113.54970389705153,-7.1601287639063189],[113.54970384683189,-7.1601197270179124],[113.549694798948,-7.160119777176396],[113.54969484916747,-7.1601288140648647],[113.54970389705153,-7.1601287639063189]]],[[[113.54976723223801,-7.1601284127915195],[113.54976718201713,-7.1601193759035615],[113.54975813413373,-7.1601194260632877],[113.54975818435443,-7.1601284629513087],[113.54976723223801,-7.1601284127915195]]],[[[113.54864524397803,-7.1601255943557085],[113.54864519377925,-7.1601165574598191],[113.54863614588794,-7.160116607597466],[113.54863619608655,-7.1601256444934203],[113.54864524397803,-7.1601255943557085]]],[[[113.5487716634462,-7.1600797079340861],[113.54876261555653,-7.1600797580739641],[113.54876266575735,-7.1600887949690373],[113.54875361786742,-7.1600888451088034],[113.54875366806813,-7.1600978820039352],[113.54878081173824,-7.1600977315839192],[113.54878076153699,-7.1600886946889775],[113.5487717136472,-7.1600887448290962],[113.5487716634462,-7.1600797079340861]]],[[[113.54965835631914,-7.1600747933648661],[113.54958597325087,-7.1600751946180994],[113.54958607368494,-7.1600932683966096],[113.5496132173371,-7.1600931179275946],[113.5496131671195,-7.1600840810385336],[113.54962221500324,-7.1600840308819045],[113.54962226522102,-7.1600930677709016],[113.54964940887238,-7.1600929172997558],[113.54964950930919,-7.160110991077353],[113.54965855719321,-7.1601109409198225],[113.54965850697461,-7.1601019040311051],[113.54968565062572,-7.1601017535576386],[113.54968570084486,-7.1601107904461632],[113.54972189237949,-7.1601105898121338],[113.54972179193983,-7.1600925160355571],[113.54970369617338,-7.1600926163526726],[113.54970364595401,-7.160083579464251],[113.54966745442097,-7.1600837800960928],[113.54966750463964,-7.160092816984772],[113.54965845675605,-7.1600928671423523],[113.54965835631914,-7.1600747933648661]]],[[[113.54952263806274,-7.16007554570536],[113.54953168594695,-7.1600754955505694],[113.54953163573109,-7.1600664586609257],[113.54948639631024,-7.1600667094327815],[113.54948644652522,-7.1600757463227449],[113.54947739864069,-7.1600757964766473],[113.54947734842588,-7.1600667595866199],[113.54946830054145,-7.1600668097402815],[113.54946835075607,-7.160075846630372],[113.54945930287141,-7.16007589678392],[113.54945940330049,-7.1600939705642199],[113.54949559484021,-7.1600937699484524],[113.54949554462492,-7.1600847330585609],[113.54950459250951,-7.1600846829042393],[113.5495045422941,-7.1600756460144073],[113.54951359017845,-7.160075595859972],[113.54951364039403,-7.1600846327497409],[113.5495226882785,-7.1600845825950641],[113.54952263806274,-7.16007554570536]]],[[[113.54959497091752,-7.1600661075728711],[113.54959492070049,-7.1600570706836706],[113.54957682493361,-7.1600571709953034],[113.54957687515029,-7.1600662078846309],[113.54959497091752,-7.1600661075728711]]],[[[113.54947709735286,-7.1600215751364233],[113.54946804946931,-7.1600216252897653],[113.54946809968361,-7.1600306621798762],[113.54940476449579,-7.1600310132487426],[113.54940481470891,-7.1600400501392967],[113.54939576682447,-7.1600401002913463],[113.54939581703748,-7.1600491371819617],[113.5494139128066,-7.1600490368775578],[113.54941386259325,-7.1600399999870703],[113.5494410062459,-7.1600398495293263],[113.5494410564598,-7.160048886419621],[113.54945010434407,-7.1600488362666193],[113.54945015455822,-7.1600578731568456],[113.54947729821114,-7.1600577226965889],[113.54947724799649,-7.1600486858065544],[113.54950439164831,-7.1600485353448873],[113.54950434143316,-7.160039498455042],[113.54947719778188,-7.1600396489165146],[113.54947709735286,-7.1600215751364233]]],[[[113.54932318290113,-7.1600043539368032],[113.54932313268988,-7.1599953170456585],[113.54931408480577,-7.1599953671957905],[113.54931413501686,-7.1600044040870001],[113.54932318290113,-7.1600043539368032]]]]},"properties":{"FID":0,"Shape_Leng":18102566.929299999,"Shape_Area":236516885.403}}]
}