{
  "type" : "FeatureCollection",
  "features" : [{"type":"Feature","id":0,"geometry":{"type":"MultiPolygon","coordinates":[[[[114.01376687085134,-6.897647462689096],[114.01375912203473,-6.8976475116534246],[114.01375923232736,-6.8976649434848305],[114.01376687085134,-6.897647462689096]]],[[[114.01381437147811,-6.897538757280774],[114.01381267152826,-6.8975387680226747],[114.0138126957245,-6.8975425922512734],[114.01381437147811,-6.897538757280774]]],[[[114.01378543954503,-6.8975208725569512],[114.01378538239057,-6.8975118391468611],[114.01377634316623,-6.8975118962644411],[114.01377640032052,-6.8975209296746076],[114.01378543954503,-6.8975208725569512]]],[[[114.01385791370791,-6.8974391106602138],[114.01385723893854,-6.897439114924051],[114.01385724854288,-6.897440632894063],[114.01385791370791,-6.8974391106602138]]],[[[114.01387463152226,-6.8973305997741647],[114.01387457436769,-6.8973215663647478],[114.0138655351477,-6.8973216234824486],[114.0138655923021,-6.8973306568919419],[114.01387463152226,-6.8973305997741647]]],[[[114.01390146340762,-6.8972852613738231],[114.01390140625293,-6.8972762279646131],[114.01389236703402,-6.8972762850824498],[114.01389242418854,-6.8972853184917344],[114.01390146340762,-6.8972852613738231]]],[[[114.01392916459037,-6.8972760525616446],[114.01392852390914,-6.8972760566100817],[114.01392853302832,-6.8972774979030884],[114.01392916459037,-6.8972760525616446]]],[[[114.01394103967337,-6.8972488762131992],[114.01393739166204,-6.8972488992648184],[114.01393744358627,-6.8972571059256014],[114.01394103967337,-6.8972488762131992]]],[[[114.01394499803419,-6.8972398174304441],[114.01395291475556,-6.8972216998650033],[114.01393722019706,-6.8972217990380225],[114.01393733450698,-6.8972398658558962],[114.01394499803419,-6.8972398174304441]]],[[[114.01394620225955,-6.8972127085109447],[114.01394614510461,-6.897203675102082],[114.01393710588746,-6.8972037322201674],[114.01393716304221,-6.8972127656291056],[114.01394620225955,-6.8972127085109447]]],[[[114.01396083147657,-6.8972035822997144],[114.01395518432166,-6.8972036179838261],[114.01395526470084,-6.8972163219710092],[114.01396083147657,-6.8972035822997144]]],[[[114.01396874819723,-6.8971854647345285],[114.01396410922834,-6.8971854940479655],[114.01396417525744,-6.8971959299939209],[114.01396874819723,-6.8971854647345285]]],[[[114.01397666491752,-6.8971673471694599],[114.01397303413455,-6.8971673701122196],[114.01397308581357,-6.8971755380170334],[114.01397666491752,-6.8971673471694599]]],[[[114.01397291982451,-6.8971493032949054],[114.01396388060863,-6.8971493604130485],[114.01396393776345,-6.8971583938217842],[114.01397297697949,-6.8971583367035638],[114.01397291982451,-6.8971493032949054]]],[[[114.01397291982451,-6.8971493032949054],[114.01398187063322,-6.8971492467352302],[114.01399074895272,-6.8971097864867019],[114.01399071248056,-6.8971040220155029],[114.01397263405073,-6.8971041362515484],[114.01397291982451,-6.8971493032949054]]],[[[114.01399071248056,-6.8971040220155029],[114.01399204782271,-6.8971040135775645],[114.01399408326058,-6.8970949669460975],[114.01399065532568,-6.8970949886069723],[114.01399071248056,-6.8971040220155029]]],[[[114.01399929445719,-6.8970316976294672],[114.01400833367057,-6.8970316405116225],[114.01401647307679,-6.8969954540014049],[114.01400810505264,-6.8969955068779525],[114.01400804789836,-6.8969864734695259],[114.01399900868583,-6.896986530586994],[114.01399878007012,-6.8969503969529429],[114.01400781928196,-6.8969503398357785],[114.01400776212805,-6.8969413064273324],[114.01399872291638,-6.896941363544423],[114.0139984943022,-6.8969052299102946],[114.01398041588004,-6.8969053441433603],[114.01398058733953,-6.8969324443694138],[114.01397154812781,-6.8969325014859173],[114.01397166243419,-6.896950568303418],[114.01396262322207,-6.8969506254199011],[114.0139626803752,-6.8969596588287212],[114.0139807587997,-6.8969595445954335],[114.01398081595326,-6.896968578004115],[114.01398985516559,-6.8969685208871399],[114.01398991231937,-6.8969775542957086],[114.01396279468169,-6.8969777256463498],[114.01396285183505,-6.8969867590551575],[114.01395381262215,-6.8969868161717729],[114.01395404123566,-6.8970229498072699],[114.01397211966274,-6.8970228355732663],[114.01397223397065,-6.8970409023906907],[114.01396319475681,-6.8970409595079278],[114.013963137603,-6.8970319260991433],[114.01395409838923,-6.8970319832161353],[114.0139542126966,-6.8970500500338527],[114.01396325191071,-6.8970499929167097],[114.01396330906468,-6.8970590263254703],[114.01397234827886,-6.8970589692080813],[114.01397240543308,-6.8970680026167956],[114.0139543270043,-6.8970681168515542],[114.01395438415825,-6.8970771502604009],[114.01396342337286,-6.8970770931430305],[114.01396348052705,-6.8970861265517955],[114.01399059817091,-6.8970859551984365],[114.01399042670698,-6.8970588549727916],[114.01399946592093,-6.8970587978548901],[114.01399952307567,-6.8970678312633762],[114.01400018957419,-6.8970678270518277],[114.01400426044985,-6.8970497337890899],[114.01399940876628,-6.8970497644464315],[114.01399929445719,-6.8970316976294672],[114.01399025524375,-6.8970317547471431],[114.01399014093533,-6.8970136879299977],[114.01399918014842,-6.8970136308124728],[114.01399912299414,-6.8970045974039955],[114.01400816220701,-6.8970045402863764],[114.01400827651598,-6.8970226071032119],[114.01399923730277,-6.8970226642209811],[114.01399929445719,-6.8970316976294672]]],[[[114.01428452908833,-6.8963162275528926],[114.01427499465407,-6.8963162877993867],[114.01427505180781,-6.8963253212058353],[114.01426601261009,-6.8963253783229108],[114.01426620553384,-6.8963558707955945],[114.01428452908833,-6.8963162275528926]]],[[[114.01421154881233,-6.896289587393845],[114.01421160596462,-6.8962986208008337],[114.01422064516231,-6.8962985636850105],[114.01422058800983,-6.8962895302780955],[114.01421154881233,-6.896289587393845]]],[[[114.01421154881233,-6.896289587393845],[114.01421149166008,-6.8962805539868519],[114.01420245246264,-6.8962806111023554],[114.01420250961471,-6.8962896445094239],[114.01421154881233,-6.896289587393845]]],[[[114.01429284443343,-6.8962800399396436],[114.01428380523672,-6.8962800970566835],[114.01428397669775,-6.8963071972758385],[114.01428871682833,-6.8963071673237204],[114.01429295801168,-6.8962979914690212],[114.01429284443343,-6.8962800399396436]]],[[[114.01429284443343,-6.8962800399396436],[114.01430128004775,-6.8962799866363786],[114.01430187550336,-6.8962786983604492],[114.01430182647621,-6.8962709494161754],[114.01429278727974,-6.8962710065333095],[114.01429284443343,-6.8962800399396436]]],[[[114.01430182647621,-6.8962709494161754],[114.01430546778738,-6.8962709264073059],[114.01431079299461,-6.8962594052519748],[114.01431075136479,-6.8962528254865427],[114.01430171216872,-6.8962528826036973],[114.01430182647621,-6.8962709494161754]]],[[[114.01430171216872,-6.8962528826036973],[114.01430165501507,-6.8962438491974432],[114.01431069421098,-6.896243792080365],[114.01431052275001,-6.8962166918618077],[114.01430148355462,-6.8962167489786603],[114.01430154070802,-6.8962257823849082],[114.0142925015124,-6.896225839501664],[114.01429267297256,-6.8962529397206795],[114.01430171216872,-6.8962528826036973]]],[[[114.01431052275001,-6.8962166918618077],[114.01431956194531,-6.8962166347447855],[114.01431944763804,-6.8961985679325446],[114.01431040844308,-6.8961986250494167],[114.01431052275001,-6.8962166918618077]]],[[[114.01421086299052,-6.896181186509688],[114.01420182379496,-6.896181243624361],[114.01420188094619,-6.8961902770314554],[114.01421092014191,-6.8961902199167078],[114.01421086299052,-6.896181186509688]]],[[[114.01431944763804,-6.8961985679325446],[114.01432848683295,-6.8961985108155037],[114.01432825821864,-6.8961623771912786],[114.01431921902442,-6.8961624343080192],[114.01431944763804,-6.8961985679325446]]],[[[114.01434605083894,-6.8961170959276741],[114.01435509003208,-6.8961170388107993],[114.01435503287857,-6.8961080054049422],[114.01434599368561,-6.8961080625217415],[114.01434605083894,-6.8961170959276741]]],[[[114.01421710185321,-6.895738492449019],[114.01421704470548,-6.8957294590418652],[114.01420800551854,-6.8957295161529322],[114.0142080626661,-6.8957385495601624],[114.01421710185321,-6.895738492449019]]],[[[114.01418981285025,-6.8957115635597823],[114.01418986999731,-6.8957205969671715],[114.01419890918422,-6.8957205398565202],[114.01419885203697,-6.8957115064492074],[114.01418981285025,-6.8957115635597823]]],[[[114.01418981285025,-6.8957115635597823],[114.01418975570324,-6.8957025301523895],[114.01418071651659,-6.8957025872627193],[114.01418077366341,-6.8957116206701858],[114.01418981285025,-6.8957115635597823]]],[[[114.01413523485351,-6.8956577057725186],[114.014135177708,-6.895648672364632],[114.01412613852193,-6.8956487294734838],[114.01412619566726,-6.8956577628814451],[114.01413523485351,-6.8956577057725186]]],[[[114.01413512056259,-6.8956396389567765],[114.01413506341723,-6.8956306055488996],[114.0141260242315,-6.8956306626576005],[114.01412608137667,-6.8956396960655528],[114.01413512056259,-6.8956396389567765]]],[[[114.01419776625404,-6.89553987170952],[114.01419770910833,-6.8955308383021299],[114.01418866992502,-6.895530895411194],[114.01418872707055,-6.8955399288186605],[114.01419776625404,-6.89553987170952]]],[[[114.01417053441301,-6.8955219762211915],[114.01417059155813,-6.8955310096288116],[114.01417963074159,-6.8955309525200885],[114.01417957359631,-6.895521919112543],[114.01417053441301,-6.8955219762211915]]],[[[114.0143058935647,-6.8954849859475589],[114.01430583641741,-6.8954759525410516],[114.014296797236,-6.8954760096517118],[114.01429685438312,-6.8954850430582946],[114.0143058935647,-6.8954849859475589]]],[[[114.0142154446001,-6.8954765236399673],[114.0142153874546,-6.8954674902327016],[114.01420634827262,-6.8954675473415774],[114.01420640541797,-6.8954765807489213],[114.0142154446001,-6.8954765236399673]]],[[[114.0142153874546,-6.8954674902327016],[114.01422442663649,-6.8954674331236525],[114.01422436949089,-6.8954583997164569],[114.01421533030916,-6.8954584568254305],[114.0142153874546,-6.8954674902327016]]],[[[114.01435103232318,-6.8954756669851944],[114.01435091802711,-6.8954576001729215],[114.01434187884644,-6.8954576572842834],[114.01434182169869,-6.8954486238780666],[114.01433278251814,-6.8954486809891824],[114.01433283966571,-6.8954577143954747],[114.0143238004849,-6.8954577715064946],[114.01432385763239,-6.8954668049128598],[114.01433289681336,-6.8954667478017644],[114.01433301110889,-6.8954848146143304],[114.01434205029013,-6.8954847575029135],[114.01434199314215,-6.8954757240967073],[114.01435103232318,-6.8954756669851944]]],[[[114.01455881916111,-6.8954562865645093],[114.01455876200926,-6.8954472531601052],[114.01454972283054,-6.8954473102753147],[114.0145497799822,-6.895456343679796],[114.01455881916111,-6.8954562865645093]]],[[[114.01457678321438,-6.8954381055248968],[114.01457672606234,-6.8954290721206526],[114.01456768688411,-6.895429129236053],[114.01456774403597,-6.8954381626403736],[114.01457678321438,-6.8954381055248968]]],[[[114.01421515887333,-6.8954313566035941],[114.01422419805455,-6.8954312994948479],[114.01422414090925,-6.8954222660876372],[114.0142151017282,-6.8954223231963079],[114.01421515887333,-6.8954313566035941]]],[[[114.01458570808838,-6.8954199816008908],[114.01458565093633,-6.8954109481966963],[114.01457661175851,-6.8954110053121163],[114.01457666891041,-6.8954200387163862],[114.01458570808838,-6.8954199816008908]]],[[[114.01460395790176,-6.895446967581492],[114.01460372929172,-6.8954108339653439],[114.01459469011405,-6.8954108910811049],[114.01459491872339,-6.8954470246975559],[114.01460395790176,-6.895446967581492]]],[[[114.01432328616103,-6.8953764708490395],[114.01431424698167,-6.8953765279592085],[114.01431430412828,-6.8953855613656847],[114.01432334330781,-6.8953855042554384],[114.01432328616103,-6.8953764708490395]]],[[[114.01455881916111,-6.8954562865645093],[114.01455887631303,-6.8954653199689115],[114.01454983713396,-6.8954653770842729],[114.01454995143769,-6.8954834438932142],[114.01453187307865,-6.8954835581237282],[114.01453181592709,-6.8954745247191083],[114.01450469838844,-6.8954746960633724],[114.01450464123747,-6.8954656626585216],[114.01449560205795,-6.8954657197728606],[114.01449565920875,-6.8954747531777851],[114.01448662002899,-6.8954748102920282],[114.01448656287836,-6.8954657768870273],[114.01447752369866,-6.8954658340010235],[114.01447746654827,-6.8954568005959427],[114.01444130982948,-6.8954570290499211],[114.01444119553032,-6.895438962239127],[114.01445023470977,-6.8954389051260394],[114.01445012041057,-6.895420838315415],[114.01443204205222,-6.8954209525411168],[114.01443198490308,-6.8954119191356398],[114.01441390654477,-6.8954120333605076],[114.0144137922474,-6.8953939665492223],[114.01442283142624,-6.8953939094370238],[114.01442271712884,-6.8953758426259064],[114.01441367795032,-6.895375899737954],[114.01441350650528,-6.8953487995210141],[114.01440446732722,-6.8953488566326646],[114.0144044101792,-6.8953398232269114],[114.01438633182316,-6.895339937449549],[114.01438627467556,-6.8953309040436581],[114.01436819631957,-6.8953310182654617],[114.01436836776158,-6.8953581184835739],[114.01435932858294,-6.8953581755944464],[114.01435921428852,-6.8953401087822241],[114.01435017511018,-6.8953401658927742],[114.01435023225717,-6.8953491992989804],[114.01434119307855,-6.8953492564094354],[114.01434113593173,-6.8953402230031546],[114.01431401839595,-6.8953403943332701],[114.01431413268865,-6.8953584611462482],[114.01432317186767,-6.8953584040362284],[114.01432328616103,-6.8953764708490395],[114.01433232534029,-6.895376413738699],[114.01433249678141,-6.8954035139576586],[114.01434153596112,-6.8954034568469211],[114.01434159310847,-6.8954124902531584],[114.0143325539286,-6.8954125473639705],[114.01433266822322,-6.8954306141765835],[114.01434170740343,-6.8954305570656205],[114.01434176455102,-6.8954395904718284],[114.01435080373135,-6.8954395333606175],[114.01435086087919,-6.8954485667667802],[114.0143599000596,-6.8954485096553233],[114.01435984291159,-6.8954394762492361],[114.01436888209176,-6.8954394191376842],[114.01436882494366,-6.8954303857317027],[114.0143869033034,-6.8954302715082383],[114.01438701760037,-6.8954483383199303],[114.01439605678048,-6.8954482812077904],[114.01439611392925,-6.8954573146135543],[114.01438707474897,-6.8954573717257688],[114.01438713189764,-6.8954664051316064],[114.0143961710781,-6.8954663480193146],[114.01439622822701,-6.8954753814250713],[114.01438718904639,-6.8954754385374368],[114.01438713189764,-6.8954664051316064],[114.01437809271712,-6.8954664622437258],[114.01437814986572,-6.8954754956496327],[114.01435103232318,-6.8954756669851944],[114.01435108947132,-6.8954847003913242],[114.01434205029013,-6.8954847575029135],[114.01434210743818,-6.8954937909091152],[114.01433306825678,-6.8954938480206085],[114.01433301110889,-6.8954848146143304],[114.01432397192758,-6.8954848717255777],[114.01432391477994,-6.8954758383192205],[114.01431487559869,-6.8954758954302209],[114.01431498989371,-6.8954939622430826],[114.01430595071206,-6.8954940193540635],[114.0143060078595,-6.8955030527605636],[114.01428792949562,-6.8955031669821647],[114.0142878152015,-6.8954851001688588],[114.01427877601979,-6.8954851572792526],[114.01427883316666,-6.8954941906859828],[114.01426075480266,-6.8954943049064097],[114.01426081194926,-6.8955033383132873],[114.01422465521968,-6.895503566752395],[114.01422448378217,-6.8954764665308446],[114.0142154446001,-6.8954765236399673],[114.01421550174568,-6.8954855570472304],[114.01420646256338,-6.895485614156259],[114.01420651970886,-6.8954946475635941],[114.01417940216092,-6.8954948188898832],[114.01417934501593,-6.8954857854823217],[114.01417030583332,-6.8954858425906673],[114.01417036297812,-6.8954948759983026],[114.01415228461229,-6.8954949902146359],[114.01415239890144,-6.8955130570301986],[114.01416143808477,-6.8955129999219675],[114.01416149522963,-6.8955220333296685],[114.01417053441301,-6.8955219762211915],[114.01417047726797,-6.895512942813566],[114.01418855563418,-6.8955128285962504],[114.01418861277956,-6.8955218620037249],[114.01421573032879,-6.8955216906762438],[114.01421590176693,-6.8955487908979629],[114.01420686258342,-6.8955488480075209],[114.01420680543747,-6.895539814600208],[114.01419776625404,-6.89553987170952],[114.01419782339981,-6.8955489051169057],[114.01418878421616,-6.8955489622261226],[114.01418895565344,-6.8955760624484874],[114.01417991646917,-6.8955761195577585],[114.01418008790665,-6.8956032197802974],[114.01418912709141,-6.895603162670799],[114.01418906994535,-6.8955941292633769],[114.01419810912986,-6.8955940721537834],[114.0141980519837,-6.8955850387464164],[114.01420709116799,-6.895584981636727],[114.01420726260723,-6.8956120818585909],[114.01421630179193,-6.8956120247485053],[114.01421635893867,-6.8956210581557107],[114.01420731975379,-6.8956211152658717],[114.01420737690043,-6.8956301486731473],[114.0141983377153,-6.8956302057832133],[114.01419839486184,-6.8956392391905625],[114.01417127730548,-6.8956394105199639],[114.01417116301349,-6.8956213437048097],[114.01418020219867,-6.8956212865953317],[114.01418008790665,-6.8956032197802974],[114.01417104872179,-6.8956032768896254],[114.0141711058676,-6.8956123102972287],[114.01416206668252,-6.8956123674064607],[114.01416218097403,-6.895630434221772],[114.0141531417885,-6.8956304913309854],[114.01415325607996,-6.8956485581464158],[114.01414421689402,-6.8956486152556087],[114.01414438833129,-6.8956757154789949],[114.01417150589039,-6.8956755441502233],[114.0141716201833,-6.8956936109653295],[114.01415354180995,-6.8956937251849837],[114.01415348466381,-6.8956846917772818],[114.0141444454772,-6.8956847488867767],[114.01414455976924,-6.8957028157023279],[114.01418071651659,-6.8957025872627193],[114.01418065936984,-6.8956935538552466],[114.01418969855634,-6.8956934967449914],[114.01418975570324,-6.8957025301523895],[114.01421687326274,-6.8957023588203787],[114.01421693041024,-6.8957113922275441],[114.01422596959675,-6.8957113351164585],[114.0142260267445,-6.895720368523544],[114.01423506593112,-6.8957203114122096],[114.0142351230791,-6.8957293448192187],[114.01422608389232,-6.8957294019306277],[114.01422614104023,-6.895738435337706],[114.01421710185321,-6.895738492449019],[114.01421721614889,-6.895756559263317],[114.01422625533625,-6.8957565021518521],[114.0142263696326,-6.8957745689659831],[114.01421733044489,-6.8957746260775981],[114.01421773048331,-6.895837859927461],[114.01420869129434,-6.8958379170394348],[114.01420880559138,-6.8958559838537798],[114.01419976640197,-6.8958560409657341],[114.01419993784759,-6.8958831411874932],[114.01419089865762,-6.8958831982995026],[114.0141912415499,-6.8959373987433343],[114.0141822023588,-6.895937455855627],[114.01418237380547,-6.8959645560777156],[114.0141733346138,-6.8959646131900652],[114.01417367750818,-6.8960188136345764],[114.01416463831539,-6.8960188707472065],[114.01416469546456,-6.8960279041547068],[114.01415565627153,-6.8960279612672419],[114.01415577056973,-6.8960460280823481],[114.0141467313763,-6.8960460851948637],[114.01414684567446,-6.8960641520100889],[114.01413780648059,-6.8960642091225859],[114.01413792077874,-6.896082275937979],[114.01411080319568,-6.8960824472748969],[114.01411086034435,-6.8960914806828058],[114.01409278195489,-6.8960915949067161],[114.0140928391033,-6.8961006283147723],[114.01408379990831,-6.8961006854265472],[114.01408385705662,-6.8961097188346754],[114.01406577866604,-6.8961098330578627],[114.01406589296221,-6.8961278998744087],[114.0140749321579,-6.8961278427627493],[114.01407498930627,-6.8961368761709574],[114.01408402850203,-6.896136819059052],[114.01408408565064,-6.8961458524671473],[114.01407504645471,-6.8961459095791282],[114.01407510360325,-6.8961549429873132],[114.01408414279935,-6.8961548858752559],[114.01408425709697,-6.8961729526914599],[114.01409329629332,-6.8961728955790829],[114.01409323914432,-6.8961638621710568],[114.01410227834045,-6.896163805058583],[114.01410222119132,-6.8961547716506306],[114.01409318199536,-6.8961548287630281],[114.0140931248465,-6.8961457953549949],[114.01410216404228,-6.896145738242673],[114.01410204974444,-6.8961276714267461],[114.01412012813509,-6.8961275572018916],[114.01412018528433,-6.8961365906097223],[114.0141292244797,-6.8961365334969633],[114.01412928162917,-6.8961455669046803],[114.01414736002005,-6.8961454526784998],[114.01414741716995,-6.8961544860860791],[114.01413837797436,-6.896154543199331],[114.01413843512417,-6.8961635766069822],[114.01412939592835,-6.8961636337201382],[114.01412945307807,-6.8961726671278614],[114.01411137468584,-6.8961727813538145],[114.01411143183529,-6.8961818147617002],[114.01412047103162,-6.8961817576487343],[114.01412052818129,-6.8961907910565099],[114.01412956737769,-6.8961907339432962],[114.01412973882773,-6.8962178341664195],[114.01412069963082,-6.8962178912798588],[114.0141206424809,-6.8962088578720788],[114.01410256408718,-6.8962089720982931],[114.01410250693768,-6.8961999386903594],[114.01409346774085,-6.8961999958031353],[114.01409352489017,-6.8962090292111453],[114.01408448569313,-6.8962090863238252],[114.01408454284237,-6.8962181197319072],[114.01405742525024,-6.8962182910691512],[114.01405748239904,-6.8962273244774392],[114.01404844320132,-6.8962273815895871],[114.01404861464766,-6.8962544818147196],[114.0140576538459,-6.8962544247023443],[114.01405771099499,-6.8962634581106323],[114.01404867179659,-6.896263515223084],[114.01404872894561,-6.8962725486314262],[114.01403968974698,-6.8962726057437829],[114.0140397468959,-6.8962816391522308],[114.01404878609469,-6.8962815820397996],[114.01404884324386,-6.8962906154481525],[114.01405788244276,-6.8962905583354752],[114.01405793959218,-6.8962995917437473],[114.01406697879116,-6.896299534630824],[114.01406669304403,-6.8962543675897985],[114.01407573224209,-6.8962543104770804],[114.01407567509271,-6.8962452770689397],[114.01408471429053,-6.8962452199561275],[114.01408477144007,-6.8962542533641935],[114.01409381063796,-6.8962541962511361],[114.01409375348825,-6.8962451628431456],[114.01410279268593,-6.8962451057299914],[114.01410284983582,-6.8962541391379064],[114.01411188903356,-6.8962540820245062],[114.01411183188351,-6.8962450486166675],[114.01412087108103,-6.8962449915031732],[114.01412098538155,-6.8962630583186968],[114.01408482858969,-6.896263286772256],[114.01408488573939,-6.8962723201802962],[114.01407584654106,-6.896272377293335],[114.01407590369065,-6.8962814107014818],[114.01409398208756,-6.8962812964750828],[114.01409403923759,-6.8962903298830573],[114.01410307843611,-6.8962902727695266],[114.0141029641358,-6.896272205953708],[114.01411200333391,-6.8962721488401568],[114.01411217478497,-6.8962992490636452],[114.01412121398353,-6.896299191949697],[114.01412115683291,-6.8962901585419534],[114.01413019603119,-6.8962901014279101],[114.01413013888049,-6.8962810680202375],[114.01413917807852,-6.8962810109061001],[114.01413923522939,-6.8962900443136981],[114.01414827442754,-6.8962899871993129],[114.01414833157865,-6.8962990206068309],[114.01416640997505,-6.8962989063773987],[114.01416646712657,-6.8963079397847631],[114.01415742792824,-6.8963079968996386],[114.01415748507968,-6.8963170303070731],[114.01416652427818,-6.8963169731921212],[114.01416663858164,-6.8963350400068277],[114.01418471697907,-6.8963349257761095],[114.01418477413124,-6.896343959183322],[114.01421189172734,-6.8963437878357396],[114.01421200603298,-6.8963618546496512],[114.01420296683401,-6.8963619117658332],[114.01420319544549,-6.8963980453939451],[114.01421223464514,-6.8963979882774602],[114.0142123489517,-6.8964160550913416],[114.01422138815158,-6.8964159979745352],[114.01422133099811,-6.8964069645676718],[114.01423037019777,-6.8964069074507703],[114.01423048450515,-6.8964249742643418],[114.01422144530515,-6.8964250313813951],[114.01422155961251,-6.8964430981951006],[114.01421252041209,-6.8964431553121344],[114.01421270056588,-6.8964716294523036],[114.01425940264615,-6.8963705889285478],[114.0142572591804,-6.8963706024727571],[114.01425697341226,-6.8963254354398149],[114.01424793421437,-6.8963254925565494],[114.01424787706114,-6.8963164591498742],[114.01423883786335,-6.8963165162663618],[114.01423878071037,-6.8963074828596067],[114.01420262391908,-6.8963077113235496],[114.01420256676684,-6.896298677916489],[114.01419352756902,-6.8962987350319729],[114.01419358472107,-6.896307768439109],[114.0141755063248,-6.8963078826697153],[114.01417544917309,-6.8962988492624282],[114.01419352756902,-6.8962987350319729],[114.01419335611332,-6.8962716348105237],[114.01421143450791,-6.8962715205798384],[114.01421149166008,-6.8962805539868519],[114.01423860925189,-6.8962803826393184],[114.01423866640464,-6.896289416046085],[114.01426578399627,-6.8962892446967894],[114.01426561253672,-6.8962621444771566],[114.01424753414339,-6.8962622587097391],[114.01424747699069,-6.8962532253030364],[114.01422939859741,-6.896253339534784],[114.01422928429294,-6.8962352727210643],[114.01423832348929,-6.8962352156054267],[114.014238266337,-6.896226182198621],[114.01425634472909,-6.8962260679669853],[114.01425628757653,-6.8962170345603591],[114.01426532677232,-6.89621697744436],[114.01426526961967,-6.8962079440377897],[114.01425623042405,-6.8962080011537124],[114.01425611611933,-6.8961899343404074],[114.0142651553146,-6.8961898772246357],[114.01426509816218,-6.896180843818069],[114.01427413735719,-6.8961807867022022],[114.01427408020467,-6.8961717532956746],[114.01428311939944,-6.8961716961797119],[114.01428323370489,-6.896189762992579],[114.01429227289991,-6.8961897058762958],[114.014292387206,-6.8962077726889959],[114.01430142640127,-6.8962077155723902],[114.01430131209484,-6.896189648759842],[114.01431035128974,-6.8961895916432159],[114.01431029413646,-6.8961805582370275],[114.01430125494174,-6.8961806153535772],[114.01430119778873,-6.896171581947276],[114.01431023698326,-6.8961715248308018],[114.0143101226771,-6.8961534580183725],[114.01431916187121,-6.8961534009018779],[114.01431904756501,-6.8961353340896014],[114.01430096917738,-6.8961354483221156],[114.01430108348289,-6.8961535151346949],[114.0142830050943,-6.8961536293668297],[114.01428294794185,-6.8961445959603811],[114.0142467911644,-6.8961448244223007],[114.01424667686106,-6.8961267576087915],[114.01422859847257,-6.8961268718384243],[114.01422854132137,-6.896117838431512],[114.01424661970952,-6.8961177242020302],[114.01424650540667,-6.896099657388497],[114.01422842701919,-6.8960997716176768],[114.01422836986822,-6.896090738210753],[114.01425548744882,-6.8960905668669525],[114.01425537314609,-6.8960725000535472],[114.01424633395297,-6.8960725571681678],[114.0142462768019,-6.8960635237613657],[114.01426435518772,-6.8960634095321076],[114.01426452664221,-6.8960905097520122],[114.01427356583551,-6.8960904526369005],[114.01427373729121,-6.8961175528565262],[114.01428277648495,-6.8961174957410174],[114.01428283363718,-6.8961265291474767],[114.01432802960557,-6.896126243566993],[114.01432820106525,-6.8961533437852145],[114.01433724025921,-6.8961532866683779],[114.01433706879901,-6.8961261864503838],[114.01434610799237,-6.8961261293336058],[114.01434605083894,-6.8961170959276741],[114.01433701164576,-6.8961171530443783],[114.01433695449258,-6.8961081196383693],[114.01434599368561,-6.8961080625217415],[114.01434587937915,-6.8960899957098611],[114.01433684018647,-6.896090052826338],[114.01433678303353,-6.8960810194203166],[114.01434582222603,-6.8960809623039152],[114.01434587937915,-6.8960899957098611],[114.01435491857177,-6.8960899385932128],[114.01435503287857,-6.8961080054049422],[114.01436407207144,-6.8961079482879724],[114.01436378630416,-6.8960627812589825],[114.01437282549612,-6.8960627241422197],[114.01437259688301,-6.8960265905192895],[114.01439067526529,-6.8960264762858561],[114.01439050380523,-6.8959993760690592],[114.01438146461464,-6.8959994331856338],[114.01438135030865,-6.8959813663742642],[114.01434519354686,-6.8959815948382559],[114.01434513639467,-6.8959725614322798],[114.01433609720421,-6.8959726185477752],[114.01433604005227,-6.8959635851416863],[114.01439027519288,-6.8959632424466077],[114.01439010373444,-6.8959361422297283],[114.01442626049129,-6.895935913763835],[114.01442620333795,-6.8959268803585205],[114.01443524252679,-6.8959268232416955],[114.0144352996803,-6.8959358566469344],[114.01445337805811,-6.8959357424126235],[114.01445332090425,-6.8959267090075347],[114.01444428171558,-6.8959267661246999],[114.01444422456197,-6.8959177327194991],[114.01445326375048,-6.8959176756024085],[114.01445320659677,-6.8959086421972948],[114.01446224578504,-6.895908585080111],[114.01446218863124,-6.8958995516750683],[114.01447122781929,-6.8958994945577885],[114.01447128497325,-6.8959085279627539],[114.01446224578504,-6.895908585080111],[114.01446230293892,-6.8959176184851483],[114.01445326375048,-6.8959176756024085],[114.01445332090425,-6.8959267090075347],[114.01446460181792,-6.895926637725033],[114.01448554049534,-6.8958813365857701],[114.01447111351158,-6.8958814277478453],[114.01447105635783,-6.8958723943428666],[114.01448913473264,-6.8958722801082466],[114.01448914272362,-6.8958735431109908],[114.01453700100022,-6.895770000999967],[114.01456049015816,-6.8957203985343183],[114.01456047659792,-6.8957182552905651],[114.0145615081741,-6.8957182487721544],[114.01457833088165,-6.8956827239626826],[114.01457832634821,-6.8956820074385119],[114.0145786712223,-6.8956820052592915],[114.01469023099438,-6.8954464224371081],[114.01468531050337,-6.8954464535292379],[114.01468536765761,-6.8954554869325859],[114.01464921094585,-6.895455715402262],[114.01464915379231,-6.8954466819986129],[114.01465819297019,-6.8954466248815249],[114.01465813581653,-6.89543759147793],[114.01464909663883,-6.8954376485949425],[114.01464903948543,-6.8954286151913022],[114.01464000030781,-6.8954286723080669],[114.01464005746102,-6.8954377057117835],[114.01463101828317,-6.8954377628284549],[114.0146310754363,-6.8954467962322772],[114.01460395790176,-6.895446967581492],[114.01460401505445,-6.8954560009855195],[114.01457689751867,-6.895456172333426],[114.0145768403665,-6.8954471389291712],[114.01456780118791,-6.8954471960447234],[114.01456785833993,-6.8954562294490529],[114.01455881916111,-6.8954562865645093]],[[114.01440469592008,-6.8953849902555504],[114.01439565674124,-6.8953850473673315],[114.01439559959309,-6.8953760139615365],[114.01440463877174,-6.895375956849831],[114.01440469592008,-6.8953849902555504]],[[114.014395542445,-6.8953669805557372],[114.01438650326642,-6.8953670376671958],[114.01438644611859,-6.8953580042613174],[114.014395485297,-6.8953579471499342],[114.014395542445,-6.8953669805557372]],[[114.01439628537602,-6.8954844148308254],[114.01440532455673,-6.8954843577182121],[114.01440538170598,-6.8954933911238863],[114.01441442088678,-6.8954933340110287],[114.01441447803627,-6.8955023674166211],[114.01439639967425,-6.8955024816423176],[114.01439628537602,-6.8954844148308254]],[[114.0143783784608,-6.8955116292732246],[114.01438741764217,-6.8955115721607276],[114.01438747479131,-6.8955206055665403],[114.01437843560977,-6.8955206626791128],[114.0143783784608,-6.8955116292732246]],[[114.01435131806467,-6.895520834015807],[114.01434227888281,-6.8955208911276982],[114.01434222173452,-6.8955118577215071],[114.01435126091621,-6.8955118006096905],[114.01435131806467,-6.895520834015807]],[[114.01433323970087,-6.8955209482394171],[114.01432420051887,-6.8955210053509663],[114.01432414337094,-6.8955119719446243],[114.01433318255276,-6.8955119148331514],[114.01433323970087,-6.8955209482394171]],[[114.01422568385915,-6.8956661680809663],[114.01423472304474,-6.8956661109700859],[114.01423478019228,-6.8956751443771163],[114.01422574100651,-6.8956752014880722],[114.01422568385915,-6.8956661680809663]],[[114.01455120879893,-6.8956821787905467],[114.01456024798212,-6.8956821216733735],[114.01456030513594,-6.8956911550776763],[114.0145512659526,-6.8956912121949268],[114.01455120879893,-6.8956821787905467]],[[114.0142439336736,-6.8956931540798889],[114.01423489448759,-6.8956932111911655],[114.01423483733988,-6.8956841777841431],[114.01424387652574,-6.895684120672942],[114.0142439336736,-6.8956931540798889]],[[114.01429851168301,-6.8957470118475239],[114.01431659005596,-6.8957468976215033],[114.01431676150547,-6.8957739978404407],[114.01429868313151,-6.8957741120669134],[114.01429851168301,-6.8957470118475239]],[[114.01424439085923,-6.8957654213353434],[114.01424444800779,-6.8957744547422388],[114.01423540882024,-6.8957745118541958],[114.01423535167187,-6.8957654784472249],[114.01424439085923,-6.8957654213353434],[114.01424427656237,-6.8957473545214905],[114.01425331574933,-6.8957472974095895],[114.01425343004654,-6.8957653642232923],[114.01424439085923,-6.8957654213353434]],[[114.01427207991502,-6.8958555840653242],[114.01427202276525,-6.8958465506586908],[114.01428106195388,-6.8958464935454469],[114.01428111910381,-6.8958555269520048],[114.01427207991502,-6.8958555840653242],[114.01427213706484,-6.8958646174719878],[114.01426309787581,-6.8958646745852112],[114.01426304072615,-6.895855641178473],[114.01427207991502,-6.8958555840653242]],[[114.01429021544268,-6.8958645032450283],[114.01429925463147,-6.8958644461312923],[114.0142993117819,-6.8958734795377072],[114.01429027259292,-6.8958735366515196],[114.01429021544268,-6.8958645032450283]],[[114.01434450772561,-6.8958731939660902],[114.01435354691414,-6.8958731368512547],[114.01435360406566,-6.8958821702572157],[114.01434456487696,-6.8958822273721267],[114.01434450772561,-6.8958731939660902]],[[114.01426332647522,-6.8959008082120627],[114.01427236566492,-6.8959007510985373],[114.01427242281514,-6.8959097845051645],[114.01425434443529,-6.8959098987321976],[114.01425411583625,-6.8958737651050592],[114.01426315502555,-6.8958737079919299],[114.01426332647522,-6.8959008082120627]],[[114.01435366121726,-6.8958912036631705],[114.01436270040602,-6.8958911465480135],[114.01436275755788,-6.8959001799538902],[114.01435371836892,-6.8959002370691218],[114.01435366121726,-6.8958912036631705]],[[114.01434467917989,-6.8959002941841847],[114.01433563999079,-6.8959003512990753],[114.01433558283946,-6.895891317892973],[114.01434462202839,-6.8958912607781571],[114.01434467917989,-6.8959002941841847]],[[114.01429044404414,-6.895900636870973],[114.01428140485457,-6.8959006939848404],[114.01428134770427,-6.8958916605782843],[114.01429038689366,-6.8958916034644924],[114.01429044404414,-6.895900636870973]],[[114.0143538326725,-6.8959183038810137],[114.01436287186178,-6.8959182467656301],[114.01436298616601,-6.8959363135773559],[114.01437202535557,-6.8959362564616509],[114.01437208250798,-6.8959452898674325],[114.01435400412845,-6.8959454040988231],[114.0143538326725,-6.8959183038810137]],[[114.01428180490888,-6.8959639278306231],[114.01429084409963,-6.8959638707162263],[114.01429090125072,-6.8959729041226936],[114.01428186205979,-6.895972961237165],[114.01428180490888,-6.8959639278306231]],[[114.01424576244561,-6.89598222310015],[114.01420960567924,-6.8959824515539019],[114.01420949138006,-6.8959643847396475],[114.01424564814506,-6.8959641562865004],[114.01424576244561,-6.89598222310015]],[[114.01426384082836,-6.8959821088722508],[114.0142728800196,-6.8959820517580459],[114.0142729371705,-6.8959910851646384],[114.01426389797909,-6.8959911422789189],[114.01426384082836,-6.8959821088722508]],[[114.01430005474431,-6.8959909138207696],[114.01430909393544,-6.8959908567058052],[114.01430920823884,-6.8960089235183748],[114.01430016904737,-6.8960089806334892],[114.01430005474431,-6.8959909138207696]],[[114.01428214781555,-6.8960181282696968],[114.01427310862367,-6.8960181853843761],[114.01427299432149,-6.8960001185712265],[114.01428203351301,-6.8960000614567001],[114.01428214781555,-6.8960181282696968],[114.01429118700732,-6.8960180711548471],[114.01429124415887,-6.8960271045612904],[114.01428220496693,-6.8960271616762148],[114.01428214781555,-6.8960181282696968]],[[114.0143183045822,-6.8960178998092756],[114.01432734377369,-6.8960178426937446],[114.01432740092594,-6.8960268760998851],[114.01431836173425,-6.8960269332154924],[114.0143183045822,-6.8960178998092756]],[[114.01423706615661,-6.8960364806551535],[114.01425514454154,-6.8960363664266895],[114.01425520169256,-6.896045399833409],[114.0142371233073,-6.8960455140620249],[114.01423706615661,-6.8960364806551535]],[[114.014246905468,-6.8961628912357957],[114.01426498385756,-6.8961627770048759],[114.01426504100984,-6.8961718104114658],[114.01425600181491,-6.8961718675270882],[114.01425605896708,-6.896180900933766],[114.01424701977193,-6.8961809580492917],[114.014246905468,-6.8961628912357957]],[[114.01421086299052,-6.896181186509688],[114.01421990218599,-6.8961811293948454],[114.01421984503449,-6.8961720959878647],[114.01422888422971,-6.8961720388729262],[114.01422894138138,-6.8961810722798322],[114.0142379805767,-6.8961810151646468],[114.0142380377286,-6.8961900485714391],[114.01424707692401,-6.8961899914560094],[114.01424713407616,-6.8961990248627387],[114.01423809488058,-6.8961990819782439],[114.0142380377286,-6.8961900485714391],[114.0142289985331,-6.8961901056866992],[114.01422905568492,-6.8961991390935804],[114.01420193809749,-6.896199310438563],[114.01420199524887,-6.8962083438456663],[114.01419295605274,-6.8962084009603952],[114.01419289890154,-6.8961993675532156],[114.01418385970548,-6.8961994246676985],[114.01418397400762,-6.8962174914822025],[114.01416589561464,-6.8962176057109588],[114.0141659527655,-6.8962266391183391],[114.01418403115881,-6.8962265248894346],[114.01418414546141,-6.8962445917039332],[114.01419318465832,-6.8962445345890728],[114.01419329896159,-6.8962626014033885],[114.01418425976433,-6.8962626585183999],[114.01418431691592,-6.8962716919256088],[114.01417527771842,-6.8962717490405261],[114.01417539202147,-6.8962898158551367],[114.01416635282358,-6.8962898729700326],[114.01416623852089,-6.8962718061552701],[114.01417527771842,-6.8962717490405261],[114.0141751634157,-6.8962536822259324],[114.01416612421851,-6.8962537393405254],[114.0141659527655,-6.8962266391183391],[114.0141569135687,-6.896226696232536],[114.01415697071945,-6.8962357296400221],[114.01413889232531,-6.8962358438680553],[114.01413866372413,-6.8961997102375499],[114.01415674211691,-6.8961995960101214],[114.01415668496645,-6.8961905626026363],[114.01416572416257,-6.8961905054887414],[114.01416583846388,-6.8962085723035571],[114.01417487766022,-6.8962085151893406],[114.01417482050937,-6.89619948178201],[114.01418385970548,-6.8961994246676985],[114.01418374540364,-6.8961813578531936],[114.01419278459935,-6.8961813007388617],[114.01419272744836,-6.8961722673316563],[114.0142108058392,-6.8961721531026319],[114.01421086299052,-6.896181186509688]],[[114.01412985312813,-6.8962359009818162],[114.01412081393089,-6.8962359580954056],[114.01412075678081,-6.8962269246876167],[114.01412979597789,-6.8962268675741036],[114.01412985312813,-6.8962359009818162]]],[[[114.01453090151254,-6.8953299902446616],[114.01453084436228,-6.895320956839976],[114.01452180518571,-6.895321013953617],[114.0145218623358,-6.895330047358379],[114.01453090151254,-6.8953299902446616]]],[[[114.01430469348765,-6.8952952844100786],[114.01428661513162,-6.8952953986282077],[114.01428667227704,-6.8953044320349441],[114.01429571145525,-6.8953043749258898],[114.01429576860092,-6.8953134083325471],[114.01430480777924,-6.8953133512232458],[114.01430469348765,-6.8952952844100786]]],[[[114.01421515887333,-6.8954313566035941],[114.01420611969205,-6.8954314137121706],[114.01420606254707,-6.8954223803048071],[114.01419702336587,-6.8954224374131368],[114.01419696622116,-6.895413404005696],[114.01418792704006,-6.8954134611137787],[114.01418775560691,-6.895386360891206],[114.01419679478751,-6.8953863037833489],[114.01419662335452,-6.8953592035609663],[114.01420566253455,-6.8953591464531669],[114.01420554824594,-6.8953410796383761],[114.01419650906627,-6.8953411367460271],[114.01419633763444,-6.8953140365235868],[114.01420537681361,-6.8953139794161631],[114.01420531966966,-6.8953049460087508],[114.01421435884855,-6.8953048889012329],[114.0142143017045,-6.8952958554938926],[114.01420526252578,-6.8952959126013349],[114.01420520538197,-6.8952868791939155],[114.01419616620332,-6.8952869363011127],[114.01419593762955,-6.8952508026710913],[114.01420497680752,-6.895250745564196],[114.0142049196641,-6.8952417121567571],[114.01421395884179,-6.8952416550497668],[114.01421378741148,-6.8952145548276516],[114.01420474823429,-6.8952146119344144],[114.01420480537749,-6.8952236453418658],[114.01419576620003,-6.8952237024485346],[114.01419570905699,-6.8952146690410077],[114.01418666987965,-6.8952147261474295],[114.01418661273688,-6.8952056927398235],[114.01419565191406,-6.8952056356334772],[114.01419559477119,-6.8951966022259423],[114.01418655559418,-6.895196659332214],[114.01418649845158,-6.8951876259245832],[114.01412322421153,-6.8951880256631739],[114.01412316707018,-6.8951789922550448],[114.01411412789291,-6.8951790493597986],[114.01411418503409,-6.8951880827680032],[114.01410514585653,-6.8951881398726638],[114.01410520299763,-6.895197173280974],[114.01407808546406,-6.8951973445941563],[114.0140781426047,-6.8952063780026718],[114.01409622096085,-6.8952062637939031],[114.01409639238427,-6.8952333640189574],[114.01407831402712,-6.8952334782281781],[114.01407825688624,-6.895224444819692],[114.01408729606467,-6.8952243877152419],[114.01408723892369,-6.8952153543068091],[114.0140691605671,-6.8952154685153877],[114.01406921770773,-6.8952245019239715],[114.01406017852912,-6.8952245590280787],[114.01406023566965,-6.8952335924367185],[114.01406927484844,-6.895233535332534],[114.01406933198921,-6.8952425687411276],[114.01408741034685,-6.8952424545320961],[114.01408746748805,-6.8952514879405165],[114.01409650666693,-6.8952514308356703],[114.01409662094991,-6.8952694976523494],[114.01408758177068,-6.8952695547573475],[114.01408746748805,-6.8952514879405165],[114.01406938913007,-6.895251602149699],[114.01406944627101,-6.8952606355582677],[114.01404232873293,-6.8952608068709882],[114.01404250015466,-6.895287907097349],[114.01403346097464,-6.8952879642014748],[114.01403340383416,-6.8952789307926157],[114.01400628629415,-6.895279102103741],[114.01400634343412,-6.8952881355128266],[114.01401538261437,-6.8952880784092132],[114.01401543975459,-6.895297111818218],[114.01402447893494,-6.8952970547143586],[114.01402459321595,-6.8953151215322075],[114.01403363239656,-6.8953150644280266],[114.01403391810128,-6.8953602314722033],[114.01402487891983,-6.8953602885767626],[114.01402505034307,-6.8953873888034485],[114.01403408952504,-6.8953873316986627],[114.01403403238369,-6.8953782982898479],[114.01404307156542,-6.8953782411849662],[114.01404312870692,-6.8953872745937073],[114.01403408952504,-6.8953873316986627],[114.01403420380791,-6.8954053985162824],[114.01404324299014,-6.895405341411176],[114.01404341441557,-6.8954324416373503],[114.01405245359825,-6.8954323845318468],[114.01405233931422,-6.8954143177145522],[114.01406137849648,-6.8954142606090274],[114.0140613213544,-6.8954052272004507],[114.01407939971836,-6.8954051129890424],[114.01407934257603,-6.8953960795805944],[114.0140883817577,-6.89539602247471],[114.01408849604277,-6.8954140892914326],[114.01407945686077,-6.8954141463974681],[114.01407951400324,-6.8954231798058911],[114.01407047482098,-6.8954232369118325],[114.01407070339103,-6.8954593705457876],[114.01407974257397,-6.8954593134395443],[114.01407968543117,-6.8954502800311372],[114.01409776379653,-6.895450165818291],[114.01409782093965,-6.895459199226547],[114.01410686012238,-6.8954591421197931],[114.01410691726576,-6.8954681755279701],[114.01412499563133,-6.8954680613137977],[114.01412510991902,-6.8954861281298383],[114.01417030583332,-6.8954858425906673],[114.01417024868859,-6.8954768091830267],[114.01417928787103,-6.8954767520747566],[114.01417934501593,-6.8954857854823217],[114.0141883841985,-6.8954857283738047],[114.01418821276351,-6.8954586281513235],[114.01419725194546,-6.8954585710428633],[114.01419719480045,-6.8954495376354386],[114.01420623398218,-6.8954494805268816],[114.01420617683706,-6.895440447119511],[114.01421521601853,-6.8954403900108598],[114.01421515887333,-6.8954313566035941]],[[114.01406097850359,-6.8953510267489184],[114.01405193932254,-6.8953510838539147],[114.01405188218118,-6.8953420504452172],[114.01406092136206,-6.8953419933402973],[114.01406097850359,-6.8953510267489184]]]]},"properties":{"FID":0,"Shape_Leng":18102566.929299999,"Shape_Area":236516885.403}}]
}