{
  "type" : "FeatureCollection",
  "features" : [{"type":"Feature","id":0,"geometry":{"type":"MultiPolygon","coordinates":[[[[112.90614118315453,-6.894889532278885],[112.90614114700993,-6.8948804913127804],[112.90613210027564,-6.894880527434224],[112.90613213642007,-6.8948895684003748],[112.90614118315453,-6.894889532278885]]],[[[112.90595112943858,-6.8948722088599785],[112.90595109329769,-6.8948631678928463],[112.90594204656271,-6.8948632040105986],[112.90594208270345,-6.894872244977778],[112.90595112943858,-6.8948722088599785]]],[[[112.90599625468845,-6.8948449053677097],[112.90598720795406,-6.8948449414862214],[112.90598724409556,-6.8948539824531849],[112.90597819736094,-6.8948540185715741],[112.9059782335023,-6.894863059538566],[112.9059601400326,-6.8948631317749252],[112.90596024845597,-6.8948902546761506],[112.90592406151394,-6.8948903991473864],[112.90592413379504,-6.8949084810819308],[112.90594222726686,-6.8949084088464652],[112.90594219112593,-6.8948993678792974],[112.90597837806826,-6.894899223406501],[112.9059783419267,-6.8948901824395055],[112.90599643539724,-6.8948901102021756],[112.90599639925537,-6.8948810692353062],[112.90600544599039,-6.8948810331164321],[112.90600540984842,-6.8948719921495911],[112.90599636311357,-6.8948720282684164],[112.90599625468845,-6.8948449053677097]]],[[[112.90598699110613,-6.8947906956844704],[112.90599603783949,-6.8947906595662465],[112.90599600169817,-6.894781618599322],[112.90596886149847,-6.8947817269533367],[112.90596889763927,-6.8947907679204068],[112.90595080417219,-6.8947908401556575],[112.90595091259389,-6.8948179630571307],[112.90594186585979,-6.8948179991746432],[112.90594190200028,-6.894827040141843],[112.90595094873456,-6.8948270040242816],[112.90595098487526,-6.8948360449914281],[112.90596003160967,-6.8948360088736509],[112.90596010389157,-6.8948540908078364],[112.90596915062629,-6.894854054689791],[112.90596900606198,-6.8948178908215931],[112.90597805279594,-6.8948178547035672],[112.90597812507833,-6.8948359366375778],[112.90598717181261,-6.8948359005192845],[112.90598699110613,-6.8947906956844704]]],[[[112.90618580236003,-6.8947356552483985],[112.90618573007082,-6.8947175733165071],[112.90617668333987,-6.8947176094379437],[112.90617675562874,-6.89473569136993],[112.90618580236003,-6.8947356552483985]]],[[[112.90618562163738,-6.8946904504186435],[112.90618558549298,-6.8946814094526649],[112.90616749203237,-6.8946814816949864],[112.9061675281764,-6.89469052266106],[112.90618562163738,-6.8946904504186435]]],[[[112.90590455861297,-6.894537873652121],[112.90588646515482,-6.8945379458822993],[112.90588653743079,-6.8945560278174876],[112.90585939724218,-6.8945561361617589],[112.90585946951731,-6.8945742180972198],[112.90587756297712,-6.8945741458676864],[112.9058775991151,-6.894583186835316],[112.90586855238506,-6.8945832229502164],[112.90586858852291,-6.8945922639179082],[112.90585954179262,-6.8945923000326834],[112.90585961406815,-6.8946103819681017],[112.90586866079877,-6.8946103458532288],[112.90586862466083,-6.8946013048855628],[112.90587767139121,-6.8946012687705673],[112.90587763525313,-6.8945922278029608],[112.90589572871343,-6.8945921555725524],[112.90589576485185,-6.8946011965400613],[112.90591385831227,-6.8946011243088714],[112.90591393058995,-6.8946192062437266],[112.90593202405088,-6.8946191340116609],[112.90593209632944,-6.8946372159462905],[112.90594114306019,-6.8946371798299051],[112.90594117919971,-6.8946462207971919],[112.90595022593057,-6.894646184680588],[112.90595011751164,-6.8946190617789114],[112.90597725770239,-6.8946189534285018],[112.90597722156232,-6.8946099124614104],[112.90598626829234,-6.8946098763443144],[112.90598619601202,-6.8945917944102355],[112.90597714928236,-6.8945918305272373],[112.90597707700259,-6.8945737485930154],[112.90596803027326,-6.8945737847097499],[112.90596795799402,-6.8945557027754356],[112.905977004723,-6.8945556666587953],[112.90597696858329,-6.8945466256916799],[112.90595887512556,-6.8945466979246932],[112.90595891126495,-6.8945557388919054],[112.90594081780671,-6.8945558111243264],[112.90594089008492,-6.8945738930589302],[112.90593184335538,-6.894573929174979],[112.90593173493865,-6.8945468062729267],[112.90590459475128,-6.8945469146196228],[112.90590455861297,-6.894537873652121]],[[112.90590470316647,-6.894574037522105],[112.90592279662579,-6.8945739652908582],[112.90592286890352,-6.8945920472256539],[112.9059047754435,-6.8945921194570898],[112.90590470316647,-6.894574037522105]],[[112.90595000909316,-6.8945919388772161],[112.90595905582293,-6.8945919027607276],[112.90595909196256,-6.8946009437279026],[112.9059500452326,-6.8946009798444408],[112.90595000909316,-6.8945919388772161]]],[[[112.9059494308686,-6.8944472834008605],[112.90594939472999,-6.8944382424335586],[112.90594034800306,-6.894438278549063],[112.90594038414152,-6.8944473195164147],[112.9059494308686,-6.8944472834008605]]],[[[112.90591309940848,-6.8944112639920494],[112.90588595922853,-6.8944113723355658],[112.90588610377793,-6.8944475362061324],[112.90591324395993,-6.8944474278620431],[112.90591327056194,-6.8944540831304257],[112.90591328009791,-6.8944564688295324],[112.90589518664297,-6.894456541059192],[112.90589525891839,-6.8944746229943341],[112.9058862121905,-6.8944746591090027],[112.90588628446578,-6.8944927410442602],[112.90589533119402,-6.8944927049294957],[112.90589540346984,-6.8945107868646254],[112.90588635674125,-6.8945108229794867],[112.90588639287907,-6.8945198639470942],[112.90592257979378,-6.8945197194864365],[112.90592254365529,-6.8945106785190191],[112.90591349692684,-6.8945107146343929],[112.90591346078857,-6.8945016736669249],[112.90590441406027,-6.8945017097820802],[112.90590437792221,-6.8944926688145607],[112.90592247137845,-6.8944925965841755],[112.90592231728932,-6.8944540470153513],[112.90592225454907,-6.8944383507795592],[112.905913207822,-6.8944383868945502],[112.90591309940848,-6.8944112639920494]]],[[[112.90591299099539,-6.8943841410895343],[112.90591291872025,-6.8943660591544766],[112.9059038719945,-6.8943660952689143],[112.90590394426931,-6.894384177204067],[112.90591299099539,-6.8943841410895343]]],[[[112.90594906948456,-6.8943568737276806],[112.9059400227592,-6.8943569098427568],[112.9059400588972,-6.8943659508101378],[112.90593101217159,-6.8943659869250888],[112.90593104830948,-6.8943750278925151],[112.90594009503526,-6.8943749917775161],[112.90594031186467,-6.8944292375817273],[112.9059493585914,-6.89442920146627],[112.90594928631441,-6.8944111195316324],[112.90595833304076,-6.8944110834161005],[112.90595815234825,-6.8943658785797224],[112.90594910562275,-6.8943659146950154],[112.90594906948456,-6.8943568737276806]]],[[[112.90586761281781,-6.8943481577894197],[112.90584951936647,-6.8943482300162211],[112.90584955550271,-6.8943572709840835],[112.90583146205083,-6.8943573432102951],[112.90583142591493,-6.8943483022423377],[112.90582237918909,-6.8943483383551376],[112.90582245146062,-6.8943664202911483],[112.90585863836505,-6.894366275838534],[112.90585867450157,-6.8943753168063422],[112.90586772122774,-6.8943752806927128],[112.90586761281781,-6.8943481577894197]]],[[[112.90008660113972,-6.8943350354216024],[112.90007755438378,-6.8943350714255178],[112.90007762643739,-6.8943531534221858],[112.90005953292471,-6.8943532254296942],[112.90005960497783,-6.894371307426522],[112.9000867452478,-6.894371199414719],[112.90008670922072,-6.8943621584164481],[112.90009575597711,-6.89436212241222],[112.90009571994987,-6.8943530814139953],[112.90010476670604,-6.894353045409642],[112.90010473067871,-6.8943440044114608],[112.90008663716667,-6.8943440764198991],[112.90008660113972,-6.8943350354216024]]],[[[112.90593079534527,-6.894311741120438],[112.90593075920772,-6.8943027001530037],[112.90592171248328,-6.8943027362674494],[112.90592174862066,-6.8943117772349316],[112.90593079534527,-6.894311741120438]]],[[[112.90024035995319,-6.8943253823314006],[112.90024032392341,-6.8943163413339246],[112.90024937067814,-6.8943163053270222],[112.90024933464825,-6.8943072643295897],[112.90023124113912,-6.8943073363431244],[112.90023131319826,-6.8943254183381777],[112.90024035995319,-6.8943253823314006]]],[[[112.9006564385524,-6.8943056438440324],[112.90065640251487,-6.8942966028487396],[112.90064735576269,-6.8942966388632483],[112.90064739180006,-6.8943056798585873],[112.9006564385524,-6.8943056438440324]]],[[[112.90070163627509,-6.894296422773631],[112.90070167231349,-6.894305463768684],[112.90071071906559,-6.8943054277531015],[112.900710683027,-6.8942963867580955],[112.90070163627509,-6.894296422773631]]],[[[112.90593072307021,-6.894293659185549],[112.90593065079536,-6.8942755772506281],[112.90592160407142,-6.894275613364929],[112.90592167634594,-6.8942936952999458],[112.90593072307021,-6.894293659185549]]],[[[112.90589439162603,-6.8942576397714905],[112.90588534490223,-6.8942576758850116],[112.90588552558498,-6.8943028807235187],[112.90586743213557,-6.8943029529505253],[112.90586757668126,-6.8943391168216488],[112.90587662340668,-6.8943390807080389],[112.90587676795384,-6.8943752445789119],[112.90588581467989,-6.8943752084649406],[112.90588585081699,-6.8943842494326191],[112.90587680409077,-6.8943842855466384],[112.90587684022772,-6.8943933265143267],[112.90589493368049,-6.8943932542860216],[112.90589471685739,-6.8943390084803058],[112.90590376358266,-6.8943389723661825],[112.90590379971989,-6.8943480133337633],[112.90592189317066,-6.8943479411049093],[112.90592185703309,-6.8943389001374236],[112.9059128103079,-6.8943389362518896],[112.90591270189597,-6.8943118133492529],[112.90590365517127,-6.8943118494634037],[112.90590358289724,-6.8942937675282279],[112.90589453617281,-6.8942938036421104],[112.90589439162603,-6.8942576397714905]],[[112.90587651499682,-6.8943119578048284],[112.9058946084465,-6.8943118855773839],[112.90589464458343,-6.8943209265450394],[112.90587655113339,-6.8943209987725806],[112.90587651499682,-6.8943119578048284]]],[[[112.90592153179711,-6.8942575314298988],[112.90592156793423,-6.8942665723973988],[112.90593061465799,-6.894266536283145],[112.90593057852068,-6.8942574953156948],[112.90592153179711,-6.8942575314298988]]],[[[112.90024922655887,-6.8942801413372674],[112.90024919052917,-6.8942711003398198],[112.90024014377531,-6.8942711363464824],[112.90024017980483,-6.8942801773439788],[112.90024922655887,-6.8942801413372674]]],[[[112.90047539539376,-6.8942792411138818],[112.90047535935977,-6.8942702001176253],[112.90046631260714,-6.894270236128567],[112.90046634864095,-6.8942792771248707],[112.90047539539376,-6.8942792411138818]]],[[[112.90071064698847,-6.8942873457630691],[112.90071057491156,-6.8942692637730554],[112.90067438790571,-6.8942694078335975],[112.90067449601909,-6.8942965308192088],[112.90066544926702,-6.8942965668340612],[112.90066548530474,-6.8943056078293043],[112.90068357880919,-6.8943055357993366],[112.90068372296194,-6.8943416997798961],[112.90069276971482,-6.8943416637644654],[112.90069258952315,-6.894296458788995],[112.90070163627509,-6.894296422773631],[112.90070160023673,-6.8942873817785566],[112.90071064698847,-6.8942873457630691]]],[[[112.90027629476026,-6.8942619513214973],[112.90027625873016,-6.8942529103241856],[112.90026721197678,-6.8942529463312656],[112.90026724800673,-6.8942619873286253],[112.90027629476026,-6.8942619513214973]]],[[[112.90061098857069,-6.8942515779418629],[112.9005928950675,-6.8942516499685205],[112.9005929311036,-6.8942606909641651],[112.90055674409592,-6.8942608350156158],[112.90055681616693,-6.8942789170072736],[112.90060204992811,-6.8942787369420557],[112.900602122001,-6.8942968189332214],[112.90063830901043,-6.8942966748775856],[112.90063816486209,-6.8942605108960002],[112.90061102460713,-6.8942606189374116],[112.90061098857069,-6.8942515779418629]]],[[[112.90052052105275,-6.8942519380683009],[112.90052048501805,-6.8942428970722904],[112.90050239151424,-6.894242969095429],[112.90050242754859,-6.8942520100915354],[112.90052052105275,-6.8942519380683009]]],[[[112.90587615363377,-6.8942215481273168],[112.90586710691058,-6.8942215842403058],[112.90586717918245,-6.8942396661759222],[112.90587622590598,-6.894239630062839],[112.90587615363377,-6.8942215481273168]]],[[[112.90588520035691,-6.8942215120141581],[112.90588516422071,-6.8942124710464157],[112.90587611749773,-6.8942125071595264],[112.90587615363377,-6.8942215481273168],[112.90588520035691,-6.8942215120141581]]],[[[112.90592153179711,-6.8942575314298988],[112.90592145952297,-6.8942394494948536],[112.90591241279965,-6.894239485608793],[112.90591230438935,-6.894212362706055],[112.90589421094364,-6.8942124349331326],[112.90589424708003,-6.894221475900828],[112.90588520035691,-6.8942215120141581],[112.90588523649318,-6.8942305529818659],[112.90590332993966,-6.8942304807549384],[112.90590343834977,-6.8942576036577972],[112.90592153179711,-6.8942575314298988]]],[[[112.90015854284925,-6.894226255409067],[112.90014949609576,-6.8942262914137791],[112.90014960417861,-6.8942534144077392],[112.90015865093262,-6.8942533784028841],[112.9001586149048,-6.894244337404964],[112.90016766165854,-6.8942443013999863],[112.90016762563059,-6.8942352604020778],[112.900158578877,-6.8942352964070084],[112.90015854284925,-6.894226255409067]]],[[[112.90028526945322,-6.894243833319682],[112.90028523342303,-6.8942347923223943],[112.90029428017598,-6.8942347563150665],[112.90029424414567,-6.8942257153178383],[112.9002761506401,-6.8942257873322275],[112.90027618667007,-6.8942348283295507],[112.90026713991703,-6.8942348643365357],[112.90026717594688,-6.8942439053339193],[112.90028526945322,-6.894243833319682]]],[[[112.9003485967239,-6.89424358126446],[112.90034852466118,-6.8942254992705632],[112.90033043115621,-6.8942255712870075],[112.90033050321823,-6.8942436532810936],[112.9003485967239,-6.89424358126446]]],[[[112.90047521522433,-6.8942340361325654],[112.90047517919059,-6.8942249951362911],[112.90046613243882,-6.8942250311469948],[112.90046616847239,-6.8942340721433171],[112.90047521522433,-6.8942340361325654]]],[[[112.89966998207359,-6.8942191584180756],[112.89966093531764,-6.8942191944134974],[112.89966097133592,-6.8942282354140643],[112.89965192457979,-6.8942282714093626],[112.89965196059794,-6.8942373124099738],[112.89967910086672,-6.8942372044234226],[112.89967906484806,-6.8942281634229543],[112.89967001809202,-6.8942281994185945],[112.89966998207359,-6.8942191584180756]]],[[[112.90038471167057,-6.8942253552356236],[112.90036661816598,-6.8942254272534358],[112.90036658213434,-6.8942163862565859],[112.90035753538213,-6.8942164222651874],[112.9003576074451,-6.8942345042589785],[112.90038474770259,-6.894234396232374],[112.90038471167057,-6.8942253552356236]]],[[[112.90032120425025,-6.8941804023094955],[112.90032124028083,-6.8941894433065976],[112.90035742728803,-6.8941892992744744],[112.90035739125676,-6.8941802582775624],[112.90032120425025,-6.8941804023094955]]],[[[112.90586685396052,-6.8941582974654585],[112.905866817825,-6.8941492564976112],[112.9058577711031,-6.8941492926100469],[112.90585780723846,-6.8941583335779413],[112.90586685396052,-6.8941582974654585]]],[[[112.90032120425025,-6.8941804023094955],[112.90032115072474,-6.8941669713686977],[112.90030305907648,-6.8941675088016767],[112.90030311074668,-6.8941804743244344],[112.90032120425025,-6.8941804023094955]]],[[[112.90014008907089,-6.8941359174377475],[112.90014005304403,-6.8941268764396524],[112.90013100629234,-6.8941269124434976],[112.90013104231903,-6.8941359534416407],[112.90014008907089,-6.8941359174377475]]],[[[112.90584857984094,-6.8941131648505012],[112.905848543706,-6.8941041238825234],[112.90583949698485,-6.8941041599943782],[112.90583953311963,-6.8941132009624022],[112.90584857984094,-6.8941131648505012]]],[[[112.90588473058997,-6.8941039794334005],[112.90588465831887,-6.8940858974978667],[112.90587561159829,-6.8940859336103086],[112.90587568386904,-6.8941040155459374],[112.90588473058997,-6.8941039794334005]]],[[[112.89935287743005,-6.8941028851272312],[112.89935291344186,-6.8941119261294652],[112.89936196019738,-6.8941118901404339],[112.89936192418538,-6.8941028491382488],[112.89935287743005,-6.8941028851272312]]],[[[112.90585755429198,-6.8940950468025992],[112.90585744588708,-6.8940679238988292],[112.9058483991667,-6.8940679600106627],[112.90584850757109,-6.8940950829145757],[112.90585755429198,-6.8940950468025992]]],[[[112.90017499300947,-6.8940724905378685],[112.9001727120001,-6.8940667579998891],[112.90017178258805,-6.8940634621733965],[112.90015789435816,-6.8940635174454901],[112.90015793038502,-6.8940725584434972],[112.90017499300947,-6.8940724905378685]]],[[[112.90419277631278,-6.8940564836409015],[112.90419274020952,-6.8940474426641725],[112.90418369348073,-6.8940474787443691],[112.90418372958382,-6.8940565197211452],[112.90419277631278,-6.8940564836409015]]],[[[112.90067355905087,-6.8940614649428316],[112.90067352301428,-6.8940524239475387],[112.90066447626683,-6.8940524599611015],[112.90066451230324,-6.8940615009564432],[112.90067355905087,-6.8940614649428316]]],[[[112.90075494373934,-6.8940520998177623],[112.90075490770127,-6.8940430588228949],[112.90074586095439,-6.8940430948379507],[112.90074589699229,-6.894052135832867],[112.90075494373934,-6.8940520998177623]]],[[[112.90084537516719,-6.8940426986629166],[112.90084533912746,-6.8940336576685386],[112.90083629238126,-6.894033693685258],[112.90083632842082,-6.894042734679684],[112.90084537516719,-6.8940426986629166]]],[[[112.90586627579791,-6.8940136419794866],[112.90584818235924,-6.8940137142027504],[112.9058482546282,-6.894031796138723],[112.90583920790844,-6.8940318322501941],[112.9058391717741,-6.8940227912821532],[112.90583012505448,-6.894022827393405],[112.90583008892037,-6.8940137864253295],[112.90580294876172,-6.894013894757915],[112.90580309329641,-6.8940500586308184],[112.90581214001668,-6.8940500225199379],[112.90581217615066,-6.8940590634880943],[112.90580312943021,-6.8940590995990236],[112.90580320169795,-6.8940771815354731],[112.90581224841873,-6.8940771454244478],[112.90581228455284,-6.8940861863926104],[112.90582133127377,-6.8940861502813675],[112.90582136740811,-6.8940951912494794],[112.90583041412914,-6.8940951551380172],[112.90583034186018,-6.8940770732018839],[112.90582129513949,-6.8940771093132529],[112.90582125900526,-6.894068068345133],[112.90583030572577,-6.8940680322338128],[112.90583023345711,-6.8940499502976609],[112.90585737361739,-6.8940498419629623],[112.90585733748262,-6.8940408009950236],[112.90586638420244,-6.8940407648831634],[112.90586627579791,-6.8940136419794866]]],[[[112.90582096993313,-6.8939957406000536],[112.90582093379933,-6.8939866996319026],[112.9058028403612,-6.8939867718531671],[112.90580287649466,-6.8939958128214158],[112.90582096993313,-6.8939957406000536]]],[[[112.90589330754989,-6.8939864107399957],[112.90589327141477,-6.8939773697722231],[112.90588422469627,-6.8939774058842627],[112.90588426083123,-6.8939864468520824],[112.90589330754989,-6.8939864107399957]]],[[[112.900710683027,-6.8942963867580955],[112.90072877653064,-6.8942963147265113],[112.90072874049177,-6.8942872737315799],[112.90075588074639,-6.8942871656830631],[112.90075591678577,-6.8942962066778515],[112.90077401028893,-6.8942961346445548],[112.90077404632871,-6.8943051756392277],[112.90078309308039,-6.8943051396222739],[112.9007831291204,-6.8943141806168953],[112.9007921758722,-6.8943141445997247],[112.90079221191242,-6.8943231855942946],[112.90080125866436,-6.8943231495769046],[112.90080115054333,-6.8942960265933273],[112.9008101972947,-6.8942959905759089],[112.90081016125428,-6.8942869495814056],[112.90081920800542,-6.8942869135638665],[112.90081917196488,-6.8942778725694405],[112.90081012521392,-6.8942779085869343],[112.90080983689275,-6.8942055806308939],[112.90081888364234,-6.894205544613782],[112.90081873948222,-6.8941693806358675],[112.9008277862311,-6.8941693446187733],[112.90082771415099,-6.8941512626298884],[112.90083676089948,-6.8941512266127196],[112.90083679693967,-6.8941602676071154],[112.90084584368826,-6.8941602315897281],[112.9008458076479,-6.8941511905953812],[112.9008548543963,-6.8941511545778686],[112.9008548183558,-6.8941421135835643],[112.90078244436874,-6.8941424017184811],[112.90078240832966,-6.8941333607237905],[112.90076431483274,-6.894133432755714],[112.90076420671683,-6.8941063097713382],[112.90075515996882,-6.8941063457868985],[112.90075508789214,-6.894088263797201],[112.9007641346398,-6.8940882277817348],[112.90076409860136,-6.8940791867869127],[112.90070077136785,-6.8940794388912456],[112.9007008074051,-6.8940884798864026],[112.90066144694309,-6.894088636575515],[112.90064652691632,-6.8940886959694412],[112.90064638277174,-6.8940525319877155],[112.90063733602412,-6.8940525680007658],[112.90063726395245,-6.8940344860098026],[112.90065535744695,-6.8940344139837215],[112.90065532141085,-6.8940253729883052],[112.90066119468861,-6.8940253496080066],[112.90066436815788,-6.894025336975055],[112.90066440419415,-6.8940343779704243],[112.90070059118234,-6.8940342339155247],[112.90070039692026,-6.8939854970634249],[112.90066676300023,-6.8940172119998833],[112.9006611639804,-6.8940176453277013],[112.90061007191728,-6.8940215995190268],[112.90061008767512,-6.8940255530519838],[112.90060104092782,-6.8940255890642055],[112.90060102781638,-6.894022299472689],[112.90055621754252,-6.8940257674893131],[112.90058294743309,-6.8940256610881372],[112.90058298346781,-6.8940347020839363],[112.90059203021538,-6.8940346660720087],[112.90059213832038,-6.8940617890591707],[112.90058309157229,-6.8940618250712422],[112.90058312760722,-6.8940708660670094],[112.90057408085893,-6.8940709020789566],[112.90057411689372,-6.8940799430747504],[112.90055602339665,-6.8940800150982273],[112.90055605943114,-6.8940890560941464],[112.90051987243572,-6.894089200139236],[112.90051972830072,-6.8940530361548404],[112.9005016348041,-6.8940531081759762],[112.90050159877083,-6.8940440671797729],[112.90049255202258,-6.894044103190037],[112.9004925092998,-6.8940333836790026],[112.90047193200019,-6.8940369479999655],[112.90039032800019,-6.8941091189999426],[112.90035014700015,-6.8941661099999667],[112.90034828819671,-6.8941661652179853],[112.90034830847416,-6.8941712532888388],[112.9003664019769,-6.8941711812722835],[112.90036643800829,-6.8941802222691511],[112.90038453151118,-6.8941801502518159],[112.90038456754296,-6.894189191248584],[112.90036647403973,-6.8941892632660151],[112.90036651007121,-6.8941983042628925],[112.90037555682301,-6.8941982682542156],[112.90037559285473,-6.8942073092510068],[112.90036654610275,-6.8942073452597317],[112.90036658213434,-6.8942163862565859],[112.90038467563859,-6.8942163142388688],[112.90038471167057,-6.8942253552356236],[112.90039375842278,-6.8942253192264609],[112.90039379445498,-6.8942343602231642],[112.90040284120731,-6.894234324213782],[112.90040287723974,-6.8942433652104507],[112.90041192399221,-6.89424332920085],[112.90041196002485,-6.8942523701974334],[112.90042100677742,-6.8942523341876134],[112.90042104281029,-6.894261375184163],[112.90043008956299,-6.8942613391741254],[112.90042983733282,-6.8941980521985542],[112.90043888408431,-6.8941980161886773],[112.90043884805145,-6.8941889751921828],[112.90042980130013,-6.8941890112020108],[112.9004297652675,-6.8941799702054807],[112.90042071851633,-6.8941800062150893],[112.90042068248391,-6.8941709652185077],[112.90048400973991,-6.8941707131479815],[112.90048404577354,-6.89417975414423],[112.90051118602589,-6.8941796461112936],[112.90051122206008,-6.8941886871073947],[112.90052026881092,-6.8941886510960266],[112.90052030484532,-6.8941976920920931],[112.90052935159632,-6.8941976560805056],[112.90052931556176,-6.8941886150844862],[112.9005383623125,-6.8941885790727753],[112.90053832627781,-6.8941795380768172],[112.90055641977885,-6.894179466052976],[112.90055645581388,-6.89418850704884],[112.9005655025645,-6.8941884710366157],[112.90056553859976,-6.8941975120324441],[112.90060172560244,-6.8941973679816426],[112.90060176163843,-6.8942064089772428],[112.90062890189046,-6.8942063009372028],[112.90062886585395,-6.8941972599417447],[112.90065600610501,-6.8941971519003058],[112.90065604214202,-6.8942061928956209],[112.90066191542199,-6.8942061695147059],[112.90066508889247,-6.8942061568814186],[112.9006651249297,-6.894215197876699],[112.90069226518121,-6.8942150898329206],[112.90069230121901,-6.8942241308280545],[112.90070134796957,-6.8942240948130715],[112.90070142004566,-6.8942421768032496],[112.90071046679654,-6.8942421407880001],[112.90071053887317,-6.8942602227780343],[112.90071958562433,-6.8942601867625193],[112.90071962166289,-6.8942692277574915],[112.90072866841416,-6.8942691917417571],[112.90072870445294,-6.8942782327366787],[112.90071965770149,-6.8942782687524611],[112.90071969374014,-6.8942873097474102],[112.90071064698847,-6.8942873457630691],[112.900710683027,-6.8942963867580955]],[[112.90072859633676,-6.8942511097519033],[112.90071954958582,-6.8942511457675426],[112.90071951354736,-6.8942421047725793],[112.90072856029813,-6.8942420687569888],[112.90072859633676,-6.8942511097519033]]],[[[112.90080897194778,-6.8939885967614085],[112.90079992520224,-6.8939886327772051],[112.90079988916364,-6.8939795917825339],[112.90079084241822,-6.893979627798112],[112.90079087845663,-6.893988668792832],[112.90078183171102,-6.8939887048082875],[112.90078186774932,-6.8939977458030173],[112.90077282100343,-6.8939977818183493],[112.90077285704162,-6.8940068228131395],[112.90079999727959,-6.8940067147664887],[112.90079996124089,-6.8939976737718407],[112.9008090079866,-6.8939976377559953],[112.90080897194778,-6.8939885967614085]]],[[[112.90080897194778,-6.8939885967614085],[112.90081801869327,-6.8939885607454396],[112.90081798265433,-6.8939795197508627],[112.90080893590901,-6.8939795557667845],[112.90080897194778,-6.8939885967614085]]],[[[112.90581174254626,-6.8939505718697891],[112.90580269582787,-6.8939506079801456],[112.90580273196113,-6.8939596489484067],[112.90581177867969,-6.8939596128380023],[112.90581174254626,-6.8939505718697891]]],[[[112.90587510570835,-6.8939593600603839],[112.90587506957371,-6.8939503190925056],[112.90586602285568,-6.8939503552040602],[112.90586605899013,-6.8939593961719865],[112.90587510570835,-6.8939593600603839]]],[[[112.90072744312459,-6.8939617979122847],[112.9007274359611,-6.8939600007313144],[112.90072552192721,-6.8939618055603775],[112.90072744312459,-6.8939617979122847]]],[[[112.90581174254626,-6.8939505718697891],[112.90582078926462,-6.8939505357592621],[112.90582071699757,-6.893932453822921],[112.90581167027955,-6.8939324899333512],[112.90581174254626,-6.8939505718697891]]],[[[112.9058478571513,-6.8939323454905992],[112.90582976371552,-6.8939324177123185],[112.9058297998492,-6.8939414586804419],[112.90584789328533,-6.8939413864586294],[112.9058478571513,-6.8939323454905992]]],[[[112.90585690386911,-6.8939323093794833],[112.9058569400033,-6.8939413503474656],[112.90586598672125,-6.8939413142361294],[112.90586595058689,-6.893932273268196],[112.90585690386911,-6.8939323093794833]]],[[[112.90585690386911,-6.8939323093794833],[112.90585686773497,-6.8939232684114993],[112.90584782101733,-6.8939233045225663],[112.9058478571513,-6.8939323454905992],[112.90585690386911,-6.8939323093794833]]],[[[112.90081798265433,-6.8939795197508627],[112.90084512289,-6.8939794117020732],[112.90084508685059,-6.8939703707076525],[112.9008360401056,-6.8939704067240388],[112.90083589594916,-6.8939342427461305],[112.90082684920479,-6.8939342787621554],[112.90082681316598,-6.893925237767621],[112.9008449066543,-6.8939251657354959],[112.90084487061519,-6.893916124741037],[112.90081773038311,-6.8939162327888255],[112.90081769434457,-6.8939071917942529],[112.90079960085662,-6.8939072638251604],[112.90079963689483,-6.893916304819828],[112.90079059015059,-6.893916340835073],[112.90079062618868,-6.8939253818298187],[112.90078157944424,-6.8939254178449403],[112.90078161548222,-6.8939344588397136],[112.90081780246035,-6.8939343147780088],[112.90081787453781,-6.893952396767161],[112.900808827793,-6.8939524327829389],[112.90080889987028,-6.8939705147721719],[112.90081794661543,-6.8939704787563008],[112.90081798265433,-6.8939795197508627]]],[[[112.90081769434457,-6.8939071917942529],[112.90082674108847,-6.8939071557785425],[112.90082666901117,-6.8938890737894498],[112.9008176222676,-6.8938891098050643],[112.90081758622918,-6.893880068810466],[112.90082663297258,-6.8938800327948977],[112.90082656089558,-6.8938619508057828],[112.90083560763858,-6.893861914790139],[112.90083557159997,-6.8938528737956242],[112.90084461834275,-6.8938528377798569],[112.90084454626533,-6.8938347557909125],[112.90083549952291,-6.893834791806583],[112.90083539140768,-6.893807668822995],[112.90082634466572,-6.893807704838351],[112.90082627258947,-6.8937896228491802],[112.90084436607268,-6.8937895508184841],[112.90084425795766,-6.8937624278349867],[112.90081885610253,-6.8937625289599378],[112.90081713175506,-6.8937660533461269],[112.90081726188571,-6.8937986998589063],[112.90080112763766,-6.8937987640890288],[112.90076044800004,-6.8938819089999015],[112.90073833442587,-6.8939346311396035],[112.90077256873754,-6.8939344948547099],[112.900772496662,-6.8939164128650487],[112.90079059015059,-6.893916340835073],[112.90079055411255,-6.8939072998403574],[112.90079960085662,-6.8939072638251604],[112.90079952878034,-6.8938891818357817],[112.900808575524,-6.8938891458205092],[112.90080861156228,-6.8938981868151519],[112.90081765830605,-6.8938981507996608],[112.90081769434457,-6.8939071917942529]]],[[[112.90086238747828,-6.8937713967982992],[112.90086235143964,-6.893762355803891],[112.90085330469867,-6.8937623918195241],[112.90085334073714,-6.8937714328139794],[112.90086238747828,-6.8937713967982992]]],[[[112.90328684019022,-6.8937436564631271],[112.90328680410579,-6.8937346154814962],[112.90327775737815,-6.8937346515429034],[112.90327779346242,-6.8937436925245814],[112.90328684019022,-6.8937436564631271]]],[[[112.90332302710102,-6.8937435122155941],[112.90332299101593,-6.8937344712341533],[112.90331394428844,-6.8937345072962453],[112.9033139803734,-6.8937435482777323],[112.90332302710102,-6.8937435122155941]]],[[[112.90277334760526,-6.8937004974008902],[112.90278004298388,-6.893700470719482],[112.90278002963956,-6.8936971263785392],[112.90277333808574,-6.8936981116185034],[112.90275668329589,-6.8937005638085598],[112.90277334760526,-6.8937004974008902]]],[[[112.90308759568369,-6.8936902038794736],[112.90310568913927,-6.8936901317641528],[112.90310565305855,-6.8936810907815467],[112.9031146997861,-6.8936810547236762],[112.90311466370525,-6.8936720137411136],[112.90312371043257,-6.8936719776831215],[112.9031236743516,-6.8936629367006041],[112.90316890798664,-6.8936627564083111],[112.90316887190487,-6.8936537154260096],[112.90319601208478,-6.8936536072487238],[112.90319597600254,-6.8936445662665964],[112.90322311618151,-6.8936444580879135],[112.9032230800988,-6.8936354171059087],[112.90323212682488,-6.8936353810460531],[112.90323209074204,-6.8936263400640927],[112.90324113746787,-6.8936263040041137],[112.90324110138492,-6.8936172630221995],[112.90325014811054,-6.8936172269620952],[112.90325007594444,-6.8935991449983502],[112.90325912266968,-6.8935991089381705],[112.90325901624557,-6.8935724433130812],[112.90323954900009,-6.8935790589998875],[112.90313515000025,-6.8936145369999613],[112.90303449400028,-6.8936487429999627],[112.90297781000004,-6.8936680059998778],[112.90297761900013,-6.8936680339999761],[112.90285236212934,-6.8936864764007799],[112.9028523807436,-6.8936911413163422],[112.90286142747269,-6.8936911052632173],[112.90286146354882,-6.8937001462470926],[112.90287051027801,-6.8937001101937501],[112.90287061850725,-6.8937272331452757],[112.9028796652369,-6.8937271970916179],[112.90287970131358,-6.8937362380753999],[112.9028977947731,-6.893736165967475],[112.90289783085016,-6.8937452069511576],[112.90290687758004,-6.8937451708968913],[112.90290691365733,-6.8937542118805224],[112.90292500711723,-6.8937541397713797],[112.90292504319491,-6.8937631807549131],[112.90294313665497,-6.8937631086449898],[112.90294317273305,-6.8937721496284405],[112.90296126619326,-6.8937720775177365],[112.90296133835024,-6.8937901594843849],[112.90297038508059,-6.8937901234286816],[112.9029703490019,-6.8937810824453987],[112.90297939573207,-6.893781046389571],[112.90297935965327,-6.8937720054063494],[112.90297031292327,-6.8937720414621291],[112.90297020468766,-6.8937449185122306],[112.90299734487593,-6.8937448103448098],[112.90299730879698,-6.8937357693616521],[112.90300635552612,-6.8937357333055491],[112.90300639160525,-6.8937447742886588],[112.90301543833452,-6.89374473823234],[112.90301536617598,-6.8937266562662121],[112.90303345963369,-6.8937265841532476],[112.90303353179293,-6.8937446661191837],[112.90305162525114,-6.8937445940053435],[112.90305166133118,-6.8937536349882116],[112.90306070806038,-6.8937535989309877],[112.90306067198016,-6.8937445579481684],[112.90307876543808,-6.8937444858332997],[112.90307872935759,-6.8937354448505719],[112.90308777608629,-6.8937354087929306],[112.90308770392511,-6.8937173268275584],[112.90313293756624,-6.8937171465372566],[112.90313290148487,-6.8937081055548042],[112.90310576130085,-6.8937082137293553],[112.90310572522003,-6.8936991727467385],[112.90308763176411,-6.8936992448621544],[112.90308759568369,-6.8936902038794736]]],[[[112.90326806114504,-6.8935719499324595],[112.90326805086039,-6.8935693730180132],[112.90326037794433,-6.8935719805576756],[112.90326806114504,-6.8935719499324595]]],[[[112.90336746685813,-6.8935444303150755],[112.90334937341085,-6.8935445024387967],[112.90334944558012,-6.8935625844015362],[112.90335849230412,-6.8935625483396663],[112.90335845621929,-6.8935535073583454],[112.90336750294308,-6.893553471296352],[112.90336746685813,-6.8935444303150755]]],[[[112.90346694472792,-6.8935349926416221],[112.90343980455904,-6.8935351008324499],[112.90343987673165,-6.8935531827942427],[112.90344892345499,-6.8935531467307092],[112.90344895954154,-6.8935621877115523],[112.90345800626501,-6.8935621516477994],[112.90345807843859,-6.893580233609379],[112.90346712516238,-6.8935801975453606],[112.90346694472792,-6.8935349926416221]]],[[[112.90332223323956,-6.8935446106230929],[112.9033221971555,-6.8935355696415748],[112.90333124387914,-6.8935355335803603],[112.90333120779495,-6.8935264925988866],[112.9033144193026,-6.8935265595193993],[112.9033131815772,-6.8935434093238435],[112.90331318651569,-6.893544646684183],[112.90332223323956,-6.8935446106230929]]],[[[112.90336746685813,-6.8935444303150755],[112.9033855603052,-6.8935443581906704],[112.90338548813473,-6.8935262762282985],[112.90337644141158,-6.8935263122904908],[112.90337647749661,-6.8935353532717265],[112.90336743077322,-6.8935353893337954],[112.90336746685813,-6.8935444303150755]]],[[[112.90341270047549,-6.8935442500027797],[112.90341266438972,-6.8935352090217377],[112.90343075783596,-6.8935351368957178],[112.9034307217499,-6.8935260959147682],[112.90339453485788,-6.8935262401659338],[112.90339460702869,-6.8935443221282116],[112.90341270047549,-6.8935442500027797]]],[[[112.90332208890364,-6.8935084466969965],[112.90332205281977,-6.8934994057154633],[112.90331641227098,-6.8934994281990933],[112.90331574794817,-6.8935084719725257],[112.90332208890364,-6.8935084466969965]]],[[[112.90338527162451,-6.8934720303410941],[112.90338530770944,-6.893481071322304],[112.90339435443173,-6.8934810352601783],[112.90339439051685,-6.8934900762413198],[112.90340343723925,-6.8934900401789765],[112.90340340115394,-6.893480999197882],[112.90341244787614,-6.8934809631354153],[112.90341241179071,-6.8934719221543492],[112.90338527162451,-6.8934720303410941]]],[[[112.90338527162451,-6.8934720303410941],[112.90338523553966,-6.8934629893598816],[112.90336714209568,-6.8934630614834278],[112.9033671781802,-6.8934721024647354],[112.90338527162451,-6.8934720303410941]]],[[[112.9033218002341,-6.8934361188446323],[112.90332106253128,-6.893436121785145],[112.90331840523955,-6.8934722968788131],[112.90332194456848,-6.8934722827708432],[112.90332190848481,-6.8934632417892958],[112.90333095520707,-6.8934632057284633],[112.9033309912909,-6.8934722467099654],[112.90334003801328,-6.8934722106489135],[112.90333996584532,-6.8934541286860052],[112.90333091912328,-6.8934541647469612],[112.90333088303953,-6.8934451237654377],[112.90332183631762,-6.8934451598261743],[112.9033218002341,-6.8934361188446323]]],[[[112.90336706992676,-6.8934449795207806],[112.90336699775806,-6.8934268975581547],[112.9033760444794,-6.8934268614966587],[112.90337600839493,-6.8934178205153795],[112.90335791495255,-6.8934178926381051],[112.90335802320502,-6.8934450155822011],[112.90336706992676,-6.8934449795207806]]],[[[112.90332169198382,-6.8934089958999349],[112.90332208400014,-6.8934222159999816],[112.90332172685426,-6.8934270780117339],[112.90333081087219,-6.893427041802429],[112.9033307747886,-6.8934180008209101],[112.90334886823128,-6.893417928699213],[112.90334883214739,-6.8934088877177855],[112.90332169198382,-6.8934089958999349]]],[[[112.90332169198382,-6.8934089958999349],[112.90332161981721,-6.8933909139367859],[112.90333066653811,-6.8933908778763362],[112.9033306304547,-6.8933818368948039],[112.90333967717537,-6.8933818008342298],[112.90333971325894,-6.8933908418157159],[112.90336685342122,-6.8933907336328266],[112.90336681733713,-6.8933816926514853],[112.90335777061658,-6.8933817287125718],[112.90335773453272,-6.8933726877311789],[112.90334868781233,-6.8933727237920461],[112.90334865172868,-6.8933636828106026],[112.90333960500837,-6.8933637188712513],[112.90333942459171,-6.8933185139637398],[112.90334847131115,-6.8933184779033292],[112.90334836306123,-6.8932913549589214],[112.90335740978009,-6.8932913188984841],[112.90335737369671,-6.8932822779170388],[112.90336642041537,-6.8932822418564772],[112.90336638433186,-6.8932732008751101],[112.90337543105028,-6.8932731648144241],[112.90337539496666,-6.8932641238330836],[112.90338444168486,-6.8932640877722759],[112.90338447776865,-6.8932731287535693],[112.90340257120528,-6.8932730566313429],[112.90340253512115,-6.8932640156501455],[112.90342062855723,-6.8932639435273311],[112.9034205563884,-6.8932458615651173],[112.90344769654114,-6.8932457533798992],[112.903447552202,-6.893209589456001],[112.90345659891881,-6.8932095533941098],[112.90345656283397,-6.8932005124131743],[112.90346560955055,-6.8932004763511596],[112.90346550396674,-6.8931740225970248],[112.90346546521103,-6.8931643124275697],[112.90347451192686,-6.8931642763655763],[112.90347443975705,-6.8931461944038555],[112.90349253318792,-6.8931461222795445],[112.90349256927314,-6.8931551632603103],[112.90350161598866,-6.8931551271978515],[112.9035015077326,-6.8931280042556828],[112.90351055444758,-6.8931279681931947],[112.90351051836217,-6.8931189272125133],[112.90350147164736,-6.8931189632749534],[112.90350144569267,-6.8931124604481582],[112.9034391,-6.8931327789999282],[112.90340737924816,-6.8931742542898613],[112.9033517670001,-6.8932469679998549],[112.90331897500027,-6.8933176879999118],[112.90332034638914,-6.8933637956364349],[112.90332151156765,-6.8933637909920353],[112.90332158373398,-6.8933818729552057],[112.90332088414989,-6.8933818757437546],[112.90332169198382,-6.8934089958999349]],[[112.90345645457975,-6.8931733894703457],[112.90343836114751,-6.8931734615935731],[112.90343828897898,-6.8931553796314793],[112.90344733569478,-6.8931553435700454],[112.90344729961041,-6.8931463025890389],[112.903456346326,-6.8931462665274825],[112.90345645457975,-6.8931733894703457]]],[[[112.9038941858546,-6.8917793114889143],[112.90389414976903,-6.8917702705097321],[112.90388510308182,-6.8917703065724174],[112.90388513916722,-6.8917793475516467],[112.9038941858546,-6.8917793114889143]]],[[[112.89951277544256,-6.8910915476647476],[112.89951273944362,-6.891082506662217],[112.89948559935166,-6.8910826145901583],[112.89948563535008,-6.8910916555928328],[112.89951277544256,-6.8910915476647476]]],[[[112.89935287743005,-6.8941028851272312],[112.89935284141826,-6.8940938441249946],[112.89937093492857,-6.8940937721469533],[112.89937097094068,-6.8941028131490967],[112.89938906445113,-6.8941027411702747],[112.89938913647619,-6.8941208231743571],[112.8994072299871,-6.8941207511946612],[112.89940730201303,-6.8941388331985367],[112.8994163487688,-6.8941387972083374],[112.89941631275562,-6.894129756206433],[112.89942535951114,-6.8941297202161085],[112.89942532349784,-6.8941206792142804],[112.89943437025313,-6.8941206432238324],[112.89943440626659,-6.8941296842256135],[112.89944345302202,-6.8941296482349479],[112.8994434890357,-6.8941386892367102],[112.89946158254675,-6.8941386172547698],[112.89946161856082,-6.8941476582564167],[112.89945257180514,-6.8941476942475211],[112.89945260781909,-6.8941567352492115],[112.89947974808645,-6.8941566272752448],[112.89947971207198,-6.8941475862736974],[112.89949780558298,-6.8941475142902924],[112.89949776956823,-6.8941384732888356],[112.89950681632348,-6.894138437296923],[112.89950692436841,-6.8941655603011398],[112.89951597112412,-6.8941655243089128],[112.89951600713937,-6.8941745653102648],[112.8995250538952,-6.8941745293178203],[112.89952501787978,-6.8941654883165171],[112.8995340646354,-6.8941654523239491],[112.89953410065101,-6.8941744933252043],[112.89954314740673,-6.8941744573324168],[112.89954318342255,-6.8941834983336205],[112.89955223017841,-6.8941834623406146],[112.89955226619445,-6.8941925033417686],[112.89956131295042,-6.8941924673485433],[112.89956134896667,-6.8942015083496617],[112.89957039572279,-6.8942014723562179],[112.89957035970636,-6.8941924313551484],[112.89957940646227,-6.8941923953615802],[112.89957944247885,-6.8942014363626054],[112.89962467625844,-6.8942012563919635],[112.899624640241,-6.894192215391179],[112.89966082726312,-6.8941920714117755],[112.89966089929942,-6.8942101534129288],[112.89968803956651,-6.8942100454262913],[112.89968807558526,-6.8942190864267188],[112.89969712234105,-6.8942190504307845],[112.89969715836001,-6.8942280914311604],[112.89974239213903,-6.8942279114486791],[112.89974242815889,-6.8942369524488134],[112.89976956842624,-6.8942368444571285],[112.89976960444666,-6.8942458854571331],[112.89978769795833,-6.8942458134617235],[112.89978766193755,-6.8942367724618148],[112.89977861518192,-6.8942368084595573],[112.89977854314087,-6.8942187264596653],[112.89978758989616,-6.8942186904620186],[112.89978755387554,-6.8942096494621152],[112.89979660063061,-6.8942096134643451],[112.8997966366514,-6.8942186544642015],[112.89980568340661,-6.894218618466212],[112.89980571942763,-6.8942276594660177],[112.89979667267224,-6.8942276954640533],[112.89979670869315,-6.8942367364639008],[112.8998057554487,-6.8942367004658172],[112.89980582749097,-6.8942547824654072],[112.89981487424679,-6.894254746467058],[112.8998149462896,-6.8942728284665371],[112.89983303980181,-6.8942727564691317],[112.89983300378003,-6.8942637154694886],[112.89982395702411,-6.8942637514682295],[112.89982392100256,-6.8942547104685339],[112.89983296775833,-6.894254674469841],[112.89983293173664,-6.8942456334702076],[112.89984197849216,-6.8942455974713903],[112.89984212257983,-6.894281761469764],[112.89987830960416,-6.8942816174720232],[112.89987834562689,-6.8942906584714034],[112.89988739238301,-6.8942906224714928],[112.89988742840595,-6.894299663470858],[112.89990552191841,-6.8942995914704257],[112.89990548589512,-6.8942905504711582],[112.89991453265111,-6.8942905144707334],[112.8999144966277,-6.8942814734715432],[112.89993259013919,-6.894281401470276],[112.89993262616294,-6.8942904424693712],[112.89995071967458,-6.8942903704673251],[112.89995075569871,-6.8942994114663545],[112.89997789596632,-6.8942993034618567],[112.89997793199103,-6.8943083444607227],[112.90000507225869,-6.8943082364545427],[112.90000503623348,-6.8942991954558188],[112.9000140829891,-6.8942991594534639],[112.90001404696376,-6.8942901184547667],[112.90003214047452,-6.8942900464496386],[112.90003221252594,-6.8943081284468208],[112.9000503060372,-6.894308056440817],[112.90005034206332,-6.8943170974392993],[112.90005938881905,-6.8943170614359923],[112.9000594248454,-6.8943261024344231],[112.90006847160124,-6.8943260664308994],[112.90006843557474,-6.8943170254325148],[112.90007748233036,-6.8943169894288667],[112.90007744630373,-6.8943079484305292],[112.90006839954827,-6.8943079844341293],[112.90006836352185,-6.8942989434357393],[112.9000593167665,-6.894298979439121],[112.90005924471416,-6.8942808974422363],[112.90006829146915,-6.8942808614389479],[112.90006818339049,-6.8942537384437346],[112.90013151067051,-6.894253486416936],[112.90013147464317,-6.8942444454188747],[112.90012242788919,-6.8942444814231685],[112.90012231980802,-6.8942173584287536],[112.90011327305453,-6.894217394432733],[112.90011320100099,-6.8941993124363705],[112.90010415424777,-6.8941993484400852],[112.90010411822125,-6.8941903074418258],[112.90013125848023,-6.8941901994303141],[112.90013122245324,-6.8941811584322101],[112.90014026920596,-6.8941811224280789],[112.90014030523312,-6.8941901634261349],[112.90014935198596,-6.8941901274217834],[112.90014938801333,-6.8941991684198038],[112.90015843476631,-6.8941991324152347],[112.90015847079391,-6.8942081734131726],[112.90016751754699,-6.8942081374083832],[112.90016758960267,-6.8942262194041835],[112.9001856831094,-6.8942261473939022],[112.90018557502492,-6.8941990244004989],[112.90016748151922,-6.8941990964104951],[112.90016740946383,-6.8941810144146549],[112.90018550296884,-6.8941809424048524],[112.90018553899685,-6.8941899834026694],[112.90019458574945,-6.8941899473974626],[112.90019462177769,-6.894198988395245],[112.90021271528309,-6.8941989163842239],[112.90021275131171,-6.8942079573818749],[112.90022179806451,-6.8942079213760579],[112.90022176203571,-6.8941988803784566],[112.90023080878831,-6.8941988443725171],[112.9002307007017,-6.8941717213797631],[112.90023974745371,-6.894171685373796],[112.90023971142476,-6.8941626443762587],[112.90024055967903,-6.8941626410002099],[112.90022157735231,-6.8941525360853824],[112.90022158189247,-6.8941536753902879],[112.90021253514068,-6.8941537113958162],[112.90021257116906,-6.8941627523935018],[112.90019447766504,-6.894162824404142],[112.90019451369314,-6.89417186540192],[112.90018546694087,-6.8941719014070308],[112.90018543091296,-6.8941628604092058],[112.90017638416083,-6.8941628964140991],[112.90017642018857,-6.8941719374119712],[112.9001673734362,-6.8941719734167393],[112.9001673013811,-6.8941538914208964],[112.90014920787692,-6.89415396342973],[112.90014924390411,-6.8941630044277487],[112.90014019715179,-6.8941630404319563],[112.90014023317885,-6.8941720814300202],[112.9001221396737,-6.8941721534380163],[112.90012210364696,-6.8941631124398581],[112.90009496338941,-6.8941632204504293],[112.90009499941561,-6.8941722614487286],[112.90008595266282,-6.8941722974519566],[112.9000859166368,-6.8941632564536084],[112.90007686988412,-6.894163292456617],[112.90007683385829,-6.8941542514582173],[112.9000858806108,-6.8941542154552575],[112.90008584458488,-6.8941451744568996],[112.90010393808936,-6.8941451024505582],[112.90010390206312,-6.8941360614522935],[112.90008580855897,-6.8941361334585407],[112.90008577253313,-6.8941270924601605],[112.9000495855249,-6.8941272364704087],[112.90004954949978,-6.8941181954718687],[112.90003145599573,-6.8941182674758705],[112.90003141997101,-6.8941092264772141],[112.90002237321909,-6.8941092624789109],[112.90002233719459,-6.894100221480203],[112.90001329044277,-6.8941002574816812],[112.90001321839426,-6.8940821754841428],[112.90000417164276,-6.8940822114853546],[112.90000409959478,-6.8940641294877398],[112.89999505284356,-6.8940641654886852],[112.8999949447725,-6.8940370424920854],[112.90000399152321,-6.8940370064912839],[112.90000395549943,-6.8940279654924348],[112.89999490874889,-6.8940280014931892],[112.89999483670185,-6.8940099194954216],[112.90003102370233,-6.8940097754917575],[112.90003098767819,-6.8940007344930585],[112.90007622142686,-6.894000554484867],[112.90007625745184,-6.894009595483328],[112.90010339770097,-6.8940094874762163],[112.90010343372653,-6.8940185284745308],[112.90012152722605,-6.8940184564688387],[112.90012156325199,-6.8940274974670546],[112.90013061000187,-6.8940274614639039],[112.90013064602802,-6.8940365024620851],[112.900139692778,-6.8940364664587168],[112.90013972880439,-6.8940455074568119],[112.90015782230455,-6.894045435449466],[112.90015785833133,-6.8940544764474785],[112.90016923587473,-6.8940544311674543],[112.90015710800003,-6.8940114239998769],[112.90009352200013,-6.8939854129999603],[112.89996738500008,-6.8939682349999263],[112.899855816,-6.893971547999949],[112.8997512200001,-6.8939746539999192],[112.89975114800006,-6.8937375139999348],[112.89981749200001,-6.8933868049999836],[112.89982957300003,-6.8933236729998892],[112.89985394300015,-6.8932043779999308],[112.89985346813427,-6.8931884072139065],[112.89985083500005,-6.8930998489999347],[112.89983398900006,-6.893002701999877],[112.89980402500009,-6.892933843999975],[112.89972504200021,-6.8928594669999423],[112.89969507800004,-6.892790607999923],[112.89969238500009,-6.8927000159999015],[112.89968969200015,-6.8926094239999411],[112.89968699800011,-6.892518831999892],[112.89971219700011,-6.8924274119999041],[112.89974519800012,-6.89236365899996],[112.89981223500001,-6.8922709959999153],[112.89988707400029,-6.8922060009999937],[112.89998303900018,-6.892147353999956],[112.90017559100011,-6.8920509649999611],[112.90026479000005,-6.8919994929999682],[112.90037408000012,-6.8919195259999775],[112.90038896602833,-6.891896448187679],[112.90044746900003,-6.8918057509998834],[112.90047984800016,-6.8917210929998811],[112.90048324363153,-6.8917081464186669],[112.90048322107583,-6.8917024850397954],[112.9004847300737,-6.8917024790353256],[112.90051119100031,-6.891601590999862],[112.90055075000009,-6.8915236939998827],[112.90056897700015,-6.8914324810000007],[112.9005874100002,-6.8913482369998844],[112.90059034471253,-6.891341432017855],[112.90059034065335,-6.8913404131860627],[112.90059078485555,-6.8913404114185237],[112.90059930873882,-6.8913206463212493],[112.90059927928746,-6.8913132541978532],[112.90059023259155,-6.8913132901957743],[112.90059019657104,-6.8913042491990035],[112.90059924326678,-6.8913042132011295],[112.90059920724616,-6.891295172204404],[112.90059016055059,-6.891295208202231],[112.90059008850983,-6.8912771262086725],[112.90059913520506,-6.8912770902109406],[112.90059909918456,-6.8912680492142044],[112.90061719257457,-6.8912679772183232],[112.90061723678969,-6.8912790749280886],[112.90062593686116,-6.8912589012835097],[112.90061715655379,-6.8912589362216616],[112.90061712053306,-6.8912498952250312],[112.90062616722763,-6.891249859226928],[112.90062613120678,-6.8912408182303233],[112.90063336292137,-6.8912407894542023],[112.90064102532547,-6.8911955532648346],[112.90060785771611,-6.8911956852427059],[112.90060789373638,-6.8912047262394243],[112.9005898003487,-6.8912047982342957],[112.90058994442887,-6.8912409622215121],[112.90053566426054,-6.8912411782031642],[112.90053552018448,-6.891205014214802],[112.90052647349026,-6.8912050502109556],[112.90052643747154,-6.8911960092138091],[112.90051739077745,-6.8911960452097416],[112.90051735475895,-6.8911870042125436],[112.90050830806497,-6.8911870402082585],[112.90050827204669,-6.8911779992110089],[112.90048113196504,-6.8911781071969846],[112.90048109594731,-6.8911690661996046],[112.90047204925351,-6.8911691021945396],[112.90047208527106,-6.8911781431919668],[112.90046303857702,-6.8911781791867783],[112.90046307459446,-6.8911872201842668],[112.90045402790021,-6.8911872561789549],[112.90045409993486,-6.8912053381740153],[112.90044505324022,-6.891205374168627],[112.90044516129207,-6.8912324971613339],[112.9004270679016,-6.8912325691503318],[112.90042721197004,-6.8912687331409375],[112.90041816527405,-6.8912687691353698],[112.9004182012911,-6.8912778101330598],[112.90039106120236,-6.8912779181154749],[112.90039113323557,-6.8912960001111294],[112.9003820865389,-6.8912960361050217],[112.90038212255541,-6.8913050771028903],[112.90034593576748,-6.8913052210769372],[112.90034589975163,-6.8912961800788768],[112.90027352617479,-6.8912964680183739],[112.90027349016037,-6.8912874270199271],[112.90026444346324,-6.8912874630115475],[112.90026440744904,-6.8912784220130501],[112.90024631405493,-6.8912784939956806],[112.90024627804112,-6.8912694529970855],[112.90023723134419,-6.8912694889880965],[112.9002371953306,-6.8912604479894322],[112.90020100854298,-6.8912605919515739],[112.90020097253013,-6.8912515509527505],[112.90018287913637,-6.8912516229326997],[112.90018291514887,-6.8912606639316181],[112.90013768166278,-6.8912608438787357],[112.90013771767448,-6.8912698848779241],[112.90012867097695,-6.8912699208668817],[112.90012870698854,-6.8912789618660968],[112.90004728670701,-6.8912792857594454],[112.90004725069697,-6.8912702447598022],[112.90003820399896,-6.8912702807470483],[112.90003831202871,-6.8912974037461128],[112.90004735872722,-6.8912973677587237],[112.90004739473741,-6.8913064087583562],[112.90003834803872,-6.8913064447457941],[112.90003842005889,-6.8913245267451453],[112.9000293733598,-6.8913245627325068],[112.90002940936979,-6.8913336037322237],[112.89999322257223,-6.8913337476801493],[112.89999318656294,-6.8913247066802414],[112.89997509316422,-6.8913247786530833],[112.8999750571553,-6.8913157376530751],[112.89996601045605,-6.8913157736391915],[112.89996597444735,-6.8913067326391335],[112.89995692774822,-6.8913067686250304],[112.89995689173975,-6.8912977276249201],[112.89994784504073,-6.8912977636105994],[112.89994780903247,-6.8912887226104376],[112.89993876233359,-6.8912887585958993],[112.89993869031757,-6.8912706765954708],[112.89992059692032,-6.8912707485656854],[112.89992063292796,-6.8912797895659974],[112.89990253953017,-6.8912798615356241],[112.89990250352288,-6.891270820535218],[112.89988441012525,-6.8912708925040649],[112.89988444613221,-6.891279933504566],[112.89986635273405,-6.8912800054728249],[112.89986631672744,-6.891270964472227],[112.89983917663032,-6.8912710724231889],[112.89983914062427,-6.8912620314224293],[112.89982104722631,-6.8912621033887849],[112.89982108323203,-6.8912711443896404],[112.89981203653278,-6.8912711803726099],[112.89981207253837,-6.8912802213734929],[112.89978493243989,-6.8912803293215177],[112.89978489643482,-6.8912712883204916],[112.89977584973539,-6.8912713243027763],[112.89977577772574,-6.8912532423006185],[112.89975768432744,-6.8912533142644836],[112.89975764832302,-6.8912442732633039],[112.89976669502201,-6.8912442372815041],[112.89976662301299,-6.89122615527923],[112.89973043621806,-6.8912262992050204],[112.89973040021431,-6.8912172582037039],[112.89970326011812,-6.89121736614611],[112.89970318811177,-6.891199284143128],[112.89969414141328,-6.8911993201234925],[112.89969410541035,-6.8911902791219566],[112.899685058712,-6.8911903151021017],[112.89968502270929,-6.8911812741005152],[112.89969406940747,-6.8911812381204181],[112.89969399740187,-6.8911631561173303],[112.89968495070403,-6.8911631920973333],[112.89968487869895,-6.8911451100941354],[112.89964869190842,-6.8911452540120521],[112.89964872791025,-6.8911542950138429],[112.8995854010238,-6.8911545468639437],[112.89958536502317,-6.891145505861819],[112.89955822492874,-6.8911456137948672],[112.89955818892868,-6.8911365727925959],[112.89954914223063,-6.8911366087698891],[112.89954910623078,-6.8911275677675663],[112.8994586392492,-6.8911279275306088],[112.89945867524733,-6.8911369685334067],[112.8994405818501,-6.8911370404840566],[112.89944061784794,-6.8911460814869478],[112.89942252445016,-6.8911461534370089],[112.89942248845267,-6.8911371124340235],[112.89941344175389,-6.8911371484087489],[112.8994134057566,-6.8911281074057129],[112.89937721896166,-6.8911282513027166],[112.89937714696863,-6.8911101692962511],[112.89935905357154,-6.8911102412435357],[112.89935894558334,-6.8910831182335244],[112.89938608567736,-6.8910830103127694],[112.89938612167388,-6.891092051315967],[112.89946754195483,-6.8910917275440333],[112.89946750595676,-6.8910826865412647],[112.89942227246868,-6.8910828664160331],[112.89942223647152,-6.8910738254130219],[112.89939509637861,-6.8910739333356883],[112.89939506038202,-6.8910648923325297],[112.89938601368445,-6.8910649283063625],[112.89938604968088,-6.8910739693095673],[112.89936795628526,-6.8910740412568128],[112.89936792028918,-6.891065000253513],[112.89935887359148,-6.8910650362268315],[112.89935890958739,-6.8910740772301802],[112.89934986288945,-6.8910741132033753],[112.89934982689371,-6.8910650721999795],[112.89934078019591,-6.8910651081729561],[112.89934081619148,-6.8910741491764007],[112.89925939590752,-6.8910744729259177],[112.89925935991349,-6.8910654319220477],[112.89922317312005,-6.8910655758060813],[112.8992232091134,-6.891074616810144],[112.89919606901729,-6.8910747247215181],[112.89919610501018,-6.8910837657257193],[112.89917801161218,-6.8910838376658754],[112.89917804760478,-6.8910928786701682],[112.89915090750692,-6.8910929865792605],[112.89915094349905,-6.8911020275836767],[112.89911475670053,-6.8911021714602629],[112.89911472070909,-6.8910931304556557],[112.89908758061021,-6.8910932383611554],[112.89908761660115,-6.8911022793659056],[112.89906952320132,-6.8911023513021457],[112.89906948721072,-6.8910933102973004],[112.89906044051092,-6.8910933462651149],[112.89906040452055,-6.8910843052602022],[112.89905135782085,-6.8910843412277991],[112.89905139381104,-6.8910933822327598],[112.8990152070111,-6.891093526101626],[112.89901524300066,-6.8911025671067572],[112.89899714960005,-6.8911026390402599],[112.89899718558931,-6.8911116800455146],[112.89898813888877,-6.8911117160120572],[112.8989881748779,-6.8911207570173403],[112.89897008147632,-6.8911208289500054],[112.89897011746517,-6.8911298699553809],[112.89896107076413,-6.8911299059215052],[112.89896110675286,-6.8911389469269233],[112.8989520600516,-6.8911389828929241],[112.89895209604019,-6.8911480238983867],[112.89892495593563,-6.8911481317955037],[112.89892499192376,-6.8911571728011065],[112.89890689852012,-6.8911572447317573],[112.89890693450796,-6.8911662857374516],[112.89887979440165,-6.8911663936322887],[112.89887983038903,-6.8911754346381384],[112.89886173698423,-6.8911755065672695],[112.89886177297132,-6.891184547573177],[112.89885272626867,-6.8911845835375338],[112.89885276225563,-6.8911936245435026],[112.8988256221469,-6.8911937324356884],[112.8988256581334,-6.8912027734417967],[112.89880756472699,-6.8912028453691594],[112.89880760071318,-6.89121188637536],[112.89879855400973,-6.8912119223388331],[112.89879858999579,-6.8912209633450923],[112.89878049658843,-6.8912210352716201],[112.89878053257422,-6.8912300762779388],[112.89877148587027,-6.8912301122409936],[112.89877152185593,-6.8912391532473736],[112.89876251737731,-6.8912391890424471],[112.89877762800018,-6.8913843949999292],[112.89896600839332,-6.8919021080492406],[112.89901645400003,-6.8920407439998863],[112.89913745300021,-6.893069460999933],[112.89914990789038,-6.8931912059028466],[112.89919514311246,-6.8936333729723351],[112.8992333971739,-6.8936332208151319],[112.89923343318097,-6.8936422618181714],[112.8992424799282,-6.893642225833843],[112.89924244392095,-6.8936331848308514],[112.89925149066798,-6.8936331488463987],[112.89925152667539,-6.8936421898493441],[112.89929676041061,-6.8936420099242808],[112.89929679641894,-6.8936510509269846],[112.89930584316599,-6.8936510149414092],[112.89930587917453,-6.8936600559440624],[112.8992968324273,-6.8936600919296831],[112.89929686843574,-6.8936691329323621],[112.89952303710645,-6.8936682332392909],[112.89952300109374,-6.8936591922378048],[112.89953204783978,-6.8936591562479039],[112.89953201182695,-6.8936501152464427],[112.89955915206424,-6.8936500072758582],[112.89955911605094,-6.8936409662745373],[112.89956816279643,-6.8936409302840467],[112.89956812678301,-6.8936318892827702],[112.89961336050889,-6.8936317093279937],[112.89961339652316,-6.8936407503290322],[112.89962244326837,-6.8936407143375158],[112.89962247928288,-6.8936497553385045],[112.89961343253749,-6.8936497913300681],[112.89961346855185,-6.8936588323310986],[112.89963156204291,-6.8936587603477051],[112.89963163407248,-6.8936768423495662],[112.89962258732665,-6.8936768783414442],[112.89962265935607,-6.8936949603433888],[112.89961361260983,-6.8936949963351912],[112.89961364862444,-6.8937040373362048],[112.899604601878,-6.8937040733278838],[112.89960463789249,-6.8937131143289241],[112.89959559114583,-6.8937131503204814],[112.89959566317461,-6.893731232322696],[112.89957756968043,-6.8937313043054846],[112.89957760569455,-6.8937403453066741],[112.89955951219984,-6.893740417288873],[112.89955947618607,-6.8937313762875876],[112.89952328919675,-6.8937315202497409],[112.89952332520984,-6.8937405612512164],[112.89951427846223,-6.893740597241373],[112.8995143144752,-6.8937496382428938],[112.89952336122298,-6.8937496022526874],[112.89952343324941,-6.8937676842556215],[112.89951438650128,-6.8937677202459238],[112.89951435048822,-6.8937586792444101],[112.89949625699214,-6.8937587512244027],[112.89949629300487,-6.8937677922260105],[112.89939677877116,-6.8937681881042572],[112.89939681478205,-6.8937772291063846],[112.89934253428744,-6.8937774450315308],[112.89934257029735,-6.8937864860339575],[112.89928828979996,-6.8937867019532275],[112.8992883258089,-6.8937957429559038],[112.89932451280802,-6.8937955990102182],[112.8993245488177,-6.8938046400127169],[112.899243128067,-6.8938049638870869],[112.89924316407517,-6.8938140048900101],[112.8992341173247,-6.8938140408752435],[112.89923415333274,-6.8938230818782111],[112.89926129358457,-6.8938229739218562],[112.89926132959319,-6.8938320149246941],[112.89925228284245,-6.8938320509103646],[112.89925231885094,-6.8938410919132131],[112.89921640816118,-6.8938412347552882],[112.89924137153429,-6.8940852464036597],[112.8992442443428,-6.894085234976032],[112.89924420833317,-6.8940761939732331],[112.89925325508858,-6.894076157986448],[112.89925329109838,-6.8940851989891989],[112.89928043136483,-6.894085091027673],[112.89928046737518,-6.894094132030312],[112.89928951413071,-6.8940940960427453],[112.8992895501413,-6.8941031370453159],[112.89930764365261,-6.8941030650695767],[112.8993076076417,-6.8940940240671011],[112.89931665439711,-6.8940939880790237],[112.89931661838607,-6.8940849470765748],[112.8993347118964,-6.8940848750999981],[112.8993348199307,-6.8941119981070118],[112.89934386668631,-6.8941119621183233],[112.89934383067467,-6.8941029211160423],[112.89935287743005,-6.8941028851272312]],[[112.89987751711647,-6.8940827154843403],[112.89988656386866,-6.8940826794855248],[112.89988659989049,-6.8940917204849717],[112.8998956466428,-6.8940916844859377],[112.89989568266485,-6.8941007254853153],[112.89992282292204,-6.8941006174870445],[112.89992293099002,-6.8941277404847119],[112.8998867439783,-6.8941278844826366],[112.89988670795627,-6.8941188434832377],[112.8998776612034,-6.8941188794822441],[112.89987751711647,-6.8940827154843403]],[[112.89994102449558,-6.8941276684847228],[112.8999500712483,-6.8941276324844711],[112.89995010727156,-6.8941366734835663],[112.89995915402439,-6.894136637483097],[112.89995919004788,-6.8941456784821229],[112.89996823680085,-6.8941456424814334],[112.89996827282455,-6.8941546834804095],[112.89995017931825,-6.8941547554817113],[112.89995014329489,-6.8941457144826401],[112.89993204978872,-6.894145786483163],[112.89993201376575,-6.8941367454839932],[112.89994106051867,-6.894136709483865],[112.89994102449558,-6.8941276684847228]],[[112.89988641978182,-6.8940465154877879],[112.89987737303032,-6.8940465514864124],[112.89987733700892,-6.8940375104869336],[112.89988638376023,-6.8940374744883579],[112.89988641978182,-6.8940465154877879]],[[112.89965992682561,-6.8939660463961676],[112.89965088007443,-6.8939660823900848],[112.89965080804109,-6.8939480003886429],[112.89965985479191,-6.8939479643948216],[112.89965992682561,-6.8939660463961676]],[[112.89962211914012,-6.8935593453284634],[112.89961307239645,-6.8935593813195508],[112.89961325246635,-6.8936045863248552],[112.8996042057218,-6.893604622316011],[112.89960424173576,-6.8936136633171063],[112.89959519499098,-6.8936136993081378],[112.89959479884199,-6.893514248295344],[112.89960384558489,-6.8935142123048365],[112.89960366551824,-6.8934690072991147],[112.8996217590022,-6.8934689353180643],[112.89962201109823,-6.8935322223253808],[112.89961296435507,-6.8935322583163261],[112.89961300036882,-6.8935412993174046],[112.89962204711215,-6.8935412633264121],[112.89962211914012,-6.8935593453284634]],[[112.89961267624687,-6.8934599303075501],[112.89960362950505,-6.893459966297943],[112.89960352146581,-6.8934328432944731],[112.8996125682071,-6.8934328073042241],[112.89961267624687,-6.8934599303075501]],[[112.90033699711763,-6.8913323800643234],[112.90032795041998,-6.8913324160573808],[112.90032798643567,-6.8913414570555211],[112.90031893973776,-6.8913414930484533],[112.90031890372225,-6.8913324520502641],[112.90030081032667,-6.8913325240355192],[112.90030077431155,-6.8913234830372314],[112.90028268091613,-6.8913235550217067],[112.9002826449014,-6.8913145140233203],[112.90034597178335,-6.8913142620749941],[112.90034600779927,-6.8913233030730474],[112.90033696110184,-6.8913233390662265],[112.90033699711763,-6.8913323800643234]],[[112.90041830934257,-6.8913049331261096],[112.90045449612897,-6.8913047891465871],[112.90045453214691,-6.8913138301440728],[112.90046357884354,-6.8913137941487168],[112.90046361486169,-6.8913228351461511],[112.90045456816489,-6.8913228711415551],[112.90045460418293,-6.891331912139032],[112.90043651078879,-6.8913319841294207],[112.9004364747711,-6.8913229431318479],[112.90041838137712,-6.8913230151214568],[112.90041830934257,-6.8913049331261096]]]]},"properties":{"FID":0,"Shape_Leng":18102566.929299999,"Shape_Area":236516885.403}}]
}