{
  "type" : "FeatureCollection",
  "features" : [{"type":"Feature","id":0,"geometry":{"type":"MultiPolygon","coordinates":[[[[114.04936309532016,-7.1127877205944499],[114.04936303566861,-7.1127786875657328],[114.04935399259699,-7.1127787471509132],[114.04935405224838,-7.1127877801797066],[114.04936309532016,-7.1127877205944499]]],[[[114.04979101233428,-7.1127216668979374],[114.0497424866538,-7.1127219866760729],[114.04974253016225,-7.1127285743883348],[114.04979101233428,-7.1127216668979374]]],[[[114.05219321472957,-7.1127148637294599],[114.05219309531716,-7.1126967977198357],[114.0521840522711,-7.112696857359583],[114.05218417168317,-7.1127149233693583],[114.05219321472957,-7.1127148637294599]]],[[[114.05270688380344,-7.1126663087629662],[114.05269932662372,-7.1126663586114915],[114.05269933646245,-7.1126678468834035],[114.05270688380344,-7.1126663087629662]]],[[[114.06422289710137,-7.1089226839034465],[114.06422283719232,-7.1089136509991704],[114.06421379432238,-7.1089137108420841],[114.06421385423127,-7.1089227437464375],[114.06422289710137,-7.1089226839034465]]],[[[114.06417762284183,-7.108913950211984],[114.06417750302569,-7.1088958844026013],[114.06416846015573,-7.108895944244483],[114.06416857997151,-7.1089140100540194],[114.06417762284183,-7.108913950211984]]],[[[114.06407587488441,-7.1085713580518872],[114.06407575507808,-7.1085532922405283],[114.06405766934971,-7.108553411914408],[114.06405778915533,-7.108571477726076],[114.06407587488441,-7.1085713580518872]]],[[[114.06406659240825,-7.1085352862660258],[114.06406665231106,-7.1085443191717763],[114.06407569517503,-7.1085442593348249],[114.06407566233761,-7.1085393077061383],[114.06407378809644,-7.1085352386519771],[114.06406659240825,-7.1085352862660258]]],[[[114.06406659240825,-7.1085352862660258],[114.06406653250555,-7.1085262533602549],[114.06405748964187,-7.1085263131968777],[114.06405754954439,-7.108535346102725],[114.06406659240825,-7.1085352862660258]]],[[[114.06405748964187,-7.1085263131968777],[114.06405742973941,-7.1085172802910259],[114.06404838687581,-7.1085173401273947],[114.06404844677809,-7.1085263730333228],[114.06405748964187,-7.1085263131968777]]],[[[114.06404813625207,-7.1084795474375859],[114.06403896089236,-7.10845962734696],[114.06403910440447,-7.1084812683395269],[114.0640210186783,-7.1084813880107731],[114.06402107857974,-7.1084904209169455],[114.06403916430628,-7.1084903012455491],[114.06403922420814,-7.1084993341515821],[114.06404826707148,-7.108499274315542],[114.06404832697361,-7.1085083072214621],[114.06405736983703,-7.1085082473851706],[114.06405731161283,-7.1084994675276114],[114.06404889906166,-7.1084812035290721],[114.06404814726746,-7.1084812085036413],[114.06404813625207,-7.1084795474375859]]],[[[114.06402978553376,-7.1084397072558474],[114.06402815820543,-7.1084361742569779],[114.06402071917226,-7.1084362234798375],[114.06402083897444,-7.1084542892922231],[114.06403645454726,-7.1084541859661421],[114.06403230637623,-7.1084451801116142],[114.06402982193575,-7.1084451965508046],[114.06402978553376,-7.1084397072558474]]],[[[114.06392987125265,-7.1083735914728114],[114.06392981135399,-7.1083645585658157],[114.0639207684923,-7.1083646183984159],[114.06392082839079,-7.108373651305488],[114.06392987125265,-7.1083735914728114]]]]},"properties":{"FID":0,"Shape_Leng":18102566.929299999,"Shape_Area":236516885.403}}]
}