{
  "type" : "FeatureCollection",
  "features" : [{"type":"Feature","id":0,"geometry":{"type":"MultiPolygon","coordinates":[[[[113.07457748705083,-7.1921961117764797],[113.07457744600001,-7.1921870718545673],[113.07456839443273,-7.1921871128524613],[113.07456843548339,-7.192196152774426],[113.07457748705083,-7.1921961117764797]]],[[[113.074559301815,-7.1921781139281702],[113.07456835338213,-7.1921780729305071],[113.07456831233161,-7.1921690330085513],[113.07457736389851,-7.1921689920107621],[113.07457732284784,-7.1921599520888533],[113.07453206501364,-7.1921601570757563],[113.07453202396394,-7.1921511171535828],[113.07452297239712,-7.1921511581503763],[113.07452301344665,-7.1921601980725987],[113.07449585874535,-7.1921603210620626],[113.0744958997944,-7.1921693609844395],[113.07454115763056,-7.1921691560008476],[113.07454123973061,-7.1921872358450702],[113.0745593428654,-7.1921871538501749],[113.074559301815,-7.1921781139281702],[113.0745502502478,-7.1921781549256547],[113.07455020919761,-7.192169115003594],[113.07455926076463,-7.1921690740061619],[113.074559301815,-7.1921781139281702]]],[[[113.07427747188578,-7.1919081870568471],[113.07425936875877,-7.1919082690374445],[113.0742594098017,-7.1919173089612798],[113.07426846136542,-7.1919172679710188],[113.07426850240857,-7.191926307894799],[113.07427755397239,-7.191926266904308],[113.07427747188578,-7.1919081870568471]]],[[[113.07429549292546,-7.1918900252282709],[113.07427738979938,-7.1918901072093719],[113.07427743084254,-7.1918991471331122],[113.0742864824058,-7.191899106142599],[113.07428656449267,-7.1919171859899613],[113.07429561605622,-7.1919171449991648],[113.07429549292546,-7.1918900252282709]]],[[[113.07424106041954,-7.1918631513975688],[113.074213905731,-7.1918632743652715],[113.07421394677276,-7.1918723142893706],[113.07420489520963,-7.1918723552783002],[113.07420493625126,-7.19188139520248],[113.07423209094104,-7.1918812722349985],[113.07423213198325,-7.1918903121590025],[113.07424118354659,-7.1918902711694352],[113.07424122458906,-7.1918993110933824],[113.07426837927926,-7.1918991881234469],[113.07426829719331,-7.1918811082758607],[113.07425924563032,-7.1918811492659129],[113.07425920458761,-7.1918721093420457],[113.07424110146184,-7.1918721913215107],[113.07424106041954,-7.1918631513975688]]],[[[113.07411433853561,-7.1918637252331008],[113.07411429749587,-7.1918546853084102],[113.07410524593251,-7.1918547262952703],[113.07410528697208,-7.1918637662200142],[113.07411433853561,-7.1918637252331008]]],[[[113.07402361770863,-7.1918189354680981],[113.07402357667094,-7.1918098955428684],[113.07400547354491,-7.191809977512321],[113.07400551458225,-7.1918190174376555],[113.07402361770863,-7.1918189354680981]]],[[[113.07402361770863,-7.1918189354680981],[113.07402365874637,-7.1918279753933438],[113.07403271030969,-7.1918279344082459],[113.07403275134766,-7.1918369743333992],[113.07406895760101,-7.1918368103910151],[113.07406903967856,-7.1918548902409292],[113.07407809124214,-7.1918548492547814],[113.07407817332025,-7.1918729291045613],[113.07408722488412,-7.1918728881181302],[113.07408693761039,-7.1918096086441619],[113.07407788604777,-7.1918096496302271],[113.07407792708653,-7.1918186895551468],[113.07406887552368,-7.191818730541085],[113.07406879344656,-7.1918006506911398],[113.07403258719607,-7.1918008146326926],[113.07403266927176,-7.1918188944830543],[113.07402361770863,-7.1918189354680981]],[[113.07405077239781,-7.1918188125124267],[113.07404172083481,-7.1918188534978302],[113.07404167979676,-7.1918098135727018],[113.07405073135959,-7.1918097725873524],[113.07405077239781,-7.1918188125124267]]],[[[113.07376984565988,-7.1917477635632787],[113.07376079409667,-7.1917478045427297],[113.07376083512879,-7.1917568444694959],[113.07375178356536,-7.1917568854488216],[113.0737517425334,-7.191747845522003],[113.07374269097006,-7.1917478865010969],[113.07374285509749,-7.1917840462085731],[113.07377000978947,-7.1917839232701306],[113.07376984565988,-7.1917477635632787]]],[[[113.07375170150148,-7.1917388055951799],[113.07375157840609,-7.1917116858146741],[113.07374252684346,-7.1917117267935611],[113.07374264993834,-7.1917388465742222],[113.07375170150148,-7.1917388055951799]]],[[[113.07366073453981,-7.1916397761765483],[113.07366081659893,-7.1916578560313127],[113.07366986816093,-7.1916578150543478],[113.07366990919077,-7.191666854981654],[113.0736789607529,-7.1916668140044582],[113.07367883766305,-7.191639694222645],[113.07366073453981,-7.1916397761765483]]],[[[113.07366073453981,-7.1916397761765483],[113.0736606524809,-7.1916216963217865],[113.07364254935814,-7.1916217782747669],[113.07364263141633,-7.19163985812974],[113.07366073453981,-7.1916397761765483]]],[[[113.07343428138144,-7.19160464082531],[113.07343424035663,-7.1915956008966067],[113.0734251887945,-7.1915956418685676],[113.07342522981912,-7.1916046817973234],[113.07343428138144,-7.19160464082531]]],[[[113.07366057042219,-7.1916036164669741],[113.07366048836371,-7.1915855366121644],[113.07365143680305,-7.1915855775885351],[113.07365151886118,-7.1916036574434496],[113.07366057042219,-7.1916036164669741]]],[[[113.07366044733455,-7.1915764966847702],[113.07366040630542,-7.1915674567573378],[113.07365135474514,-7.1915674977336064],[113.07365139577406,-7.1915765376610903],[113.07366044733455,-7.1915764966847702]]],[[[113.07348859538205,-7.1903387789643354],[113.0734918565732,-7.1903293732937144],[113.07349177612777,-7.1903116442251527],[113.07348272459137,-7.1903116851909754],[113.07348280662815,-7.1903297650488316],[113.07347375509136,-7.1903298060145797],[113.07347379610965,-7.1903388459435549],[113.07348859538205,-7.1903387789643354]]]]},"properties":{"FID":0,"Shape_Leng":18102566.929299999,"Shape_Area":236516885.403}}]
}