{
  "type" : "FeatureCollection",
  "features" : [{"type":"Feature","id":0,"geometry":{"type":"MultiPolygon","coordinates":[[[[113.95350948497335,-7.0904715582458877],[113.95351852840756,-7.0904715007119021],[113.95351835562228,-7.0904443992072297],[113.95350931218859,-7.090444456740995],[113.95350936978343,-7.0904534905759631],[113.95350032634948,-7.0904535481096262],[113.95350021116022,-7.0904354804395551],[113.95349116772655,-7.0904355379728941],[113.95349111013221,-7.0904265041377519],[113.95346397983131,-7.0904266767364961],[113.95346403742512,-7.0904357105718585],[113.9534459505571,-7.0904358256369582],[113.95344600815065,-7.0904448594724334],[113.95343696471636,-7.0904449170047936],[113.95343702230981,-7.0904539508403532],[113.95342797887525,-7.0904540083726131],[113.95342809406201,-7.09047207604387],[113.95341905062705,-7.0904721335761014],[113.95341910822036,-7.0904811674117818],[113.95342815165549,-7.0904811098794767],[113.95342820924907,-7.0904901437151109],[113.95343725268432,-7.0904900861825562],[113.95343736787203,-7.0905081538536336],[113.95344641130754,-7.0905080963207565],[113.95344646890167,-7.0905171301562149],[113.95345551233729,-7.0905170726230873],[113.95345556993169,-7.0905261064584506],[113.95349174367414,-7.0905258763238859],[113.95349162848402,-7.0905078086537303],[113.95350067191907,-7.090507751119798],[113.95350049913394,-7.0904806496147126],[113.95350954256843,-7.0904805920808274],[113.95350948497335,-7.0904715582458877],[113.95350044153905,-7.0904716157796992],[113.95350038394423,-7.0904625819446645],[113.95350942737835,-7.0904625244109276],[113.95350948497335,-7.0904715582458877]],[[113.95343713749691,-7.0904720185114627],[113.95344618093172,-7.0904719609788813],[113.95344623852557,-7.0904809948143379],[113.95343719509059,-7.0904810523469957],[113.95343713749691,-7.0904720185114627]]],[[[113.95322879293916,-7.0904191386888185],[113.95321974950356,-7.0904191962167422],[113.95321980709255,-7.0904282300540906],[113.95319267678487,-7.0904284026370368],[113.95319273437342,-7.0904374364746205],[113.95318369093721,-7.090437494001991],[113.95318374852566,-7.090446527839612],[113.95317470508917,-7.0904465853668812],[113.95317476267751,-7.0904556192045893],[113.9531657192408,-7.0904556767317564],[113.95316576457668,-7.090462788550961],[113.95329081435278,-7.0905181203820513],[113.95330177392151,-7.0905180506623902],[113.95330171633017,-7.090509016825747],[113.95329267289344,-7.0905090743558175],[113.95329261530235,-7.0905000405190952],[113.95327452842903,-7.0905001555785603],[113.95327447083839,-7.0904911217416871],[113.95326542740177,-7.0904911792710825],[113.95326536981138,-7.0904821454341143],[113.95325632637488,-7.0904822029632593],[113.95325626878473,-7.0904731691262475],[113.95324722534833,-7.0904732266551429],[113.9532471101686,-7.0904551589809248],[113.95325615360466,-7.0904551014521768],[113.95325603842487,-7.0904370337781071],[113.95324699498917,-7.0904370913067076],[113.95324693739957,-7.0904280574695679],[113.95322885052832,-7.0904281725260931],[113.95322879293916,-7.0904191386888185]]],[[[113.95340943126473,-7.0903818527502311],[113.9534093160802,-7.0903637850785977],[113.95339122921411,-7.0903639001404066],[113.95339134439794,-7.090381967812335],[113.95340943126473,-7.0903818527502311]]],[[[113.95292989886131,-7.0903487662997771],[113.95290838428006,-7.0903489031447933],[113.95292996058778,-7.0903584502192318],[113.95292989886131,-7.0903487662997771]]],[[[113.95290271096898,-7.0903399050238951],[113.95288825638632,-7.0903399969624399],[113.9529027524395,-7.090346411170394],[113.95290271096898,-7.0903399050238951]]],[[[113.95344410760353,-7.0901467428991474],[113.95344405001248,-7.0901377090635238],[113.95343500658417,-7.0901377665933687],[113.95343506417505,-7.0901468004290642],[113.95344410760353,-7.0901467428991474]]],[[[113.95300639539269,-7.089580372261433],[113.95300628023701,-7.0895623045825786],[113.95301532365762,-7.0895622470657251],[113.9530152660797,-7.089553213226365],[113.95299717923876,-7.0895533282597532],[113.95299735197166,-7.0895804297782616],[113.95300639539269,-7.089580372261433]]],[[[113.95283399463811,-7.0894911266426615],[113.95283393706433,-7.0894820928018074],[113.95282489364379,-7.0894821503144874],[113.95282495121739,-7.0894911841554142],[113.95283399463811,-7.0894911266426615]]],[[[113.94090037927167,-7.0730431250094865],[113.94090032206473,-7.07303409106476],[113.940891278867,-7.0730341482130301],[113.94089133607375,-7.0730431821578303],[113.94090037927167,-7.0730431250094865]]]]},"properties":{"FID":0,"Shape_Leng":18102566.929299999,"Shape_Area":236516885.403}}]
}