{
  "type" : "FeatureCollection",
  "features" : [{"type":"Feature","id":0,"geometry":{"type":"MultiPolygon","coordinates":[[[[113.37967801817328,-6.8934148135652551],[113.37967797306369,-6.8934057754124369],[113.37966892917301,-6.8934058204932906],[113.37966897428242,-6.8934148586461657],[113.37967801817328,-6.8934148135652551]]],[[[113.37970514984548,-6.8934146783214905],[113.37971415565701,-6.8934146334297086],[113.37970486740429,-6.8933580888746757],[113.37970501451537,-6.8933875638635458],[113.37968692673499,-6.8933876540258687],[113.37968706206409,-6.8934147684841705],[113.37969610595482,-6.8934147234029153],[113.37969615106481,-6.8934237615556109],[113.37970519495565,-6.8934237164741248],[113.37970514984548,-6.8934146783214905]]],[[[113.37968621236563,-6.8932445215891693],[113.37968596977454,-6.8932430447535822],[113.37967716110145,-6.8932430886610865],[113.37967729642712,-6.8932702031197284],[113.37966825253902,-6.8932702481996877],[113.37966829764753,-6.8932792863526196],[113.37965925375917,-6.8932793314324661],[113.37965929886758,-6.8932883695854565],[113.37966834275609,-6.8932883245055496],[113.37966838786473,-6.8932973626584921],[113.37965934397604,-6.8932974077384586],[113.37965938908457,-6.8933064458914215],[113.37966843297342,-6.8933064008113956],[113.37966883895436,-6.8933877441875078],[113.37967788284469,-6.893387699106774],[113.37967783773529,-6.893378660953962],[113.37968688162542,-6.8933786158731163],[113.37968679140644,-6.8933605395675679],[113.37969583529615,-6.8933604944866715],[113.37969569996763,-6.8933333800284977],[113.37968665607843,-6.8933334251092147],[113.37968652075097,-6.8933063106508294],[113.37969635404227,-6.8933062616353951],[113.37969487057511,-6.8932972306523759],[113.37968647564193,-6.8932972724980468],[113.37968621236563,-6.8932445215891693]]],[[[113.37965898311006,-6.8932251025144566],[113.37964993922266,-6.8932251475937747],[113.37965002943845,-6.893243223899912],[113.37964098555067,-6.8932432689791794],[113.37964103065849,-6.8932523071323191],[113.37965007454643,-6.8932522620529921],[113.37965016476259,-6.8932703383590912],[113.37965920865085,-6.8932702932794747],[113.37965916354257,-6.8932612551264789],[113.37966820743057,-6.8932612100467505],[113.37966816232218,-6.8932521718938267],[113.37965911843435,-6.8932522169734955],[113.37965898311006,-6.8932251025144566]]],[[[113.37964076001251,-6.8931980782135085],[113.37964080512002,-6.8932071163666508],[113.37963176123283,-6.8932071614455079],[113.37963180634024,-6.8932161995987045],[113.37964989411486,-6.8932161094406998],[113.37964980389944,-6.8931980331345395],[113.37964076001251,-6.8931980782135085]]],[[[113.37964076001251,-6.8931980782135085],[113.37964071490505,-6.8931890400603644],[113.37963167101822,-6.8931890851391007],[113.3796317161255,-6.893198123292307],[113.37964076001251,-6.8931980782135085]]],[[[113.37958514352323,-6.892927204077008],[113.37958509841862,-6.8929181659234118],[113.37957605453656,-6.8929182109993326],[113.379576099641,-6.89292724915299],[113.37958514352323,-6.892927204077008]]],[[[113.37958500820957,-6.8929000896161714],[113.37958505331407,-6.8929091277697934],[113.37959409719591,-6.8929090826937598],[113.37959405209125,-6.8929000445401973],[113.37958500820957,-6.8929000896161714]]],[[[113.37958500820957,-6.8929000896161714],[113.37958496310516,-6.8928910514625468],[113.37957591922361,-6.8928910965382899],[113.37957596432787,-6.8929001346919749],[113.37958500820957,-6.8929000896161714]]],[[[113.37959355594401,-6.8928006248507696],[113.37958451206423,-6.8928006699260873],[113.37958460227192,-6.8928187462334085],[113.37957555839176,-6.8928187913086747],[113.37957582901528,-6.8928730202309074],[113.37958487289647,-6.8928729751552833],[113.37958482779224,-6.892863937001648],[113.37959387167322,-6.8928638919259129],[113.37959396188211,-6.8928819682330795],[113.37960300576336,-6.8928819231570522],[113.37960305086806,-6.8928909613105462],[113.37961209474943,-6.8928909162342906],[113.37961232027475,-6.8929361070014847],[113.3796032763925,-6.8929361520780379],[113.3796034117079,-6.8929632665384908],[113.37961245559065,-6.8929632214617573],[113.37961250069607,-6.8929722596151564],[113.37960345681316,-6.8929723046919493],[113.37960350191848,-6.892981342845439],[113.37961254580155,-6.8929812977685856],[113.3796125909071,-6.8929903359219962],[113.37963067867339,-6.892990245767658],[113.3796306335675,-6.8929812076143691],[113.3796396774504,-6.8929811625370032],[113.37963957484742,-6.8929606033564097],[113.37963256505689,-6.8929179293405047],[113.37963031782799,-6.892917940541234],[113.37963024735721,-6.8929038197065928],[113.37961179659531,-6.8927914955592993],[113.3796115985991,-6.8927914965461339],[113.3796115923903,-6.8927902524039713],[113.37961031313459,-6.8927824645747267],[113.37959346573621,-6.8927825485435541],[113.37959355594401,-6.8928006248507696],[113.37960259982371,-6.8928005797752823],[113.37960264492787,-6.8928096179288252],[113.37961168880771,-6.8928095728531051],[113.37961182412107,-6.8928366873135332],[113.37960278024073,-6.8928367323894308],[113.37960282534513,-6.8928457705429604],[113.37959378146458,-6.8928458156187471],[113.37959355594401,-6.8928006248507696]]],[[[113.3795934206324,-6.892773510389941],[113.37959337552866,-6.8927644722363057],[113.37958433164955,-6.8927645173113854],[113.37958437675313,-6.8927735554650784],[113.3795934206324,-6.892773510389941]]],[[[113.37951876945243,-6.8923129251227051],[113.37951872435313,-6.8923038869684383],[113.37952776822392,-6.892303841897597],[113.37952772312453,-6.8922948037433525],[113.37950963538322,-6.8922948938847437],[113.37950972558139,-6.8923129701934336],[113.37951876945243,-6.8923129251227051]]],[[[113.37949127705063,-6.8922407550985723],[113.3794911868541,-6.8922226787895857],[113.37948214298461,-6.892222723859204],[113.37948223318079,-6.8922408001683131],[113.37949127705063,-6.8922407550985723]]],[[[113.37940843915379,-6.8919519397572984],[113.3794086646288,-6.8919971305329817],[113.37941770849449,-6.8919970854662225],[113.37941779868525,-6.8920151617763503],[113.37942684255125,-6.892015116709298],[113.3794268876469,-6.8920241548642966],[113.37941784378073,-6.8920241999314076],[113.37941793397185,-6.892042276241515],[113.37943602170479,-6.892042186106881],[113.37943606680079,-6.8920512242618255],[113.37944511066735,-6.8920511791941959],[113.37944506557118,-6.8920421410393091],[113.37947219716995,-6.8920420058355685],[113.37947197168745,-6.891996815062063],[113.37948101555273,-6.8919967699941056],[113.3794810081241,-6.8919952811653271],[113.3794797690379,-6.8919877378264403],[113.37947192659114,-6.8919877769073512],[113.37947188149488,-6.891978738752619],[113.37947828558731,-6.8919787068394456],[113.37947680213682,-6.891969675852458],[113.37947183639868,-6.891969700597917],[113.37947168071017,-6.8919384974974269],[113.37947086833603,-6.8919335519041516],[113.37946261215035,-6.8919335930463559],[113.37946252195896,-6.8919155167367734],[113.37945347809512,-6.8919155618038541],[113.37945343299968,-6.8919065236489887],[113.37943534527211,-6.8919066137825142],[113.37943525508213,-6.8918885374725534],[113.3794262112186,-6.8918885825389422],[113.37942616612386,-6.8918795443838698],[113.37941712226042,-6.891879589450026],[113.37941721244962,-6.8918976657602515],[113.37942625631339,-6.8918976206939755],[113.37942630140826,-6.8919066588490221],[113.3794172575443,-6.8919067039153585],[113.37941739282873,-6.8919338183806396],[113.37940834896423,-6.8919338634469822],[113.37940830386952,-6.8919248252918441],[113.37939926000514,-6.8919248703579576],[113.3793993952889,-6.8919519848235922],[113.37940843915379,-6.8919519397572984],[113.37940839405898,-6.8919429016021514],[113.37941743792366,-6.8919428565357483],[113.37941748301864,-6.8919518946908367],[113.37940843915379,-6.8919519397572984]],[[113.37945356828615,-6.8919336381135539],[113.3794445244219,-6.8919336831805831],[113.37944447932652,-6.8919246450256804],[113.37945352319061,-6.8919245999587151],[113.37945356828615,-6.8919336381135539]]],[[[113.37941676150609,-6.891807284208979],[113.37941667131811,-6.8917892078986798],[113.37939858359452,-6.8917892980292894],[113.37939867378182,-6.8918073743398249],[113.37941676150609,-6.891807284208979]]],[[[113.37926998556868,-6.891392250052089],[113.37926994048019,-6.8913832118958167],[113.37926089662515,-6.8913832569557876],[113.37926094171347,-6.8913922951121194],[113.37926998556868,-6.891392250052089]]],[[[113.37926989539174,-6.89137417373954],[113.37926980521506,-6.8913560974269625],[113.37926076136054,-6.8913561424867549],[113.37926085153688,-6.8913742187994522],[113.37926989539174,-6.89137417373954]]],[[[113.37926953468643,-6.8913018684892],[113.37926948959854,-6.8912928303328922],[113.37926044574522,-6.8912928753922653],[113.37926049083293,-6.8913019135486344],[113.37926953468643,-6.8913018684892]]],[[[113.37928451144717,-6.8906781455840145],[113.3792844663631,-6.890669107427569],[113.37927542252167,-6.8906691524831691],[113.37927546760557,-6.8906781906396732],[113.37928451144717,-6.8906781455840145]]],[[[113.37930246387715,-6.8906509410031909],[113.37930241879293,-6.8906419028468706],[113.37929337495214,-6.8906419479026333],[113.37929342003619,-6.8906509860590131],[113.37930246387715,-6.8906509410031909]]],[[[113.37935587031234,-6.8904789457004361],[113.37935582522825,-6.8904699075443707],[113.37934678139108,-6.8904699526000259],[113.37934682647501,-6.8904789907561526],[113.37935587031234,-6.8904789457004361]]],[[[113.37932810763554,-6.8903525466795106],[113.37933715147061,-6.8903525016249718],[113.37933710638771,-6.890343463468751],[113.37932806255282,-6.8903435085232285],[113.37932810763554,-6.8903525466795106]]],[[[113.37932810763554,-6.8903525466795106],[113.37931906380041,-6.890352591733877],[113.37931910888302,-6.8903616298901955],[113.37931006504768,-6.8903616749444518],[113.37930992980051,-6.8903345604752699],[113.37932801747014,-6.8903344703669456],[113.37932797238754,-6.8903254322106573],[113.37934606005659,-6.8903253421017689],[113.37934610513955,-6.8903343802579364],[113.37936313658058,-6.8903342954102138],[113.37936214016881,-6.8903071852321913],[113.37935501372496,-6.8903072207348366],[113.37935505880796,-6.8903162588909384],[113.37933697113937,-6.8903163490000496],[113.37933692605671,-6.8903073108438289],[113.37930979455389,-6.8903074460060356],[113.37930970438978,-6.8902893696931953],[113.37930066055574,-6.8902894147468032],[113.37930061547395,-6.8902803765903178],[113.37929157163998,-6.8902804216436957],[113.37929166180329,-6.8902984979567812],[113.37928261796895,-6.8902985430101058],[113.379282527806,-6.8902804666969013],[113.37927348397193,-6.8902805117499355],[113.37927357413454,-6.8902985880632626],[113.37926453030009,-6.890298633116247],[113.37926471062538,-6.8903347857430912],[113.37927375446051,-6.8903347406898687],[113.37927379954216,-6.8903437788465096],[113.379246668036,-6.8903439140058449],[113.37924675819846,-6.8903619903194606],[113.37927388970563,-6.8903618551597674],[113.37927393478746,-6.8903708933164145],[113.37928297862324,-6.8903708482627843],[113.3792828884593,-6.8903527719496376],[113.37930097613,-6.8903526818420984],[113.37930102121227,-6.8903617199985385],[113.37929197737677,-6.8903617650524529],[113.37929202245894,-6.8903708032089819],[113.3793010662946,-6.890370758155008],[113.379301111377,-6.890379796311457],[113.37931015521276,-6.8903797512572522],[113.37931020029539,-6.8903887894136355],[113.37928306878742,-6.890388924575916],[113.37928320403412,-6.8904160390455864],[113.37929224787069,-6.8904159939914837],[113.37929229295322,-6.8904250321479754],[113.3792832491165,-6.8904250772021358],[113.37928333928139,-6.890443153515224],[113.37929238311847,-6.8904431084609428],[113.37929242820117,-6.890452146617422],[113.37928338436393,-6.8904521916717618],[113.37928342944655,-6.8904612298282952],[113.3792653417715,-6.8904613199365814],[113.37926538685383,-6.8904703580932321],[113.37929251836678,-6.890470222930368],[113.37929256344968,-6.8904792610868526],[113.37928351961192,-6.8904793061413709],[113.3792835646947,-6.8904883442978777],[113.37929260853264,-6.8904882992432999],[113.37929269869872,-6.8905063755562157],[113.37928365486046,-6.8905064206109135],[113.37928374502644,-6.8905244969239172],[113.37927470118775,-6.8905245419785626],[113.37927474627068,-6.8905335801351457],[113.37929283394833,-6.8905334900255637],[113.37929305936552,-6.8905786808077343],[113.37928401552588,-6.890578725862909],[113.37928410569285,-6.8905968021758701],[113.37927506185278,-6.8905968472309924],[113.37927515201964,-6.8906149235440592],[113.37928419586005,-6.8906148784888179],[113.37928428602748,-6.8906329548017489],[113.37930237370877,-6.8906328646905131],[113.37930232862469,-6.8906238265341688],[113.37931137246505,-6.8906237814783529],[113.37931132738085,-6.8906147433220637],[113.37930228354064,-6.8906147883778184],[113.37930196795411,-6.8905515212832746],[113.37931101179311,-6.8905514762279383],[113.3793111921286,-6.890587628853174],[113.37932023596822,-6.8905875837974291],[113.3793204613898,-6.8906327745785934],[113.37931141754932,-6.8906328196346385],[113.37931164297154,-6.8906780104160097],[113.37930259913017,-6.8906780554721809],[113.37930250896143,-6.8906599791595244],[113.3792934651203,-6.8906600242154079],[113.37929355528867,-6.8906781005281843],[113.37928451144717,-6.8906781455840145],[113.37928469178399,-6.89071429820976],[113.37927564794171,-6.8907143432656577],[113.37927551268952,-6.8906872287961933],[113.37926646884769,-6.890687273851742],[113.37926628851297,-6.8906511212254582],[113.3792753323541,-6.8906510761701467],[113.37927524218675,-6.890632999857111],[113.37926619834596,-6.8906330449123017],[113.37926588276336,-6.8905697778161237],[113.37924779508398,-6.8905698679251577],[113.37924788524946,-6.8905879442386198],[113.37925692908952,-6.8905878991840694],[113.37925697417252,-6.8905969373407272],[113.37924793033227,-6.8905969823953388],[113.37924797541517,-6.8906060205520516],[113.37923893157472,-6.8906060656065513],[113.37923897665749,-6.8906151037633201],[113.37924802049811,-6.8906150587087618],[113.37924847133092,-6.89070544027566],[113.37926655901543,-6.8907053501648354],[113.37926669426749,-6.8907324646344579],[113.37927573811014,-6.8907324195786117],[113.37927587336326,-6.8907595340480556],[113.37928491720639,-6.8907594889918586],[113.3792848721218,-6.8907504508354451],[113.37929391596467,-6.8907504057791371],[113.37929418647421,-6.8908046347171981],[113.37930323031809,-6.8908045896603625],[113.37930332048876,-6.8908226659728991],[113.37929427664454,-6.8908227110298563],[113.3792944119005,-6.8908498254988295],[113.37931249958987,-6.8908497353843892],[113.37931258976148,-6.8908678116967552],[113.37932163360642,-6.8908677666391585],[113.37932167869249,-6.8908768047952833],[113.37931263484738,-6.8908768498529387],[113.37931272501937,-6.8908949261652817],[113.37930368117388,-6.8908949712228873],[113.37930359100224,-6.8908768949104253],[113.37929454715699,-6.8908769399677396],[113.37929463732829,-6.8908950162803189],[113.37928559348266,-6.8908950613375817],[113.37928554839716,-6.890886023181241],[113.37927650455164,-6.8908860682382747],[113.37927663980783,-6.8909131827075125],[113.37926759596175,-6.8909132277645524],[113.37926782138909,-6.8909584185468393],[113.37927686523602,-6.890958373489501],[113.37927691032185,-6.8909674116458879],[113.37926786647475,-6.8909674567032857],[113.37926791156045,-6.8909764948597294],[113.37927695540775,-6.8909764498022703],[113.37927763170326,-6.8911120221475723],[113.37926858785342,-6.891112067205925],[113.37926863294008,-6.8911211053623083],[113.3792776767901,-6.891121060303897],[113.37927862362798,-6.891310861585823],[113.37928766748156,-6.8913108165259889],[113.3792878027468,-6.8913379309945419],[113.37927875889272,-6.8913379760545554],[113.37927911960134,-6.891410281304303],[113.37927007574586,-6.891410326364622],[113.37927016592327,-6.8914284026771426],[113.37927920977911,-6.8914283576167028],[113.37927929995712,-6.8914464339290848],[113.37928834381324,-6.8914463888683573],[113.37928856926017,-6.8914915796489549],[113.37929761311707,-6.8914915345877539],[113.37929792874651,-6.8915548016800194],[113.37930697260457,-6.8915547566182314],[113.37930715296626,-6.8915909092420637],[113.37931619682493,-6.8915908641798653],[113.37931637718827,-6.8916270168033984],[113.37932542104757,-6.8916269717407923],[113.37932546613874,-6.8916360098966232],[113.37933450999815,-6.891635964833787],[113.37933464527249,-6.8916630793010123],[113.37934368913236,-6.8916630342378244],[113.37934382440777,-6.8916901487048543],[113.37935286826809,-6.8916901036413183],[113.37935295845234,-6.8917081799525324],[113.37936200231293,-6.8917081348887059],[113.37936204740532,-6.8917171730442481],[113.37937109126601,-6.8917171279801908],[113.37937113635863,-6.891726166135653],[113.37936209249776,-6.891726211199769],[113.37936213759028,-6.8917352493553219],[113.37938022531232,-6.8917351592267977],[113.37938009003393,-6.8917080447605388],[113.37938913389434,-6.8917079996961981],[113.3793890888015,-6.8916989615408317],[113.37940717652181,-6.8916988714117569],[113.37940686087123,-6.8916356043249367],[113.37939781701232,-6.8916356493891398],[113.37939768173491,-6.8916085349231011],[113.37940672559331,-6.8916084898590748],[113.37940663540834,-6.8915904135484958],[113.37939759155029,-6.8915904586124013],[113.37939736608978,-6.8915452678355855],[113.37938832223249,-6.8915453128990229],[113.37938818695741,-6.8915181984326921],[113.37937914310059,-6.8915182434957787],[113.37937905291786,-6.891500167184784],[113.3793700090613,-6.891500212247581],[113.37936987378816,-6.8914730977808718],[113.3793608299321,-6.891473142843318],[113.37936037902729,-6.8913827612867111],[113.37935133517287,-6.8913828063483891],[113.37935129008288,-6.8913737681926506],[113.37936033393714,-6.8913737231310304],[113.37936019866707,-6.8913466086639703],[113.37935115481332,-6.8913466537254111],[113.37935106463392,-6.8913285774138995],[113.37934202078043,-6.8913286224750507],[113.37934193060161,-6.8913105461633863],[113.37935097445475,-6.8913105011023541],[113.37935092936526,-6.8913014629466041],[113.37935997321814,-6.8913014178854608],[113.37935983794952,-6.891274303418311],[113.37935079409715,-6.8912743484792767],[113.37935083918646,-6.891283386635056],[113.37934179533383,-6.891283431695908],[113.3793415247999,-6.8912292027608153],[113.37933248094825,-6.8912292478211379],[113.37933225550584,-6.8911840570414942],[113.37934129935662,-6.89118401198147],[113.37934080338675,-6.8910845922665818],[113.37933175953785,-6.8910846373259513],[113.37933139883846,-6.8910123320780023],[113.37932235499083,-6.8910123771367218],[113.37932226481693,-6.8909943008245804],[113.37933130866422,-6.8909942557659773],[113.37933121849021,-6.8909761794539373],[113.37934026233707,-6.8909761343952844],[113.37934012707602,-6.8909490199273753],[113.37934917092231,-6.8909489748687323],[113.37934912583525,-6.8909399367127957],[113.3793581696813,-6.8909398916540407],[113.37935803441994,-6.8909127771864629],[113.3793489905744,-6.8909128222450402],[113.3793489004008,-6.8908947459331573],[113.37933985655553,-6.8908947909914451],[113.37933967620975,-6.8908586383674422],[113.3793215885204,-6.8908587284830283],[113.37932145326273,-6.89083161401462],[113.37933049710693,-6.8908315689570916],[113.3793302265922,-6.8907773400205272],[113.37932118274902,-6.8907773850776994],[113.37932113766362,-6.8907683469215328],[113.37931209382057,-6.8907683919784732],[113.3793120487354,-6.8907593538222427],[113.37932109257827,-6.8907593087653618],[113.37932095732261,-6.8907321942968141],[113.37933000116493,-6.890732149239942],[113.37932964048443,-6.8906598439908535],[113.37933868432529,-6.890659798934287],[113.37933841381644,-6.8906055699976605],[113.3793293699766,-6.8906056150538673],[113.37932932489217,-6.8905965768976918],[113.37933836873184,-6.8905965318415427],[113.37933818839406,-6.8905603792170362],[113.37934723223302,-6.8905603341609556],[113.37934718714855,-6.8905512960048796],[113.37935623098726,-6.890551250948687],[113.37935614081816,-6.8905331746366425],[113.37933805314137,-6.8905332647486173],[113.37933814330977,-6.8905513410609007],[113.37932909947095,-6.8905513861167496],[113.37932900930288,-6.8905333098043489],[113.37933805314137,-6.8905332647486173],[113.37933800805725,-6.8905242265924542],[113.37932896421894,-6.8905242716481236],[113.37932882896747,-6.8904971571794977],[113.37933787280528,-6.8904971121240068],[113.37933755721946,-6.8904338450308131],[113.37934660105601,-6.8904337999755683],[113.37934664613968,-6.8904428381316754],[113.37936473381292,-6.8904427480205523],[113.37936459856105,-6.890415633552526],[113.37936612581977,-6.8904156259438611],[113.379364132993,-6.8903614055881475],[113.37935528422388,-6.8903614496714649],[113.37935519405734,-6.8903433733592818],[113.37934615022256,-6.8903434184141021],[113.37934628547197,-6.8903705328825762],[113.37933724163661,-6.8903705779374018],[113.37933719655358,-6.8903615397811739],[113.37932815271834,-6.8903615848357713],[113.37932810763554,-6.8903525466795106]],[[113.37931033554365,-6.8904159038827686],[113.37931937938002,-6.8904158588281552],[113.37931942446308,-6.8904248969844675],[113.37931038062652,-6.8904249420391404],[113.37931033554365,-6.8904159038827686]],[[113.37931277010544,-6.890903964321474],[113.37932181395107,-6.8909039192636374],[113.37932190412376,-6.8909219955758569],[113.37931286027781,-6.8909220406338099],[113.37931277010544,-6.890903964321474]],[[113.37931367183982,-6.8910847274441771],[113.37932271568886,-6.8910846823851504],[113.37932276077638,-6.8910937205411873],[113.37931371692717,-6.8910937656002744],[113.37931367183982,-6.8910847274441771]],[[113.3792866304661,-6.8911029389327636],[113.37929567431566,-6.8911028938741303],[113.37929576448997,-6.8911209701865612],[113.37928672064008,-6.8911210152453144],[113.3792866304661,-6.8911029389327636]],[[113.37930548465758,-6.8912564974693629],[113.37931452850991,-6.8912564524093733],[113.37931448342147,-6.8912474142533453],[113.37932352727358,-6.8912473691932421],[113.3793235723622,-6.8912564073492124],[113.37933261621443,-6.8912563622888818],[113.37933288674843,-6.891310591224248],[113.37932384289516,-6.8913106362849392],[113.37932375271726,-6.8912925599730572],[113.3793147088643,-6.8912926050334562],[113.3793146637756,-6.8912835668774406],[113.3793237076284,-6.8912835218171011],[113.37932361745086,-6.8912654455051969],[113.37931457359842,-6.8912654905654174],[113.37931461868699,-6.8912745287214214],[113.37930557483431,-6.8912745737815326],[113.37930548465758,-6.8912564974693629]],[[113.3793241134303,-6.8913648652205639],[113.37933315728459,-6.8913648201595166],[113.37933333764325,-6.8914009727829422],[113.37932429378827,-6.8914010178442284],[113.3793241134303,-6.8913648652205639]],[[113.37930652170458,-6.8914643750583959],[113.37931556556084,-6.8914643299970324],[113.37931561065075,-6.8914733681529903],[113.37930656679431,-6.8914734132144124],[113.37930652170458,-6.8914643750583959]],[[113.37930665697394,-6.891491489526385],[113.37931570083073,-6.891491444464843],[113.37931592628172,-6.8915366352444547],[113.37930688242409,-6.8915366803062952],[113.37930665697394,-6.891491489526385]],[[113.37932492504882,-6.8915275520265897],[113.37933396890618,-6.8915275069644695],[113.37933423945107,-6.8915817358991847],[113.37932519559268,-6.8915817809616637],[113.37932492504882,-6.8915275520265897]]],[[[113.37927348397193,-6.8902805117499355],[113.37927343889071,-6.8902714735932848],[113.37926439505675,-6.890271518646089],[113.3792644401378,-6.8902805568028],[113.37927348397193,-6.8902805117499355]]],[[[113.37927343889071,-6.8902714735932848],[113.37928248272461,-6.8902714285403084],[113.37928243764327,-6.8902623903836799],[113.37927339380953,-6.8902624354365951],[113.37927343889071,-6.8902714735932848]]],[[[113.3792913913141,-6.8902442690174768],[113.37929143639549,-6.8902533071740368],[113.3793185678956,-6.890253172013928],[113.37931852281369,-6.8902441338575464],[113.3792913913141,-6.8902442690174768]]],[[[113.37934569939517,-6.8902530368522825],[113.37934560923041,-6.8902349605398747],[113.37933656539761,-6.8902350055938095],[113.37933665556203,-6.8902530819063363],[113.37934569939517,-6.8902530368522825]]],[[[113.3792913913141,-6.8902442690174768],[113.37929130115153,-6.8902261927043611],[113.37928225731855,-6.8902262377572097],[113.3792823474808,-6.8902443140704444],[113.3792913913141,-6.8902442690174768]]],[[[113.37935782239185,-6.8901897077933061],[113.37935715811955,-6.8901716343410548],[113.3793543374872,-6.8901716483926432],[113.37935442765145,-6.8901897247049835],[113.37935782239185,-6.8901897077933061]]]]},"properties":{"FID":0,"Shape_Leng":18102566.929299999,"Shape_Area":236516885.403}}]
}