{
  "type" : "FeatureCollection",
  "features" : [{"type":"Feature","id":0,"geometry":{"type":"MultiPolygon","coordinates":[[[[114.34411872825986,-7.0711242111566008],[114.34411866323548,-7.0711151807238259],[114.34410962359132,-7.0711152456818143],[114.34410968861552,-7.0711242761146726],[114.34411872825986,-7.0711242111566008]]],[[[114.34414539201978,-7.0710608032535891],[114.34414552206864,-7.0710788641186806],[114.34415456171176,-7.071078799160329],[114.34415443166255,-7.0710607382954054],[114.34414539201978,-7.0710608032535891]]],[[[114.34414539201978,-7.0710608032535891],[114.34414532699547,-7.0710517728210371],[114.34413628735281,-7.0710518377789633],[114.34413635237695,-7.0710608682115987],[114.34414539201978,-7.0710608032535891]]],[[[114.34420788921656,-7.0709519833587731],[114.34420782419205,-7.0709429529267585],[114.34419878455206,-7.070943017884904],[114.34419884957639,-7.0709520483170012],[114.34420788921656,-7.0709519833587731]]],[[[114.34415443166255,-7.0710607382954054],[114.34416347130522,-7.0710606733370449],[114.34416340628056,-7.0710516429046608],[114.34417244592296,-7.0710515779462106],[114.34417231587356,-7.0710335170815979],[114.34418135551554,-7.0710334521231397],[114.34418129049079,-7.0710244216909111],[114.34419033013251,-7.0710243567323632],[114.34419020008292,-7.0710062958680595],[114.34419923972419,-7.0710062309095045],[114.34419904464991,-7.0709791396132715],[114.3442080842906,-7.070979074654792],[114.34420801926582,-7.0709700442227907],[114.34421705890624,-7.0709699792642189],[114.34421699388137,-7.0709609488322975],[114.34422603352152,-7.070960883873636],[114.34422590347172,-7.070942823009946],[114.34421686383192,-7.0709428879684397],[114.34421692885661,-7.07095191840037],[114.34420788921656,-7.0709519833587731],[114.34420795424116,-7.0709610137907841],[114.34419891460081,-7.070961078749094],[114.34419897962532,-7.0709701091811858],[114.34418993998474,-7.0709701741394042],[114.34419013505824,-7.0709972654359197],[114.34418109541706,-7.0709973303942162],[114.34418103039265,-7.0709882999619538],[114.34417199075153,-7.0709883649199936],[114.3441721208001,-7.0710064257846472],[114.34414500187523,-7.0710066206582169],[114.34414526197126,-7.0710427423884985],[114.34415430161366,-7.0710426774304809],[114.34415417156512,-7.0710246165655066],[114.3441632112071,-7.0710245516074846],[114.34416314618279,-7.0710155211750836],[114.3441721858245,-7.0710154562169683],[114.344172250849,-7.0710244866492848],[114.3441632112071,-7.0710245516074846],[114.34416334125599,-7.07104261247229],[114.34415430161366,-7.0710426774304809],[114.34415443166255,-7.0710607382954054]]],[[[114.34421686383192,-7.0709428879684397],[114.34421679880732,-7.0709338575365051],[114.34420775916762,-7.0709339224947403],[114.34420782419205,-7.0709429529267585],[114.34421686383192,-7.0709428879684397]]],[[[114.34422590347172,-7.070942823009946],[114.34423494311145,-7.0709427580512774],[114.3442348780865,-7.0709337276195106],[114.34422583844695,-7.0709337925780948],[114.34422590347172,-7.070942823009946]]],[[[114.3442704514168,-7.0708521939003512],[114.34425237214147,-7.0708523238172356],[114.34425243716599,-7.0708613542488719],[114.34424339752802,-7.0708614192071364],[114.34424352757699,-7.0708794800705483],[114.34423448793859,-7.0708795450288058],[114.34423468301217,-7.0709066363241844],[114.34422564337314,-7.0709067012825182],[114.34422577342225,-7.0709247621462241],[114.3442438527009,-7.0709246322290467],[114.34424372265109,-7.0709065713656765],[114.34425276228994,-7.0709065064069927],[114.34425263224011,-7.0708884455437566],[114.34427071151684,-7.0708883156262017],[114.3442704514168,-7.0708521939003512]],[[114.34425250219061,-7.0708703846805046],[114.34426154182867,-7.0708703197219824],[114.34426160685355,-7.0708793501535094],[114.34425256721534,-7.0708794151121159],[114.34425250219061,-7.0708703846805046]]],[[[114.34429724520342,-7.0708068468675638],[114.34428820556691,-7.0708069118261987],[114.34428814054219,-7.0707978813948724],[114.34427910090579,-7.0707979463532498],[114.34427923095497,-7.0708160072160648],[114.34427019131812,-7.0708160721744342],[114.34427032136729,-7.0708341330374171],[114.34426128173001,-7.0708341979957803],[114.34426134675455,-7.0708432284273242],[114.344270386392,-7.0708431634688784],[114.3442704514168,-7.0708521939003512],[114.34427949105435,-7.0708521289416453],[114.3442793610045,-7.0708340680788799],[114.34428840064159,-7.0708340031201686],[114.34428833561661,-7.0708249726888379],[114.34429737525348,-7.0708249077300351],[114.34429724520342,-7.0708068468675638]]],[[[114.34429724520342,-7.0708068468675638],[114.34430628483982,-7.0708067819087521],[114.34430615478976,-7.0707887210464495],[114.34431519442573,-7.0707886560876316],[114.34431499935076,-7.0707615647943554],[114.34432403898614,-7.0707614998356139],[114.3443238439114,-7.0707344085425676],[114.34433288354616,-7.0707343435839043],[114.34433268847165,-7.070707252291073],[114.34431460920311,-7.0707073822077229],[114.34431493432594,-7.07075253436326],[114.34429685505532,-7.0707526642800502],[114.34429692007978,-7.0707616947113117],[114.34430595971531,-7.070761629752921],[114.34430602474005,-7.0707706601840954],[114.34428794546854,-7.0707707901008714],[114.34428814054219,-7.0707978813948724],[114.34429718017853,-7.070797816436321],[114.34429724520342,-7.0708068468675638]]],[[[114.34433268847165,-7.070707252291073],[114.34434172810582,-7.0707071873324843],[114.34434166308098,-7.0706981569016154],[114.34435070271486,-7.070698091942937],[114.34435050764036,-7.0706710006505435],[114.34433242837353,-7.0706711305672236],[114.34433255842244,-7.0706891914291647],[114.34432351878856,-7.0706892563874106],[114.34432358381295,-7.07069828681845],[114.344332623447,-7.0706982218601206],[114.34433268847165,-7.070707252291073]]],[[[114.34435050764036,-7.0706710006505435],[114.34435954727361,-7.0706709356919406],[114.34435948224878,-7.0706619052612405],[114.3443685218818,-7.0706618403025479],[114.34436845685687,-7.070652809871909],[114.34437749648961,-7.0706527449131258],[114.34437736643964,-7.0706346840520062],[114.34436832680726,-7.0706347490106225],[114.34436826178258,-7.0706257185799908],[114.34435922215025,-7.0706257835383495],[114.34435935219933,-7.070643844399795],[114.34435031256659,-7.0706439093581457],[114.3443503775911,-7.0706529397889541],[114.3443413379581,-7.0706530047472151],[114.34434140298249,-7.0706620351781035],[114.34435044261568,-7.0706619702197591],[114.34435050764036,-7.0706710006505435]]],[[[114.34436826178258,-7.0706257185799908],[114.34438634104696,-7.0706255886627503],[114.34438627602201,-7.0706165582322464],[114.3443953156539,-7.0706164932734472],[114.34439525062886,-7.070607462843042],[114.34438621099716,-7.0706075278017559],[114.34438614597238,-7.0705984973712628],[114.34437710634076,-7.0705985623297201],[114.34437723639003,-7.0706166231908707],[114.34436819675798,-7.07061668814932],[114.34436826178258,-7.0706257185799908]]],[[[114.3444041602103,-7.0705893370234945],[114.34439512057905,-7.0705894019822164],[114.34439518560391,-7.0705984324126314],[114.34440422523535,-7.0705983674538242],[114.3444041602103,-7.0705893370234945]]],[[[114.3444041602103,-7.0705893370234945],[114.34441319984153,-7.0705892720645975],[114.34441300476639,-7.0705621807738313],[114.34442204439696,-7.0705621158150116],[114.34442191434695,-7.0705440549546479],[114.34441287471674,-7.0705441199133015],[114.34441293974152,-7.070553150343569],[114.344403900111,-7.0705532153021302],[114.3444041602103,-7.0705893370234945]]],[[[114.34443992858193,-7.0705348946067987],[114.34443088895203,-7.070534959565717],[114.3444309539771,-7.0705439899958202],[114.34443999360715,-7.0705439250368185],[114.34443992858193,-7.0705348946067987]]],[[[114.34443992858193,-7.0705348946067987],[114.34444896821172,-7.0705348296477037],[114.34444890318642,-7.0705257992177639],[114.3444398635568,-7.0705258641767736],[114.34443992858193,-7.0705348946067987]]],[[[114.34444890318642,-7.0705257992177639],[114.34445794281596,-7.0705257342585783],[114.34445787779056,-7.0705167038287184],[114.34444883816118,-7.0705167687878188],[114.34444890318642,-7.0705257992177639]]],[[[114.34444883816118,-7.0705167687878188],[114.34444877313602,-7.0705077383578541],[114.34443973350676,-7.070507803316695],[114.34443979853174,-7.070516833746745],[114.34444883816118,-7.0705167687878188]]],[[[114.34445787779056,-7.0705167038287184],[114.34446691741982,-7.0705166388694431],[114.34446685239433,-7.0705076084396454],[114.34445781276524,-7.0705076733988363],[114.34445787779056,-7.0705167038287184]]],[[[114.34446685239433,-7.0705076084396454],[114.34447589202335,-7.0705075434802778],[114.34447582699777,-7.0704985130505937],[114.34446678736893,-7.0704985780098761],[114.34446685239433,-7.0705076084396454]]],[[[114.34447582699777,-7.0704985130505937],[114.34448486662653,-7.0704984480911364],[114.34448480160086,-7.0704894176615145],[114.34447576197226,-7.0704894826208884],[114.34447582699777,-7.0704985130505937]]],[[[114.34448480160086,-7.0704894176615145],[114.34449384122935,-7.0704893527019657],[114.34449377620358,-7.0704803222724237],[114.34448473657527,-7.0704803872318891],[114.34448480160086,-7.0704894176615145]]],[[[114.34449377620358,-7.0704803222724237],[114.34450281583183,-7.0704802573127834],[114.34450275080597,-7.0704712268833214],[114.34451179043396,-7.0704711619235914],[114.34451166038214,-7.0704531010648228],[114.34450262075453,-7.070453166024385],[114.34450268578021,-7.0704621964538399],[114.3444936461523,-7.0704622614133106],[114.34449377620358,-7.0704803222724237]]],[[[114.34451166038214,-7.0704531010648228],[114.34452070000967,-7.0704530361050839],[114.34452063498372,-7.0704440056757774],[114.34451159535638,-7.070444070635431],[114.34451166038214,-7.0704531010648228]]],[[[114.34452063498372,-7.0704440056757774],[114.34453871423821,-7.0704438757559451],[114.34453858418588,-7.0704258148976535],[114.34452954455904,-7.0704258798574902],[114.34452960958498,-7.0704349102867212],[114.34452056995787,-7.0704349752464664],[114.34452063498372,-7.0704440056757774]]],[[[114.34453858418588,-7.0704258148976535],[114.34454762381264,-7.0704257499376428],[114.3445474937603,-7.0704076890795031],[114.34452941450738,-7.0704078189990156],[114.34452947953316,-7.0704168494282706],[114.34453851915983,-7.0704167844685184],[114.34453858418588,-7.0704258148976535]]],[[[114.3445474937603,-7.0704076890795031],[114.34455653338661,-7.0704076241194844],[114.34455646836039,-7.0703985936904923],[114.34454742873426,-7.0703986586504275],[114.3445474937603,-7.0704076890795031]]],[[[114.34457441755956,-7.0703804029124377],[114.3445653779339,-7.0703804678725541],[114.34456531290778,-7.0703714374436331],[114.34455627328224,-7.070371502403491],[114.34455633830821,-7.0703805328324965],[114.3445472986824,-7.0703805977922629],[114.34454736370829,-7.0703896282213474],[114.34455640333425,-7.0703895632614966],[114.34455646836039,-7.0703985936904923],[114.34456550798646,-7.0703985287303839],[114.34456544296015,-7.0703894983014717],[114.34457448258595,-7.0703894333412718],[114.34457441755956,-7.0703804029124377]]],[[[114.34457441755956,-7.0703804029124377],[114.3445834571851,-7.0703803379521464],[114.3445833921586,-7.070371307523394],[114.34457435253324,-7.070371372483601],[114.34457441755956,-7.0703804029124377]]],[[[114.3445833921586,-7.070371307523394],[114.34459243178391,-7.0703712425630112],[114.34459230173083,-7.0703531817056602],[114.34458326210587,-7.0703532466658752],[114.3445833921586,-7.070371307523394]]],[[[114.34459230173083,-7.0703531817056602],[114.34460134135567,-7.070353116745272],[114.34460127632909,-7.0703440863166733],[114.34461031595366,-7.0703440213561937],[114.34461025092699,-7.0703349909276749],[114.34461929055134,-7.0703349259671038],[114.34461922552458,-7.070325895538665],[114.34462826514863,-7.0703258305780032],[114.34462813509501,-7.0703077697212811],[114.34463717471863,-7.0703077047606113],[114.34463704466501,-7.0702896439040419],[114.3446460842882,-7.0702895789433651],[114.34464601926135,-7.0702805485151572],[114.3446279400152,-7.070280678436168],[114.34462807006832,-7.0702987392928973],[114.34461903044479,-7.0702988042533086],[114.34461909547129,-7.0703078346817767],[114.34461005584747,-7.0703078996420965],[114.34461018590041,-7.0703259604991526],[114.34459210665185,-7.0703260904196039],[114.34459230173083,-7.0703531817056602]]],[[[114.34464601926135,-7.0702805485151572],[114.34465505888429,-7.0702804835543898],[114.34465492883045,-7.0702624226981303],[114.34464588920787,-7.0702624876587299],[114.34464601926135,-7.0702805485151572]]],[[[114.34465492883045,-7.0702624226981303],[114.34466396845298,-7.0702623577373549],[114.34466390342601,-7.0702533273092856],[114.34465486380367,-7.0702533922699766],[114.34465492883045,-7.0702624226981303]]],[[[114.34466390342601,-7.0702533273092856],[114.34467294304825,-7.0702532623484196],[114.3446728780212,-7.0702442319204639],[114.34466383839914,-7.0702442968812456],[114.34466390342601,-7.0702533273092856]]],[[[114.3446728780212,-7.0702442319204639],[114.34468191764319,-7.0702441669595073],[114.34468185261605,-7.0702351365316138],[114.34467281299423,-7.070235201492487],[114.3446728780212,-7.0702442319204639]]],[[[114.3446907621834,-7.0702170107149351],[114.34469069715635,-7.0702079802871314],[114.34468165753513,-7.0702080452479281],[114.34468172256202,-7.0702170756758163],[114.3446907621834,-7.0702170107149351]]],[[[114.34471781601944,-7.0702077854036922],[114.34469973677746,-7.0702079153261606],[114.34469980180469,-7.0702169457538808],[114.34471788104703,-7.0702168158312464],[114.34471781601944,-7.0702077854036922]]],[[[114.34471781601944,-7.0702077854036922],[114.3447268556403,-7.0702077204421974],[114.34472679061263,-7.0701986900146903],[114.34473583023323,-7.0701986250531039],[114.34473576520547,-7.0701895946256927],[114.34474480482581,-7.0701895296640158],[114.34474473979795,-7.0701804992366837],[114.34472666055753,-7.0701806291596982],[114.3447265955301,-7.0701715987321947],[114.34471755590995,-7.0701716636933574],[114.34471768596453,-7.0701897245485235],[114.34470864634393,-7.0701897895096772],[114.34470871137118,-7.0701988199373398],[114.34471775099195,-7.0701987549761025],[114.34471781601944,-7.0702077854036922]]],[[[114.3447265955301,-7.0701715987321947],[114.3447356351502,-7.0701715337708597],[114.34473557012269,-7.070162503343437],[114.34472653050278,-7.0701625683046894],[114.3447265955301,-7.0701715987321947]]],[[[114.34476262395393,-7.0701532780314578],[114.34475358433447,-7.0701533429931498],[114.34475364936225,-7.0701623734204091],[114.34476268898187,-7.0701623084586336],[114.34476262395393,-7.0701532780314578]]],[[[114.34473557012269,-7.070162503343437],[114.34474460974251,-7.0701624383820105],[114.34474447968739,-7.0701443775273214],[114.34473544006792,-7.0701444424885782],[114.34473557012269,-7.070162503343437]]],[[[114.3447256851552,-7.0700451727467133],[114.34472575018142,-7.0700542031742906],[114.34473478979923,-7.0700541382140445],[114.34473472477283,-7.0700451077865516],[114.3447256851552,-7.0700451727467133]]],[[[114.34455133155784,-7.0696851897871911],[114.34455126653842,-7.0696761593578552],[114.34454222692628,-7.0696762243110873],[114.34454229194552,-7.0696852547405058],[114.34455133155784,-7.0696851897871911]]],[[[114.34456921572323,-7.0696579685925682],[114.34456908568431,-7.0696399077342358],[114.34455100646163,-7.0696400376405544],[114.34455113649987,-7.0696580984992217],[114.34456921572323,-7.0696579685925682]]],[[[114.34476262395393,-7.0701532780314578],[114.34477166357331,-7.0701532130695908],[114.34477140346166,-7.0701170913611833],[114.34478044308028,-7.0701170263994761],[114.3447801829693,-7.0700809046913387],[114.34479826220485,-7.070080774768071],[114.34479839226087,-7.0700988356218142],[114.34480743187886,-7.07009877065975],[114.34480723679444,-7.0700716793793825],[114.34481627641181,-7.0700716144173956],[114.34481621138367,-7.0700625839906817],[114.3448252510008,-7.0700625190286051],[114.34482512094442,-7.0700444581753166],[114.34483416056111,-7.0700443932132311],[114.34483409553286,-7.0700353627866885],[114.34485217476563,-7.0700352328621623],[114.34485204470872,-7.0700171720093694],[114.34486108432462,-7.0700171070470113],[114.34486088923934,-7.0699900157680418],[114.34486992885466,-7.06998995080576],[114.34486986382623,-7.0699809203795132],[114.34487890344127,-7.0699808554171408],[114.34487883841275,-7.0699718249909722],[114.34488787802751,-7.0699717600285092],[114.34488781299891,-7.0699627296024214],[114.34489685261343,-7.069962664639867],[114.34489672255613,-7.0699446037878459],[114.3449057621702,-7.0699445388252844],[114.3449056971415,-7.0699355083993511],[114.34491473675534,-7.0699354434366981],[114.34491467172654,-7.0699264130108457],[114.3449237113401,-7.0699263480481029],[114.34492364631122,-7.0699173176223287],[114.34493268592452,-7.0699172526594944],[114.34493255586666,-7.0698991918081031],[114.34494159547954,-7.0698991268452618],[114.34494146542167,-7.0698810659940046],[114.34495050503409,-7.0698810010311552],[114.34495037497622,-7.0698629401800828],[114.34495941458823,-7.0698628752172263],[114.34495934955925,-7.0698538447917594],[114.34496838917097,-7.0698537798288132],[114.3449683241419,-7.0698447494034262],[114.34497736375337,-7.0698446844403877],[114.34497723369512,-7.0698266235897682],[114.34498627330618,-7.0698265586267235],[114.34498614324792,-7.069808497776255],[114.34499518285853,-7.0698084328132031],[114.34499505280026,-7.0697903719629025],[114.34500409241042,-7.0697903069998445],[114.34500389732315,-7.0697632157245733],[114.34501293693272,-7.0697631507615899],[114.34501287190362,-7.0697541203365803],[114.34502191151292,-7.0697540553735063],[114.34502184648373,-7.0697450249485776],[114.34503088609277,-7.069744959985413],[114.34503069100521,-7.0697178687108346],[114.34503973061362,-7.0697178037477473],[114.34503960055531,-7.0696997428982025],[114.3450486401633,-7.069699677935108],[114.34504851010499,-7.0696816170856991],[114.34505754971256,-7.0696815521225957],[114.34505741965424,-7.0696634912733387],[114.34506553958117,-7.0696634329195156],[114.34506643311173,-7.0696597949860696],[114.34506619914501,-7.0696273046120153],[114.34507442775525,-7.0696272454772799],[114.34507521569205,-7.0696240374598105],[114.34507510869336,-7.0696091788000768],[114.34507887184225,-7.0696091517562998],[114.34508399827223,-7.0695882799340426],[114.34508388818358,-7.069572992139463],[114.34508776001613,-7.0695729643146992],[114.34509278085227,-7.0695525224086806],[114.34509253761665,-7.0695187446305603],[114.34510109227668,-7.0695186831531123],[114.34510154400006,-7.069516843999966],[114.3450983856508,-7.0694283936876658],[114.34509188733675,-7.0694284403867229],[114.34509182230923,-7.0694194099623324],[114.3450827827071,-7.0694194749237047],[114.34508252259855,-7.0693833532256871],[114.34507348299702,-7.0693834181865487],[114.34507335294361,-7.0693653573373556],[114.34506431334233,-7.0693654222978743],[114.34506418328961,-7.0693473614484983],[114.34505514368861,-7.0693474264086751],[114.34505501363658,-7.0693293655591152],[114.34504597403584,-7.0693294305189482],[114.34504590901012,-7.069320400094079],[114.34503686940948,-7.0693204650536545],[114.34503673935866,-7.069302404203718],[114.34502769975829,-7.0693024691629507],[114.34502756970815,-7.0692844083128632],[114.34501853010802,-7.0692844732717548],[114.34501846508327,-7.0692754428466129],[114.34500942548324,-7.0692755078052452],[114.34500929543432,-7.0692574469547651],[114.3449912162347,-7.0692575768711707],[114.34499095613928,-7.0692214551695409],[114.34498191654006,-7.0692215201271464],[114.34498185151659,-7.0692124897016573],[114.34497281191743,-7.0692125546590052],[114.34497274689424,-7.0692035242333944],[114.34496370729518,-7.0692035891904821],[114.34496364227223,-7.0691945587648011],[114.34495460267327,-7.0691946237216312],[114.34495453765059,-7.0691855932958614],[114.3449454980517,-7.0691856582524322],[114.34494536800695,-7.069167597400714],[114.34493632840832,-7.0691676623569419],[114.34493626338624,-7.0691586319309936],[114.34492722378771,-7.069158696886964],[114.3449271587659,-7.0691496664609268],[114.34491811916746,-7.0691497314166387],[114.34491792410306,-7.069122640138251],[114.34490888450506,-7.0691227050935375],[114.34490881948393,-7.0691136746673173],[114.34489977988601,-7.0691137396223436],[114.34489958482366,-7.0690866483434052],[114.34489054522621,-7.0690867132980051],[114.34489035016514,-7.069059622018778],[114.34488131056811,-7.0690596869729534],[114.3448810504886,-7.0690235652669253],[114.34487201089219,-7.06902363022059],[114.34487168579558,-7.0689784780875433],[114.34486264619996,-7.0689785430406147],[114.34486245114356,-7.0689514517604861],[114.34485341154836,-7.0689515167131329],[114.34485321649322,-7.0689244254327148],[114.34486225608789,-7.0689243604803211],[114.34486199601488,-7.0688882387733605],[114.34485295642092,-7.0688883037254202],[114.34485276136758,-7.0688612124449337],[114.34486180096103,-7.0688611474931253],[114.34486160590792,-7.0688340562128378],[114.34487064550075,-7.0688339912611067],[114.34487051546543,-7.0688159304077294],[114.34487955505782,-7.0688158654559921],[114.34487942502247,-7.0687978046027808],[114.34488846461444,-7.0687977396510355],[114.34488833457911,-7.0687796787979442],[114.34489737417061,-7.0687796138461918],[114.3448973091529,-7.0687705834197301],[114.34490634874416,-7.068770518467888],[114.34490628372636,-7.0687614880415079],[114.34491532331735,-7.0687614230895734],[114.34491525829945,-7.0687523926632725],[114.34492429789019,-7.0687523277112483],[114.3449242328722,-7.0687432972850264],[114.34493215536588,-7.0687432403595896],[114.34493325332075,-7.068740573690385],[114.34493314242663,-7.0687251714806232],[114.34492410283649,-7.0687252364325728],[114.3449241678543,-7.0687342668588018],[114.34491512826392,-7.068734331810659],[114.34491506324628,-7.0687253013843465],[114.34490602365599,-7.0687253663359453],[114.34490608867345,-7.0687343967623413],[114.34489704908287,-7.0687344617138512],[114.34489711410026,-7.0687434921403263],[114.34487903491852,-7.0687436220429873],[114.34487909993564,-7.0687526524696258],[114.34487006034449,-7.0687527174207769],[114.34487019037861,-7.0687707782742129],[114.34487922997012,-7.0687707133228939],[114.34487916495284,-7.0687616828962616],[114.34488820454411,-7.068761617944852],[114.34488826956157,-7.068770648371399],[114.34487922997012,-7.0687707133228939],[114.34487929498749,-7.0687797437495217],[114.3448702553958,-7.0687798087009241],[114.34487019037861,-7.0687707782742129],[114.34486115078703,-7.0687708432253569],[114.34486134583834,-7.0687979345057474],[114.34485230624611,-7.0687979994569679],[114.34485243628039,-7.0688160603106818],[114.34486147587296,-7.0688159953592917],[114.34486154089041,-7.0688250257860687],[114.34485250129765,-7.0688250907375396],[114.34485256631501,-7.0688341211643939],[114.34484352672202,-7.0688341861157751],[114.3448442419166,-7.0689335208118269],[114.34483520232159,-7.068933585763955],[114.34483559243102,-7.0689877683257336],[114.34482655283489,-7.0689878332781895],[114.34482674789022,-7.0690149245592746],[114.34483578748689,-7.0690148596065674],[114.34483585250568,-7.0690238900335034],[114.34482681290885,-7.0690239549862941],[114.34482674789022,-7.0690149245592746],[114.34481770829349,-7.0690149895118068],[114.34481777331193,-7.0690240199389107],[114.34477257532603,-7.0690243446993737],[114.34477251030847,-7.0690153142718497],[114.34478154990563,-7.0690152493201905],[114.34478148488797,-7.0690062188927651],[114.34477244529099,-7.0690062838443408],[114.3447723802736,-7.0689972534167911],[114.34475430107967,-7.0689973833192514],[114.34475456114838,-7.0690335050300206],[114.34474552155061,-7.0690335699813236],[114.34474565158511,-7.0690516308368343],[114.3447366119869,-7.0690516957881293],[114.34473641693577,-7.0690246045045964],[114.34474545653347,-7.0690245395535536],[114.34474539151644,-7.0690155091257791],[114.34472731232133,-7.0690156390275245],[114.34472737733802,-7.0690246694554659],[114.34471833774013,-7.0690247344061605],[114.34471840275674,-7.0690337648341828],[114.34470936315864,-7.069033829784785],[114.34470955820844,-7.0690609210690774],[114.34469147901088,-7.0690610509702614],[114.34469141399454,-7.069052020541986],[114.34467333479701,-7.0690521504423032],[114.34467352984521,-7.0690792417275929],[114.34464641104671,-7.0690794365775149],[114.34464647606242,-7.0690884670061811],[114.3446555156622,-7.0690884020562983],[114.34465558067816,-7.0690974324848614],[114.34464654107821,-7.0690974974348286],[114.34464680114228,-7.0691336191494569],[114.34463776154155,-7.069133684099584],[114.34463795658996,-7.0691607753857513],[114.34462891698861,-7.0691608403359547],[114.34462898200474,-7.0691698707647532],[114.34461994240316,-7.0691699357148652],[114.3446198773872,-7.0691609052859832],[114.34461083778569,-7.0691609702358367],[114.34461064273886,-7.0691338789489162],[114.34460160313778,-7.0691339438983452],[114.34460153812252,-7.0691249134692784],[114.34459249852155,-7.0691249784184489],[114.34459256353665,-7.0691340088475974],[114.34458352393541,-7.0691340737966755],[114.34458371898067,-7.0691611650843509],[114.34457467937881,-7.0691612300335063],[114.34457480940907,-7.0691792908921043],[114.34456576980679,-7.0691793558412526],[114.34456602986761,-7.0692154775587506],[114.34455699026452,-7.0692155425080578],[114.34455712029511,-7.069233603366925],[114.34456615989853,-7.0692335384174489],[114.3445664199614,-7.0692696601348324],[114.34455738035727,-7.0692697250846432],[114.34455744537303,-7.0692787555140626],[114.34457552458153,-7.069278625614098],[114.34457558959771,-7.0692876560433451],[114.34454847078432,-7.0692878508932822],[114.34454853580006,-7.069296881322777],[114.34452141698539,-7.0692970761713907],[114.3445214820007,-7.0693061066011156],[114.34451244239544,-7.0693061715503891],[114.34451250741066,-7.0693152019802268],[114.34450346780515,-7.0693152669294088],[114.34450366285081,-7.0693423582191004],[114.3444855836385,-7.0693424881174423],[114.34448584369915,-7.0693786098376616],[114.34447680409217,-7.0693786747869058],[114.34447673907707,-7.0693696443567609],[114.34446769947016,-7.0693697093057448],[114.34446782950012,-7.0693877701661645],[114.34445878989281,-7.069387835115144],[114.34445885490774,-7.0693968655454311],[114.34446789451525,-7.0693968005963699],[114.34446795953043,-7.0694058310265691],[114.34444988031501,-7.0694059609246853],[114.34444994532994,-7.0694149913550488],[114.34444090572191,-7.069415056303928],[114.34444097073674,-7.0694240867343892],[114.34445904995306,-7.0694239568362871],[114.34445898493787,-7.0694149264059938],[114.34446802454572,-7.0694148614567647],[114.34446808956108,-7.0694238918869736],[114.34447712916904,-7.0694238269374852],[114.34447738923205,-7.0694599486578609],[114.34446834962341,-7.0694600136076833],[114.34446841463919,-7.069469044037838],[114.34445937503031,-7.069469108987569],[114.34445950506181,-7.0694871698480837],[114.34445046545247,-7.0694872347978084],[114.34445053046817,-7.0694962652281355],[114.34445957007767,-7.0694962002783264],[114.34445963509363,-7.0695052307085646],[114.34446867470322,-7.069505165758498],[114.34446873971943,-7.0695141961886323],[114.34450489815769,-7.0695139363862811],[114.3445049631747,-7.0695229668161099],[114.34451400278422,-7.0695229018650014],[114.34451406780148,-7.0695319322947254],[114.34450502819179,-7.0695319972459174],[114.34450522324356,-7.0695590885353159],[114.34449618363325,-7.0695591534865851],[114.34449631366786,-7.0695772143463307],[114.3444872740571,-7.0695772792975928],[114.34448740409168,-7.0695953401574894],[114.34447836448052,-7.0695954051087435],[114.34447849451509,-7.0696134659687919],[114.34448753412661,-7.0696134010173699],[114.34448798925153,-7.0696766140268075],[114.34449702886421,-7.0696765490746234],[114.34449709388258,-7.0696855795044629],[114.34448805426972,-7.0696856444567304],[114.34448818430634,-7.0697037053165284],[114.34447914469307,-7.0697037702687879],[114.34447927472969,-7.0697218311287218],[114.34448831434331,-7.0697217661762952],[114.34448837936193,-7.069730796606196],[114.34449741897566,-7.069730731653511],[114.34449748399453,-7.0697397620833087],[114.34450652360833,-7.0697396971303643],[114.34450639357033,-7.0697216362709163],[114.34452447279698,-7.0697215063648384],[114.34452440777775,-7.0697124759353001],[114.34453344739077,-7.069712410982083],[114.34453331735223,-7.0696943501231297],[114.34452427773955,-7.0696944150761789],[114.34452421272059,-7.0696853846466139],[114.34451517310799,-7.0696854495994046],[114.34451491303366,-7.0696493278807635],[114.34452395264556,-7.0696492629283076],[114.34452375759017,-7.0696221716395335],[114.34455087642375,-7.0696219767818711],[114.34455094144265,-7.0696310072112301],[114.34455998105385,-7.069630942258244],[114.34455991603477,-7.0696219118289676],[114.34456895564571,-7.0696218468758882],[114.34456882560748,-7.0696037860175247],[114.34460498404896,-7.0696035262041326],[114.34460504906875,-7.0696125566329817],[114.3446592867295,-7.0696121669071488],[114.34465922170867,-7.0696031364788023],[114.3446682613183,-7.0696030715239688],[114.34466832633932,-7.0696121019522318],[114.34469544516828,-7.0696119070864318],[114.34469525010395,-7.0695848158024015],[114.34471332932179,-7.0695846858914981],[114.3447133943435,-7.069593716319333],[114.34472243395246,-7.069593651363534],[114.34472256399648,-7.0696117122190589],[114.34474064321486,-7.0696115823066021],[114.34474051317014,-7.0695935214514147],[114.34474955277886,-7.0695934564950917],[114.34474961780136,-7.0696024869226033],[114.34475865741015,-7.0696024219660227],[114.34475878745575,-7.0696204828208682],[114.34474974784659,-7.0696205477776166],[114.34474981286934,-7.0696295782051344],[114.34475885247866,-7.0696295132483025],[114.34475898252475,-7.0696475741031053],[114.3447499429151,-7.069647639060106],[114.3447500079381,-7.0696566694875935],[114.34475904754794,-7.0696566045305111],[114.34475917759455,-7.06967466538529],[114.34476821720466,-7.0696746004278648],[114.34476834725196,-7.0696926612824935],[114.34477738686236,-7.0696925963247246],[114.34477758193448,-7.0697196876063453],[114.34476854232356,-7.0697197525643656],[114.34476873739592,-7.0697468438462332],[114.34477777700737,-7.0697467788879615],[114.34477790705638,-7.0697648397423416],[114.34476886744459,-7.0697649047007811],[114.34476906251822,-7.0697919959825866],[114.34476002290585,-7.0697920609411025],[114.34476008793038,-7.0698010913684248],[114.344742008705,-7.0698012212850996],[114.34474207372928,-7.0698102517126005],[114.34473303411629,-7.0698103166707593],[114.34473309914048,-7.069819347098341],[114.34472405952721,-7.0698194120564102],[114.34472412455131,-7.0698284424840718],[114.3447150849378,-7.0698285074420486],[114.34471521498591,-7.0698465682975264],[114.34470617537197,-7.069846633255497],[114.34470624039596,-7.0698556636833132],[114.34469720078175,-7.0698557286411923],[114.34469726580565,-7.0698647590690893],[114.3446882261912,-7.0698648240268769],[114.344688486287,-7.0699009457387589],[114.34467944667173,-7.0699010106967064],[114.34467951169573,-7.06991004112475],[114.34468855131117,-7.069909976166719],[114.34468861633542,-7.0699190065946746],[114.3446795767198,-7.0699190715527909],[114.34467977179253,-7.069946162836886],[114.34468881140867,-7.0699460978785194],[114.34468887643327,-7.069955128306459],[114.34467983681695,-7.0699551932649092],[114.34467996686602,-7.0699732541209439],[114.3446709272493,-7.0699733190793879],[114.34467125237263,-7.0700184712198224],[114.34468933160778,-7.0700183413019229],[114.34468939663304,-7.0700273717298305],[114.34467131739754,-7.0700275016478979],[114.34467138242256,-7.0700365320759682],[114.34468042204051,-7.070036467116938],[114.34468048706579,-7.0700454975449043],[114.34468952668384,-7.0700454325856148],[114.3446894616584,-7.0700364021577338],[114.34471658051153,-7.0700362072790712],[114.34471664553749,-7.0700452377067018],[114.3447256851552,-7.0700451727467133],[114.34472562012905,-7.0700361423191671],[114.34473465974652,-7.070036077359088],[114.34473459472028,-7.070027046931604],[114.34474363433748,-7.0700269819714352],[114.34474369936387,-7.0700360123988348],[114.34476177859835,-7.0700358824778036],[114.3447617135716,-7.0700268520505709],[114.34477075318853,-7.0700267870898772],[114.34477081821545,-7.0700358175170264],[114.34477985783251,-7.0700357525560751],[114.3447799228597,-7.0700447829831186],[114.34475280400784,-7.0700449778657033],[114.34475286903458,-7.0700540082930274],[114.34477094826958,-7.0700538783713123],[114.34477101329676,-7.070062908798449],[114.34475293406143,-7.0700630387203329],[114.34475332422423,-7.0701172212840717],[114.34476236384299,-7.0701171563227145],[114.34476262395393,-7.0701532780314578]],[[114.3447979370663,-7.070035622633644],[114.34478889744943,-7.070035687594947],[114.34478883242215,-7.0700266571679657],[114.34479787203884,-7.070026592206748],[114.3447979370663,-7.070035622633644]],[[114.34471651548563,-7.0700271768514193],[114.34469843625065,-7.0700273067705339],[114.34469837122521,-7.0700182763427115],[114.34471645045984,-7.0700181464237639],[114.34471651548563,-7.0700271768514193]],[[114.34488774797038,-7.0699536991763283],[114.34487870835596,-7.0699537641386243],[114.3448786433277,-7.069944733712445],[114.34488768294194,-7.0699446687502325],[114.34488774797038,-7.0699536991763283]],[[114.34505728959624,-7.0696454304240639],[114.34504824998936,-7.0696454953868315],[114.34504811993207,-7.0696274345373888],[114.3450571595386,-7.0696273695747891],[114.34505728959624,-7.0696454304240639]],[[114.34452349751753,-7.0695860499211296],[114.34451445790684,-7.0695861148729993],[114.34451439288907,-7.0695770844432824],[114.34452343249959,-7.0695770194914971],[114.34452349751753,-7.0695860499211296]],[[114.34453195196804,-7.0695047111031357],[114.34453208200301,-7.0695227719622604],[114.34454112161229,-7.0695227070106288],[114.3445411866301,-7.0695317374401005],[114.34453214702063,-7.0695318023918174],[114.34453221203832,-7.0695408328213691],[114.34452317242862,-7.0695408977729945],[114.34452291235904,-7.0695047760544254],[114.34453195196804,-7.0695047111031357],[114.34453188695069,-7.069495680673568],[114.34454092655945,-7.069495615722186],[114.34454099157698,-7.0695046461516711],[114.34453195196804,-7.0695047111031357]],[[114.34448675392217,-7.0695050358578397],[114.34447771431275,-7.0695051008082563],[114.34447764929644,-7.0694960703781859],[114.34448668890569,-7.0694960054278528],[114.34448675392217,-7.0695050358578397]],[[114.34450476812395,-7.0694958755266635],[114.34451380773294,-7.0694958105758055],[114.34451387274994,-7.0695048410055419],[114.34450483314077,-7.0695049059564825],[114.34450476812395,-7.0694958755266635]],[[114.34453084668455,-7.0693511937999167],[114.34452180707851,-7.0693512587497818],[114.34452174206278,-7.0693422283200595],[114.34453078166862,-7.0693421633702789],[114.34453084668455,-7.0693511937999167]],[[114.34453071665281,-7.0693331329406357],[114.34452167704713,-7.0693331978903347],[114.34452154701609,-7.0693151370308707],[114.34453058662142,-7.0693150720813396],[114.34453071665281,-7.0693331329406357]],[[114.34450554833155,-7.0696042406842317],[114.34451458794265,-7.0696041757323691],[114.34451465296068,-7.0696132061620567],[114.34450561334943,-7.0696132711140018],[114.34450554833155,-7.0696042406842317]]],[[[114.34492410283649,-7.0687252364325728],[114.34492403781876,-7.0687162060063384],[114.34491499822873,-7.0687162709580287],[114.34491506324628,-7.0687253013843465],[114.34492410283649,-7.0687252364325728]]],[[[114.34493314242663,-7.0687251714806232],[114.34494218201667,-7.0687251065285004],[114.3449420519806,-7.0687070456763648],[114.34493301239091,-7.0687071106283206],[114.34493314242663,-7.0687251714806232]]],[[[114.3449420519806,-7.0687070456763648],[114.34495109157021,-7.068706980724234],[114.34495102655212,-7.0686979502982448],[114.34494198696268,-7.0686980152502912],[114.3449420519806,-7.0687070456763648]]],[[[114.34502282311172,-7.0686251872728763],[114.34501378352435,-7.068625252225651],[114.34501384854298,-7.06863428265107],[114.34500480895537,-7.0686343476037514],[114.34500487397391,-7.068643378029285],[114.34498679479807,-7.0686435079342962],[114.34498685981634,-7.0686525383599754],[114.34497782022814,-7.0686526033123016],[114.34497788524632,-7.0686616337380608],[114.34496884565783,-7.0686616986902955],[114.34496891067593,-7.0686707291161355],[114.3449598710872,-7.0686707940682796],[114.34495993610521,-7.0686798244941818],[114.34495089651621,-7.0686798894462362],[114.34495096153412,-7.0686889198722502],[114.34497808030139,-7.0686887250153134],[114.34497795026459,-7.0686706641638155],[114.34498698985315,-7.0686705992113215],[114.34498692483471,-7.0686615687856511],[114.34499596442301,-7.0686615038330647],[114.34499589940448,-7.0686524734074734],[114.3450139785805,-7.068652343501947],[114.3450139135617,-7.0686433130765192],[114.34502295314941,-7.0686432481235766],[114.34502282311172,-7.0686251872728763]]],[[[114.34502282311172,-7.0686251872728763],[114.34503186269897,-7.0686251223199266],[114.34503173266128,-7.0686070614693781],[114.34502269307436,-7.0686071264221582],[114.34502282311172,-7.0686251872728763]]],[[[114.34504981183487,-7.0686069315632905],[114.34504077224811,-7.0686069965164213],[114.34504083726709,-7.0686160269416147],[114.34504987685402,-7.0686159619883995],[114.34504981183487,-7.0686069315632905]]],[[[114.34504981183487,-7.0686069315632905],[114.34506789100811,-7.0686068016565056],[114.34506782598868,-7.06859777123156],[114.34504974681579,-7.0685979011381779],[114.34504981183487,-7.0686069315632905]]],[[[114.34506782598868,-7.06859777123156],[114.345076865575,-7.0685977062779877],[114.34507680055549,-7.0685886758531389],[114.34506776096936,-7.0685887408066268],[114.34506782598868,-7.06859777123156]]],[[[114.34507680055549,-7.0685886758531389],[114.34508584014154,-7.0685886108994769],[114.34508577512193,-7.0685795804746734],[114.34507673553605,-7.0685796454282519],[114.34507680055549,-7.0685886758531389]]],[[[114.34508577512193,-7.0685795804746734],[114.34509481470775,-7.0685795155209208],[114.34509474968804,-7.0685704850962141],[114.34511282885904,-7.068570355188351],[114.34511269881922,-7.0685522943392609],[114.3451036592341,-7.0685523592931121],[114.3451037242538,-7.0685613897177433],[114.34508564508299,-7.0685615196250895],[114.34508577512193,-7.0685795804746734]]],[[[114.34511269881922,-7.0685522943392609],[114.34512173840423,-7.0685522293852356],[114.34512167338427,-7.068543198960767],[114.34511263379943,-7.0685432639147097],[114.34511269881922,-7.0685522943392609]]],[[[114.34515770168173,-7.0685248782949746],[114.34515763666133,-7.0685158478708292],[114.34514859707734,-7.0685159128252213],[114.34514866209757,-7.0685249432494475],[114.34515770168173,-7.0685248782949746]]],[[[114.34527495617775,-7.0684879121786732],[114.34525687701297,-7.0684880420913174],[114.34525681199098,-7.0684790116680789],[114.34522969324371,-7.0684792065354847],[114.34522982328672,-7.0684972673824618],[114.34521174412075,-7.0684973972935259],[114.34521180914201,-7.0685064277171765],[114.34519372997535,-7.0685065576277104],[114.34519379499638,-7.0685155880515236],[114.34516667624521,-7.0685157829162675],[114.34516674126579,-7.0685248133403267],[114.34515770168173,-7.0685248782949746],[114.34515776670221,-7.0685339087191146],[114.34514872711789,-7.0685339736736728],[114.34514866209757,-7.0685249432494475],[114.34513962251334,-7.0685250082037472],[114.34513968753349,-7.0685340386280551],[114.34513064794896,-7.0685341035822624],[114.34513071296902,-7.0685431340066502],[114.34517591089153,-7.0685428092334455],[114.3451758458706,-7.068533778809476],[114.3451848854547,-7.0685337138543947],[114.34518482043367,-7.0685246834305051],[114.34521193918485,-7.0685244885644636],[114.3452118741634,-7.0685154581408218],[114.34524466842679,-7.0685152224906895],[114.3452480155668,-7.0685128470943708],[114.34524790245234,-7.0684971374706995],[114.34526598161764,-7.0684970075582338],[114.34526600374934,-7.0685000812510932],[114.34527499784019,-7.0684936983293563],[114.34527495617775,-7.0684879121786732]]],[[[114.34527495617775,-7.0684879121786732],[114.34528323485347,-7.0684878526898149],[114.34528399193073,-7.0684873154075607],[114.34528393073749,-7.0684788167991002],[114.34529297031948,-7.0684787518424255],[114.34529290529689,-7.0684697214195005],[114.34530194487863,-7.0684696564627334],[114.34530187985594,-7.0684606260399221],[114.34531091943741,-7.0684605610830653],[114.34531085441463,-7.0684515306603162],[114.34528373567046,-7.0684517255301129],[114.34528380069271,-7.0684607559531134],[114.345274761111,-7.0684608209094462],[114.34527482613316,-7.0684698513325106],[114.34526578655115,-7.068469916288751],[114.34526585157323,-7.0684789467119282],[114.34527489115541,-7.0684788817556008],[114.34527495617775,-7.0684879121786732]]],[[[114.34531085441463,-7.0684515306603162],[114.34532893357699,-7.0684514007462456],[114.34532896237917,-7.06845540079774],[114.34534695055652,-7.0684426349533735],[114.34534694771561,-7.0684422404090572],[114.34534751221943,-7.0684422363525936],[114.34539893410162,-7.0684057432806275],[114.34536476678281,-7.0684059888047148],[114.34536483180622,-7.0684150192269817],[114.34535579222612,-7.0684150841844691],[114.34535585724942,-7.068424114606799],[114.34534681766908,-7.068424179564194],[114.3453468826923,-7.0684332099866358],[114.34533784311166,-7.0684332749439402],[114.34533777808862,-7.068424244521414],[114.3453196989275,-7.0684243744353319],[114.3453197639502,-7.0684334048580268],[114.34532880353098,-7.0684333399010706],[114.34532886855395,-7.0684423703236599],[114.34531078939193,-7.0684425002375644],[114.34531085441463,-7.0684515306603162]]],[[[114.3454098346328,-7.0683876031713728],[114.34540976960878,-7.0683785727495305],[114.34540073002982,-7.068378637707557],[114.34540079505366,-7.0683876681294819],[114.3454098346328,-7.0683876031713728]]],[[[114.3454098346328,-7.0683876031713728],[114.34540989965691,-7.0683966335932276],[114.34540086007759,-7.0683966985514211],[114.34540091508165,-7.0684043374189187],[114.34545035597442,-7.068369250206719],[114.34542778374218,-7.0683694124112435],[114.34542784876646,-7.0683784428329552],[114.34541880918768,-7.0683785077913308],[114.34541887421187,-7.0683875382130896],[114.3454098346328,-7.0683876031713728]]],[[[114.34533732292965,-7.0683610315637511],[114.34533725790727,-7.0683520011412098],[114.34532821832816,-7.0683520660975852],[114.34532828335036,-7.0683610965202117],[114.34533732292965,-7.0683610315637511]]],[[[114.34562561401174,-7.0682234965664446],[114.34562567903852,-7.068232526986364],[114.34563471861254,-7.0682324620253114],[114.34563465358561,-7.0682234316054773],[114.34562561401174,-7.0682234965664446]]],[[[114.34551707409412,-7.0682152456635325],[114.34549899494444,-7.0682153755805848],[114.34549905996867,-7.0682244060016641],[114.34550809954374,-7.0682243410431393],[114.34550816456824,-7.0682333714641468],[114.34551720414338,-7.0682333065053653],[114.34551707409412,-7.0682152456635325]]],[[[114.34562561401174,-7.0682234965664446],[114.34562554898505,-7.0682144661465411],[114.34564362813235,-7.0682143362245968],[114.34564356310541,-7.0682053058048222],[114.34565260267874,-7.0682052408436711],[114.34565273273309,-7.0682233016830152],[114.3456617723067,-7.0682232367215221],[114.34566170727929,-7.0682142063019535],[114.34567074685266,-7.068214141340369],[114.34567068182518,-7.0682051109208448],[114.34567972139827,-7.0682050459591697],[114.34567965637069,-7.0681960155397432],[114.34570677508893,-7.068195820653921],[114.34570671006092,-7.0681867902347415],[114.34572478920563,-7.0681866603101549],[114.34572472417736,-7.0681776298911387],[114.34575184289328,-7.0681774350032009],[114.34575177786456,-7.0681684045844495],[114.3457608174362,-7.0681683396215353],[114.3457607524074,-7.0681593092028301],[114.34579231664793,-7.0681590823652218],[114.3457968916308,-7.0681564023399952],[114.34579671560434,-7.0681319580946838],[114.34574247817957,-7.0681323478717184],[114.34574254320776,-7.0681413782905862],[114.34573350363651,-7.0681414432528991],[114.34573356866461,-7.0681504736718477],[114.34569741037797,-7.0681507335196789],[114.34569747540546,-7.0681597639389597],[114.34567939626129,-7.0681598938619947],[114.3456794612885,-7.0681689242814558],[114.34566138214363,-7.0681690542039606],[114.3456614471706,-7.0681780846235487],[114.34565240759787,-7.0681781495846234],[114.34565247262475,-7.0681871800043092],[114.34564343305175,-7.0681872449652925],[114.34564349807853,-7.06819627538506],[114.34563445850526,-7.0681963403459509],[114.34563452353196,-7.0682053707657984],[114.34561644438485,-7.0682055006872258],[114.34561650941127,-7.0682145311072508],[114.3456074698374,-7.0682145960677865],[114.34560753486375,-7.0682236264878586],[114.34558945571543,-7.0682237564085746],[114.34558939068944,-7.0682147259883337],[114.34558035111533,-7.0682147909483461],[114.34558041614115,-7.0682238213686697],[114.34556233699229,-7.0682239512883358],[114.34556227196683,-7.0682149208678435],[114.34555323239246,-7.0682149858273311],[114.34555336244313,-7.0682330466684951],[114.34554432286831,-7.0682331116279737],[114.34554425784312,-7.0682240812073038],[114.34553521826841,-7.0682241461665241],[114.34553541334373,-7.0682512374287789],[114.34551733419299,-7.0682513673471998],[114.34551739921791,-7.0682603977680936],[114.34550835964225,-7.0682604627271273],[114.34550848969201,-7.0682785235691208],[114.34549041053971,-7.0682786534869981],[114.34549047556438,-7.0682876839081468],[114.34550855471703,-7.0682875539901024],[114.34550861974212,-7.0682965844110814],[114.34549958016565,-7.068296649370275],[114.34549971021575,-7.0683147102123867],[114.34549067063887,-7.0683147751715731],[114.34549060561395,-7.0683057447504352],[114.34548156603717,-7.0683058097093623],[114.34548169608672,-7.0683238705518008],[114.34547265650949,-7.0683239355107226],[114.34547272153422,-7.0683329659320187],[114.34545464237914,-7.0683330958495034],[114.34545483745281,-7.068360187113873],[114.34546321144114,-7.0683601269379386],[114.34547286776571,-7.0683532740362933],[114.34547285158395,-7.068351026774601],[114.3454760669073,-7.0683510036690356],[114.34548186184993,-7.0683468911132046],[114.34548182613663,-7.0683419313942242],[114.34548892237284,-7.0683418804000118],[114.34549085593385,-7.0683405081900572],[114.34549080068895,-7.0683328360138358],[114.3455017778378,-7.0683327571308654],[114.34550884410082,-7.0683277423435698],[114.34550881481793,-7.0683236756739927],[114.34551463330219,-7.0683236338616009],[114.34551783818387,-7.0683213594202439],[114.3455177893693,-7.0683145802934915],[114.34552682894594,-7.0683145153337801],[114.34552669889479,-7.0682964544921711],[114.3455447780471,-7.0682963245725627],[114.3455447130213,-7.0682872941519186],[114.34556279217293,-7.0682871642317799],[114.3455626621209,-7.0682691033908158],[114.34557170169624,-7.0682690384306497],[114.34557163667017,-7.0682600080102294],[114.345562597095,-7.0682600729703102],[114.3455625320692,-7.0682510425498357],[114.3455715716442,-7.0682509775898383],[114.34557163667017,-7.0682600080102294],[114.34558067624525,-7.0682599430499735],[114.34558061121909,-7.0682509126296651],[114.3455896507939,-7.0682508476693195],[114.34558971582022,-7.0682598780895436],[114.34560779496995,-7.0682597481681597],[114.34560772994328,-7.0682507177481027],[114.34561676951783,-7.0682506527872313],[114.34561657443778,-7.0682235615272413],[114.34562561401174,-7.0682234965664446]],[[114.34568863091589,-7.0681869201586309],[114.34567055177048,-7.0681870500818187],[114.34567048674326,-7.0681780196622999],[114.34568856588832,-7.0681778897392791],[114.34568863091589,-7.0681869201586309]],[[114.34558952074148,-7.0682327868288271],[114.34559856031588,-7.0682327218684726],[114.34559862534222,-7.068241752288638],[114.34558958576766,-7.068241817249076],[114.34558952074148,-7.0682327868288271]],[[114.34554451794442,-7.0682602028899497],[114.34555355751976,-7.0682601379302161],[114.34555362254548,-7.0682691683508061],[114.34554458296996,-7.0682692333106214],[114.34554451794442,-7.0682602028899497]]],[[[114.34587748646223,-7.0680500996586346],[114.34587742143226,-7.0680410692409978],[114.34586838186418,-7.068041134205008],[114.34586844689397,-7.0680501646227274],[114.34587748646223,-7.0680500996586346]]],[[[114.34579671560434,-7.0681319580946838],[114.34583914005631,-7.0681316532071321],[114.34585090401131,-7.0681247618799414],[114.34585088799585,-7.0681225378934931],[114.34585474785754,-7.0681225101539571],[114.34586890813607,-7.068114215059305],[114.34586890210491,-7.0681133775467844],[114.34587035565805,-7.0681133671005441],[114.34587791019807,-7.0681089416488678],[114.34587787664383,-7.0681042821644784],[114.34588596345773,-7.068104224046893],[114.34594992668471,-7.0680667543624596],[114.34594986803656,-7.0680586103565863],[114.34594082846883,-7.0680586753221624],[114.34594089350018,-7.0680677057392192],[114.34592281436412,-7.0680678356700142],[114.34592274933308,-7.0680588052527877],[114.345931788901,-7.0680587402875625],[114.3459317238699,-7.0680497098704],[114.34594076343754,-7.0680496449050825],[114.34594069840637,-7.0680406144880346],[114.34596781710826,-7.0680404195912852],[114.34596762201363,-7.0680133283408173],[114.34594954288015,-7.0680134582716567],[114.34594947784913,-7.0680044278546754],[114.34596755698225,-7.0680042979240048],[114.34596749195096,-7.0679952675071522],[114.34594037325168,-7.0679954624026449],[114.34594043828244,-7.0680044928197461],[114.34593139871566,-7.0680045577846444],[114.3459315287771,-7.0680226186189561],[114.3459224892099,-7.0680226835838464],[114.34592261927133,-7.0680407444183251],[114.34590454013595,-7.0680408743479184],[114.34590460516644,-7.0680499047653038],[114.34587748646223,-7.0680500996586346],[114.34587755149228,-7.0680591300762989],[114.34585947235536,-7.0680592600044791],[114.34585953738514,-7.0680682904222909],[114.34585049781639,-7.0680683553862051],[114.34585056284608,-7.0680773858040951],[114.34583248370797,-7.068077515731563],[114.34583254873739,-7.068086546149619],[114.34580543002903,-7.0680867410397612],[114.34580549505802,-7.0680957714580464],[114.34578741591832,-7.068095901384102],[114.34578754597588,-7.0681139622210472],[114.3457965855461,-7.0681138972579394],[114.34579671560434,-7.0681319580946838]],[[114.3458237692859,-7.0681227327856888],[114.34581472971576,-7.068122797749405],[114.34581466468632,-7.0681137673311989],[114.34582370425629,-7.0681137023675662],[114.3458237692859,-7.0681227327856888]]],[[[114.34594037325168,-7.0679954624026449],[114.345940308221,-7.0679864319855534],[114.34593126865457,-7.0679864969502839],[114.34593133368507,-7.0679955273674588],[114.34594037325168,-7.0679954624026449]]],[[[114.34603076891295,-7.0679948127448924],[114.34603070388052,-7.0679857823286412],[114.34602166431495,-7.0679858472951187],[114.34602172934721,-7.0679948777114534],[114.34603076891295,-7.0679948127448924]]],[[[114.34603967841349,-7.0679766869458156],[114.34603966483826,-7.0679748018865212],[114.3460364990469,-7.0679676789120798],[114.34603057381592,-7.0679677214961245],[114.34603063884818,-7.0679767519123837],[114.34603967841349,-7.0679766869458156]]],[[[114.34584978249534,-7.0679690207891257],[114.34584971746666,-7.067959990371202],[114.3458406778999,-7.0679600553339341],[114.3458407429284,-7.0679690857519413],[114.34584978249534,-7.0679690207891257]]],[[[114.3459219689676,-7.0679504402457667],[114.34592190393768,-7.0679414098284896],[114.34591286437195,-7.0679414747924518],[114.34591292940169,-7.0679505052098142],[114.3459219689676,-7.0679504402457667]]],[[[114.34591273431275,-7.0679234139577147],[114.34591266928328,-7.0679143835403409],[114.34590362971801,-7.0679144485038758],[114.34590369474731,-7.0679234789213341],[114.34591273431275,-7.0679234139577147]]],[[[114.3459302932072,-7.0678510406921813],[114.34593022817806,-7.0678420102749255],[114.34592118861435,-7.0678420752381417],[114.34592125364334,-7.0678511056554809],[114.3459302932072,-7.0678510406921813]]]]},"properties":{"FID":0,"Shape_Leng":18102566.929299999,"Shape_Area":236516885.403}}]
}