{
  "type" : "FeatureCollection",
  "features" : [{"type":"Feature","id":0,"geometry":{"type":"MultiPolygon","coordinates":[[[[114.35500980059884,-7.075823115397557],[114.3549917213298,-7.0758232458223072],[114.35499178660922,-7.0758322761523074],[114.35500082624397,-7.0758322109399359],[114.35500089152366,-7.075841241269849],[114.35500993115848,-7.0758411760572182],[114.35500980059884,-7.075823115397557]]],[[[114.35503554863499,-7.0756332828369803],[114.35503548335655,-7.0756242525073114],[114.35504452298684,-7.0756241872959968],[114.35504445770832,-7.075615156966407],[114.35502637844799,-7.0756152873886897],[114.35502650900442,-7.0756333480482043],[114.35503554863499,-7.0756332828369803]]],[[[114.3550524528908,-7.0754706064823392],[114.35505232233641,-7.0754525458231825],[114.35504328270953,-7.0754526110330733],[114.35504341326359,-7.075470671692397],[114.3550524528908,-7.0754706064823392]]],[[[114.355124378235,-7.0754159028220833],[114.35510629898391,-7.0754160332438163],[114.35510642953975,-7.0754340939019968],[114.35511546916567,-7.07543402869105],[114.35511553444388,-7.0754430590200332],[114.3551245740699,-7.0754429938088261],[114.355124378235,-7.0754159028220833]]],[[[114.35536746885715,-7.0752786871598685],[114.3553584292366,-7.0752787523742855],[114.35535849451809,-7.0752877827011034],[114.35536753413882,-7.0752877174866029],[114.35536746885715,-7.0752786871598685]]],[[[114.35576495092073,-7.0752396962603266],[114.35576488563179,-7.0752306659372719],[114.35575584601587,-7.0752307311589622],[114.35575591130463,-7.0752397614821021],[114.35576495092073,-7.0752396962603266]]],[[[114.35578270370709,-7.0751944142018592],[114.35578263841823,-7.0751853838789858],[114.35577359880337,-7.0751854491006059],[114.35577366409204,-7.0751944794235637],[114.35578270370709,-7.0751944142018592]]],[[[114.35574628409422,-7.0751585537946964],[114.35573724447951,-7.0751586190153661],[114.35573744034298,-7.0751857099853401],[114.35575551957334,-7.0751855795433229],[114.35575538899691,-7.0751675188970085],[114.35574634938213,-7.0751675841179358],[114.35574628409422,-7.0751585537946964]]],[[[114.35536746885715,-7.0752786871598685],[114.35538554809803,-7.0752785567305132],[114.35538561338005,-7.0752875870570788],[114.35539465300053,-7.0752875218420535],[114.35539458771832,-7.0752784915155722],[114.35541266695869,-7.0752783610851671],[114.35541260167624,-7.075269330758883],[114.35542164129612,-7.0752692655435023],[114.35542144544874,-7.0752421745648295],[114.35543952468718,-7.075242044134046],[114.35543932883954,-7.0752149531558413],[114.35544836845811,-7.0752148879404393],[114.35544830317556,-7.0752058576144465],[114.35545734279385,-7.0752057923989549],[114.35545695109926,-7.0751516104434167],[114.35544791148202,-7.0751516756584039],[114.35544778091818,-7.075133615006358],[114.35546586015191,-7.0751334845765426],[114.35546553374208,-7.0750883329471952],[114.35545649412613,-7.0750883981617694],[114.3554564288446,-7.0750793678358042],[114.3554383496128,-7.0750794982642597],[114.3554382843317,-7.0750704679381045],[114.3554202050999,-7.0750705983656941],[114.35542013981923,-7.0750615680394002],[114.35541420857533,-7.0750616108285023],[114.3553058220001,-7.0751621429998801],[114.35508096400031,-7.0753313819999413],[114.35506958543802,-7.0753395099680541],[114.35506961826647,-7.0753440514496084],[114.35506316250029,-7.0753440980196531],[114.35505159812389,-7.0753523587183471],[114.35505173484582,-7.075371272856775],[114.35503365559514,-7.0753714032748691],[114.35503372087118,-7.0753804336046544],[114.35502468124551,-7.0753804988135238],[114.35502474652148,-7.0753895291433899],[114.3550337861473,-7.075389463934437],[114.35503391669981,-7.0754075245939854],[114.35502487707363,-7.0754075898031079],[114.35502494234983,-7.0754166201329607],[114.35504302160246,-7.0754164897143736],[114.35504308687909,-7.075425520044055],[114.35505212650544,-7.0754254548344164],[114.35505219178235,-7.0754344851640081],[114.3550612314088,-7.0754344199541093],[114.35506116613173,-7.0754253896246029],[114.355079245384,-7.07542525920445],[114.35507937593894,-7.0754433198631093],[114.35508841556531,-7.0754432546526029],[114.35508854612094,-7.075461315311113],[114.35509758574756,-7.0754612501002612],[114.35509738991371,-7.0754341591127696],[114.35508835028762,-7.0754342243233657],[114.35508821973251,-7.0754161636648494],[114.35507918010667,-7.0754162288751052],[114.35507904955224,-7.0753981682164202],[114.35508808917771,-7.075398103006334],[114.35508815445506,-7.0754071333355846],[114.35509719408064,-7.075407068125239],[114.35509706352568,-7.0753890074668657],[114.35510610315083,-7.0753889422565139],[114.3551060378733,-7.0753799119274055],[114.35511507749818,-7.0753798467169613],[114.35511514277589,-7.0753888770459872],[114.35512418240086,-7.0753888118352837],[114.35512411712298,-7.0753797815063439],[114.35513315674768,-7.0753797162955507],[114.35513309146972,-7.0753706859666901],[114.35512405184519,-7.0753707511773989],[114.35512392128986,-7.0753526905194972],[114.35513296091405,-7.0753526253089554],[114.35513289563633,-7.0753435949800831],[114.35514193526025,-7.0753435297694525],[114.35514180470474,-7.0753254691118608],[114.35515084432825,-7.075325403901223],[114.35515077905043,-7.0753163735725053],[114.35515981867366,-7.0753163083617769],[114.35515975339577,-7.0753072780331392],[114.35517783264162,-7.0753071476113227],[114.35517789791986,-7.0753161779397926],[114.35519597716572,-7.0753160475171093],[114.35519591188714,-7.0753070171888082],[114.35521399113229,-7.0753068867655937],[114.35521392585342,-7.075297856437456],[114.35522296547572,-7.0752977912256707],[114.3552228349179,-7.0752797305695356],[114.35523187453974,-7.0752796653577432],[114.35523193981878,-7.075288695685737],[114.35524097944072,-7.0752886304736862],[114.35524104472002,-7.0752976608015752],[114.35525912396396,-7.0752975303767807],[114.35525905868433,-7.0752885000490595],[114.35526809830601,-7.0752884348364828],[114.35526803302626,-7.0752794045088248],[114.35528611226903,-7.075279274083317],[114.35528617754912,-7.0752883044108064],[114.3552771379276,-7.0752883696237321],[114.35527720320759,-7.0752973999512845],[114.35530432207239,-7.0752972043117301],[114.35530438735299,-7.0753062346390267],[114.3553134269746,-7.0753061694254082],[114.35531336169382,-7.075297139098196],[114.35534048055759,-7.0752969434565411],[114.35534041527636,-7.0752879131295776],[114.35533137565537,-7.0752879783435523],[114.35533131037441,-7.0752789480164839],[114.35532227075349,-7.0752790132302001],[114.35532220547279,-7.0752699829030758],[114.35536740357558,-7.0752696568331661],[114.35536746885715,-7.0752786871598685]],[[114.35509667186285,-7.0753348254916482],[114.35510571148696,-7.0753347602818],[114.35510584204124,-7.0753528209400542],[114.35509680241678,-7.0753528861500703],[114.35509667186285,-7.0753348254916482]],[[114.35504282577304,-7.0753893987253065],[114.35505186539868,-7.0753893335160045],[114.3550519959519,-7.075407394175218],[114.3550429563259,-7.0754074593846914],[114.35504282577304,-7.0753893987253065]]]]},"properties":{"FID":0,"Shape_Leng":18102566.929299999,"Shape_Area":236516885.403}}]
}