{
  "type" : "FeatureCollection",
  "features" : [{"type":"Feature","id":0,"geometry":{"type":"MultiPolygon","coordinates":[[[[112.98356919948891,-6.8921150309992942],[112.98356912429506,-6.8920969499001323],[112.98356007803139,-6.8920969874731792],[112.9835601532249,-6.8921150685724406],[112.98356919948891,-6.8921150309992942]]],[[[112.98445441666536,-6.8917949289341767],[112.98445441313494,-6.8917940803497713],[112.98445101001987,-6.8917949430891818],[112.98445441666536,-6.8917949289341767]]],[[[112.98447250917133,-6.8917948537573208],[112.98447248689082,-6.8917894983881691],[112.98446345001294,-6.8917917893690515],[112.98446346291837,-6.8917948913458336],[112.98447250917133,-6.8917948537573208]]],[[[112.98462622023349,-6.8917761336386398],[112.98462618261837,-6.8917670930947477],[112.98460809011516,-6.8917671682771227],[112.98460812772994,-6.8917762088211134],[112.98462622023349,-6.8917761336386398]]],[[[112.984580929415,-6.8917620066062204],[112.98451767127823,-6.891778043481593],[112.9845177028222,-6.8917856252677039],[112.98453579532712,-6.8917855500885521],[112.98453575771367,-6.891776509544167],[112.98454480396586,-6.8917764719543833],[112.98454484157949,-6.8917855124987195],[112.98455388783182,-6.8917854749087155],[112.98455385021802,-6.891776434364429],[112.9845719427222,-6.891776359184008],[112.98457198033634,-6.891785399728195],[112.98458102658851,-6.8917853621376777],[112.9845809889742,-6.8917763215935421],[112.98459908147807,-6.8917762464120935],[112.98459904386347,-6.891767205868053],[112.98458095135993,-6.8917672810494013],[112.984580929415,-6.8917620066062204]]],[[[112.9846170987519,-6.8917580901420763],[112.98461707691884,-6.8917528426742276],[112.98459603277223,-6.8917581776799848],[112.9846170987519,-6.8917580901420763]]],[[[112.98475279251781,-6.8917575262557689],[112.9847527549004,-6.8917484857125499],[112.98476180115088,-6.8917484481188094],[112.98476176353334,-6.8917394075756713],[112.98474367103266,-6.8917394827628788],[112.98474374626709,-6.891757563849386],[112.98475279251781,-6.8917575262557689]]],[[[112.98494253804569,-6.8917024934972595],[112.98494250042498,-6.8916934529550984],[112.98493345417656,-6.8916934905519609],[112.98493349179708,-6.8917025310941717],[112.98494253804569,-6.8917024934972595]]],[[[112.98509632426448,-6.8917018543235811],[112.98509628664087,-6.8916928137822664],[112.98508724039326,-6.8916928513820377],[112.98508727801671,-6.8917018919234012],[112.98509632426448,-6.8917018543235811]]],[[[112.98506903502894,-6.8916658049565998],[112.98506907265191,-6.8916748454980912],[112.98507811889924,-6.8916748078987622],[112.98507808127611,-6.8916657673573196],[112.98506903502894,-6.8916658049565998]]],[[[112.9855575323041,-6.891663774350727],[112.98555749467195,-6.8916547338119383],[112.98554844842762,-6.8916547714202334],[112.98554848605959,-6.8916638119590736],[112.9855575323041,-6.891663774350727]]],[[[112.9855575323041,-6.891663774350727],[112.98555760756854,-6.891681855428331],[112.98554856132368,-6.8916818930367763],[112.9855485989558,-6.8916909335756218],[112.98553955271076,-6.8916909711839471],[112.98553959034275,-6.891700011722822],[112.98554863658798,-6.8916999741144487],[112.9855486742202,-6.891709014653304],[112.98555772046556,-6.8917089770447095],[112.98555768283317,-6.8916999365059031],[112.9855667290783,-6.8916998988971869],[112.98556665381332,-6.8916818178197143],[112.98557570005805,-6.891681780210928],[112.98557566242546,-6.8916727396722273],[112.98558470867,-6.8916727020633175],[112.98558467103729,-6.8916636615246647],[112.98557562479293,-6.8916636991335238],[112.98557558716044,-6.8916546585948311],[112.98556654091622,-6.8916546962034699],[112.98556657854854,-6.8916637367422107],[112.9855575323041,-6.891663774350727]]],[[[112.98506903502894,-6.8916658049565998],[112.98506899740605,-6.8916567644151199],[112.98505995115899,-6.8916568020141789],[112.98505991353632,-6.8916477614726119],[112.98505086728939,-6.8916477990714498],[112.98505094253444,-6.891665880154644],[112.98506903502894,-6.8916658049565998]]],[[[112.98514125450818,-6.8916293419931653],[112.98514121548554,-6.89161996539685],[112.98510361213677,-6.8916294984507047],[112.98514125450818,-6.8916293419931653]]],[[[112.985421499967,-6.891582973601837],[112.98542146233787,-6.8915739330622507],[112.98541241609433,-6.8915739706675323],[112.98541245372327,-6.8915830112071692],[112.985421499967,-6.891582973601837]]],[[[112.98562952592542,-6.8915730680935523],[112.98562941302654,-6.8915459464782058],[112.98562036678467,-6.8915459840872737],[112.98562047968302,-6.8915731057027685],[112.98562952592542,-6.8915730680935523]]],[[[112.98635318750533,-6.8915610182674998],[112.98635314985867,-6.8915519777330383],[112.98636219609661,-6.8915519401100642],[112.98636212080312,-6.8915338590412079],[112.98634402832789,-6.8915339342867856],[112.98634414126718,-6.8915610558903539],[112.98635318750533,-6.8915610182674998]]],[[[112.98566548509304,-6.8915186744254475],[112.9856473926107,-6.8915187496444803],[112.98564750551014,-6.8915458712595585],[112.98565655175186,-6.8915458336499791],[112.98565651411847,-6.8915367931116558],[112.98567460660142,-6.8915367178920812],[112.98567456896775,-6.8915276773538876],[112.98566552272648,-6.8915277149637113],[112.98566548509304,-6.8915186744254475]]],[[[112.98571075393234,-6.8915275269128857],[112.98571071629804,-6.8915184863748706],[112.98569262381621,-6.891518561595614],[112.98569266145016,-6.8915276021337286],[112.98571075393234,-6.8915275269128857]]],[[[112.9856293377609,-6.8915278654012919],[112.98562926249544,-6.8915097843243611],[112.98561117001302,-6.8915098595419266],[112.98561124527779,-6.8915279406190546],[112.9856293377609,-6.8915278654012919]]],[[[112.98575594750177,-6.8915182983200181],[112.98575590986667,-6.891509257782249],[112.98573781738568,-6.8915093330046027],[112.98573785502045,-6.8915183735424721],[112.98575594750177,-6.8915182983200181]]],[[[112.98579205719234,-6.8915000667979127],[112.98579201955667,-6.8914910262603186],[112.98578297331672,-6.8914910638721665],[112.98578301095222,-6.8915001044098094],[112.98579205719234,-6.8915000667979127]]],[[[112.98572861162451,-6.8914710506211234],[112.9857105379055,-6.8914756326234468],[112.98571056576137,-6.8914823242227756],[112.98571961200155,-6.8914822866123471],[112.98571964963581,-6.8914913271503089],[112.98575583459663,-6.8914911767066824],[112.98575579696167,-6.8914821361689187],[112.98574675072173,-6.891482173780032],[112.98574671308701,-6.891473133242199],[112.98572862060726,-6.8914732084638128],[112.98572861162451,-6.8914710506211234]]],[[[112.98587332280238,-6.8914635661345995],[112.98584618408535,-6.8914636789737997],[112.9858462217219,-6.8914727195110883],[112.98583717548263,-6.8914727571238643],[112.98583713784625,-6.8914637165865242],[112.98581904536786,-6.8914637918114598],[112.9858190830039,-6.8914728323488994],[112.98581003676448,-6.8914728699611603],[112.98581011203638,-6.8914909510361086],[112.98584629699518,-6.8914908005856406],[112.98584625935851,-6.8914817600483751],[112.98588244431583,-6.8914816095953677],[112.98588240667854,-6.8914725690582808],[112.98587336043944,-6.8914726066717398],[112.98587332280238,-6.8914635661345995]]],[[[112.98628044114808,-6.8914709138967423],[112.9862804035033,-6.8914618733618438],[112.98627135726663,-6.8914619109827795],[112.98627139491124,-6.8914709515177286],[112.98628044114808,-6.8914709138967423]]],[[[112.98711265706201,-6.8914584115039172],[112.98712170329399,-6.8914583738670716],[112.98712166563335,-6.8914493333368032],[112.98713071186512,-6.8914492956998368],[112.98713067420435,-6.8914402551696305],[112.98710353550945,-6.8914403680798673],[112.98710361082999,-6.8914584491405906],[112.98708551836576,-6.8914585244134265],[112.98708548070582,-6.8914494838829583],[112.98707643447379,-6.8914495215190694],[112.98707650979341,-6.8914676025801018],[112.98711269472254,-6.8914674520342309],[112.98711265706201,-6.8914584115039172]]],[[[112.98666023244284,-6.8914331715296226],[112.9866511862088,-6.8914332091575945],[112.98665122386045,-6.8914422496904777],[112.98666027009466,-6.8914422120624561],[112.98666023244284,-6.8914331715296226]]],[[[112.98663309374055,-6.8914332844130231],[112.9866330560893,-6.8914242438800528],[112.98662400985528,-6.8914242815074607],[112.98662404750635,-6.8914333220404815],[112.98663309374055,-6.8914332844130231]]],[[[112.98666023244284,-6.8914331715296226],[112.98667832491078,-6.8914330962731674],[112.98667836256294,-6.8914421368059022],[112.98668740879702,-6.8914420991773673],[112.98668733349243,-6.8914240181120112],[112.98666019479109,-6.8914241309968016],[112.98666023244284,-6.8914331715296226]]],[[[112.98731152349728,-6.8914214213368963],[112.98731148583325,-6.8914123808076599],[112.98730243960317,-6.8914124184478478],[112.98730247726704,-6.8914214589771348],[112.98731152349728,-6.8914214213368963]]],[[[112.98664206467193,-6.8914151657195486],[112.98664202702061,-6.8914061251866219],[112.98662393455328,-6.8914062004414101],[112.98662397220426,-6.8914152409744371],[112.98664206467193,-6.8914151657195486]]],[[[112.98726629234561,-6.8914216095363763],[112.9872662170193,-6.8914035284774018],[112.98725717078915,-6.8914035661166846],[112.98725720845211,-6.8914126066462238],[112.98723911599131,-6.8914126819243773],[112.98723915365397,-6.8914217224540115],[112.98726629234561,-6.8914216095363763]]],[[[112.9867324517012,-6.8913967083699834],[112.98673241404828,-6.891387667837547],[112.98672336781547,-6.891387705466637],[112.98672340546823,-6.8913967459991241],[112.9867324517012,-6.8913967083699834]]],[[[112.98623487116984,-6.8913897371835002],[112.98623483352638,-6.8913806966483193],[112.98622578729099,-6.8913807342679512],[112.98622582493428,-6.8913897748031818],[112.98623487116984,-6.8913897371835002]]],[[[112.98627105611163,-6.8913895867030615],[112.98627101846748,-6.8913805461680795],[112.98626197223227,-6.8913805837883952],[112.98626200987626,-6.8913896243234278],[112.98627105611163,-6.8913895867030615]]],[[[112.98678669144392,-6.8913874420594112],[112.98678665379003,-6.8913784015272697],[112.98677760755771,-6.8913784391573367],[112.98677764521145,-6.891387479689528],[112.98678669144392,-6.8913874420594112]]],[[[112.98678669144392,-6.8913874420594112],[112.98678672909789,-6.8913964825915484],[112.98681386779555,-6.8913963697000211],[112.98681379248666,-6.8913782886360408],[112.98679570002228,-6.8913783638970312],[112.98679573767636,-6.891387404429123],[112.98678669144392,-6.8913874420594112]]],[[[112.98696761608299,-6.8913866894211449],[112.98696757842566,-6.8913776488900016],[112.98695853219435,-6.891377686523489],[112.98695856985151,-6.8913867270546838],[112.98696761608299,-6.8913866894211449]]],[[[112.98690421714942,-6.8913688717893313],[112.98691326338083,-6.8913688341569186],[112.98691324664395,-6.8913648159515493],[112.98687705613098,-6.8913636250633061],[112.98687707845481,-6.8913689846855419],[112.98689517091793,-6.8913689094215718],[112.98689520857384,-6.8913779499531191],[112.98690425480548,-6.891377912320829],[112.98690421714942,-6.8913688717893313]]],[[[112.98713956979266,-6.8914040554118001],[112.98713960745339,-6.8914130959419868],[112.98718483860775,-6.8914129077547299],[112.98718476328463,-6.8913948266948504],[112.98726617935623,-6.8913944879479088],[112.9872661416932,-6.8913854474184113],[112.98729328038229,-6.8913853344998355],[112.98729324271881,-6.8913762939704846],[112.98732038140693,-6.8913761810505161],[112.98732034374298,-6.8913671405213117],[112.98732938997209,-6.8913671028810306],[112.98732935230801,-6.8913580623518733],[112.98736553722325,-6.8913579117892354],[112.98736549955855,-6.8913488712602726],[112.98747405429734,-6.8913484195565387],[112.98747401663063,-6.8913393790281692],[112.98748306285836,-6.8913393413851294],[112.98748299014778,-6.8913218898927004],[112.98741065078958,-6.891329502686184],[112.98741065536962,-6.8913306019959393],[112.98740160914163,-6.8913306396375607],[112.98740164680693,-6.8913396801663307],[112.98739260057876,-6.8913397178078304],[112.98739256594918,-6.8913314058829318],[112.98703653900021,-6.8913688729999745],[112.98698562766809,-6.8913671977196458],[112.98698563323047,-6.8913685330914616],[112.98699467946146,-6.8913684954575105],[112.98699471711926,-6.891377535988509],[112.98698567088809,-6.8913775736225107],[112.98698570854577,-6.8913866141535554],[112.9869947547771,-6.8913865765195048],[112.986994792435,-6.8913956170504953],[112.98700383866642,-6.8913955794162236],[112.98700380100836,-6.8913865388852811],[112.98706712462584,-6.8913862754409339],[112.98706708696663,-6.8913772349103359],[112.98708517942796,-6.8913771596390827],[112.98708521708753,-6.8913862001695794],[112.98711235577966,-6.8913860872612664],[112.98711239343977,-6.8913951277916103],[112.98712143967055,-6.8913950901551155],[112.9871214773309,-6.8914041306854044],[112.98713956979266,-6.8914040554118001],[112.98713953213198,-6.8913950148816081],[112.98716667082371,-6.8913949019700658],[112.98716670848491,-6.8914039425001077],[112.98713956979266,-6.8914040554118001]],[[112.98723892767875,-6.8913674792761457],[112.98722988144914,-6.8913675169147171],[112.98722984378695,-6.8913584763850091],[112.98723889001639,-6.8913584387464892],[112.98723892767875,-6.8913674792761457]]],[[[112.98750107997937,-6.8913211850420719],[112.98750107498648,-6.8913199866927313],[112.98749203256716,-6.8913209382927967],[112.98749203375208,-6.8913212226853542],[112.98750107997937,-6.8913211850420719]]],[[[112.98752829399625,-6.8913391531673645],[112.98752825632857,-6.8913301126392916],[112.98754634878304,-6.8913300373510884],[112.98754631111507,-6.8913209968230937],[112.98755535734205,-6.8913209591787847],[112.98755532950057,-6.8913142770889104],[112.98751915982486,-6.8913180834921013],[112.98751924776879,-6.8913391908112596],[112.98752829399625,-6.8913391531673645]]],[[[112.98785252658112,-6.8909942578720846],[112.98784348036197,-6.8909942955202421],[112.98784355570564,-6.8910123765731628],[112.98786164814456,-6.8910123012764748],[112.98786161047236,-6.8910032607501153],[112.98785256425309,-6.8910032983984966],[112.98785252658112,-6.8909942578720846]]],[[[112.98806967350168,-6.8910023947901635],[112.98806963582561,-6.890993354264948],[112.9880515433897,-6.8909934295693063],[112.98805158106543,-6.8910024700946204],[112.98806967350168,-6.8910023947901635]]],[[[112.98801524549235,-6.8909664585994017],[112.98800619927464,-6.8909664962504911],[112.98800623694936,-6.8909755367760663],[112.98799719073141,-6.890975574427034],[112.98799726608068,-6.8909936554782742],[112.98800631229899,-6.8909936178272062],[112.98800627462415,-6.890984577301638],[112.98802436706022,-6.8909845019990907],[112.9880243293851,-6.8909754614736185],[112.98801528316726,-6.8909754991249281],[112.98801524549235,-6.8909664585994017]]],[[[112.98822334616499,-6.890974633101532],[112.98822330848614,-6.890965592577154],[112.98821426226958,-6.8909656302321762],[112.98821429994825,-6.8909746707566057],[112.98822334616499,-6.890974633101532]]],[[[112.98797005207724,-6.8909756873789085],[112.9879700144032,-6.8909666468531343],[112.9879428757491,-6.8909667598033222],[112.98794283807563,-6.8909577192773925],[112.98793379185766,-6.8909577569270635],[112.98793382953097,-6.8909667974530411],[112.98789764465792,-6.8909669480502105],[112.98789768233061,-6.8909759885763853],[112.98788863611206,-6.8909760262252995],[112.98788867378462,-6.8909850667515204],[112.98792485865923,-6.8909849161546362],[112.98792489633253,-6.8909939566806528],[112.98798821986234,-6.89099369312917],[112.98798814451341,-6.8909756120778294],[112.98797005207724,-6.8909756873789085],[112.98797008975136,-6.890984727904681],[112.98794295109623,-6.8909848408551664],[112.98794291342264,-6.8909758003292456],[112.98797005207724,-6.8909756873789085]]],[[[112.98783424578534,-6.8909491305356161],[112.98783428345672,-6.8909581710621461],[112.98787046833051,-6.8909580204699665],[112.98787043065845,-6.8909489799436354],[112.98783424578534,-6.8909491305356161]]],[[[112.98823231702369,-6.8909565143976268],[112.98823227934477,-6.8909474738732905],[112.98822323312861,-6.8909475115283847],[112.98822327080735,-6.8909565520527725],[112.98823231702369,-6.8909565143976268]]],[[[112.98783424578534,-6.8909491305356161],[112.98783420811401,-6.8909400900090834],[112.9878161156775,-6.8909401653039479],[112.98781615334849,-6.8909492058305801],[112.98783424578534,-6.8909491305356161]]],[[[112.9877799308039,-6.8909403158916245],[112.98777990975182,-6.8909352635804249],[112.98777794313598,-6.8909403241634637],[112.9877799308039,-6.8909403158916245]]],[[[112.98826767294912,-6.890757472243493],[112.98826763527063,-6.8907484317192766],[112.98825858905843,-6.8907484693739569],[112.98825862673675,-6.8907575098982239],[112.98826767294912,-6.890757472243493]]],[[[112.98830363172387,-6.8907030784786993],[112.98829458551272,-6.8907031161338157],[112.98829462319146,-6.8907121566579015],[112.9882855769801,-6.8907121943128971],[112.98828587841049,-6.8907845185058463],[112.9882768321977,-6.8907845561610692],[112.98827686987656,-6.8907935966852207],[112.98826782366356,-6.8907936343403229],[112.98826786134229,-6.8908026748645206],[112.98825881512907,-6.8908027125195019],[112.98825896584384,-6.8908388746164579],[112.98824991962985,-6.8908389122714668],[112.98825007034475,-6.8908750743685658],[112.98824102413006,-6.8908751120236031],[112.98824125020289,-6.8909293551694404],[112.98825029641861,-6.8909293175141046],[112.98825022106045,-6.8909112364656071],[112.98825926727581,-6.8909111988101985],[112.98825915423843,-6.8908840772375726],[112.98826820045321,-6.8908840395821436],[112.98826816277401,-6.8908749990579778],[112.98827720898855,-6.8908749614024281],[112.98827717130924,-6.8908659208783085],[112.98828621752358,-6.8908658832226362],[112.98828617984414,-6.8908568426985788],[112.98827713362998,-6.8908568803542014],[112.98827709595075,-6.8908478398300579],[112.98830423459258,-6.8908477268628285],[112.98830389547733,-6.89076636214687],[112.98831294168961,-6.8907663244912341],[112.98831290401024,-6.8907572839672699],[112.9883219502223,-6.8907572463115123],[112.98832191254279,-6.8907482057875953],[112.98830382011894,-6.8907482810988396],[112.98830370708176,-6.8907211595267661],[112.98831275329317,-6.8907211218713806],[112.98831271561406,-6.8907120813473988],[112.98830366940278,-6.8907121190027354],[112.98830363172387,-6.8907030784786993]]],[[[112.98830359404501,-6.8906940379546446],[112.9883035563662,-6.8906849974306192],[112.98829451015537,-6.8906850350856352],[112.98829454783402,-6.8906940756097104],[112.98830359404501,-6.8906940379546446]]],[[[112.98829447247678,-6.8906759945615397],[112.98829443479825,-6.8906669540374406],[112.98828538858774,-6.8906669916921857],[112.98828542626612,-6.8906760322163345],[112.98829447247678,-6.8906759945615397]]],[[[112.98792327642653,-6.8906052140586675],[112.98792323875541,-6.8905961735324786],[112.9879141925442,-6.8905962111798127],[112.98791423021514,-6.8906052517060514],[112.98792327642653,-6.8906052140586675]]],[[[112.98792316341333,-6.8905780924801228],[112.98792313051528,-6.890570197392285],[112.98792092100018,-6.8905724069999827],[112.98791870433092,-6.8905781110373194],[112.98792316341333,-6.8905780924801228]]],[[[112.98809489071377,-6.8905412150492058],[112.98809485303975,-6.8905321745239378],[112.98807676062158,-6.8905322498242363],[112.98807679829527,-6.8905412903496046],[112.98809489071377,-6.8905412150492058]]],[[[112.98812202934114,-6.8905411020973251],[112.98813107555017,-6.8905410644463565],[112.98813103787546,-6.8905320239212884],[112.98810389924876,-6.8905321368735324],[112.98810393692294,-6.8905411773987497],[112.98811298313205,-6.8905411397481231],[112.98811302080648,-6.8905501802732703],[112.98812206701574,-6.8905501426224234],[112.98812202934114,-6.8905411020973251]]],[[[112.9887981583567,-6.8899777654687862],[112.98879812067247,-6.8899687249472006],[112.98878907447798,-6.8899687626076851],[112.98878911216204,-6.8899778031293195],[112.9887981583567,-6.8899777654687862]]],[[[112.98856280656005,-6.8899425824955314],[112.98856276888046,-6.8899335419726349],[112.98854467649015,-6.8899336172841386],[112.98854471416938,-6.8899426578071354],[112.98856280656005,-6.8899425824955314]]],[[[112.98864433535911,-6.8899693651521678],[112.98864415715013,-6.8899266089908036],[112.98861701257567,-6.8899252846514907],[112.98861712141144,-6.8899513970792077],[112.98860807521628,-6.8899514347361714],[112.9886081128968,-6.8899604752588122],[112.9885990667014,-6.8899605129156543],[112.98859910438181,-6.8899695534383403],[112.98864433535911,-6.8899693651521678]]]]},"properties":{"FID":0,"Shape_Leng":18102566.929299999,"Shape_Area":236516885.403}}]
}