{
  "type" : "FeatureCollection",
  "features" : [{"type":"Feature","id":0,"geometry":{"type":"MultiPolygon","coordinates":[[[[115.4153496208246,-6.8410941048886205],[115.41534953782495,-6.8410850858871326],[115.41533149038149,-6.8410852517991811],[115.41533157338081,-6.8410942708008911],[115.4153496208246,-6.8410941048886205]]],[[[115.41531319394126,-6.8410583607047428],[115.4153041702196,-6.8410584436598487],[115.41530433621669,-6.8410764816639507],[115.41532238366051,-6.8410763157531314],[115.41532230066157,-6.8410672967513033],[115.41531327693988,-6.8410673797066854],[115.41531319394126,-6.8410583607047428]]],[[[115.41544821774862,-6.8410210403567939],[115.41544830074935,-6.8410300593570987],[115.41545732446868,-6.8410299763996338],[115.41545724146778,-6.8410209573994392],[115.41544821774862,-6.8410210403567939]]],[[[115.41544821774862,-6.8410210403567939],[115.415448134748,-6.8410120213564838],[115.41543911102889,-6.8410121043135614],[115.41543919402933,-6.8410211233139808],[115.41544821774862,-6.8410210403567939]]],[[[115.41550202805607,-6.8409844666115118],[115.41550211105735,-6.8409934856111887],[115.41551113477534,-6.8409934026531563],[115.41551105177389,-6.8409843836535922],[115.41550202805607,-6.8409844666115118]]],[[[115.41550202805607,-6.8409844666115118],[115.41550186205382,-6.8409664286121963],[115.41549283833623,-6.8409665115697305],[115.41549275533544,-6.8409574925699461],[115.41547470790026,-6.8409576584842879],[115.4154747909007,-6.8409666774842925],[115.41548381461853,-6.840966594527095],[115.41548389761924,-6.8409756135269841],[115.41549292133713,-6.8409755305695095],[115.41549300433813,-6.8409845495692672],[115.41550202805607,-6.8409844666115118]]],[[[115.41547470790026,-6.8409576584842879],[115.41547454189968,-6.8409396204842494],[115.41546551818226,-6.8409397034409469],[115.41546535218247,-6.8409216654407041],[115.41544730474799,-6.8409218313531532],[115.41544722174858,-6.840912812352796],[115.41543819803132,-6.8409128953086578],[115.41543811503222,-6.840903876308186],[115.415429091315,-6.8409039592637688],[115.4154290083162,-6.8408949402632002],[115.41541096088179,-6.8408951061736412],[115.4154108778834,-6.8408860871728114],[115.41540185416623,-6.8408861701276704],[115.41540182215611,-6.8408826917451337],[115.41530231382042,-6.8408567154982771],[115.41530242727725,-6.8408690446157214],[115.41532047471334,-6.840868878709979],[115.4153206407064,-6.8408869167138224],[115.41531161698806,-6.8408869996669992],[115.4153116999846,-6.8408960186690422],[115.41530267626599,-6.8408961016221594],[115.41530275926246,-6.8409051206242744],[115.4152847118246,-6.8409052865302264],[115.41528462882849,-6.8408962675278913],[115.41521243907384,-6.8408969311440897],[115.41521235607917,-6.8408879121408335],[115.41519430863976,-6.8408880780429788],[115.41519422564552,-6.8408790590395148],[115.41518520192579,-6.8408791419902251],[115.41518528491986,-6.840888160993801],[115.41517626119985,-6.8408882439444545],[115.41517634419385,-6.8408972629481513],[115.41518536791401,-6.8408971799973886],[115.4151854509083,-6.8409061990009379],[115.41520349834863,-6.8409060330986868],[115.41520366433821,-6.8409240711053654],[115.41524878293879,-6.8409236563456881],[115.41524886593457,-6.8409326753484692],[115.41525788965453,-6.8409325923959194],[115.41525797265058,-6.840941611398569],[115.41526699637059,-6.8409415284457387],[115.41526707936696,-6.8409505474483074],[115.41525805564677,-6.840950630401248],[115.41525813864307,-6.8409596494039047],[115.41526716236343,-6.8409595664508549],[115.41526724536,-6.8409685854533988],[115.41529431652084,-6.8409683365929093],[115.41529439951803,-6.8409773555951157],[115.41528537579771,-6.8409774385488911],[115.41528545879486,-6.8409864575511872],[115.41529448251535,-6.8409863745973025],[115.41529456551278,-6.8409953935995169],[115.41533968411447,-6.8409949788270152],[115.4153396011162,-6.8409859598253524],[115.41534862483601,-6.840985876870457],[115.41534870783445,-6.8409948958720106],[115.41535773155438,-6.8409948129168381],[115.4153578975519,-6.8410128509196761],[115.41534887383168,-6.8410129338750698],[115.41534912282829,-6.8410399908796258],[115.41538521771056,-6.841039659055717],[115.41538505171135,-6.8410216210535673],[115.41541212287085,-6.8410213721845308],[115.41541203987089,-6.8410123531837792],[115.41543911102889,-6.8410121043135614],[115.41543894502831,-6.8409940663127093],[115.41542992130945,-6.8409941492693962],[115.41542958931034,-6.8409580732671973],[115.41541154187358,-6.8409582391791846],[115.41541145887442,-6.8409492201784028],[115.41540243515604,-6.8409493031340336],[115.41540235215716,-6.8409402841331213],[115.41539332843882,-6.8409403670884732],[115.41539307944336,-6.840913310085444],[115.41541112687888,-6.8409131441752349],[115.41541120987759,-6.8409221631760335],[115.41542925731302,-6.8409219972649291],[115.41542934031216,-6.840931016265503],[115.41543836402987,-6.840930933309588],[115.41543844702932,-6.8409399523100305],[115.41544747074708,-6.8409398693538375],[115.41544755374682,-6.8409488883541982],[115.41546560118232,-6.8409487224410874],[115.41546568418248,-6.8409577414412057],[115.41547470790026,-6.8409576584842879]],[[115.4153304114004,-6.8409680047765677],[115.41533943512002,-6.8409679218220623],[115.41533951811805,-6.8409769408237171],[115.41533049439828,-6.8409770237783336],[115.4153304114004,-6.8409680047765677]],[[115.4153124469584,-6.8409771896870613],[115.41530342323827,-6.8409772726411724],[115.4153033402409,-6.8409682536390761],[115.41531236396085,-6.8409681706850751],[115.4153124469584,-6.8409771896870613]]],[[[115.41524780967443,-6.8408424874008125],[115.41518471305811,-6.84082601626183],[115.41518486995066,-6.8408430659758794],[115.41524780967443,-6.8408424874008125]]],[[[115.41518105563871,-6.8408250615056643],[115.41517566684556,-6.8408236547805163],[115.41517568024497,-6.8408251109185612],[115.41518105563871,-6.8408250615056643]]],[[[115.41513958536855,-6.8408254427164001],[115.41513948199511,-6.8408142088529296],[115.4151304357825,-6.8408118473704569],[115.41513056164919,-6.8408255256654416],[115.41513958536855,-6.8408254427164001]]],[[[115.41405632338308,-6.8407903003130857],[115.41405624041141,-6.8407812812956816],[115.41404721667961,-6.840781364223874],[115.41404729965112,-6.840790383241389],[115.41405632338308,-6.8407903003130857]]],[[[115.40898495131657,-6.8388705544715735],[115.40899397507447,-6.8388704716613242],[115.40899380936813,-6.8388524335012804],[115.40887650051155,-6.838853510018545],[115.40887666621352,-6.8388715481814542],[115.4088676424542,-6.8388716309895168],[115.40886789100747,-6.8388986882341776],[115.40887691476732,-6.8388986054257836],[115.40887683191593,-6.8388895863443446],[115.40890390319423,-6.8388893379184834],[115.40890382034246,-6.8388803188373712],[115.40894893913654,-6.8388799047914572],[115.40894885628403,-6.8388708857108904],[115.40896690380055,-6.8388707200915686],[115.40896698665338,-6.8388797391719134],[115.40898503416977,-6.8388795735516981],[115.40898495131657,-6.8388705544715735]]],[[[115.40853351474725,-6.838847637512723],[115.40853343190294,-6.8388386184270695],[115.40852440814004,-6.8388387012283021],[115.40852449098418,-6.8388477203140665],[115.40853351474725,-6.838847637512723]]],[[[115.40857830218093,-6.8388111471630344],[115.40857813649164,-6.8387931089928076],[115.40856911273013,-6.8387931917943314],[115.40856927841909,-6.8388112299647768],[115.40857830218093,-6.8388111471630344]]],[[[115.40882186085882,-6.8387998923702833],[115.40882177800967,-6.8387908732881346],[115.40881275425122,-6.8387909560941988],[115.40881283710019,-6.8387999751764568],[115.40882186085882,-6.8387998923702833]]],[[[115.4084786265815,-6.838766962541289],[115.40846057905694,-6.8387671281398053],[115.40846049621499,-6.8387581090532148],[115.40842440116522,-6.8387584402477888],[115.4084244840065,-6.8387674593348198],[115.40845155529449,-6.8387672109388111],[115.4084516381364,-6.8387762300254753],[115.40847870942392,-6.838775981627621],[115.4084786265815,-6.838766962541289]]],[[[115.40853276915246,-6.8387664657417044],[115.40854179291388,-6.8387663829411851],[115.40854171007041,-6.8387573638555867],[115.40851463878629,-6.8387576122563098],[115.40851472162926,-6.8387666313422395],[115.40852374539091,-6.8387665485420568],[115.40852399392098,-6.8387936057994203],[115.40851497015883,-6.8387936885999343],[115.40851488731552,-6.838784669514034],[115.40847879226644,-6.8387850007139663],[115.40847887510907,-6.8387940198003063],[115.40848789887167,-6.8387939370004664],[115.40848798171459,-6.8388029560866928],[115.40849700547726,-6.8388028732865722],[115.40849708832042,-6.8388118923726671],[115.40853318337068,-6.8388115611700675],[115.40853301768304,-6.8387935229987393],[115.40854204144497,-6.8387934401978887],[115.40854195860116,-6.8387844211123205],[115.40853293483941,-6.8387845039130601],[115.40853276915246,-6.8387664657417044]]],[[[115.40840635363965,-6.8387586058440668],[115.40840627079882,-6.8387495867568271],[115.40838822327316,-6.8387497523522125],[115.40838830611366,-6.8387587714396716],[115.40840635363965,-6.8387586058440668]]],[[[115.4084786265815,-6.838766962541289],[115.4084876503436,-6.8387668797417787],[115.40848740181654,-6.8387398224830189],[115.4084603305314,-6.8387400708800543],[115.40846041337315,-6.8387490899666368],[115.40846943713512,-6.8387490071676824],[115.40846951997715,-6.8387580262541503],[115.40847854373921,-6.8387579434549197],[115.4084786265815,-6.838766962541289]]],[[[115.40829724009377,-6.8386694085217927],[115.40828821633114,-6.8386694913165602],[115.40828838200655,-6.8386875294939786],[115.40830642953232,-6.8386873639038352],[115.40830634669425,-6.8386783448153494],[115.40829732293159,-6.838678427610394],[115.40829724009377,-6.8386694085217927]]],[[[115.40864014298991,-6.8386662621960479],[115.4086400601458,-6.8386572431116299],[115.4086310363876,-6.8386573259126768],[115.40863111923154,-6.8386663449972049],[115.40864014298991,-6.8386662621960479]]],[[[115.40863997730182,-6.8386482240271915],[115.40863989445796,-6.8386392049427815],[115.40863087070009,-6.8386392877436064],[115.40863095354381,-6.8386483068281274],[115.40863997730182,-6.8386482240271915]]],[[[115.40709947757666,-6.83795880771138],[115.40709939477011,-6.837949788607899],[115.40709037100638,-6.8379498713715456],[115.40709045381276,-6.8379588904751385],[115.40709947757666,-6.83795880771138]]],[[[115.40706305129753,-6.8379230623496152],[115.40706296849208,-6.8379140432456591],[115.40705394472857,-6.8379141260081919],[115.40705402753383,-6.8379231451122591],[115.40706305129753,-6.8379230623496152]]],[[[115.40658404650365,-6.8378462765497252],[115.40658396370814,-6.8378372574398734],[115.4065749399402,-6.8378373401925048],[115.40657502273557,-6.8378463593024676],[115.40658404650365,-6.8378462765497252]]],[[[115.40665524308949,-6.8377373852140115],[115.40665507749858,-6.8377193469959945],[115.40664605373375,-6.837719429748538],[115.40664621932433,-6.8377374679667753],[115.40665524308949,-6.8377373852140115]]],[[[115.40628419238209,-6.8376235294633494],[115.40628410959492,-6.8376145103497699],[115.4062750858275,-6.8376145930940986],[115.40627516861451,-6.8376236122077882],[115.40628419238209,-6.8376235294633494]]],[[[115.40418024481522,-6.8374894790057299],[115.40418016206914,-6.8374804598664189],[115.40417113827853,-6.8374805425697014],[115.40417122102446,-6.8374895617091234],[115.40418024481522,-6.8374894790057299]]],[[[115.40483807090305,-6.8373842307597084],[115.40483815366026,-6.8373932498910097],[115.40484717744111,-6.837393167176276],[115.40484709468369,-6.8373841480450857],[115.40483807090305,-6.8373842307597084]]],[[[115.40472945450693,-6.837349146791488],[115.40472937175225,-6.8373401276588099],[115.40472034797101,-6.8373402103706971],[115.40472043072548,-6.8373492295034843],[115.40472945450693,-6.837349146791488]]],[[[115.40483807090305,-6.8373842307597084],[115.40483765711853,-6.8373391351030577],[115.40479253821788,-6.8373395486708963],[115.40479245546216,-6.8373305295390026],[115.40477440790144,-6.8373306949647414],[115.40477449065683,-6.8373397140968555],[115.40476546687614,-6.8373397968095828],[115.40476571514246,-6.8373668542062296],[115.40475669136116,-6.8373669369191186],[115.40475685687227,-6.837384975183749],[115.40476588065393,-6.8373848924706397],[115.40476604616579,-6.8374029307350321],[115.40479311751108,-6.8374026825940328],[115.40479303475458,-6.8373936634621524],[115.40480205853595,-6.8373935807482606],[115.40480214129261,-6.837402599880031],[115.40482921263654,-6.8374023517370146],[115.40482904712229,-6.8373843134741632],[115.40483807090305,-6.8373842307597084]]],[[[115.40512633525475,-6.837327469041532],[115.40512625249289,-6.8373184499137079],[115.40511722871689,-6.8373185326327723],[115.40511731147856,-6.8373275517607066],[115.40512633525475,-6.837327469041532]]],[[[115.40474717105012,-6.8373129048371863],[115.40474708829557,-6.8373038857047286],[115.40473806451521,-6.83730396841651],[115.40473814726958,-6.8373129875490788],[115.40474717105012,-6.8373129048371863]]],[[[115.40481025475493,-6.8373033067175433],[115.40481017199932,-6.8372942875858511],[115.40480114821993,-6.837294370298701],[115.40480123097537,-6.8373033894305015],[115.40481025475493,-6.8373033067175433]]],[[[115.40476480483753,-6.8372676437516651],[115.40475578105807,-6.8372677264633426],[115.40475586381234,-6.837276745595708],[115.40474684003259,-6.8372768283073286],[115.4047469227868,-6.8372858474397997],[115.40475594656672,-6.8372857647280698],[115.40475611207582,-6.8373038029927766],[115.40476513585595,-6.8373037202806586],[115.40476480483753,-6.8372676437516651]]],[[[115.40475569830393,-6.8372587073309736],[115.40475561554986,-6.8372496881986002],[115.40474659177063,-6.8372497709098905],[115.40474667452452,-6.8372587900423731],[115.40475569830393,-6.8372587073309736]]],[[[115.4045387138185,-6.8372155966830483],[115.40452969003725,-6.8372156793898631],[115.40452977278666,-6.8372246985250067],[115.40453879656806,-6.8372246158180827],[115.4045387138185,-6.8372155966830483]]],[[[115.40417767973891,-6.8372098856850565],[115.40416865595336,-6.8372099683850349],[115.4041687386959,-6.8372189875245875],[115.40415971491009,-6.837219070224509],[115.40415979765258,-6.8372280893641673],[115.40416882143856,-6.8372280066641355],[115.40416890418136,-6.8372370258036623],[115.40417792796741,-6.8372369431033517],[115.40417767973891,-6.8372098856850565]]],[[[115.4045387138185,-6.8372155966830483],[115.40454773759964,-6.8372155139760658],[115.40454765485001,-6.8372064948411371],[115.40453863106904,-6.8372065775480104],[115.4045387138185,-6.8372155966830483]]],[[[115.4047190239144,-6.8371959042457737],[115.40468292879902,-6.8371962350845932],[115.40468301155106,-6.8372052542178725],[115.40471008288826,-6.8372050060886806],[115.40471016564089,-6.8372140252216278],[115.40471918941989,-6.8372139425114504],[115.40471927217281,-6.8372229616442821],[115.40473731973083,-6.8372227962232026],[115.4047374024842,-6.8372318153557936],[115.40475545004212,-6.8372316499338224],[115.40475536728842,-6.8372226308014525],[115.40474634350966,-6.8372227135124115],[115.40474626075623,-6.8372136943799093],[115.40473723697758,-6.8372137770905921],[115.40473715422443,-6.8372047579579762],[115.40471910666707,-6.8372049233786134],[115.4047190239144,-6.8371959042457737]]],[[[115.40464683368188,-6.8371965659207214],[115.40464675093064,-6.8371875467870122],[115.40463772715124,-6.8371876294955145],[115.40463780990233,-6.837196648629333],[115.40464683368188,-6.8371965659207214]]],[[[115.40458350172256,-6.8371791066084766],[115.40453838282136,-6.83717952014287],[115.40453846557048,-6.8371885392779381],[115.40458358447249,-6.8371881257429941],[115.40458350172256,-6.8371791066084766]]],[[[115.40461959684148,-6.8371787757779368],[115.40461967959212,-6.8371877949120137],[115.40462870337173,-6.837187712203848],[115.40462862062093,-6.8371786930698804],[115.40461959684148,-6.8371787757779368]]],[[[115.40452025251147,-6.8371706664201737],[115.40450220495009,-6.8371708318318616],[115.40450228769843,-6.8371798509673578],[115.40448424013627,-6.8371800163785936],[115.40448415738828,-6.8371709972428762],[115.40447513360722,-6.8371710799481322],[115.40447529910298,-6.837189118219797],[115.40449334666567,-6.8371889528086784],[115.40449342941406,-6.837197971944259],[115.40450245319542,-6.837197889238336],[115.40450253594409,-6.8372069083738189],[115.40452960728797,-6.8372066602547141],[115.40452944178975,-6.8371886219844216],[115.40452041800891,-6.837188704690738],[115.40452025251147,-6.8371706664201737]]],[[[115.40458350172256,-6.8371791066084766],[115.40459252550245,-6.8371790239010934],[115.40459244275246,-6.8371700047666986],[115.40458341897271,-6.8371700874739707],[115.40458350172256,-6.8371791066084766]]],[[[115.40461959684148,-6.8371787757779368],[115.40461951409098,-6.8371697566438714],[115.4046104903116,-6.837169839351648],[115.40461057306192,-6.8371788584858235],[115.40461959684148,-6.8371787757779368]]],[[[115.40466430198198,-6.8371332665683626],[115.40466421923117,-6.8371242474348275],[115.40465519545316,-6.8371243301428946],[115.40465527820379,-6.8371333492765407],[115.40466430198198,-6.8371332665683626]]],[[[115.40466413648049,-6.8371152283012862],[115.40466405372992,-6.8371062091677413],[115.40462795861859,-6.8371065399981203],[115.40462804136848,-6.8371155591321067],[115.40466413648049,-6.8371152283012862]]],[[[115.40090737161825,-6.8358526758945164],[115.40088929597613,-6.8358497815899213],[115.40088930660308,-6.8358509410530495],[115.40088028280287,-6.8358510236750583],[115.4008803654672,-6.8358600428552139],[115.40088938926755,-6.8358599602330958],[115.40088947193213,-6.8358689794131715],[115.40086240053022,-6.8358692272793533],[115.40086248319442,-6.8358782464597381],[115.40088053079612,-6.8358780812155651],[115.40088061346077,-6.835887100395726],[115.40089866106237,-6.8358869351506604],[115.40089849573253,-6.8358688967907755],[115.40093459093309,-6.8358685662995073],[115.40093450826765,-6.8358595471199823],[115.40094353206734,-6.8358594644968544],[115.40094352290185,-6.8358584645012082],[115.40091640943922,-6.8358541230464978],[115.40091646066796,-6.8358597123657319],[115.40090743686793,-6.8358597949883544],[115.40090737161825,-6.8358526758945164]]],[[[115.40063655749596,-6.8358442352226012],[115.40063639217699,-6.8358261968562921],[115.40062736837416,-6.835826279473264],[115.40062753369281,-6.8358443178397934],[115.40063655749596,-6.8358442352226012]]],[[[115.40063655749596,-6.8358442352226012],[115.40063672281536,-6.8358622735888774],[115.40065477042201,-6.8358621083535489],[115.40065460510192,-6.8358440699877123],[115.40066362890474,-6.8358439873700165],[115.40066338092493,-6.8358169298215206],[115.40065435712263,-6.8358170124388868],[115.40065452244204,-6.8358350508047812],[115.40064549863928,-6.835835133422199],[115.40064558129899,-6.8358441526052411],[115.40063655749596,-6.8358442352226012]]],[[[115.40066338092493,-6.8358169298215206],[115.40068300679545,-6.8358167501364004],[115.40066335043237,-6.8358136027132197],[115.40066338092493,-6.8358169298215206]]],[[[115.40036509946657,-6.8357655409870111],[115.40036507376254,-6.835762736151783],[115.40034699594769,-6.8357596053902459],[115.4003470518565,-6.8357657062091617],[115.40036509946657,-6.8357655409870111]]],[[[115.4000221121517,-6.8357596609022222],[115.40002202950471,-6.8357506417115452],[115.40001300569584,-6.8357507243160969],[115.40001308834265,-6.8357597435068831],[115.4000221121517,-6.8357596609022222]]],[[[115.39999495807773,-6.8357508895246957],[115.39999487543133,-6.8357418703336856],[115.3999858516223,-6.8357419529376235],[115.39998593426851,-6.8357509721287446],[115.39999495807773,-6.8357508895246957]]],[[[115.40015722132595,-6.8357313642450332],[115.40015717888056,-6.835726732343633],[115.40013910106356,-6.8357236015725089],[115.40013917371206,-6.8357315294585712],[115.40015722132595,-6.8357313642450332]]],[[[115.40013311548348,-6.8357225649714293],[115.40013006215501,-6.8357220361866169],[115.40013006725631,-6.8357225928757188],[115.40013311548348,-6.8357225649714293]]],[[[115.39986804623268,-6.8356889116181234],[115.39986796358944,-6.8356798924255431],[115.39985893977999,-6.8356799750263564],[115.39985902242306,-6.8356889942190477],[115.39986804623268,-6.8356889116181234]]],[[[115.39823291741975,-6.835505436971582],[115.39823283480941,-6.8354964177590016],[115.39822381098347,-6.8354965003269736],[115.39822389359365,-6.8355055195396632],[115.39823291741975,-6.835505436971582]]],[[[115.38005837667647,-6.8356353106134868],[115.38005829440527,-6.8356262911799295],[115.38004927035574,-6.8356263734089175],[115.38004935262678,-6.8356353928425841],[115.38005837667647,-6.8356353106134868]]],[[[115.38168270381182,-6.8356205066375164],[115.38168262151034,-6.8356114872236731],[115.38167359748081,-6.8356115694829196],[115.38167367978211,-6.835620588896874],[115.38168270381182,-6.8356205066375164]]],[[[115.37917369025961,-6.8356072904888068],[115.37917360800533,-6.8355982710445033],[115.3791645839456,-6.8355983532565778],[115.37916466619971,-6.8356073727009914],[115.37917369025961,-6.8356072904888068]]],[[[115.37900215085116,-6.8355998330451948],[115.37900206860019,-6.8355908135987731],[115.37899304453849,-6.8355908958075453],[115.37899312678928,-6.8355999152540754],[115.37900215085116,-6.8355998330451948]]],[[[115.37911938139204,-6.835589744869436],[115.37910133327142,-6.8355899092911834],[115.37910141552426,-6.8355989287364016],[115.37911043958475,-6.8355988465255022],[115.37911052183787,-6.835607865970573],[115.37911954589848,-6.8356077837593956],[115.37911938139204,-6.835589744869436]]],[[[115.37939912720452,-6.8355871962463723],[115.3794081512612,-6.8355871140300346],[115.37940806900276,-6.8355780945885511],[115.37938099683286,-6.8355783412367304],[115.37938107909079,-6.8355873606785416],[115.37929083851557,-6.8355881828293024],[115.37929092077194,-6.8355972022722211],[115.37926384859671,-6.8355974489144993],[115.37926376634084,-6.8355884294712528],[115.37925474228236,-6.8355885116849002],[115.37925482453804,-6.8355975311282569],[115.37919165612449,-6.8355981066198472],[115.37919173837913,-6.8356071260639322],[115.37925490679385,-6.8356065505715753],[115.37925498904976,-6.835615570014907],[115.37926401310874,-6.835615487800931],[115.37926393085267,-6.8356064683577085],[115.37929100302838,-6.8356062217151017],[115.37929108528499,-6.8356152411579965],[115.3793001093435,-6.8356151589433471],[115.37930002708676,-6.8356061395005643],[115.37939929172138,-6.8356052351295435],[115.37939912720452,-6.8355871962463723]]],[[[115.37915531312456,-6.8355713771348245],[115.37910116876611,-6.8355718704007691],[115.37910125101872,-6.8355808898459793],[115.37912832319894,-6.8355806432134347],[115.3791284877055,-6.8355986821031998],[115.37915555988573,-6.8355984354684871],[115.3791554776319,-6.8355894160239261],[115.37920059792923,-6.8355890049632535],[115.37920051567467,-6.8355799855192521],[115.37915539537815,-6.8355803965793775],[115.37915531312456,-6.8355713771348245]]],[[[115.37964269443333,-6.8355759569076326],[115.37964261217063,-6.8355669374689914],[115.37963358811717,-6.8355670196894804],[115.3796336703797,-6.835576039128231],[115.37964269443333,-6.8355759569076326]]],[[[115.37942603485683,-6.8355689107143238],[115.37943505891283,-6.8355688284977019],[115.37943497665412,-6.8355598090565381],[115.37939888043006,-6.8355601379215809],[115.37939896268811,-6.8355691573631816],[115.37941701080069,-6.8355689929307779],[115.37941717531778,-6.835587031813529],[115.3794352234306,-6.8355868673800151],[115.37943514117167,-6.8355778479388611],[115.3794261171155,-6.8355779301555923],[115.37942603485683,-6.8355689107143238]]],[[[115.37946196656189,-6.8355505429651693],[115.37946204882101,-6.8355595624059911],[115.37947107287643,-6.835559480188806],[115.37947099061715,-6.8355504607480926],[115.37946196656189,-6.8355505429651693]]],[[[115.37956131342439,-6.8355586580077077],[115.37956123116345,-6.8355496385680903],[115.3795522071093,-6.8355497207868465],[115.37955228937008,-6.8355587402265732],[115.37956131342439,-6.8355586580077077]]],[[[115.38035534749157,-6.8355424026591969],[115.3803282753582,-6.8355426493593434],[115.38032835763345,-6.8355516687896545],[115.38031933358862,-6.8355517510228099],[115.38031941586382,-6.8355607704532417],[115.38030136777343,-6.8355609349192683],[115.38030145004841,-6.835569954349916],[115.3802563298197,-6.8355703655125835],[115.38025641209393,-6.8355793849437738],[115.38021129186161,-6.8355797961027873],[115.3802113741351,-6.8355888155345381],[115.38014820580399,-6.8355893911508625],[115.38014828807644,-6.8355984105833416],[115.38007609569,-6.8355990684213586],[115.38007617796124,-6.8356080878547267],[115.38006715391226,-6.835608170083832],[115.38006723618342,-6.835617189517305],[115.3801213804766,-6.8356166961394944],[115.38012129820441,-6.8356076767066787],[115.3802747070105,-6.8356062787718832],[115.38027462473558,-6.8355972593409238],[115.38029267282795,-6.8355970948750313],[115.38029259055283,-6.8355880754443037],[115.38031063864445,-6.8355879109779583],[115.38031055636907,-6.8355788915474118],[115.38031958041455,-6.8355788093140957],[115.38031949813912,-6.8355697898836709],[115.3803285221843,-6.8355697076502979],[115.38032843990882,-6.835560688219978],[115.38034648799852,-6.8355605237529451],[115.38034640572285,-6.8355515043228392],[115.38035542976733,-6.8355514220891811],[115.38035534749157,-6.8355424026591969]]],[[[115.38035534749157,-6.8355424026591969],[115.38036437153585,-6.8355423204254793],[115.38036428926002,-6.8355333009955679],[115.38035526521595,-6.8355333832291763],[115.38035534749157,-6.8355424026591969]]],[[[115.37803608220617,-6.8355545116934229],[115.37802705813343,-6.8355545938836606],[115.37802697590128,-6.8355455744254083],[115.37801795182858,-6.8355456566153681],[115.37801811629268,-6.8355636955321044],[115.37803616443858,-6.8355635311515783],[115.37803608220617,-6.8355545116934229]]],[[[115.37804510627878,-6.8355544295030182],[115.37804502404629,-6.8355454100449835],[115.37803599997386,-6.8355454922352807],[115.37803608220617,-6.8355545116934229],[115.37804510627878,-6.8355544295030182]]],[[[115.37808120256817,-6.8355541007397127],[115.378072178496,-6.8355541829307915],[115.37807209626298,-6.8355451634730855],[115.37806307219088,-6.8355452456638863],[115.37806315442371,-6.8355542651217007],[115.37804510627878,-6.8355544295030182],[115.37804518851138,-6.8355634489610626],[115.37803616443858,-6.8355635311515783],[115.37803624667114,-6.8355725506096956],[115.37804527074408,-6.8355724684190715],[115.3780453529769,-6.8355814878770911],[115.37805437704991,-6.8355814056861899],[115.37805429481692,-6.8355723862282796],[115.37810843925169,-6.835571893079992],[115.37810835701782,-6.8355628736227496],[115.37808128480144,-6.835563120197321],[115.37808120256817,-6.8355541007397127]]],[[[115.37946196656189,-6.8355505429651693],[115.3794618843029,-6.8355415235243084],[115.37947993241293,-6.8355413590902074],[115.37947985015371,-6.8355323396495784],[115.37945277798902,-6.8355325863001495],[115.37945286024772,-6.8355416057411071],[115.37944383619244,-6.8355416879577371],[115.3794439184511,-6.8355507073988155],[115.37946196656189,-6.8355505429651693]]],[[[115.3797054514874,-6.8355302841693222],[115.3797144755393,-6.8355302019479272],[115.37971442780194,-6.8355249679860259],[115.37967831687816,-6.8355236833917665],[115.37967837933104,-6.835530530832501],[115.37966935527868,-6.8355306130532245],[115.37966943754144,-6.8355396324915541],[115.37968748564636,-6.8355394680497206],[115.37968756790954,-6.8355484874878432],[115.37970561601436,-6.8355483230451188],[115.3797054514874,-6.8355302841693222]]],[[[115.37801795182858,-6.8355456566153681],[115.37801786959672,-6.8355366371570021],[115.37799982145137,-6.8355368015361995],[115.37799990368291,-6.8355458209947839],[115.37801795182858,-6.8355456566153681]]],[[[115.37955204258805,-6.8355316819073275],[115.37956106664184,-6.8355315996887906],[115.37956095636439,-6.8355195083508491],[115.37955192863119,-6.8355191871154855],[115.37955204258805,-6.8355316819073275]]],[[[115.37955204258805,-6.8355316819073275],[115.37954301853415,-6.8355317641256974],[115.37954293627384,-6.8355227446858313],[115.37953391222001,-6.8355228269039223],[115.3795338731645,-6.8355185446442066],[115.37949776222997,-6.8355172596995475],[115.37949789826295,-6.8355321752150244],[115.37948887420841,-6.8355322574323862],[115.37948903872729,-6.8355502963134374],[115.37949806278219,-6.8355502140958562],[115.37949814504199,-6.835559233536241],[115.3795161931518,-6.8355590691003583],[115.37951627541203,-6.8355680885405361],[115.37952529946693,-6.8355680063222328],[115.37952513494625,-6.8355499674421081],[115.37954318305506,-6.8355498030054358],[115.37954310079455,-6.8355407835655599],[115.37955212484862,-6.8355407013470808],[115.37955204258805,-6.8355316819073275]]],[[[115.38040013860639,-6.8355059137710574],[115.38039111456327,-6.8355059960050104],[115.38039119683926,-6.8355150154345896],[115.38040022088252,-6.8355149332005274],[115.38040013860639,-6.8355059137710574]]],[[[115.38040013860639,-6.8355059137710574],[115.3804091626494,-6.8355058315369366],[115.38040908037318,-6.8354968121075723],[115.38040005633032,-6.8354968943415839],[115.38040013860639,-6.8355059137710574]]],[[[115.38042704618209,-6.8354876282098971],[115.38041802213964,-6.8354877104441343],[115.3804181044159,-6.8354967298733937],[115.38042712845851,-6.8354966476390464],[115.38042704618209,-6.8354876282098971]]],[[[115.38042704618209,-6.8354876282098971],[115.38043607022442,-6.8354875459754911],[115.38043599756058,-6.8354795803179487],[115.38042698689044,-6.8354811284482206],[115.38042704618209,-6.8354876282098971]]],[[[115.37795420770424,-6.8354830957263655],[115.37794518363185,-6.835483177914214],[115.37794543032176,-6.8355102362920048],[115.37795445439465,-6.8355101541038268],[115.37795453662498,-6.8355191735629726],[115.37796356069796,-6.8355190913745174],[115.37796372515935,-6.8355371302925763],[115.37799079737853,-6.8355368837255455],[115.37799071514728,-6.8355278642668464],[115.37798169107448,-6.8355279464559153],[115.37798160884351,-6.8355189269971026],[115.3779725847708,-6.8355190091858944],[115.3779724203095,-6.8355009702680372],[115.37795437216438,-6.8355011346446783],[115.37795420770424,-6.8354830957263655]]],[[[115.37808120256817,-6.8355541007397127],[115.3781353469989,-6.8355536075897136],[115.37813526476474,-6.835544588132775],[115.37814428883598,-6.8355445059406286],[115.37814420660175,-6.8355354864837947],[115.37817127881428,-6.8355352399066787],[115.37817111434518,-6.835517200993654],[115.37816209027476,-6.8355172831859754],[115.37816192580642,-6.8354992442727154],[115.37817094987649,-6.8354991620806134],[115.37817086764232,-6.8354901426240682],[115.37819793985133,-6.83548989604708],[115.37819785761677,-6.8354808765908937],[115.37820688168601,-6.8354807943983378],[115.37820679945141,-6.8354717749422402],[115.3781977753823,-6.8354718571346869],[115.37819776756557,-6.8354709997958629],[115.37817068432226,-6.8354700360086298],[115.37817070317432,-6.8354721037110178],[115.37815265503508,-6.8354722680943976],[115.37815273726869,-6.8354812875511533],[115.37814371319874,-6.8354813697426993],[115.37814379543231,-6.8354903891995429],[115.37813477136208,-6.8354904713910329],[115.37813501806291,-6.8355175297619315],[115.37812599399207,-6.8355176119535805],[115.37812607622575,-6.8355266314106418],[115.37810802808337,-6.8355267957936547],[115.37810811031682,-6.8355358152509309],[115.3780990862453,-6.835535897442294],[115.3780991684787,-6.8355449168996749],[115.37808112033501,-6.8355450812821168],[115.37808120256817,-6.8355541007397127]]],[[[115.37793596284415,-6.8354616831189805],[115.37792693509373,-6.8354613618516114],[115.37792705325734,-6.8354743228299171],[115.3779451014021,-6.8354741584549421],[115.37794501917247,-6.8354651389956649],[115.3779359951003,-6.835465221183127],[115.37793596284415,-6.8354616831189805]]],[[[115.38170697769505,-6.8353135997959038],[115.38166185757574,-6.8353140110749058],[115.38166193987323,-6.8353230304891461],[115.38170705999337,-6.8353226192095979],[115.38170697769505,-6.8353135997959038]]],[[[115.38182437229278,-6.8353215498631039],[115.38182428999227,-6.8353125304508353],[115.38177916988018,-6.8353129417407619],[115.38177925217985,-6.8353219611535785],[115.38182437229278,-6.8353215498631039]]],[[[115.38170697769505,-6.8353135997959038],[115.38171600171859,-6.8353135175395998],[115.3817159194202,-6.8353044981260291],[115.38170689539685,-6.8353045803822248],[115.38170697769505,-6.8353135997959038]]],[[[115.38195948570615,-6.8352932577346071],[115.38195934803365,-6.8352781704351493],[115.38189621454799,-6.8352825442111245],[115.38189623526097,-6.8352848141440559],[115.38188721124016,-6.8352848964033939],[115.38188729354151,-6.8352939158148933],[115.38195948570615,-6.8352932577346071]]],[[[115.39246262729122,-6.8351162188504118],[115.39246254479379,-6.8351071995673909],[115.39245352090484,-6.835107282022574],[115.39245360340209,-6.8351163013057032],[115.39246262729122,-6.8351162188504118]]],[[[115.3912082231605,-6.8351186592256328],[115.39120814068656,-6.8351096399273805],[115.39119911678229,-6.83510972235909],[115.39119919925605,-6.8351187416574506],[115.3912082231605,-6.8351186592256328]]],[[[115.39537725509368,-6.835080557748606],[115.39537717254206,-6.8350715385010927],[115.39536814868927,-6.8350716210104547],[115.39536823124072,-6.8350806402580782],[115.39537725509368,-6.835080557748606]]],[[[115.38317673951408,-6.8351739182569835],[115.38315869150765,-6.8351740828208198],[115.38315877383148,-6.8351831022169183],[115.38316779783491,-6.8351830199349752],[115.38316788015905,-6.8351920393309431],[115.38317690416255,-6.8351919570487221],[115.38317673951408,-6.8351739182569835]]],[[[115.38327600354155,-6.8351730131438684],[115.38327592121566,-6.8351639937491893],[115.38326689721384,-6.8351640760329309],[115.38326697953961,-6.8351730954277192],[115.38327600354155,-6.8351730131438684]]],[[[115.38320397617237,-6.8351917102010509],[115.38320389384758,-6.8351826908055209],[115.38322194185326,-6.8351825262397838],[115.38322185952825,-6.8351735068444528],[115.38323088353073,-6.8351734245614431],[115.38323064607337,-6.835147409101511],[115.38322163324978,-6.8351487160789253],[115.38322169487856,-6.8351554680537747],[115.38320364687389,-6.8351556326188527],[115.38320372919836,-6.8351646520144129],[115.38319470519566,-6.8351647342968098],[115.38319495216921,-6.8351917924837755],[115.38320397617237,-6.8351917102010509]]],[[[115.38327575656416,-6.8351459549598346],[115.38327583888984,-6.8351549743545057],[115.38328486289133,-6.8351548920707064],[115.38328478056548,-6.8351458726761436],[115.38327575656416,-6.8351459549598346]]],[[[115.38327575656416,-6.8351459549598346],[115.38327571018903,-6.8351408742123292],[115.38325768454322,-6.8351434881684199],[115.38325779088652,-6.8351551389216016],[115.38326681488822,-6.8351550566381372],[115.38326673256269,-6.8351460372433568],[115.38327575656416,-6.8351459549598346]]],[[[115.38330282856781,-6.8351457081082598],[115.38330274865656,-6.8351369532771793],[115.38329373583421,-6.8351382602557003],[115.38329380456669,-6.8351457903922856],[115.38330282856781,-6.8351457081082598]]],[[[115.39292226794898,-6.8350488784657344],[115.39292235045433,-6.8350578977431802],[115.39293137433664,-6.835057815279808],[115.39293129183112,-6.8350487960024706],[115.39292226794898,-6.8350488784657344]]],[[[115.39087376135025,-6.8350585739745995],[115.39086473744288,-6.8350586563994309],[115.39086481990978,-6.8350676757018958],[115.3908738438173,-6.8350675932769551],[115.39087376135025,-6.8350585739745995]]],[[[115.39292226794898,-6.8350488784657344],[115.39292218544377,-6.8350398591883001],[115.39291316156165,-6.8350399416512859],[115.39291324406672,-6.8350489609288303],[115.39292226794898,-6.8350488784657344]]],[[[115.39087376135025,-6.8350585739745995],[115.39088278525755,-6.8350584915495993],[115.39088270279042,-6.8350494722473494],[115.39087367888331,-6.8350495546722403],[115.39087376135025,-6.8350585739745995]]],[[[115.39292218544377,-6.8350398591883001],[115.39293120932572,-6.8350397767251474],[115.39293112682046,-6.8350307574478188],[115.39292210293866,-6.8350308399108632],[115.39292218544377,-6.8350398591883001]]],[[[115.39088270279042,-6.8350494722473494],[115.39089172669742,-6.8350493898222915],[115.39089164423024,-6.8350403705201481],[115.39088262032342,-6.8350404529450968],[115.39088270279042,-6.8350494722473494]]],[[[115.39293112682046,-6.8350307574478188],[115.39294015070216,-6.8350306749846066],[115.39294006819684,-6.8350216557073837],[115.39293104431529,-6.8350217381704859],[115.39293112682046,-6.8350307574478188]]],[[[115.3929399856916,-6.8350126364301573],[115.39293990318647,-6.8350036171529247],[115.39293087930525,-6.8350036996158083],[115.39293096181022,-6.8350127188931502],[115.3929399856916,-6.8350126364301573]]],[[[115.39098171835502,-6.8350215076593166],[115.39098188329241,-6.8350395462614237],[115.39095481157491,-6.8350397935408056],[115.39095456417056,-6.8350127356366501],[115.39094554026501,-6.8350128180624461],[115.39094562273286,-6.8350218373639446],[115.39093659882703,-6.8350219197896811],[115.39093668129482,-6.8350309390912862],[115.39094570520079,-6.8350308566654396],[115.39094578766887,-6.8350398759669293],[115.39093676376271,-6.835039958392886],[115.39093684623073,-6.8350489776944832],[115.39096391794936,-6.8350487304157799],[115.39096408288673,-6.8350667690183],[115.39099115460539,-6.835066521737426],[115.39099074226029,-6.835021425232739],[115.39098171835502,-6.8350215076593166]]],[[[115.39098171835502,-6.8350215076593166],[115.3909815534181,-6.8350034690571917],[115.39097252951306,-6.8350035514833802],[115.39097269444963,-6.8350215900857254],[115.39098171835502,-6.8350215076593166]]],[[[115.39097252951306,-6.8350035514833802],[115.39097244704492,-6.8349945321822023],[115.39096342313997,-6.8349946146081137],[115.3909635056079,-6.8350036339094018],[115.39097252951306,-6.8350035514833802]]],[[[115.39074684938694,-6.8349965927795742],[115.39074676692313,-6.8349875734756473],[115.39073774301552,-6.8349876558972467],[115.39073782547916,-6.8349966752012845],[115.39074684938694,-6.8349965927795742]]],[[[115.38687550033912,-6.8350229169112078],[115.38687541794756,-6.8350138975602084],[115.38686639399238,-6.8350139799095908],[115.38686647638379,-6.8350229992606995],[115.38687550033912,-6.8350229169112078]]],[[[115.39045800182467,-6.8349902108834817],[115.39045791936636,-6.8349811915760377],[115.39043987154425,-6.8349813564080932],[115.39043995400222,-6.8349903757157566],[115.39045800182467,-6.8349902108834817]]],[[[115.39077383864527,-6.8349873262098386],[115.39077375618105,-6.8349783069062351],[115.39078278008805,-6.8349782244840736],[115.39078269762379,-6.8349692051805766],[115.39076464981004,-6.8349693700245151],[115.39076481473798,-6.8349874086319424],[115.39077383864527,-6.8349873262098386]]],[[[115.38680306152277,-6.8349965176467871],[115.38676696569908,-6.8349968470370568],[115.38676704808842,-6.8350058663893956],[115.38677607204467,-6.8350057840419716],[115.38677615443427,-6.8350148033941789],[115.38682127421473,-6.8350143916539858],[115.38682135660527,-6.8350234110056425],[115.38683940451698,-6.835023246308169],[115.38683932212611,-6.8350142269567327],[115.38684834608165,-6.8350141446078547],[115.38684826369071,-6.8350051252565232],[115.38680314391277,-6.8350055369986888],[115.38680306152277,-6.8349965176467871]]],[[[115.39055701745995,-6.8349622463752127],[115.39055693500011,-6.8349532270689801],[115.39054791109085,-6.8349533094866111],[115.39054799355053,-6.8349623287929537],[115.39055701745995,-6.8349622463752127]]],[[[115.39328223301202,-6.8349373485272986],[115.39328215050141,-6.8349283292542218],[115.39327312662576,-6.834928411722613],[115.39327320913621,-6.8349374309957991],[115.39328223301202,-6.8349373485272986]]],[[[115.38681200308835,-6.8349874159470394],[115.38681192069842,-6.8349783965952566],[115.38679387278771,-6.8349785612906242],[115.3867939551773,-6.8349875806426263],[115.38681200308835,-6.8349874159470394]]],[[[115.38833713238284,-6.834982516074434],[115.38833696754604,-6.8349644774079605],[115.38832794360953,-6.8349645597841358],[115.38832802602772,-6.8349735791174915],[115.38831900209094,-6.8349736614936081],[115.38831908450908,-6.8349826808270526],[115.38833713238284,-6.834982516074434]]],[[[115.38455592840882,-6.8349989783056344],[115.38457397637472,-6.8349988136936357],[115.38457393097906,-6.8349938416231035],[115.38451904968615,-6.8349993146672103],[115.38451983247566,-6.834999307527613],[115.38451991482289,-6.8350083269072437],[115.38453796279003,-6.8350081622963703],[115.38453788044247,-6.8349991429169599],[115.38454690442569,-6.8349990606113815],[115.38454698677343,-6.8350080799906818],[115.38455601075671,-6.8350079976848255],[115.38455592840882,-6.8349989783056344]]],[[[115.38688411233684,-6.834977737807062],[115.38688402994568,-6.8349687184561514],[115.38687500599143,-6.8349688008051546],[115.38687508838245,-6.8349778201561735],[115.38688411233684,-6.834977737807062]]],[[[115.3886525579811,-6.8349345361477187],[115.38865247555731,-6.8349255168183118],[115.38864345162538,-6.8349255991999289],[115.388643534049,-6.8349346185294477],[115.3886525579811,-6.8349345361477187]]],[[[115.3924695062789,-6.8348816350383013],[115.39246942378419,-6.8348726157552937],[115.39246039989975,-6.8348726982077883],[115.39246048239427,-6.834881717490906],[115.3924695062789,-6.8348816350383013]]],[[[115.38820103157923,-6.8349025776885535],[115.38823712732605,-6.8349022481953332],[115.38823704491044,-6.8348932288608619],[115.38818290129056,-6.8348937230990252],[115.38818298370514,-6.8349027424341546],[115.38819200764223,-6.8349026600614389],[115.38819209005712,-6.8349116793964706],[115.38820111399427,-6.8349115970234759],[115.38820103157923,-6.8349025776885535]]],[[[115.39039376251004,-6.8348735367864242],[115.39039400987778,-6.8349005947111872],[115.39040303378793,-6.8349005122970707],[115.39040311624424,-6.8349095316052138],[115.39041214015445,-6.8349094491908193],[115.39041238752453,-6.8349365071148886],[115.39043043534564,-6.834936342284939],[115.39043027043147,-6.8349183036693191],[115.39045734216124,-6.8349180564237937],[115.39045742461877,-6.8349270757312848],[115.39049352025764,-6.83492674606779],[115.39049343779942,-6.8349177267607386],[115.39048441389004,-6.834917809176754],[115.39048433143209,-6.8349087898696217],[115.39047530752279,-6.8349088722853599],[115.39047522506515,-6.8348998529780953],[115.3904571772465,-6.8349000178088488],[115.39045725970381,-6.834909037116331],[115.39042116406456,-6.8349093667762579],[115.39042108160793,-6.8349003474683361],[115.39041205769799,-6.8349004298827882],[115.39041189278535,-6.8348823912667118],[115.39040286887567,-6.834882473680775],[115.39040278641968,-6.8348734543726373],[115.39039376251004,-6.8348735367864242]]],[[[115.39246934128961,-6.8348635964722826],[115.39246925879513,-6.8348545771892839],[115.39246023491101,-6.8348546596415582],[115.39246031740531,-6.8348636789246671],[115.39246934128961,-6.8348635964722826]]],[[[115.39259567565816,-6.8348624421212367],[115.39259559316132,-6.8348534228397746],[115.39258656927872,-6.8348535052944035],[115.39258665177539,-6.8348625245759758],[115.39259567565816,-6.8348624421212367]]],[[[115.38848955024336,-6.8348728836732295],[115.38848946782336,-6.8348638643418003],[115.388498491756,-6.8348637819638078],[115.38849840933595,-6.8348547626324834],[115.38848036147093,-6.8348549273880819],[115.38848052631045,-6.8348729660511642],[115.38848955024336,-6.8348728836732295]]],[[[115.39092600805751,-6.8348506354818461],[115.39092584312684,-6.834832596878238],[115.39091681922433,-6.8348326793013339],[115.39091698415466,-6.8348507179051614],[115.39092600805751,-6.8348506354818461]]],[[[115.39377747325905,-6.8348155620289157],[115.39377739074065,-6.8348065427618057],[115.39376836687336,-6.8348066252380129],[115.3937684493916,-6.8348156445052322],[115.39377747325905,-6.8348155620289157]]],[[[115.38885936654353,-6.8348514673793419],[115.38885928411685,-6.8348424480524024],[115.38885026018902,-6.834842530436898],[115.38885034261551,-6.8348515497639486],[115.38885936654353,-6.8348514673793419]]],[[[115.38570114967453,-6.8348983304566504],[115.38570090257078,-6.8348712723606839],[115.38570992653746,-6.8348711900348489],[115.38570991561444,-6.8348699939524602],[115.38569188842149,-6.8348724297163459],[115.38569212570724,-6.8348984127826471],[115.38570114967453,-6.8348983304566504]]],[[[115.39122346690598,-6.8348118382254102],[115.39122338443551,-6.834802818927213],[115.39121436053716,-6.8348029013555252],[115.39121444300748,-6.8348119206538316],[115.39122346690598,-6.8348118382254102]]],[[[115.39259501568662,-6.8347902878692874],[115.39255892016035,-6.8347906176837201],[115.39255900265573,-6.8347996369656681],[115.39254997877372,-6.8347997194189647],[115.39255006126903,-6.8348087387010192],[115.39254103738675,-6.834808821154259],[115.39254111988203,-6.8348178404364175],[115.39253209599946,-6.8348179228895996],[115.39253250847661,-6.8348630193008768],[115.39255958012649,-6.834862771939183],[115.39255949763033,-6.8348537526572821],[115.39256852151325,-6.8348536702031577],[115.39256843901705,-6.8348446509213288],[115.39257746289967,-6.8348445684671457],[115.39257738040341,-6.8348355491854393],[115.39259542816801,-6.8348353842767882],[115.3925952631751,-6.8348173457138008],[115.39262233482013,-6.8348170983502241],[115.39262225232336,-6.8348080790690533],[115.39260420456044,-6.8348082439780526],[115.39260412206413,-6.834799224696658],[115.39259509818268,-6.8347993071507958],[115.39259501568662,-6.8347902878692874]]],[[[115.39427345568825,-6.8347749485283495],[115.39426443182757,-6.8347750310134714],[115.39426451435473,-6.8347840502746617],[115.39424646663274,-6.8347842152446212],[115.3942466316867,-6.83480225376743],[115.39427370327056,-6.8348020063115804],[115.39427362074301,-6.8347929870505082],[115.39428264460389,-6.8347929045649982],[115.39428256207628,-6.8347838853040317],[115.39427353821557,-6.8347839677894306],[115.39427345568825,-6.8347749485283495]]],[[[115.39089844156099,-6.8347967669384362],[115.39089852402532,-6.8348057862405893],[115.39090754792755,-6.8348057038181578],[115.39090746546306,-6.8347966845161157],[115.39089844156099,-6.8347967669384362]]],[[[115.39377706066811,-6.8347704656933246],[115.39375901293474,-6.8347706306446918],[115.39375909545237,-6.8347796499120381],[115.39376811931928,-6.8347795674363283],[115.3937682843552,-6.8347976059707891],[115.39377730822233,-6.8347975234946921],[115.39377706066811,-6.8347704656933246]]],[[[115.39100681084476,-6.8348047971603334],[115.39100656344606,-6.8347777392578131],[115.39099753954555,-6.8347778216817634],[115.39099778694374,-6.8348048795846115],[115.39100681084476,-6.8348047971603334]]],[[[115.3888678959121,-6.8347972690335181],[115.38886781348593,-6.8347882497066612],[115.38885878955922,-6.8347883320906675],[115.38885887198521,-6.8347973514176346],[115.3888678959121,-6.8347972690335181]]],[[[115.39089844156099,-6.8347967669384362],[115.39089827663267,-6.8347787283341175],[115.39088925273084,-6.8347788107560508],[115.390889170267,-6.8347697914537751],[115.39088014636522,-6.8347698738754294],[115.39088031129266,-6.8347879124801967],[115.39088933519477,-6.834787830058322],[115.39088941765881,-6.834796849360588],[115.39089844156099,-6.8347967669384362]]],[[[115.39422800627896,-6.8347392839057104],[115.39418288697509,-6.834739696323239],[115.39418296950031,-6.8347487155854365],[115.39420101722251,-6.8347485506187091],[115.39420109974814,-6.8347575698806828],[115.39421914747027,-6.8347574049130637],[115.39421922999635,-6.8347664241748127],[115.39426434930051,-6.8347660117522748],[115.39426426677359,-6.8347569924910756],[115.39425524291316,-6.8347570749758093],[115.39425516038649,-6.8347480557144955],[115.39422808880501,-6.8347483031673582],[115.39422800627896,-6.8347392839057104]]],[[[115.38844368880932,-6.8347921215732583],[115.38845271274117,-6.8347920391969836],[115.38845263032285,-6.8347830198650756],[115.38836239100101,-6.8347838436191619],[115.38836247341763,-6.8347928629521668],[115.38834442555161,-6.8347930277011857],[115.38834450796803,-6.8348020470344064],[115.3882903643662,-6.8348025412780897],[115.3882902819508,-6.8347935219442109],[115.388272234083,-6.8347936866905421],[115.38827231649807,-6.8348027060246386],[115.38825426862945,-6.8348028707705168],[115.3882543510443,-6.8348118901048291],[115.38824532710964,-6.8348119724776257],[115.38824540952443,-6.8348209918120428],[115.38825443345927,-6.834820909439137],[115.38825451587431,-6.8348299287734413],[115.38826353980916,-6.8348298464002575],[115.3882636222245,-6.8348388657344472],[115.38829069402891,-6.8348386186135581],[115.38829077644488,-6.8348476379474148],[115.38829980037966,-6.8348475555733392],[115.38829988279589,-6.8348565749070813],[115.38832695459998,-6.834856327783517],[115.38832687218323,-6.8348473084501045],[115.38834492005174,-6.8348471437004408],[115.38834500246881,-6.8348561630336331],[115.38835402640306,-6.8348560806584402],[115.38835410882041,-6.8348650999915197],[115.38839922849084,-6.8348646881124822],[115.38839931090916,-6.8348737074450092],[115.38842638271058,-6.8348734603152401],[115.38842654754855,-6.8348914989796397],[115.38847166721705,-6.8348910870922328],[115.38847158479717,-6.8348820677605753],[115.38846256086387,-6.8348821501382835],[115.38846247844427,-6.8348731308065291],[115.38845345451102,-6.8348732131839594],[115.38845337209167,-6.8348641938520895],[115.38846239602478,-6.8348641114747695],[115.38846223118614,-6.8348460728112386],[115.38847125511879,-6.8348459904339691],[115.38847117269947,-6.834836971102308],[115.38845312483441,-6.8348371358564588],[115.38845304241553,-6.8348281165245721],[115.38846206634797,-6.8348280341476917],[115.38846181909149,-6.8348009761523354],[115.38844377122759,-6.834801140905272],[115.38844368880932,-6.8347921215732583]]],[[[115.39031164032838,-6.8347750661008595],[115.39031155787542,-6.8347660467915547],[115.39030253396668,-6.8347661292023441],[115.39030261641946,-6.834775148511758],[115.39031164032838,-6.8347750661008595]]],[[[115.39377681311488,-6.8347434078919171],[115.39377673059734,-6.8347343886247724],[115.3937677067314,-6.8347344711001004],[115.39376778924874,-6.8347434903673561],[115.39377681311488,-6.8347434078919171]]],[[[115.39405647038672,-6.8347318318062262],[115.39405655290943,-6.8347408510699665],[115.39406557677201,-6.8347407685891497],[115.39406565929504,-6.8347497878527745],[115.39407468315763,-6.8347497053716806],[115.39407460063444,-6.834740686108165],[115.3941016722211,-6.8347404386642019],[115.39410158969754,-6.8347314194010131],[115.39405647038672,-6.8347318318062262]]],[[[115.39027537978761,-6.8347573571239364],[115.39024830806022,-6.8347576043534515],[115.39024839051187,-6.8347666236635449],[115.39026643833058,-6.8347664588438173],[115.3902665207827,-6.8347754781536709],[115.3902845686013,-6.8347753133330498],[115.39028448614886,-6.8347662940234164],[115.39027546223977,-6.8347663764337003],[115.39027537978761,-6.8347573571239364]]],[[[115.39039376251004,-6.8348735367864242],[115.3903935151433,-6.8348464788615884],[115.39041156296148,-6.8348463140345066],[115.39041164541729,-6.8348553333425635],[115.39040262150807,-6.834855415756298],[115.39040270396383,-6.8348644350644614],[115.39042075178247,-6.8348642702366043],[115.39042066932639,-6.8348552509286602],[115.39042969323533,-6.8348551685145891],[115.39042961077921,-6.8348461492067507],[115.3904386346879,-6.8348460667926219],[115.39043871714419,-6.834855086100351],[115.39045676496161,-6.8348549212713685],[115.39045684741835,-6.8348639405788738],[115.39044782350956,-6.8348640229935587],[115.39044790596625,-6.8348730423011848],[115.39043888205714,-6.8348731247158119],[115.39043896451379,-6.8348821440235108],[115.39042994060443,-6.8348822264380784],[115.39043002306103,-6.834891245745899],[115.39044807088,-6.8348910809163748],[115.39044798842308,-6.8348820616087744],[115.39047506015018,-6.8348818143635555],[115.39047497769285,-6.8348727950562962],[115.39049302551004,-6.8348726302255303],[115.39049253076647,-6.8348185143830786],[115.39050155467388,-6.8348184319681025],[115.39050147221681,-6.8348094126611247],[115.39051049612394,-6.8348093302460917],[115.39051066103848,-6.8348273688598224],[115.39051968494584,-6.8348272864444004],[115.39051960248837,-6.8348182671376456],[115.39052862639544,-6.834818184722165],[115.3905285439379,-6.8348091654155168],[115.39051952003098,-6.8348092478308873],[115.39051935511655,-6.8347912092173582],[115.39050130730307,-6.8347913740471569],[115.39050122484637,-6.8347823547401658],[115.39048317703278,-6.8347825195690728],[115.39048325948914,-6.8347915388762832],[115.39042911604469,-6.834792033359629],[115.39042903358931,-6.8347830140517605],[115.39041098577395,-6.834783178877978],[115.39041106822897,-6.834792198186066],[115.39040204432096,-6.8347922805990331],[115.3904019618661,-6.834783261290835],[115.39039293795811,-6.8347833437035241],[115.39039285550356,-6.8347743243952115],[115.39040187941136,-6.8347742419826325],[115.39040179695672,-6.8347652226744255],[115.39039277304907,-6.8347653050868944],[115.39039269059472,-6.8347562857785578],[115.39037464277949,-6.8347564506027725],[115.39037472523351,-6.8347654699113294],[115.39032960569257,-6.8347658819694734],[115.39032968814585,-6.8347749012785579],[115.39031164032838,-6.8347750661008595],[115.39031172278143,-6.8347840854101598],[115.39033879450798,-6.8347838381761274],[115.39033904186937,-6.8348108961030123],[115.3903480657785,-6.8348108136910035],[115.3903481482327,-6.8348198329998473],[115.39033912432339,-6.8348199154119671],[115.39033920677751,-6.8348289347209157],[115.39033018286793,-6.834829017132976],[115.39033026532201,-6.8348380364420303],[115.39032124141214,-6.8348381188540337],[115.39032115895824,-6.8348290995448693],[115.39030311113852,-6.8348292643681514],[115.39030294623173,-6.8348112257493696],[115.39027587450228,-6.8348114729823735],[115.39027579204955,-6.8348024536726477],[115.39025774422974,-6.8348026184935895],[115.39025790913463,-6.8348206571134762],[115.39027595695512,-6.8348204922920957],[115.39027612186113,-6.8348385309115258],[115.39029416968187,-6.8348383660890333],[115.390294334589,-6.834856404708006],[115.39030335849955,-6.8348563222962886],[115.39030377077015,-6.8349014188430974],[115.39032181859255,-6.8349012540180603],[115.39032173613788,-6.8348922347089269],[115.39033076004876,-6.8348921522962662],[115.39033067759402,-6.8348831329872368],[115.3903397015046,-6.8348830505745175],[115.39033961904981,-6.8348740312656124],[115.39033059513939,-6.8348741136782225],[115.39033051268488,-6.8348650943691682],[115.3903214887745,-6.8348651767814994],[115.39032132386613,-6.8348471381631928],[115.39033034777617,-6.834847055751081],[115.39033043023048,-6.8348560750601264],[115.39033945414057,-6.8348559926477357],[115.39033953659514,-6.8348650119566674],[115.39036660832525,-6.8348647647181595],[115.39036669078044,-6.834873784026775],[115.39039376251004,-6.8348735367864242]],[[115.3903125473182,-6.8348742785029373],[115.39032157122887,-6.8348741960906638],[115.39032165368332,-6.8348832153997883],[115.39031262977251,-6.834883297812171],[115.3903125473182,-6.8348742785029373]]],[[[115.39266679424847,-6.8347445318291378],[115.39266671175176,-6.8347355125484643],[115.39265768787224,-6.8347355950030089],[115.39265777036881,-6.8347446142837933],[115.39266679424847,-6.8347445318291378]]],[[[115.38697253925781,-6.8347784886097918],[115.38695449135848,-6.834778653306385],[115.38695465613895,-6.8347966920066288],[115.38692758428816,-6.8347969390509169],[115.38692766667803,-6.8348059584013603],[115.38690059482573,-6.8348062054444645],[115.38690075960486,-6.8348242441459988],[115.38688271170207,-6.8348244088409995],[115.38688279409146,-6.8348334281919794],[115.38691888989725,-6.8348330988008668],[115.38691897228742,-6.8348421181514034],[115.38692799623877,-6.8348420358030957],[115.3869280786292,-6.8348510551535169],[115.38697319838505,-6.8348506434089087],[115.38697328077646,-6.8348596627587783],[115.38699132867838,-6.8348594980595383],[115.38699124628661,-6.8348504787098872],[115.38700027023722,-6.8348503963601255],[115.38700018784543,-6.83484137701058],[115.38699116389498,-6.8348414593602316],[115.38699108150348,-6.8348324400105733],[115.38700010545375,-6.8348323576610301],[115.38699994067069,-6.834814318961917],[115.38700896462053,-6.8348142366124254],[115.38700888222903,-6.8348052172629732],[115.38701790617856,-6.8348051349134229],[115.38701782378698,-6.8347961155640746],[115.38700879983759,-6.8347961979135148],[115.38700871744629,-6.8347871785640368],[115.38699969349696,-6.8347872609131999],[115.38699977588811,-6.834796280262788],[115.3869907519385,-6.8347963626118915],[115.38699066954753,-6.8347873432621942],[115.38697262164833,-6.8347875079596792],[115.38697253925781,-6.8347784886097918]]],[[[115.39254940130959,-6.8347365844444514],[115.39254931881516,-6.8347275651623791],[115.39253127105349,-6.8347277300667129],[115.39253135354758,-6.8347367493490045],[115.39254940130959,-6.8347365844444514]]],[[[115.39377664807994,-6.8347253693576073],[115.39377656556263,-6.8347163500904706],[115.39375851783129,-6.8347165150405216],[115.39375860034824,-6.8347255343078759],[115.39377664807994,-6.8347253693576073]]],[[[115.39405647038672,-6.8347318318062262],[115.3940563878641,-6.8347228125424664],[115.39404736400175,-6.8347228950228951],[115.39404728147942,-6.8347138757590535],[115.39402923375474,-6.834714040719188],[115.39402931627674,-6.8347230599832489],[115.39403834013929,-6.8347229775031559],[115.39403842266158,-6.8347319967671361],[115.39405647038672,-6.8347318318062262]]],[[[115.38847961969853,-6.8347737534039732],[115.38847945486144,-6.8347557147408109],[115.38847043093061,-6.8347557971171504],[115.38847059576733,-6.834773835780533],[115.38847961969853,-6.8347737534039732]]],[[[115.39018497579174,-6.8347401425947512],[115.390185058242,-6.834749161905604],[115.39017603433203,-6.8347492443138211],[115.39017619923257,-6.8347672829357347],[115.39019424705307,-6.8347671181186964],[115.39019416460241,-6.8347580988079439],[115.39021221242211,-6.8347579339904518],[115.39021212997125,-6.8347489146799481],[115.39019408215187,-6.8347490794972199],[115.39019399970144,-6.8347400601864772],[115.39018497579174,-6.8347401425947512]]],[[[115.39270264227416,-6.8347171441681693],[115.39269361839543,-6.8347172266231668],[115.39269370089244,-6.8347262459035036],[115.39270272477134,-6.8347261634483951],[115.39270264227416,-6.8347171441681693]]],[[[115.39401118602963,-6.8347142056786492],[115.39401110350808,-6.8347051864143475],[115.39400207964553,-6.8347052688937175],[115.39400216216691,-6.8347142881581275],[115.39401118602963,-6.8347142056786492]]],[[[115.39043764522086,-6.8347378350995376],[115.390437562766,-6.8347288157917525],[115.39041951495287,-6.8347289806169904],[115.3904195974074,-6.8347379999249949],[115.39043764522086,-6.8347378350995376]]],[[[115.39049178865861,-6.8347373406191352],[115.39049170620274,-6.8347283213120074],[115.39048268229688,-6.8347284037257188],[115.39048276475259,-6.8347374230329558],[115.39049178865861,-6.8347373406191352]]],[[[115.39270264227416,-6.8347171441681693],[115.39272069003125,-6.8347169792576672],[115.39272060753385,-6.8347079599776572],[115.39270255977708,-6.8347081248879391],[115.39270264227416,-6.8347171441681693]]],[[[115.39273906777997,-6.8347528914656159],[115.39274809165877,-6.8347528090093368],[115.39274792666218,-6.8347347704499883],[115.39275695054057,-6.8347346879937607],[115.39275678554411,-6.8347166494346476],[115.39278385717756,-6.8347164020656184],[115.39278377467899,-6.8347073827863767],[115.39273865529015,-6.8347077950667021],[115.39273873778788,-6.8347168143464936],[115.39272971390965,-6.8347168968021643],[115.39272979640731,-6.8347259160820615],[115.39272077252876,-6.8347259985376727],[115.3927208550264,-6.8347350178176596],[115.39271183114757,-6.8347351002732131],[115.39271191364513,-6.8347441195533376],[115.39270288976601,-6.8347442020088343],[115.39270321975674,-6.8347802791296601],[115.39272126751617,-6.8347801142176223],[115.39272110251993,-6.8347620756576566],[115.39273012639916,-6.8347619932016048],[115.39273029139575,-6.8347800317613512],[115.39273931527519,-6.8347799493049113],[115.39273906777997,-6.8347528914656159]]],[[[115.39285596569532,-6.8347067231291145],[115.39283791794192,-6.8347068880444386],[115.39283800044149,-6.8347159073230213],[115.39282897656446,-6.8347159897805412],[115.39282905906398,-6.8347250090592304],[115.39285613069529,-6.8347247616858375],[115.39285621319542,-6.8347337809641759],[115.39286523707248,-6.8347336985059313],[115.39286531957292,-6.8347427177841897],[115.39287434345002,-6.8347426353256688],[115.39287426094941,-6.8347336160475205],[115.39289230870297,-6.8347334511301927],[115.39289222620212,-6.8347244318522948],[115.39288320232559,-6.8347245143109321],[115.39288311982503,-6.8347154950329028],[115.39287409594857,-6.834715577491262],[115.39287417844892,-6.8347245967694032],[115.39286515457216,-6.8347246792277039],[115.39286507207198,-6.8347156599494543],[115.39285604819524,-6.8347157424074778],[115.39285596569532,-6.8347067231291145]]],[[[115.38706261396365,-6.8347596264191095],[115.38706253157179,-6.8347506070702879],[115.3870535076238,-6.8347506894200212],[115.38705359001551,-6.8347597087689511],[115.38706261396365,-6.8347596264191095]]],[[[115.38828076352792,-6.8347394883134411],[115.38828084594248,-6.8347485076474559],[115.38828986987546,-6.8347484252747552],[115.38828978746076,-6.8347394059408506],[115.38828076352792,-6.8347394883134411]]],[[[115.39018497579174,-6.8347401425947512],[115.39018481089154,-6.8347221039730304],[115.39017578698207,-6.8347221863809162],[115.39017595188196,-6.8347402250028573],[115.39018497579174,-6.8347401425947512]]],[[[115.39046471694026,-6.8347375878600927],[115.39046463448489,-6.8347285685526362],[115.39047365839093,-6.8347284861392614],[115.39047357593552,-6.8347194668319107],[115.39044650421748,-6.8347197140712028],[115.39044666912744,-6.834737752686558],[115.39046471694026,-6.8347375878600927]]],[[[115.39052788428152,-6.8347370109621712],[115.39052771936856,-6.8347189723487922],[115.39050967155799,-6.8347191371771707],[115.39050983647029,-6.8347371757909894],[115.39052788428152,-6.8347370109621712]]],[[[115.39383046119977,-6.8346887974367805],[115.39382143733532,-6.8346888799125676],[115.39382168488909,-6.8347159377124056],[115.39383070875401,-6.834715855236289],[115.39383062623583,-6.83470683596979],[115.3938396501005,-6.8347067534936139],[115.39383973261887,-6.8347157727600036],[115.39384875648361,-6.8347156902835504],[115.39384859144663,-6.8346976517509885],[115.39383054371773,-6.8346978167032875],[115.39383046119977,-6.8346887974367805]]],[[[115.38828076352792,-6.8347394883134411],[115.38828068111346,-6.8347304689794059],[115.3882716571807,-6.8347305513517194],[115.38827173959497,-6.8347395706858656],[115.38828076352792,-6.8347394883134411]]],[[[115.38837092043524,-6.8347296452470303],[115.38835287257176,-6.8347298099948501],[115.38835295498757,-6.8347388293280078],[115.38837100285137,-6.8347386645799686],[115.38837092043524,-6.8347296452470303]]],[[[115.39355063883745,-6.8346823348381145],[115.39346942402383,-6.8346830770662734],[115.39346950653496,-6.8346920963371947],[115.39345145879705,-6.8346922612751566],[115.39345154130794,-6.8347012805462777],[115.39343349356925,-6.8347014454837858],[115.39343357607993,-6.8347104647551209],[115.39342455221025,-6.8347105472237342],[115.39342471723161,-6.8347285857665945],[115.39343374110165,-6.8347285032977627],[115.39343382361265,-6.8347375225691014],[115.39342479974248,-6.8347376050380433],[115.39342488225343,-6.8347466243094708],[115.39341585838295,-6.8347467067783541],[115.39341602340488,-6.8347647453214169],[115.39342504727568,-6.8347646628523133],[115.39342512978699,-6.8347736821237284],[115.39347024914021,-6.834773269775142],[115.39347008411603,-6.8347552312334061],[115.393479107986,-6.8347551487634037],[115.39347902547391,-6.8347461294926415],[115.39350609708266,-6.8347458820819567],[115.39350601457016,-6.8347368628115159],[115.39352406230846,-6.83473669787044],[115.39352397979576,-6.8347276786001991],[115.39354202753323,-6.8347275136586694],[115.3935419450203,-6.8347184943886772],[115.39355096888869,-6.8347184119177697],[115.39355080386284,-6.8347003733779594],[115.39355982773083,-6.8347002909071044],[115.3935597452179,-6.8346912716373014],[115.3935507213501,-6.8346913541080472],[115.39355063883745,-6.8346823348381145]]],[[[115.3882716571807,-6.8347305513517194],[115.38827157476652,-6.8347215320176042],[115.38826255083377,-6.8347216143896397],[115.38826263324776,-6.834730633723864],[115.3882716571807,-6.8347305513517194]]],[[[115.38885813015528,-6.8347161774747773],[115.38884910622981,-6.8347162598577365],[115.38884935350494,-6.8347433178390578],[115.3888674013568,-6.8347431530723117],[115.38886723650594,-6.8347251144185242],[115.3888582125804,-6.8347251968017613],[115.38885813015528,-6.8347161774747773]]],[[[115.38837092043524,-6.8347296452470303],[115.38838896829826,-6.8347294804985381],[115.38838905071472,-6.834738499831257],[115.3884161225089,-6.834738252706928],[115.38841604009193,-6.8347292333745386],[115.38844311188463,-6.8347289862490275],[115.38844302946725,-6.834719966916996],[115.38845205339776,-6.8347198845415988],[115.38845197098033,-6.8347108652096571],[115.38839782739664,-6.8347113594588595],[115.38839790981305,-6.8347203787914594],[115.3883708380192,-6.8347206259141213],[115.38837092043524,-6.8347296452470303]]],[[[115.39096070175989,-6.8346969776631461],[115.39096061929573,-6.8346879583617097],[115.39095159539634,-6.8346880407837212],[115.39095167786036,-6.8346970600852686],[115.39096070175989,-6.8346969776631461]]],[[[115.39378542439354,-6.8346982290810949],[115.39380347212357,-6.8346980641304764],[115.39380330708873,-6.8346800255967821],[115.39381233095325,-6.83467994312144],[115.39381216591855,-6.8346619045879811],[115.39379411819009,-6.8346620695380569],[115.39379420070706,-6.8346710888050159],[115.39378517684248,-6.8346711712799131],[115.3937852593594,-6.834680190546961],[115.39374916389939,-6.8346805204453025],[115.39374932893222,-6.8346985589803158],[115.39376737666309,-6.8346983940310411],[115.39376745918001,-6.8347074132983119],[115.3937855069108,-6.8347072483481472],[115.39378542439354,-6.8346982290810949]]],[[[115.38864122622951,-6.8346820773008723],[115.388641143809,-6.834673057971199],[115.38863211988168,-6.834673140349576],[115.38863220230201,-6.8346821596793594],[115.38864122622951,-6.8346820773008723]]],[[[115.38801841015346,-6.8346697223477504],[115.38801849256227,-6.8346787416849804],[115.38807263616998,-6.8346782474807659],[115.38807255376017,-6.8346692281441932],[115.38801841015346,-6.8346697223477504]]],[[[115.38860529535887,-6.8347004454739757],[115.38860513051887,-6.8346824068138154],[115.38861415444669,-6.8346823244358319],[115.38861398960677,-6.8346642857758404],[115.38860496567929,-6.8346643681536028],[115.38860504809902,-6.8346733874837042],[115.38859602417126,-6.8346734698614089],[115.38859618901071,-6.8346915085218134],[115.38858716508247,-6.8346915908995705],[115.3885872475022,-6.8347006102298762],[115.38860529535887,-6.8347004454739757]]],[[[115.38901104230627,-6.8346606609878258],[115.38900201838365,-6.8346607433729849],[115.38900218323801,-6.8346787820235422],[115.38902023108378,-6.8346786172526155],[115.38902014865619,-6.8346695979275518],[115.38901112473354,-6.834669680312988],[115.38901104230627,-6.8346606609878258]]],[[[115.38899299446096,-6.8346608257579762],[115.38899291203411,-6.8346518064325901],[115.38898388811144,-6.8346518888173033],[115.38898397053812,-6.8346609081427996],[115.38899299446096,-6.8346608257579762]]],[[[115.38788288630695,-6.8346529191524068],[115.38783776662497,-6.8346533309703794],[115.38783784903019,-6.8346623503098121],[115.38784687296695,-6.8346622679464444],[115.38784695537245,-6.8346712872857625],[115.38785597930931,-6.8346712049221168],[115.38785589690363,-6.8346621855829062],[115.38787394477666,-6.8346620208553315],[115.38787402718263,-6.8346710401943209],[115.38788305111918,-6.8346709578301708],[115.38788288630695,-6.8346529191524068]]],[[[115.38801841015346,-6.8346697223477504],[115.38801832774479,-6.834660703010516],[115.38800027987533,-6.8346608677434713],[115.38800019746708,-6.8346518484060121],[115.38798214959752,-6.8346520131380766],[115.38798223200541,-6.8346610324757542],[115.38795516019974,-6.8346612795729174],[115.38795507779233,-6.8346522602349102],[115.38790093417894,-6.8346527544240425],[115.38790109899183,-6.8346707931013659],[115.38792817080005,-6.8346705460068993],[115.38792825320716,-6.8346795653452252],[115.38795532501486,-6.8346793182489165],[115.38795524260725,-6.8346702989109192],[115.38801841015346,-6.8346697223477504]]],[[[115.38864089654815,-6.8346459999822029],[115.38864992047486,-6.8346459176039867],[115.38864969011912,-6.8346207095128886],[115.38863164621037,-6.8346213058505247],[115.38863170778163,-6.8346280437006808],[115.38862268385505,-6.8346281260783428],[115.3886228486944,-6.8346461647381336],[115.3886318726213,-6.8346460823602531],[115.38863195504132,-6.8346551016900312],[115.38864097896833,-6.8346550193118727],[115.38864089654815,-6.8346459999822029]]],[[[115.3886948752647,-6.8346274670523455],[115.38869479988891,-6.8346192186659218],[115.38866773402741,-6.8346201131745845],[115.38866780348691,-6.8346277141883549],[115.3886948752647,-6.8346274670523455]]],[[[115.38897461690983,-6.8346249132250056],[115.38897453448378,-6.8346158938993824],[115.38896551056159,-6.8346159762833203],[115.38896559298747,-6.8346249956090537],[115.38897461690983,-6.8346249132250056]]],[[[115.38893843879431,-6.8346162234341277],[115.38894746271684,-6.8346161410506943],[115.38894741454457,-6.8346108698476895],[115.38892034869309,-6.8346117643700284],[115.38892039094893,-6.8346163882004918],[115.38890234310308,-6.8346165529661835],[115.38890230479149,-6.8346123607174345],[115.38875795356161,-6.8346171314733226],[115.38875796032029,-6.8346178710675174],[115.38879405601864,-6.8346175415462174],[115.38879413844134,-6.8346265608740353],[115.38878511451676,-6.8346266432547216],[115.38878519693941,-6.8346356625826443],[115.38876714908955,-6.8346358273437335],[115.38876723151198,-6.8346448466718712],[115.38877625543711,-6.8346447642913013],[115.38877642028261,-6.834662802947344],[115.38880349205841,-6.834662555803968],[115.3888036569054,-6.8346805944593516],[115.38881268083077,-6.8346805120776706],[115.38881276325458,-6.8346895314052221],[115.38882178717999,-6.834689449023263],[115.3888218696041,-6.8346984683507168],[115.38883089352962,-6.8346983859684798],[115.38883072868119,-6.8346803473138049],[115.38882170475603,-6.8346804296958226],[115.38882162233216,-6.834671410368343],[115.38881259840707,-6.8346714927500827],[115.38881251598345,-6.8346624734225054],[115.38883056383321,-6.8346623086590785],[115.38883064625716,-6.8346713279864355],[115.38885771803145,-6.834671080839704],[115.38885763560701,-6.8346620615126756],[115.38886665953139,-6.8346619791302068],[115.38886674195597,-6.8346709984571241],[115.38887576588041,-6.8346709160743764],[115.3888758483053,-6.8346799354011969],[115.38888487222978,-6.8346798530181712],[115.38888478980473,-6.8346708336914599],[115.38892990942466,-6.8346704217743595],[115.38892999185057,-6.8346794411005218],[115.38893901577438,-6.8346793587164871],[115.38893909820054,-6.8346883780425021],[115.38895714604818,-6.8346882132737097],[115.38895689876902,-6.8346611552962617],[115.38894787484577,-6.834661237680411],[115.38894779241976,-6.834652218354476],[115.38893876849653,-6.8346523007383491],[115.38893843879431,-6.8346162234341277]]]]},"properties":{"FID":0,"Shape_Leng":18102566.929299999,"Shape_Area":236516885.403}}]
}