{
  "type" : "FeatureCollection",
  "features" : [{"type":"Feature","id":0,"geometry":{"type":"MultiPolygon","coordinates":[[[[113.44234141817002,-7.2207500410854433],[113.44232331851404,-7.220750137989822],[113.44232334977116,-7.2207559604091749],[113.44234145029793,-7.2207560256700143],[113.44234141817002,-7.2207500410854433]]],[[[113.44347961200835,-7.2207439458279854],[113.44344549671199,-7.2207441285635374],[113.44344550776601,-7.2207461867064193],[113.44347961200835,-7.2207439458279854]]],[[[113.44116489151958,-7.2207473007644127],[113.44114679184779,-7.2207473976221035],[113.44114681735063,-7.2207521504614434],[113.44116491774587,-7.2207521883904899],[113.44116489151958,-7.2207473007644127]]],[[[113.44157213406926,-7.2207451212769911],[113.44155403440307,-7.2207452181507996],[113.44155407716505,-7.2207531861573848],[113.44157217770184,-7.2207532514488593],[113.44157213406926,-7.2207451212769911]]],[[[113.44170793006307,-7.2207534323124598],[113.44170788155778,-7.2207443947005867],[113.4416807320612,-7.2207445400190897],[113.44168078056596,-7.2207535776311484],[113.44170793006307,-7.2207534323124598]]],[[[113.4417531307175,-7.2207441524994955],[113.44171693138986,-7.2207443462607266],[113.44171697989533,-7.2207533838725384],[113.44174412939171,-7.2207532385517004],[113.44174413278981,-7.2207538716818753],[113.44175318305699,-7.2207539043239111],[113.4417531307175,-7.2207441524994955]]],[[[113.44053135437629,-7.2207416527374289],[113.440395606769,-7.2207423789636582],[113.44039564873684,-7.2207502027160864],[113.44042294000018,-7.2207506329999074],[113.44059475518131,-7.2207509932796405],[113.44059475173809,-7.2207503514374896],[113.44053140285821,-7.2207506903572849],[113.44053135437629,-7.2207416527374289]]],[[[113.44074855051885,-7.220740490691635],[113.44065805213047,-7.2207409748899218],[113.44065810061491,-7.2207500125089199],[113.44064905077555,-7.2207500609278252],[113.44064905638811,-7.2207511071305053],[113.44078480939578,-7.2207513917293227],[113.44078479835939,-7.2207493346254497],[113.44074859900506,-7.2207495283100247],[113.44074855051885,-7.220740490691635]]],[[[113.43979826866303,-7.2207365362555063],[113.43978016897313,-7.2207366330588627],[113.43978018970395,-7.2207404987323924],[113.43979829144382,-7.2207407841556623],[113.43979826866303,-7.2207365362555063]]],[[[113.44000641507891,-7.220735422965431],[113.43991591664127,-7.2207359070162367],[113.43991595274763,-7.2207426393892682],[113.4400064614366,-7.2207440664711235],[113.44000641507891,-7.220735422965431]]],[[[113.4403684087672,-7.2207334865831072],[113.44029601003751,-7.220733873882498],[113.44029605851472,-7.2207429115039492],[113.44028700867305,-7.2207429599156283],[113.44028696019602,-7.220733922294114],[113.44021456146186,-7.220734309580612],[113.44021460993744,-7.220743347202613],[113.44002512631992,-7.2207443607645585],[113.44038659787053,-7.2207500600165444],[113.44038655692799,-7.2207424273773082],[113.44036845724584,-7.2207425242040699],[113.4403684087672,-7.2207334865831072]]],[[[113.43959007375105,-7.2207286118246046],[113.43958102390486,-7.220728660222191],[113.43958107055094,-7.2207373590283535],[113.43959012142213,-7.2207375017440834],[113.43959007375105,-7.2207286118246046]]],[[[113.43882078815658,-7.2207236873486194],[113.43866994725124,-7.2207244937506108],[113.43882080319264,-7.2207264922321039],[113.43882078815658,-7.2207236873486194]]],[[[113.43894748606799,-7.2207230099775987],[113.43885698756108,-7.2207234938176228],[113.43885700620585,-7.2207269718282374],[113.43894751373496,-7.2207281708058693],[113.43894748606799,-7.2207230099775987]]],[[[113.43970767328015,-7.2207189450142621],[113.43968052374443,-7.2207190902132847],[113.43968057220931,-7.22072812783889],[113.43966247251815,-7.2207282246374671],[113.43966252098274,-7.2207372622632064],[113.43962158284391,-7.2207374812012235],[113.4395971166138,-7.2207376120453803],[113.43962158561456,-7.220737997875605],[113.43977113883393,-7.2207403560204781],[113.43977111912808,-7.2207366814602683],[113.43973491974729,-7.220736875064115],[113.43973487128127,-7.220727837438865],[113.43972582143611,-7.2207278858393167],[113.43972586990195,-7.220736923464627],[113.43971682005652,-7.2207369718649623],[113.43971677159087,-7.2207279342395889],[113.43970772174558,-7.2207279826396844],[113.43970767328015,-7.2207189450142621]]],[[[113.43866689223162,-7.2207154721908875],[113.43865784237944,-7.2207155205700824],[113.43865788962228,-7.2207243340136236],[113.43866694037666,-7.2207244539161737],[113.43866689223162,-7.2207154721908875]]],[[[113.4380152542853,-7.2207099173982581],[113.43798810471574,-7.2207100624964378],[113.43798813364393,-7.2207154607200899],[113.43801528591923,-7.2207158204675297],[113.4380152542853,-7.2207099173982581]]],[[[113.43813290241364,-7.2207092886208635],[113.43806955342276,-7.2207096271970679],[113.43806959046833,-7.2207165399574942],[113.43813294577312,-7.2207173793541983],[113.43813290241364,-7.2207092886208635]]],[[[113.43816910183561,-7.2207090951448034],[113.43814195226921,-7.2207092402521154],[113.43814199653072,-7.2207174992672849],[113.43816914880318,-7.2207178590054744],[113.43816910183561,-7.2207090951448034]]],[[[113.43898368546901,-7.2207228164365702],[113.43898358856707,-7.2207047411758785],[113.43897453871725,-7.2207047895612817],[113.43897463561883,-7.2207228648220978],[113.43898368546901,-7.2207228164365702]]],[[[113.44195198445202,-7.2206978987102568],[113.44195193594226,-7.2206888610999957],[113.44193383628343,-7.2206889579881128],[113.44193388479285,-7.2206979955984973],[113.44195198445202,-7.2206978987102568]]],[[[113.43836824707749,-7.2207170686097601],[113.43836826545274,-7.2207204970355896],[113.43862168660419,-7.2207238544015118],[113.43862154608273,-7.2206976388194928],[113.43863059593475,-7.2206975904411363],[113.43863054749093,-7.2206885528084026],[113.4386486471945,-7.2206884560512741],[113.43864859875038,-7.2206794184186736],[113.43862144919549,-7.2206795635539134],[113.43862149763908,-7.2206886011866969],[113.43858529823096,-7.2206887946980878],[113.4385852497881,-7.2206797570650609],[113.43842235244253,-7.2206806278297506],[113.43842240088216,-7.220689665463877],[113.43840430117551,-7.2206897622120518],[113.43840434961486,-7.2206987998463141],[113.43844054902866,-7.2206986063490088],[113.43844050058858,-7.2206895687149899],[113.43847670000068,-7.2206893752150618],[113.4384767968823,-7.2207074504826068],[113.43844059746877,-7.2207076439830225],[113.43844064590894,-7.2207166816170334],[113.43841349634762,-7.2207168267406505],[113.43841344790798,-7.2207077891064566],[113.43838629834661,-7.2207079342282743],[113.43838634678573,-7.2207169718626538],[113.43836824707749,-7.2207170686097601]],[[113.43850394644178,-7.2207073053554121],[113.43849489658868,-7.2207073537313242],[113.43849484814747,-7.2206983160976765],[113.43848579829449,-7.2206983644733471],[113.43848574985354,-7.2206893268396328],[113.4385038495591,-7.2206892300882348],[113.43850394644178,-7.2207073053554121]]],[[[113.43872099756067,-7.2206790313834865],[113.43865764860188,-7.2206793700399041],[113.43865769704618,-7.2206884076724425],[113.43867579674937,-7.2206883109142392],[113.43867584519408,-7.2206973485466674],[113.43872109445184,-7.2206971066477204],[113.43872099756067,-7.2206790313834865]]],[[[113.43882959576864,-7.2206784508092161],[113.43873909726263,-7.2206789346228994],[113.43873914570852,-7.220687972254888],[113.4387572454106,-7.2206878754934616],[113.43875729385694,-7.2206969131253391],[113.43877539355911,-7.2206968163630751],[113.43877544200586,-7.2207058539948275],[113.43878449185704,-7.2207058056133651],[113.4387844434101,-7.2206967679816731],[113.43882969266411,-7.22069652607198],[113.43882959576864,-7.2206784508092161]]],[[[113.43892014271795,-7.2206870046083864],[113.43892009426844,-7.2206779669776209],[113.43890199456898,-7.220678063745372],[113.43890204301812,-7.2206871013762601],[113.43892014271795,-7.2206870046083864]]],[[[113.43961698097168,-7.2206832785004833],[113.43961693250837,-7.2206742408744304],[113.4395988328185,-7.2206743376697631],[113.43959888128146,-7.2206833752959385],[113.43961698097168,-7.2206832785004833]]],[[[113.43781596371817,-7.2206748308611681],[113.43778881414666,-7.2206749759467881],[113.43778886257368,-7.2206840135852373],[113.43771646371212,-7.2206844004728383],[113.43771660573519,-7.2207109060913881],[113.43773878800017,-7.2207121569999142],[113.43788857529684,-7.2207141416321896],[113.43788850786001,-7.2207015568715516],[113.43787945800285,-7.2207016052352202],[113.43787936114504,-7.2206835299596133],[113.43781601214573,-7.2206838684994299],[113.43781596371817,-7.2206748308611681]]],[[[113.44196084024209,-7.2206616998250608],[113.44196079173238,-7.220652662214829],[113.44195174190379,-7.2206527106589125],[113.44195179041331,-7.2206617482692055],[113.44196084024209,-7.2206616998250608]]],[[[113.43720052487753,-7.220669081430386],[113.43711907612482,-7.2206695165722579],[113.43711911734809,-7.2206772119414024],[113.43720964590273,-7.220682317167916],[113.43720962315412,-7.2206780707227445],[113.43720057329281,-7.2206781190727973],[113.43720052487753,-7.220669081430386]]],[[[113.4385671016416,-7.2206708161863684],[113.43856705319922,-7.2206617785531941],[113.43855800334744,-7.220661826930054],[113.43855805178963,-7.2206708645632904],[113.4385671016416,-7.2206708161863684]]],[[[113.43843125697653,-7.2206534665531636],[113.43841315727141,-7.2206535633012052],[113.43841320571069,-7.220662600935424],[113.43843130541616,-7.2206625041872599],[113.43843125697653,-7.2206534665531636]]],[[[113.43853985520192,-7.220652886049872],[113.43851270564642,-7.220653031178113],[113.43851275408765,-7.2206620688116558],[113.43853085379176,-7.2206619720595526],[113.43853090223342,-7.2206710096929738],[113.43853995208555,-7.2206709613165909],[113.43853985520192,-7.220652886049872]]],[[[113.43708287667755,-7.220669709963988],[113.43708277985179,-7.2206516346775702],[113.43707372999019,-7.2206516830249319],[113.43707382681559,-7.2206697583114732],[113.43708287667755,-7.220669709963988]]],[[[113.43836824707749,-7.2207170686097601],[113.43836819863874,-7.2207080309752598],[113.4383772484927,-7.2207079826018585],[113.43837710317629,-7.2206808696985316],[113.43833185390849,-7.2206811115628371],[113.43833180547072,-7.2206720739280579],[113.43832275561715,-7.2206721223003223],[113.43832261030472,-7.2206450093958328],[113.43831356045165,-7.220645057767733],[113.43831370576355,-7.2206721706724055],[113.43825940664046,-7.2206724609011452],[113.43825950351321,-7.2206905361716398],[113.43831380263846,-7.2206902459421656],[113.438313851076,-7.2206992835770425],[113.43832290093015,-7.2206992352047772],[113.4383229978058,-7.2207173104743907],[113.43829584824205,-7.2207174555910223],[113.43829579980472,-7.2207084179560335],[113.4382777000956,-7.2207085146994343],[113.43827765165871,-7.2206994770643202],[113.43825955194968,-7.2206995738068827],[113.43825960038622,-7.2207086114421211],[113.43824150067658,-7.2207087081840911],[113.43824154911282,-7.2207177458194458],[113.4382234494026,-7.2207178425608225],[113.43822340096672,-7.2207088049253434],[113.43817815169096,-7.2207090467753412],[113.43817819956057,-7.2207179789178362],[113.43833206242753,-7.2207200174002946],[113.43833199922223,-7.2207082244670788],[113.43834104907646,-7.2207081760943916],[113.4383410006383,-7.2206991384597048],[113.43835005049228,-7.2206990900868995],[113.4383500989306,-7.2207081277215277],[113.43835914878471,-7.2207080793484826],[113.43835919722328,-7.2207171169830442],[113.43836824707749,-7.2207170686097601]]],[[[113.43731807623192,-7.2206503775832811],[113.43732712609184,-7.2206503292310824],[113.43732707767421,-7.2206412915895184],[113.43731802781447,-7.220641339941654],[113.43731807623192,-7.2206503775832811]]],[[[113.43760762329573,-7.2206397925844312],[113.43758047372208,-7.2206399376569612],[113.43758057056743,-7.2206580129366609],[113.43758962042574,-7.2206579645792086],[113.43758966884869,-7.22066700221899],[113.43760776856548,-7.2206669055034221],[113.43760772014218,-7.2206578678637632],[113.43761677000028,-7.2206578195057727],[113.43761672157686,-7.2206487818661689],[113.43760767171892,-7.2206488302240981],[113.43760762329573,-7.2206397925844312]]],[[[113.43769817029556,-7.2206483466367413],[113.43769812187057,-7.2206393089976828],[113.43765287258394,-7.2206395507932957],[113.43765292100802,-7.2206485884326588],[113.43769817029556,-7.2206483466367413]]],[[[113.43843125697653,-7.2206534665531636],[113.43844030682898,-7.2206534181788751],[113.43844025838924,-7.2206443805448366],[113.43845835809361,-7.2206442837958429],[113.43845840653371,-7.2206533214297606],[113.43849460594242,-7.2206531279293786],[113.4384945575016,-7.2206440902957052],[113.4384855076497,-7.2206441386710081],[113.43848545920912,-7.2206351010372707],[113.43843116009745,-7.2206353912849623],[113.43843125697653,-7.2206534665531636]]],[[[113.44391545615099,-7.2206241189014575],[113.44391535905456,-7.2206060437074724],[113.44390630924015,-7.220606092189997],[113.44390640633623,-7.2206241673841038],[113.44391545615099,-7.2206241189014575]]],[[[113.43696508323553,-7.2206432255353024],[113.43696503482514,-7.2206341878912879],[113.43691073565184,-7.2206344779580744],[113.43691078406115,-7.2206435156024531],[113.43696508323553,-7.2206432255353024]]],[[[113.43699223282188,-7.2206430804993103],[113.43699218441094,-7.2206340428554787],[113.43698313454908,-7.2206340912009281],[113.43698318295982,-7.2206431288448192],[113.43699223282188,-7.2206430804993103]]],[[[113.4366754392083,-7.2206357348396306],[113.43668448907228,-7.2206356865002723],[113.43668444066752,-7.2206266488543598],[113.43661259986884,-7.2206270325826862],[113.43661170257133,-7.2206360752803533],[113.43662114002304,-7.2206360248720278],[113.4366211884266,-7.2206450625183631],[113.43663928815565,-7.2206449658414931],[113.43663923975171,-7.2206359281952786],[113.43664828961596,-7.2206358798566344],[113.43664833802006,-7.2206449175027894],[113.43667548761294,-7.2206447724856018],[113.4366754392083,-7.2206357348396306]]],[[[113.43958049081634,-7.2206292463327379],[113.43958039389196,-7.2206111710800593],[113.43956229420411,-7.220611267873104],[113.43956239112777,-7.2206293431260269],[113.43958049081634,-7.2206292463327379]]],[[[113.44075687306871,-7.2206048779954761],[113.44073877339704,-7.2206049748350871],[113.44073882188215,-7.2206140124535922],[113.44074787171822,-7.2206139640338156],[113.44074792020356,-7.2206230016522577],[113.44075697003973,-7.2206229532322386],[113.44075687306871,-7.2206048779954761]]],[[[113.4408112690554,-7.2206226627083723],[113.44081117208225,-7.2206045874723443],[113.44079307241131,-7.2206046843141038],[113.44079312089751,-7.2206137219322422],[113.44078407106176,-7.2206137703529159],[113.44078411954784,-7.2206228079711128],[113.4408112690554,-7.2206226627083723]]],[[[113.43752602930874,-7.220613114876488],[113.43752607773013,-7.2206221525167367],[113.43751702787209,-7.2206222008726906],[113.43751712471469,-7.2206402761532642],[113.43752617457308,-7.220640227797186],[113.43752622299465,-7.220649265437407],[113.43753527285314,-7.220649217081089],[113.43753522443139,-7.2206401794409283],[113.43754427428965,-7.2206401310844939],[113.43754432271159,-7.2206491687245888],[113.43757147228655,-7.2206490236540271],[113.43757142386409,-7.2206399860141115],[113.43755332414786,-7.2206400827278792],[113.4375532757258,-7.220631045087841],[113.43754422586778,-7.2206310934443936],[113.43754417744597,-7.2206220558042888],[113.43753512758808,-7.2206221041606025],[113.43753507916651,-7.2206130665204151],[113.43752602930874,-7.220613114876488]]],[[[113.43828621714582,-7.220609052341989],[113.43826811744051,-7.2206091490836881],[113.43826821431277,-7.2206272243541321],[113.43828631401878,-7.2206271276121896],[113.43828645932868,-7.2206542405174359],[113.43829550918215,-7.2206541921460117],[113.4382953638717,-7.2206270792409493],[113.43830441372455,-7.2206270308695277],[113.43830436528769,-7.2206179932345629],[113.43828626558226,-7.2206180899770986],[113.43828621714582,-7.220609052341989]]],[[[113.44332702391533,-7.2205911194970334],[113.44333607373339,-7.2205910710260941],[113.44333602519686,-7.2205820334251483],[113.44330887574307,-7.220582178837244],[113.44330902135121,-7.2206092916405877],[113.44331807116976,-7.2206092431698847],[113.44331821677898,-7.2206363559729931],[113.44333631641692,-7.2206362590306821],[113.44333621934332,-7.220618183828857],[113.44332716952474,-7.2206182322999801],[113.44332702391533,-7.2205911194970334]]],[[[113.44395149401896,-7.2206239258337126],[113.443951655101,-7.2206238675519137],[113.44395160686047,-7.2206148873723341],[113.4439768487112,-7.2206147521411799],[113.44399681769411,-7.2206075270746863],[113.44399680738142,-7.2206056073566973],[113.44400220340205,-7.2206055784475769],[113.4440239152478,-7.2205977227867217],[113.44402390827233,-7.2205964243069518],[113.44402755809149,-7.2205964047529001],[113.44404198028268,-7.2205911865940591],[113.44404191079803,-7.2205782521448825],[113.44402381117196,-7.2205783491143984],[113.44402385972212,-7.2205873867106858],[113.44401480990882,-7.2205874351952364],[113.44401485845886,-7.2205964727915646],[113.44395150976273,-7.2205968121788313],[113.44395155831157,-7.220605849775585],[113.44394250849741,-7.2206058982588255],[113.44394255704614,-7.2206149358556369],[113.44393350723172,-7.2206149843387593],[113.44393355578032,-7.2206240219356275],[113.44395149401896,-7.2206239258337126]]],[[[113.43726353498977,-7.2206054794827095],[113.43726358340588,-7.2206145171246998],[113.43727263326549,-7.2206144687738201],[113.4372725848492,-7.2206054311318901],[113.43726353498977,-7.2206054794827095]]],[[[113.43943569330074,-7.2206300206589926],[113.4394354994637,-7.2205938701497017],[113.43941739977457,-7.2205939669367707],[113.43941759361014,-7.2206301174465501],[113.43943569330074,-7.2206300206589926]]],[[[113.43993338622465,-7.2206183210964552],[113.43993324081738,-7.2205912082245804],[113.43992419097626,-7.2205912566280555],[113.43992423944512,-7.220600294252062],[113.43991518960377,-7.2206003426554197],[113.43991528654128,-7.2206184179035935],[113.43993338622465,-7.2206183210964552]]],[[[113.44008718505098,-7.2206084605839562],[113.44008708810676,-7.2205903853381157],[113.44006898842659,-7.2205904821509748],[113.44006908537008,-7.2206085573970586],[113.44008718505098,-7.2206084605839562]]],[[[113.43691959187684,-7.2205982790367402],[113.4369105420152,-7.2205983273805128],[113.43691059042426,-7.2206073650249101],[113.4368834408384,-7.2206075100553333],[113.43688339242988,-7.220598472410753],[113.43685624284396,-7.2205986174393839],[113.43685629125196,-7.2206076550841454],[113.43684724138967,-7.2206077034267251],[113.43684719298186,-7.2205986657819006],[113.43682909325749,-7.2205987624663992],[113.43682923848002,-7.2206258754012262],[113.4368020888914,-7.220626020427181],[113.43680204048435,-7.220616982782043],[113.43681109034713,-7.2206169344402991],[113.43681099353289,-7.220598859150182],[113.43679289380802,-7.220598955833248],[113.43679294221475,-7.2206079934784384],[113.43675674276354,-7.2206081868426661],[113.43675679116961,-7.2206172244880813],[113.43674774130649,-7.2206172728287497],[113.4367476929006,-7.2206082351832741],[113.43671149344813,-7.2206084285439207],[113.43671159025857,-7.2206265038353896],[113.43672064012215,-7.220626455495375],[113.43672068852763,-7.2206354931410424],[113.43672973839129,-7.2206354448007879],[113.43672978679703,-7.2206444824463896],[113.43690173419854,-7.22064356394635],[113.43690168578941,-7.22063452630191],[113.4368926359269,-7.2206345746455689],[113.436892587518,-7.2206255370010632],[113.43688353765563,-7.2206255853444805],[113.43688348924698,-7.2206165476998905],[113.43693778841926,-7.2206162576370652],[113.43693774000958,-7.2206072199928713],[113.43691964028609,-7.2206073166810754],[113.43691959187684,-7.2205982790367402]],[[113.43683823993503,-7.220616789413989],[113.43687443938471,-7.2206165960430688],[113.43687448779318,-7.2206256336877201],[113.4368382883428,-7.2206258270588837],[113.43683823993503,-7.220616789413989]],[[113.43678398916535,-7.2206261171102559],[113.43677493930221,-7.2206261654515238],[113.43677489089571,-7.2206171278062019],[113.43678394075867,-7.2206170794649944],[113.43678398916535,-7.2206261171102559]]],[[[113.43752602930874,-7.220613114876488],[113.43752593246616,-7.2205950395960334],[113.43751688260865,-7.2205950879518035],[113.43751697945088,-7.2206131632323824],[113.43752602930874,-7.220613114876488]]],[[[113.44032238392631,-7.2205891267057538],[113.44032233544964,-7.2205800890844198],[113.44031328561138,-7.2205801374955341],[113.44031333408789,-7.2205891751169293],[113.44032238392631,-7.2205891267057538]]],[[[113.4441198429238,-7.2205597589005173],[113.44411421219606,-7.2205597890683437],[113.4441142289101,-7.2205629002735732],[113.4441198429238,-7.2205597589005173]]],[[[113.43713674012446,-7.2205880810896161],[113.43712769026448,-7.2205881294376253],[113.43712773867779,-7.220597167080558],[113.43713678853796,-7.2205971187324867],[113.43713674012446,-7.2205880810896161]]],[[[113.43943545100461,-7.2205848325223707],[113.43943540254556,-7.2205757948950335],[113.43942635270139,-7.2205758432885343],[113.43942640116026,-7.2205848809159328],[113.43943545100461,-7.2205848325223707]]],[[[113.44030418729682,-7.2205711482850106],[113.44028608762035,-7.2205712451062203],[113.44028613609625,-7.2205802827278029],[113.44029518593469,-7.2205802343172278],[113.44029523441083,-7.2205892719387439],[113.4402861845722,-7.2205893203493829],[113.44028623304824,-7.2205983579709416],[113.44026813337044,-7.2205984547918032],[113.44026818184616,-7.220607492413512],[113.44024103232849,-7.2206076376436465],[113.44024108080373,-7.2206166752655188],[113.44030442967872,-7.2206163363922737],[113.44030418729682,-7.2205711482850106]]],[[[113.43729049090179,-7.2205691838623638],[113.43728144104323,-7.2205692322132968],[113.43728148945945,-7.2205782698552126],[113.4372905393182,-7.22057822150422],[113.43729049090179,-7.2205691838623638]]],[[[113.43729049090179,-7.2205691838623638],[113.43729954076031,-7.220569135511254],[113.43729949234378,-7.2205600978694884],[113.43729044248543,-7.2205601462205369],[113.43729049090179,-7.2205691838623638]]],[[[113.43752583562383,-7.2205769643155424],[113.43752573878173,-7.220558889035039],[113.43751668892496,-7.2205589373905674],[113.43751678576668,-7.2205770126711935],[113.43752583562383,-7.2205769643155424]]],[[[113.43729949234378,-7.2205600978694884],[113.43730854220203,-7.2205600495182596],[113.43730849378538,-7.2205510118765321],[113.43729944392732,-7.2205510602277014],[113.43729949234378,-7.2205600978694884]]],[[[113.43726353498977,-7.2206054794827095],[113.4372634865737,-7.2205964418406978],[113.43722728713617,-7.2205966352419315],[113.43722719030566,-7.2205785599574108],[113.43721814044649,-7.2205786083071484],[113.4372180920315,-7.220569570664801],[113.43722714189052,-7.2205695223151238],[113.43722709347543,-7.2205604846728706],[113.43720899375771,-7.2205605813719238],[113.43720904217244,-7.2205696190143005],[113.43719094245412,-7.2205697157127622],[113.43719084562544,-7.2205516404277414],[113.43719989548427,-7.2205515920787242],[113.43719984706982,-7.2205425544362614],[113.43716364763486,-7.220542747831014],[113.43716369604857,-7.2205517854737229],[113.4371546461895,-7.2205518338220243],[113.43715474301675,-7.2205699091075326],[113.43713664329768,-7.220570005803844],[113.43713674012446,-7.2205880810896161],[113.43714578998438,-7.2205880327414276],[113.43714583839805,-7.2205970703842386],[113.43715488825811,-7.2205970220358093],[113.43715498508598,-7.2206150973212804],[113.43716403494631,-7.2206150489725491],[113.43716408336051,-7.2206240866152429],[113.43717313322097,-7.220624038266271],[113.43717323004994,-7.2206421135514898],[113.43720037963199,-7.2206419685031387],[113.43720042804711,-7.2206510061455589],[113.43725472721063,-7.2206507160436528],[113.4372547756269,-7.2206597536857027],[113.43724572576627,-7.2206598020365282],[113.4372457741824,-7.2206688396786358],[113.43725482404321,-7.2206687913277499],[113.43725487245958,-7.2206778289697899],[113.43729107190283,-7.2206776355642015],[113.43729112031998,-7.2206866732060133],[113.43728725584273,-7.2206866938532199],[113.43760797149588,-7.220704779942781],[113.43760791383578,-7.2206940184223836],[113.43763506341212,-7.220693873347142],[113.43763501498809,-7.22068483570769],[113.43759881555359,-7.2206850291407454],[113.43759891240028,-7.2207031044201457],[113.43758986254112,-7.2207031527780847],[113.43758981411791,-7.2206941151383175],[113.4375807642589,-7.2206941634960158],[113.43758071583595,-7.2206851258561988],[113.43756261611806,-7.2206852225709355],[113.43756256769552,-7.2206761849309604],[113.43752636825974,-7.2206763783580383],[113.43752631983799,-7.2206673407178315],[113.4374720206835,-7.2206676308527094],[113.43747197226287,-7.2206585932121321],[113.43742672296666,-7.2206588349859677],[113.4374266261274,-7.2206407597041879],[113.4374085264092,-7.2206408564122233],[113.43740847799002,-7.2206318187712055],[113.43739942813102,-7.2206318671248919],[113.43739937971208,-7.2206228294838111],[113.4373812799942,-7.2206229261905266],[113.43738142525012,-7.2206500391141297],[113.43736332553097,-7.2206501358204971],[113.43736337394937,-7.2206591734618133],[113.43731812464944,-7.2206594152249011],[113.43731807623192,-7.2206503775832811],[113.43730902637191,-7.2206504259352977],[113.43730907478924,-7.2206594635769799],[113.43730002492902,-7.2206595119288819],[113.43729997651185,-7.2206504742871376],[113.43729092665173,-7.2206505226387998],[113.43729087823482,-7.2206414849969924],[113.43725467879445,-7.2206416784016003],[113.43725458196225,-7.2206236031174802],[113.43724553210234,-7.2206236514680624],[113.43724548368651,-7.2206146138259202],[113.43725453354624,-7.2206145654754001],[113.4372544851303,-7.2206055278333476],[113.43726353498977,-7.2206054794827095]],[[113.43718203783784,-7.2205968769894486],[113.43717298797799,-7.2205969253384152],[113.43717289114963,-7.2205788500531565],[113.43718194100914,-7.2205788017043124],[113.43718203783784,-7.2205968769894486]],[[113.43716388970405,-7.2205879360445149],[113.43715483984425,-7.2205879843930587],[113.43715479143047,-7.2205789467503063],[113.43716384129009,-7.2205788984018211],[113.43716388970405,-7.2205879360445149]],[[113.43719099086857,-7.2205787533552908],[113.43720004072792,-7.2205787050060897],[113.43720008914261,-7.2205877426485374],[113.43719103928306,-7.2205877909977998],[113.43719099086857,-7.2205787533552908]],[[113.43722733555151,-7.2206056728841883],[113.43723638541117,-7.2206056245340875],[113.4372364822424,-7.220623699818467],[113.43722743238239,-7.2206237481686895],[113.43722733555151,-7.2206056728841883]]],[[[113.44034024121845,-7.2205438417767684],[113.44034014426506,-7.2205257665343021],[113.440331094428,-7.2205258149454092],[113.44033119138105,-7.2205438901879955],[113.44034024121845,-7.2205438417767684]]],[[[113.44387867432529,-7.2205158616638823],[113.44387862577851,-7.2205068240665984],[113.44386957596583,-7.220506872547733],[113.44386962451243,-7.2205159101450755],[113.44387867432529,-7.2205158616638823]]],[[[113.44391482502864,-7.2205066301402763],[113.44391487357615,-7.2205156677373132],[113.44392392338868,-7.2205156192552229],[113.443923874841,-7.2205065816582463],[113.44391482502864,-7.2205066301402763]]],[[[113.44391482502864,-7.2205066301402763],[113.44391477648121,-7.220497592543234],[113.44388762704422,-7.2204977379880617],[113.44388772413808,-7.2205158131825087],[113.44390582376352,-7.2205157162192233],[113.44390577521619,-7.2205066786221259],[113.44391482502864,-7.2205066301402763]]],[[[113.44075619427865,-7.220478351337694],[113.44074714444537,-7.2204783997567299],[113.44074743535283,-7.2205326254676701],[113.44075648518718,-7.2205325770482638],[113.44075619427865,-7.220478351337694]]],[[[113.44396892970826,-7.2204701888587008],[113.44396888116,-7.220461151262012],[113.44395983134885,-7.2204611997446282],[113.44395987989692,-7.2204702373413792],[113.44396892970826,-7.2204701888587008]]],[[[113.4396202258819,-7.2204844276712876],[113.43962496463431,-7.2204844023294124],[113.43962491617218,-7.2204753647033195],[113.43962017741988,-7.2204753900451601],[113.43961586633129,-7.2204754130999067],[113.43961591479324,-7.2204844507260635],[113.4396202258819,-7.2204844276712876]]],[[[113.44075619427865,-7.220478351337694],[113.4407652441119,-7.2204783029184769],[113.44076519562718,-7.2204692653000953],[113.44075614579413,-7.2204693137192502],[113.44075619427865,-7.220478351337694]]],[[[113.44078324680807,-7.2204601308429837],[113.44077419697533,-7.2204601792624361],[113.44077429394505,-7.2204782544990804],[113.44079239361122,-7.2204781576597519],[113.44079234512596,-7.2204691200415532],[113.44078329529309,-7.2204691684612472],[113.44078324680807,-7.2204601308429837]]],[[[113.43962012895791,-7.2204663524190336],[113.43962486771012,-7.2204663270772214],[113.43962481924814,-7.2204572894511188],[113.43962008049601,-7.2204573147928981],[113.4396157694076,-7.2204573378475869],[113.43961581786941,-7.2204663754737481],[113.43962012895791,-7.2204663524190336]]],[[[113.44033980493018,-7.2204625031855487],[113.44033975645401,-7.2204534655642822],[113.4403307066184,-7.2204535139748991],[113.44033075509439,-7.220462551596226],[113.44033980493018,-7.2204625031855487]]],[[[113.44081944613845,-7.2204599371633815],[113.44081939765277,-7.2204508995453605],[113.44081034782046,-7.2204509479654684],[113.44081039630595,-7.2204599855835507],[113.44081944613845,-7.2204599371633815]]],[[[113.4407831013534,-7.2204330179881744],[113.4407740515212,-7.2204330664074421],[113.44077410000585,-7.2204421040257776],[113.4407650501734,-7.220442152444928],[113.44076509865793,-7.2204511900633221],[113.44079224815563,-7.220451044805146],[113.44079219967057,-7.2204420071869384],[113.44078314983823,-7.2204420556064477],[113.4407831013534,-7.2204330179881744]]],[[[113.4428644155286,-7.22039476398598],[113.44286436700278,-7.2203857263817772],[113.44285531718563,-7.2203857748419935],[113.44285536571128,-7.2203948124462585],[113.4428644155286,-7.22039476398598]]],[[[113.44033002796117,-7.2203269872759073],[113.44032997948612,-7.2203179496545218],[113.44033902931903,-7.2203179012448224],[113.44033898084388,-7.2203088636234938],[113.44032088117831,-7.2203089604425887],[113.44032097812797,-7.2203270356854858],[113.44033002796117,-7.2203269872759073]]],[[[113.44005819365253,-7.2202651761227505],[113.44005809671413,-7.2202471008762483],[113.44004904688069,-7.2202471492799045],[113.44004914381874,-7.2202652245265293],[113.44005819365253,-7.2202651761227505]]],[[[113.440121397076,-7.2202377244228151],[113.44010329741032,-7.2202378212323319],[113.44010339435039,-7.2202558964782293],[113.44011244418361,-7.2202558480734398],[113.44011249265392,-7.2202648856963219],[113.44012154248729,-7.2202648372912881],[113.440121397076,-7.2202377244228151]]],[[[113.44005799977596,-7.2202290256297319],[113.44005790283805,-7.2202109503831959],[113.44004885300535,-7.2202109987866061],[113.44004894994289,-7.2202290740332637],[113.44005799977596,-7.2202290256297319]]],[[[113.44042817031358,-7.220064363756471],[113.44042812183837,-7.220055326135645],[113.44041907201127,-7.2200553745453577],[113.4404191204863,-7.2200644121662458],[113.44042817031358,-7.220064363756471]]],[[[113.45118826509375,-7.2166265374610656],[113.45118816776304,-7.2166084623626379],[113.45117911807749,-7.216608510962585],[113.45117921540785,-7.2166265860611354],[113.45118826509375,-7.2166265374610656]]],[[[113.45142292419932,-7.2165077856771687],[113.45142287553008,-7.216498748129502],[113.45141382584832,-7.2164987967333643],[113.45141387451739,-7.2165078342810896],[113.45142292419932,-7.2165077856771687]]],[[[113.45144102356301,-7.2165076884687815],[113.45144097489342,-7.2164986509212419],[113.45143192521176,-7.2164986995254612],[113.45143197388118,-7.2165077370730639],[113.45144102356301,-7.2165076884687815]]],[[[113.45139523980102,-7.2164085184618534],[113.45138619012086,-7.2164085670645637],[113.45138623878876,-7.2164176046125119],[113.45137718910837,-7.2164176532151032],[113.45137723777614,-7.2164266907631278],[113.45140438681769,-7.2164265449546283],[113.45140433814937,-7.2164175074067902],[113.4513952884691,-7.2164175560097412],[113.45139523980102,-7.2164085184618534]]],[[[113.45242626998386,-7.2162854885478653],[113.45242622129624,-7.2162764510069373],[113.45239907228451,-7.2162765968731604],[113.45239912097161,-7.216285634414275],[113.45242626998386,-7.2162854885478653]]],[[[113.4525619176562,-7.2162666841116376],[113.45256201503676,-7.216284759191657],[113.45257106470648,-7.2162847105664767],[113.45257101601598,-7.2162756730265309],[113.45258006568541,-7.2162756244012343],[113.4525800169948,-7.2162665868613436],[113.4525619176562,-7.2162666841116376]]],[[[113.45242617260867,-7.2162674134660021],[113.45242612392116,-7.2162583759250456],[113.452417074251,-7.2162584245471759],[113.45241712293834,-7.2162674620881937],[113.45242617260867,-7.2162674134660021]]],[[[113.45276996264647,-7.2162474906128562],[113.45276091297887,-7.2162475392417269],[113.45276096167295,-7.2162565767803759],[113.45277001134073,-7.2162565281514421],[113.45276996264647,-7.2162474906128562]]],[[[113.45276996264647,-7.2162474906128562],[113.45278806198148,-7.2162473933545774],[113.45278801328693,-7.2162383558160927],[113.45276991395227,-7.2162384530742472],[113.45276996264647,-7.2162474906128562]]],[[[113.45153915860872,-7.21624506494922],[113.45153910993896,-7.2162360274022435],[113.45153006026322,-7.2162360760066502],[113.4515301089328,-7.2162451135536871],[113.45153915860872,-7.21624506494922]]],[[[113.45239902359748,-7.2162675593320422],[113.45239897491051,-7.2162585217909019],[113.45240802458079,-7.2162584731691286],[113.45240787851972,-7.2162313605459376],[113.45238977918017,-7.2162314577889353],[113.45238987655344,-7.2162495328713243],[113.4523808268832,-7.2162495814926784],[113.45238087556976,-7.2162586190339111],[113.45236277622877,-7.2162587162762044],[113.45236282491501,-7.2162677538175908],[113.45239902359748,-7.2162675593320422]]],[[[113.45278801328693,-7.2162383558160927],[113.45280611262133,-7.2162382585572198],[113.45280606392649,-7.2162292210188523],[113.4528151135934,-7.2162291723892098],[113.45281506489845,-7.2162201348509036],[113.45279696556487,-7.2162202321098849],[113.45279701425949,-7.216229269648319],[113.45278796459245,-7.2162293182776036],[113.45278801328693,-7.2162383558160927]]],[[[113.4525619176562,-7.2162666841116376],[113.452561868966,-7.2162576465716057],[113.45257996830425,-7.216257549321436],[113.45257991961375,-7.2162485117815569],[113.4525889692826,-7.2162484631562664],[113.45258892059199,-7.2162394256164273],[113.45259797026061,-7.2162393769910178],[113.45259792156989,-7.2162303394512373],[113.45258887190144,-7.2162303880765846],[113.45258882321096,-7.2162213505367374],[113.45257977354267,-7.2162213991618431],[113.45257972485241,-7.2162123616219498],[113.45258877452054,-7.2162123129969045],[113.45258872583018,-7.2162032754570351],[113.45257062649424,-7.2162033727068211],[113.45257077256441,-7.2162304853267401],[113.45257982223296,-7.2162304367017525],[113.45257987092333,-7.2162394742416573],[113.4525708212546,-7.2162395228667089],[113.45257086994485,-7.2162485604066688],[113.45254372093774,-7.2162487062809308],[113.45254376962751,-7.2162577438210569],[113.45253471995815,-7.2162577924455151],[113.45253476864781,-7.2162668299857327],[113.4525619176562,-7.2162666841116376]]],[[[113.45278781850935,-7.2162022056621131],[113.45278776981512,-7.216193168123608],[113.45277872014873,-7.2161932167524689],[113.45277876884278,-7.2162022542910327],[113.45278781850935,-7.2162022056621131]]],[[[113.45258862844966,-7.2161852003773141],[113.45258857975949,-7.2161761628374483],[113.4525704804246,-7.2161762600868657],[113.45257052911441,-7.2161852976268559],[113.45258862844966,-7.2161852003773141]]],[[[113.45242485806794,-7.2160233998593029],[113.45243390773339,-7.2160233512385927],[113.45243385904739,-7.2160143136976123],[113.45240671005143,-7.2160144595590214],[113.4524067587369,-7.2160234971001858],[113.45241580840246,-7.2160234484798353],[113.45241585708816,-7.2160324860209357],[113.45242490675382,-7.2160324374003419],[113.45242485806794,-7.2160233998593029]]],[[[113.45301337837709,-7.216074464363027],[113.45302242803953,-7.2160744157303141],[113.45302233064353,-7.2160563406563929],[113.45301328098147,-7.2160563892889824],[113.45301313488851,-7.2160292766778849],[113.45302218455004,-7.2160292280454783],[113.45302208715468,-7.2160111529715181],[113.45301303749351,-7.2160112016038003],[113.45301308619098,-7.2160202391408443],[113.45299498686805,-7.2160203364049957],[113.45299503556522,-7.2160293739421588],[113.45297693624168,-7.2160294712057169],[113.45297688754488,-7.2160204336684322],[113.45296783788321,-7.2160204822998795],[113.45296803267011,-7.2160566324492503],[113.45295898300765,-7.216056681080766],[113.45295893431101,-7.2160476435433498],[113.4529317853238,-7.2160477894366419],[113.45293173662775,-7.2160387518990721],[113.45291363730301,-7.2160388491602481],[113.45291368599869,-7.2160478866979405],[113.45290463633603,-7.2160479353283211],[113.45290458764053,-7.2160388977905683],[113.45289553797798,-7.2160389464207082],[113.45289563536871,-7.2160570214963702],[113.4529046850316,-7.2160569728661041],[113.45290478242291,-7.2160750479416276],[113.45292288174923,-7.2160749506803175],[113.45292290822408,-7.2160798641637411],[113.45292293044535,-7.2160839882179513],[113.45294102977179,-7.2160838909558009],[113.45294100755036,-7.2160797669016494],[113.4529409810753,-7.2160748534182906],[113.45293193141229,-7.2160749020493933],[113.45293188271607,-7.2160658645118199],[113.45292283305319,-7.216065913142681],[113.4529227843572,-7.2160568756050409],[113.45294088368256,-7.2160567783432619],[113.4529409810753,-7.2160748534182906],[113.45296813006395,-7.2160747075239096],[113.45296815653928,-7.2160796210071654],[113.45296817876095,-7.2160837450612334],[113.45297722842388,-7.2160836964293535],[113.45297727712112,-7.2160927339665975],[113.45298632678418,-7.2160926853344769],[113.45298627808677,-7.2160836477972952],[113.45301342707499,-7.2160835019000436],[113.45301340485291,-7.216079377846115],[113.45301337837709,-7.216074464363027],[113.45299527905202,-7.2160745616279183],[113.45299523035453,-7.2160655240907738],[113.45301332967925,-7.2160654268260069],[113.45301337837709,-7.216074464363027]]],[[[113.45326647668554,-7.2160188773675529],[113.45328457600471,-7.2160187800926598],[113.45328452730188,-7.2160097425574632],[113.45326642798307,-7.216009839832231],[113.45326647668554,-7.2160188773675529]]],[[[113.45319403070533,-7.2160102289241408],[113.45319393330344,-7.2159921538525014],[113.45317583398408,-7.2159922511234429],[113.45317588268466,-7.2160012886594043],[113.45318493234453,-7.2160012400239619],[113.45318498104533,-7.2160102775598238],[113.45319403070533,-7.2160102289241408]]],[[[113.45321208132378,-7.2160010941165593],[113.4532120326225,-7.215992056580844],[113.45320298296299,-7.2159921052167615],[113.4532030316641,-7.2160011427525381],[113.45321208132378,-7.2160010941165593]]],[[[113.45326642798307,-7.216009839832231],[113.45326633057829,-7.2159917647615757],[113.45324823125995,-7.2159918620353833],[113.45324827996194,-7.2160008995708509],[113.45322113098342,-7.2160010454804002],[113.45322117968496,-7.2160100830160152],[113.45319403070533,-7.2160102289241408],[113.4531940794064,-7.2160192664599538],[113.45321217872655,-7.2160191691879279],[113.45321222742801,-7.216028206723613],[113.4532303267483,-7.2160281094507486],[113.45323027804646,-7.2160190719151833],[113.45323932770634,-7.2160190232785455],[113.45323937640835,-7.2160280608140486],[113.45324842606833,-7.2160280121771665],[113.45324857217526,-7.2160551247834661],[113.4532576218357,-7.2160550761462208],[113.45325747572822,-7.2160279635401068],[113.4532665253881,-7.2160279149028703],[113.45326647668554,-7.2160188773675529],[113.45325742702586,-7.2160189260047281],[113.45325737832356,-7.2160098884693467],[113.45326642798307,-7.216009839832231]]],[[[113.45302208715468,-7.2160111529715181],[113.45303113681582,-7.2160111043390556],[113.45303099072274,-7.215983991728268],[113.45302194106212,-7.2159840403605457],[113.45302208715468,-7.2160111529715181]]],[[[113.45317583398408,-7.2159922511234429],[113.45317578528358,-7.2159832135874948],[113.453166735624,-7.2159832622226352],[113.45316678432431,-7.2159922997586454],[113.45317583398408,-7.2159922511234429]]],[[[113.45314858760473,-7.2159743219562422],[113.45313953794513,-7.2159743705907848],[113.45313963534466,-7.2159924456631783],[113.45311248636442,-7.215992591566101],[113.45311268116205,-7.2160287417115772],[113.4531307804837,-7.21602864444265],[113.45313082918362,-7.2160376819788858],[113.45313987884452,-7.216037633344091],[113.45313983014442,-7.2160285958079173],[113.45314887980511,-7.2160285471730061],[113.45314873370465,-7.2160014345646575],[113.4531577833647,-7.2160013859297525],[113.45315768596434,-7.215983310857597],[113.45314863630465,-7.2159833594923795],[113.45314858760473,-7.2159743219562422]],[[113.45312158472406,-7.2160015804683031],[113.45313063438431,-7.2160015318339346],[113.45313068308405,-7.2160105693701659],[113.45312163342362,-7.2160106180045949],[113.45312158472406,-7.2160015804683031]]],[[[113.45304899264789,-7.2159658193895462],[113.45303089332765,-7.2159659166543895],[113.45303094202515,-7.2159749541913314],[113.45303999168549,-7.2159749055589391],[113.45304004038324,-7.2159839430958126],[113.45304909004371,-7.2159838944631769],[113.45304899264789,-7.2159658193895462]]],[[[113.45306714066614,-7.2159747596606811],[113.45306709196791,-7.2159657221239852],[113.45305804230794,-7.2159657707568563],[113.453058091006,-7.2159748082936108],[113.45306714066614,-7.2159747596606811]]],[[[113.45311219416986,-7.2159383663477668],[113.453112145471,-7.2159293288113657],[113.45310309581205,-7.2159293774448834],[113.45310314451075,-7.2159384149813466],[113.45311219416986,-7.2159383663477668]]],[[[113.45305779881863,-7.215920583073018],[113.45305775012096,-7.2159115455362368],[113.45304870046199,-7.2159115941685608],[113.45304874915948,-7.2159206317054005],[113.45305779881863,-7.215920583073018]]],[[[113.45313919704881,-7.2159111078372886],[113.45313909965043,-7.2158930327648259],[113.4531300499924,-7.2158930813986348],[113.45313014739043,-7.2159111564712202],[113.45313919704881,-7.2159111078372886]]],[[[113.45315719896634,-7.215892935496667],[113.45315715026688,-7.2158838979605378],[113.45314810060914,-7.2158839465946443],[113.45314814930842,-7.2158929841308375],[113.45315719896634,-7.215892935496667]]],[[[113.45314775971595,-7.2158206838413212],[113.45315680937243,-7.2158206352076455],[113.45315676067347,-7.2158115976715003],[113.45318390964201,-7.2158114517695857],[113.45318386094257,-7.2158024142336208],[113.45319291059846,-7.2158023655993517],[113.45319286189891,-7.2157933280634623],[113.45316571293162,-7.2157934739655438],[113.45316576163063,-7.2158025115016189],[113.45314766231846,-7.2158026087689029],[113.45314775971595,-7.2158206838413212]]],[[[113.45314775971595,-7.2158206838413212],[113.45312966040278,-7.2158207811081327],[113.45312961170437,-7.2158117435718037],[113.45311151239132,-7.2158118408377785],[113.45311146369332,-7.2158028033013206],[113.45310241403689,-7.2158028519339794],[113.45310231664145,-7.2157847768609287],[113.45309326698528,-7.2157848254932846],[113.45309351047348,-7.215830013176185],[113.45307541115923,-7.2158301104409741],[113.45307545985671,-7.2158391479776505],[113.45308450951404,-7.2158390993452821],[113.45308460690953,-7.2158571744185469],[113.45307555725184,-7.2158572230510352],[113.45307560594948,-7.215866260587716],[113.45308465560737,-7.2158662119551664],[113.45308470430525,-7.2158752494917806],[113.45311185327905,-7.215875103592869],[113.45311180458062,-7.2158660660564378],[113.45312085423826,-7.2158660174231724],[113.45312080553971,-7.2158569798868015],[113.45312985519709,-7.2158569312534162],[113.45312980649842,-7.2158478937170996],[113.45313885615556,-7.2158478450835988],[113.45313890485441,-7.2158568826198524],[113.45314795451169,-7.2158568339861082],[113.45314800321077,-7.215865871522297],[113.45315705286815,-7.2158658228883157],[113.45315695546967,-7.2158477478160572],[113.45314790581267,-7.2158477964499168],[113.45314775971595,-7.2158206838413212]]],[[[113.45318361744636,-7.2157572265537393],[113.45317456779132,-7.2157572751875199],[113.45317461649026,-7.2157663127235656],[113.45316556683497,-7.2157663613572307],[113.45316566423267,-7.2157844364294315],[113.4531837635439,-7.2157843391616803],[113.45318371484466,-7.2157753016257047],[113.4531927645,-7.2157752529916186],[113.45319271580064,-7.2157662154557016],[113.45318366614548,-7.215766264089722],[113.45318361744636,-7.2157572265537393]]],[[[113.45320166805683,-7.2157480917497754],[113.45320161935749,-7.2157390542139046],[113.45319256970294,-7.2157391028479205],[113.45319261840211,-7.2157481403838526],[113.45320166805683,-7.2157480917497754]]],[[[113.45320049928968,-7.2155311908878463],[113.45320045059182,-7.2155221533518823],[113.45319140094158,-7.215522201984423],[113.45319144963925,-7.2155312395204474],[113.45320049928968,-7.2155311908878463]]],[[[113.45325484588996,-7.2155399366240704],[113.45325479719098,-7.2155308990884821],[113.4532366978908,-7.2155309963556524],[113.45323664919223,-7.2155219588199344],[113.45321854989216,-7.2155220560862681],[113.45321859859037,-7.215531093622106],[113.45322764824061,-7.2155310449889685],[113.45322769693905,-7.2155400825247424],[113.45325484588996,-7.2155399366240704]]],[[[113.45339954288164,-7.2155210833907395],[113.45339949417992,-7.2155120458561273],[113.45339044453121,-7.2155120944925422],[113.45339049323276,-7.2155211320272166],[113.45339954288164,-7.2155210833907395]]],[[[113.45314605529599,-7.2155043700717592],[113.45314600659941,-7.2154953325354176],[113.45313695694929,-7.2154953811666989],[113.45313700564571,-7.2155044187031017],[113.45314605529599,-7.2155043700717592]]],[[[113.45356219302663,-7.2154750202359939],[113.45357124267341,-7.2154749715964268],[113.45357109655913,-7.2154478589960247],[113.45353489797374,-7.2154480535524899],[113.45353499538177,-7.2154661286199033],[113.4535259457349,-7.215466177258695],[113.45352599443882,-7.2154752147924803],[113.45355314337975,-7.215475068875385],[113.45355319208429,-7.2154841064089652],[113.45356224173133,-7.2154840577695136],[113.45356219302663,-7.2154750202359939]]],[[[113.45366154431183,-7.2154383350594777],[113.45364344502086,-7.2154384323415233],[113.45364359113925,-7.2154655449404412],[113.45363454149316,-7.2154655935813796],[113.45363439537529,-7.2154384809822787],[113.45361629608395,-7.2154385782632522],[113.45361634478948,-7.2154476157964176],[113.45362539443535,-7.2154475671559579],[113.45362558925882,-7.2154837172883397],[113.45365273819824,-7.2154835713651524],[113.45365268949175,-7.2154745338322481],[113.45366173913791,-7.2154744851908896],[113.45366154431183,-7.2154383350594777]]],[[[113.45404055767314,-7.2152374663041305],[113.45404050896063,-7.2152284287737665],[113.45403145932194,-7.2152284774209798],[113.45403150803428,-7.2152375149514061],[113.45404055767314,-7.2152374663041305]]],[[[113.45405855952504,-7.2152192939485591],[113.45404950988664,-7.2152193425960682],[113.45404955859928,-7.2152283801263728],[113.45405860823784,-7.2152283314788033],[113.45405855952504,-7.2152192939485591]]],[[[113.45405855952504,-7.2152192939485591],[113.45406760916339,-7.2152192453008706],[113.45406751173761,-7.2152011702404923],[113.45405846209961,-7.215201218888061],[113.45405855952504,-7.2152192939485591]]],[[[113.45405685461625,-7.2149029803875688],[113.45405690332687,-7.2149120179179489],[113.45406595295913,-7.2149119692723511],[113.45406590424832,-7.2149029317420323],[113.45405685461625,-7.2149029803875688]]],[[[113.45405685461625,-7.2149029803875688],[113.45405680590569,-7.2148939428571834],[113.45404775627377,-7.2148939915024775],[113.45404780498414,-7.2149030290329232],[113.45405685461625,-7.2149029803875688]]],[[[113.45398377563556,-7.2147768441127731],[113.45398372692732,-7.2147678065818424],[113.45397467729738,-7.2147678552248413],[113.45397472600546,-7.214776892755836],[113.45398377563556,-7.2147768441127731]]],[[[113.453874254665,-7.2146057147153133],[113.45387420596009,-7.2145966771835699],[113.45386515633281,-7.2145967258232542],[113.45386520503754,-7.2146057633550589],[113.453874254665,-7.2146057147153133]]],[[[113.4542089934141,-7.21458583986003],[113.45421804303881,-7.2145857912136062],[113.45421799432722,-7.2145767536841774],[113.45420894470269,-7.2145768023305363],[113.4542089934141,-7.21458583986003]]],[[[113.45389215909907,-7.2145694673087801],[113.45389211039407,-7.2145604297771451],[113.45387401114111,-7.2145605270565554],[113.45387405984576,-7.2145695645883166],[113.45389215909907,-7.2145694673087801]]],[[[113.4542089934141,-7.21458583986003],[113.45419994378931,-7.2145858885062717],[113.45419989507808,-7.2145768509767185],[113.45416369657902,-7.214577045559655],[113.45416364786857,-7.2145680080298691],[113.45415459824385,-7.2145680566750956],[113.45415454953363,-7.2145590191452431],[113.45414549990899,-7.2145590677902272],[113.45414545119903,-7.2145500302603125],[113.45413640157453,-7.2145500789050558],[113.45413635286482,-7.2145410413750906],[113.4541273032404,-7.2145410900195941],[113.45412735194995,-7.2145501275496207],[113.45411830232533,-7.2145501761940061],[113.45411835103475,-7.2145592137241072],[113.45410025178492,-7.2145593110124677],[113.45410015436686,-7.2145412359520309],[113.45409110474222,-7.2145412845958186],[113.45409095861612,-7.2145141720049084],[113.45408190899194,-7.2145142206483337],[113.4540819577004,-7.2145232581786969],[113.45407290807599,-7.2145233068220032],[113.45407295678434,-7.214532344352425],[113.45406390715969,-7.2145323929956131],[113.45406395586792,-7.2145414305261086],[113.45405490624302,-7.2145414791691813],[113.45405480882698,-7.214523404108081],[113.45401861032823,-7.2145235986780847],[113.45401870774283,-7.2145416737396788],[113.4540096581176,-7.2145417223818562],[113.45400970682482,-7.214550759912683],[113.45400065719937,-7.2145508085547432],[113.45400070590648,-7.2145598460856446],[113.45398260665503,-7.2145599433693519],[113.45398265536183,-7.2145689809003732],[113.45399170498776,-7.2145689322585458],[113.4539918998163,-7.2146050823823451],[113.45397380056296,-7.2146051796663082],[113.45397384926989,-7.2146142171973713],[113.45396479964293,-7.2146142658391454],[113.45396475093618,-7.2146052283080211],[113.45395570130935,-7.2146052769495554],[113.45395575001594,-7.2146143144807411],[113.4539376507617,-7.2146144117633968],[113.45393769946797,-7.2146234492947032],[113.45392864984061,-7.2146234979358246],[113.45392869854678,-7.2146325354671683],[113.45389250003589,-7.2146327300301092],[113.45389245133043,-7.2146236924985168],[113.45388340170275,-7.2146237411387428],[113.45388335299755,-7.2146147036070678],[113.45387430336996,-7.214614752247055],[113.45387435207499,-7.2146237897787922],[113.45386530244717,-7.2146238384186567],[113.4538654485621,-7.2146509510140291],[113.45387449819044,-7.2146509023739762],[113.45387474171746,-7.214696090032537],[113.45389284097578,-7.2146959927512802],[113.45389264615261,-7.2146598426249291],[113.45390169578097,-7.2146597939842767],[113.45390174448686,-7.2146688315158087],[113.45391984374371,-7.2146687342338494],[113.45391989245,-7.2146777717652348],[113.45393799170698,-7.2146776744824335],[113.4539380404137,-7.2146867120137301],[113.45394709004229,-7.2146866633719986],[113.45394713874926,-7.2146957009032109],[113.45395618837794,-7.2146956522612387],[113.45395628579242,-7.2147137273235309],[113.45396533542137,-7.2147136786812549],[113.45396538412889,-7.2147227162123349],[113.45397443375801,-7.2147226675698208],[113.45397448246575,-7.2147317051008324],[113.45398353209497,-7.2147316564580795],[113.45398358080296,-7.2147406939890253],[113.4539926304323,-7.2147406453460299],[113.45399267914051,-7.2147496828769304],[113.45401982802872,-7.2147495369466856],[113.45401987673755,-7.2147585744773624],[113.45402892636699,-7.2147585258335294],[113.45402897507606,-7.2147675633641564],[113.45403802470561,-7.21476751472008],[113.4540381221243,-7.2147855897812008],[113.45404717175417,-7.214785541136826],[113.45404736659303,-7.2148216912587708],[113.45405641622354,-7.2148216426139697],[113.4540564649336,-7.2148306801443844],[113.45404741530291,-7.2148307287892495],[113.45404751272284,-7.2148488038501917],[113.45405656235388,-7.214848755205205],[113.45405661106412,-7.214857792735609],[113.45406566069529,-7.2148577440903816],[113.45406570940578,-7.214866781620719],[113.45407475903706,-7.2148667329752518],[113.45407485645856,-7.2148848080357775],[113.45408390609013,-7.2148847593900092],[113.45408395480115,-7.2148937969202276],[113.45409300443286,-7.2148937482742177],[113.45409305314413,-7.2149027858043562],[113.45410210277593,-7.2149027371581083],[113.45410220019902,-7.2149208122182475],[113.45411124983113,-7.214920763571695],[113.45411139596676,-7.214947876161693],[113.45412044559934,-7.2149478275147771],[113.45412059173607,-7.214974940104554],[113.45412964136912,-7.2149748914572767],[113.45412969008167,-7.2149839289871336],[113.45413873971486,-7.214983880339612],[113.4541389345664,-7.2150200304587546],[113.45414798420022,-7.2150199818108094],[113.45414813034006,-7.2150470943999228],[113.45415717997439,-7.2150470457516134],[113.45415742354295,-7.2150922333997967],[113.45416647317808,-7.2150921847509988],[113.4541666193205,-7.2151192973396672],[113.4541756689561,-7.2151192486905087],[113.45417581509963,-7.2151463612789541],[113.45418486473572,-7.2151463126294333],[113.45418491345055,-7.2151553501588452],[113.45419396308675,-7.2151553015090828],[113.45419415794734,-7.215191451626449],[113.45418510831043,-7.2151915002764602],[113.45418515702556,-7.2152005378058526],[113.45416705775116,-7.2152006351054609],[113.454167106466,-7.2152096726349555],[113.45415805682855,-7.2152097212845501],[113.45415815425804,-7.2152277963437061],[113.45414910462014,-7.2152278449932448],[113.45414915333481,-7.2152368825228717],[113.45414010369669,-7.2152369311722921],[113.45414015241124,-7.2152459687019768],[113.45412205313443,-7.2152460660004065],[113.45412210184868,-7.2152551035301906],[113.45410400257126,-7.2152552008280288],[113.45410405128521,-7.2152642383579675],[113.45409500164624,-7.2152642870066801],[113.45409505036008,-7.2152733245366587],[113.45408600072085,-7.2152733731852523],[113.45408604943458,-7.2152824107152878],[113.45407699979511,-7.2152824593637677],[113.45407704850872,-7.21529149689386],[113.45405894922925,-7.2152915941904023],[113.45405899794255,-7.2153006317206154],[113.45404089866247,-7.2153007290165618],[113.45404094737549,-7.2153097665468957],[113.45403189773518,-7.2153098151946615],[113.45403194644807,-7.2153188527250514],[113.45401384716691,-7.2153189500201753],[113.4540138958795,-7.2153279875506842],[113.45400484623865,-7.2153280361980361],[113.45400489495114,-7.2153370737286027],[113.45399584531002,-7.2153371223758391],[113.45399589402238,-7.2153461599064643],[113.45397779473966,-7.2153462572005225],[113.45397784345172,-7.2153552947312658],[113.45396879381006,-7.2153553433780875],[113.45396884252202,-7.2153643809088877],[113.45395979288014,-7.2153644295555956],[113.45395984159198,-7.2153734670864713],[113.45394174230765,-7.2153735643794672],[113.45394179101919,-7.2153826019104264],[113.45393274137676,-7.2153826505567205],[113.45393279008819,-7.215391688087756],[113.45391469080278,-7.215391785379925],[113.45391473951389,-7.2154008229110804],[113.45390568987094,-7.2154008715569562],[113.45390573858194,-7.2154099090881703],[113.4538966889387,-7.2154099577339288],[113.4538967376496,-7.2154189952651819],[113.45388768800615,-7.215419043910825],[113.45388773671692,-7.2154280814421687],[113.45387868707321,-7.2154281300876955],[113.45387873578386,-7.2154371676190818],[113.45386063649592,-7.2154372649097178],[113.45386068520629,-7.2154463024412214],[113.45385163556202,-7.2154463510863343],[113.45385168427228,-7.2154553886178947],[113.45383358498322,-7.2154554859077056],[113.45383368240319,-7.2154735609710627],[113.45381558311318,-7.2154736582604047],[113.45381563182291,-7.2154826957922023],[113.45379753253228,-7.2154827930809491],[113.45379758124172,-7.2154918306128657],[113.4537885315961,-7.2154918792570308],[113.45378858030541,-7.2155009167890043],[113.4537795306596,-7.2155009654330531],[113.4537795793688,-7.2155100029650843],[113.45376148007659,-7.2155101002527706],[113.45376152878549,-7.215519137784919],[113.45374342949269,-7.2155192350720103],[113.45374347820129,-7.2155282726042822],[113.45373442855458,-7.2155283212476196],[113.45373447726308,-7.2155373587799483],[113.45371637796917,-7.2155374560662127],[113.45371642667735,-7.2155464935986586],[113.45370737703014,-7.2155465422415839],[113.45370742573822,-7.2155555797740867],[113.45369837609076,-7.2155556284168956],[113.4536984247987,-7.2155646659494579],[113.45368032550321,-7.21556476323466],[113.45368037421088,-7.2155738007673413],[113.45365322526666,-7.2155739466939863],[113.45365327397384,-7.2155829842268648],[113.45362612502849,-7.2155831301520843],[113.4536261737352,-7.2155921676851094],[113.45359902478879,-7.2155923136089024],[113.4535989760826,-7.2155832760756917],[113.45358087678503,-7.2155833733572008],[113.45358092549084,-7.2155924108905358],[113.45353567724491,-7.2155926540914876],[113.45353562854001,-7.2155836165578471],[113.4535265788908,-7.2155836651974381],[113.45352653018612,-7.2155746276636981],[113.45351748053706,-7.2155746763030493],[113.45351738312824,-7.2155566012354662],[113.45361692926072,-7.2155560661941127],[113.45361688055443,-7.2155470286609926],[113.45363497985008,-7.2155469313785412],[113.45363493114351,-7.2155378938455401],[113.45356253396088,-7.2155382829705541],[113.45356258266602,-7.2155473205040446],[113.45354448336937,-7.2155474177836316],[113.45354443466458,-7.2155383802500177],[113.45350823607126,-7.2155385748067964],[113.45350828477532,-7.2155476123406581],[113.45349923512666,-7.2155476609794675],[113.45349928383062,-7.2155566985133861],[113.45350833347946,-7.2155566498745163],[113.45350838218364,-7.2155656874083718],[113.45349933253463,-7.2155657360473029],[113.45349938123871,-7.2155747735812152],[113.4534812819401,-7.2155748708586653],[113.45348123323639,-7.2155658333246304],[113.45343598498971,-7.2155660765148157],[113.45343603369253,-7.2155751140491589],[113.45340888474323,-7.2155752599613061],[113.45340883604094,-7.21556622242678],[113.45338168709162,-7.2155663683371323],[113.45338163838993,-7.2155573308024152],[113.45341783698818,-7.2155571362551685],[113.45341778828585,-7.215548098720693],[113.4534268379351,-7.2155480500834965],[113.45342678923264,-7.2155390125490788],[113.45337249133738,-7.2155393043692149],[113.45337254003876,-7.2155483419039994],[113.45334539108975,-7.2155484878118354],[113.45334534238893,-7.2155394502768671],[113.45330009414022,-7.2155396934527047],[113.45330004544034,-7.2155306559174246],[113.45328194614079,-7.2155307531863837],[113.45328199484031,-7.2155397907217873],[113.45325484588996,-7.2155399366240704],[113.45325489458901,-7.2155489741596561],[113.45324584493859,-7.2155490227934544],[113.45324594233654,-7.2155670978647377],[113.45323689268569,-7.2155671464984792],[113.45323694138457,-7.2155761840341759],[113.45324599103559,-7.2155761354003713],[113.45324603973471,-7.2155851729360183],[113.45323699008351,-7.2155852215698832],[113.45323703878252,-7.215594259105556],[113.453209889828,-7.2155944050062617],[113.45320993852653,-7.2156034425421334],[113.45320088887473,-7.215603491175405],[113.45320098627163,-7.2156215662472549],[113.45321003592377,-7.2156215176138589],[113.45321018202011,-7.2156486302214216],[113.45316493375597,-7.2156488733875301],[113.45316488505802,-7.2156398358513725],[113.45315583540518,-7.2156398844839966],[113.45315588410296,-7.2156489220202165],[113.4531468344499,-7.2156489706527216],[113.45314698054302,-7.215676083261525],[113.4531288812356,-7.2156761805263701],[113.45312902732823,-7.2157032931355403],[113.45311997767389,-7.2157033417678802],[113.45312002637139,-7.2157123793043159],[113.45311097671679,-7.2157124279365386],[113.45311117150665,-7.2157485780824979],[113.45310212185129,-7.2157486267147863],[113.45310231664145,-7.2157847768609287],[113.45311136629751,-7.2157847282283969],[113.45311131759971,-7.2157756906919275],[113.45312036725555,-7.215775642059274],[113.4531205133497,-7.215802754668486],[113.45312956300602,-7.2158027060354719],[113.45312941691132,-7.2157755934264447],[113.45313846656703,-7.2157755447934351],[113.45313836917052,-7.215757469720856],[113.45312931951517,-7.2157575183537421],[113.4531290760259,-7.2157123306719155],[113.45313812568035,-7.2157122820393376],[113.45313817437825,-7.215721319575648],[113.45314722403285,-7.2157212709428302],[113.45314727273099,-7.2157303084790749],[113.45313822307622,-7.2157303571119558],[113.45313836917052,-7.215757469720856],[113.45314741882582,-7.2157574210877895],[113.45314746752423,-7.21576645862402],[113.45315651717962,-7.2157664099907137],[113.45315646848105,-7.2157573724545445],[113.4531655181362,-7.2157573238211219],[113.45316542073887,-7.2157392487488954],[113.4531835200483,-7.2157391514817588],[113.45318347134938,-7.215730113945761],[113.45321966996678,-7.2157299194095863],[113.45321986476574,-7.2157660695525623],[113.45322891442063,-7.2157660209178234],[113.45322896312071,-7.2157750584534979],[113.45321086381047,-7.2157751557229162],[113.45321096121009,-7.2157932307945112],[113.45322906052105,-7.2157931335248469],[113.45322915792165,-7.2158112085961479],[113.4532382075774,-7.2158111599609249],[113.4532381588769,-7.2158021224253286],[113.45325625818781,-7.2158020251544661],[113.45325620948702,-7.2157929876190066],[113.45327430879735,-7.2157928903475508],[113.45327440619972,-7.2158109654182363],[113.45326535654425,-7.215811014054176],[113.4532653078432,-7.2158019765187662],[113.45325625818781,-7.2158020251544661],[113.45325630688868,-7.2158110626899372],[113.45324725723307,-7.2158111113255208],[113.45324730593381,-7.2158201488610505],[113.45325635558962,-7.2158201002254065],[113.45325645299165,-7.215838175296315],[113.45326550264777,-7.2158381266603682],[113.45326545394653,-7.2158290891249877],[113.45328355325817,-7.215828991852681],[113.45328360195975,-7.2158380293879407],[113.45329265161566,-7.2158379807514565],[113.45329274901937,-7.2158560558218916],[113.45328369936313,-7.2158561044584975],[113.45328374806491,-7.2158651419937625],[113.45325659909518,-7.215865287902691],[113.45325655039395,-7.2158562503672421],[113.45322035176754,-7.2158564449097273],[113.45322044916864,-7.2158745199811127],[113.45321139951152,-7.2158745686164121],[113.45321144821199,-7.2158836061521434],[113.45320239855462,-7.215883654787322],[113.45320244725498,-7.2158926923231466],[113.45319339759739,-7.2158927409582088],[113.45319344629762,-7.2159017784940742],[113.45318439663976,-7.2159018271290183],[113.45318444533987,-7.2159108646649406],[113.45313919704881,-7.2159111078372886],[113.4531392457481,-7.2159201453735129],[113.45312114643089,-7.21592024264132],[113.45312124382895,-7.2159383177140084],[113.45315744246456,-7.2159381231771818],[113.45315749116439,-7.215947160713271],[113.45317559048219,-7.2159470634436635],[113.45317563918245,-7.2159561009796436],[113.453211837818,-7.2159559064380279],[113.45321193522012,-7.2159739815094355],[113.45322098487922,-7.215973932873462],[113.45322088747673,-7.215955857802177],[113.4532299371354,-7.2159558091661493],[113.45322988843408,-7.2159467716305352],[113.45321178911703,-7.215946868902293],[113.45321154561312,-7.2159016812236469],[113.45322964492837,-7.2159015839525047],[113.45322954752652,-7.2158835088812463],[113.45323859718371,-7.2158834602455304],[113.4532385484827,-7.2158744227099829],[113.45324759813964,-7.215874374074148],[113.45324769554206,-7.2158924491451515],[113.45325674519928,-7.2158924005090128],[113.45325684260233,-7.2159104755798769],[113.45324779294475,-7.2159105242161363],[113.45324774424337,-7.2159014866806448],[113.45323869458591,-7.2159015353166636],[113.45323874328712,-7.2159105728522182],[113.45322969362938,-7.2159106214881188],[113.45322974233046,-7.2159196590237293],[113.45326594096167,-7.2159194644788016],[113.45326618447157,-7.2159646521555665],[113.4532752341301,-7.2159646035185796],[113.45327528283246,-7.2159736410538589],[113.45326623317375,-7.2159736896909052],[113.45326628187598,-7.215982727226244],[113.45329343085248,-7.2159825813143765],[113.45329347955531,-7.2159916188495252],[113.45330252921418,-7.215991570211818],[113.45330248051118,-7.2159825326767315],[113.45331153016984,-7.2159824840389053],[113.45331148146671,-7.2159734465038783],[113.4533205311251,-7.2159733978659348],[113.45332048242186,-7.2159643603309611],[113.45332953208003,-7.2159643116929031],[113.45332948337666,-7.2159552741580049],[113.45333853303458,-7.2159552255198269],[113.4533384843311,-7.2159461879849554],[113.45340183193355,-7.2159458475131304],[113.45340178322887,-7.2159368099786994],[113.4534198825429,-7.2159367126995466],[113.45341993124794,-7.2159457502338551],[113.45342898090507,-7.2159457015939488],[113.45342907831568,-7.2159637766624263],[113.45347432660211,-7.2159635334595951],[113.45347437530839,-7.2159725709935216],[113.45348342496567,-7.2159725223523559],[113.45348347367219,-7.2159815598862158],[113.45347442401474,-7.2159816085274437],[113.45347447272117,-7.2159906460613605],[113.45350162169387,-7.21599050013696],[113.4535016704009,-7.2159995376707053],[113.45351072005852,-7.2159994890288193],[113.45351067135132,-7.2159904514951361],[113.45351781386722,-7.215990413104052],[113.45351678300005,-7.2159605129999793],[113.45351813000013,-7.2158506379999494],[113.45358856200006,-7.2157173879999137],[113.45367803000023,-7.2156602809999226],[113.45411775500008,-7.2155384529999678],[113.45429859300009,-7.2154071059999341],[113.45435760400017,-7.2152776639998537],[113.45434427900035,-7.2151672569999583],[113.4541977030001,-7.2149959349999246],[113.45415201800017,-7.2148626859999538],[113.45418057200004,-7.2146932679999631],[113.45424615944363,-7.2146037156543485],[113.45424528933704,-7.2146037203316942],[113.4542452406248,-7.214594682802475],[113.45421809175046,-7.2145948287429995],[113.45421814046217,-7.2146038662724035],[113.4542090908371,-7.2146039149189471],[113.4542089934141,-7.21458583986003]],[[113.4540912995779,-7.2145774347169365],[113.454073200327,-7.2145775320044683],[113.45407310290973,-7.2145594569436629],[113.45409120215993,-7.2145593596563797],[113.4540912995779,-7.2145774347169365]],[[113.45417289233613,-7.2146041095033384],[113.45418194196148,-7.2146040608575097],[113.45418199067254,-7.214613098387157],[113.45417294104701,-7.214613147033047],[113.45417289233613,-7.2146041095033384]],[[113.4532648208362,-7.2157116011644433],[113.45327387048972,-7.2157115525291786],[113.45327391919031,-7.2157205900645671],[113.45326486953662,-7.2157206386998913],[113.4532648208362,-7.2157116011644433]],[[113.45322881702067,-7.2157479458464682],[113.45323786667518,-7.2157478972116724],[113.45323791537531,-7.2157569347472919],[113.45322886572063,-7.2157569833821489],[113.45322881702067,-7.2157479458464682]],[[113.45328379676674,-7.2158741795290231],[113.45329284642335,-7.2158741308922938],[113.45329289512544,-7.2158831684274727],[113.45328384546865,-7.2158832170642615],[113.45328379676674,-7.2158741795290231]],[[113.45330213959184,-7.2159192699310148],[113.45327499061929,-7.2159194158421238],[113.45327494191731,-7.2159103783068232],[113.45328399157474,-7.2159103296700255],[113.45328389417061,-7.2158922545995337],[113.45331104314135,-7.215892108688438],[113.45331109184393,-7.215901146223505],[113.45330204218688,-7.2159011948607761],[113.45330213959184,-7.2159192699310148],[113.45331118924923,-7.2159192212936194],[113.45331123795201,-7.2159282588286739],[113.45330218829442,-7.2159283074661298],[113.45330213959184,-7.2159192699310148]]],[[[113.45408186028354,-7.2145051831179678],[113.45408181157521,-7.2144961455875967],[113.45409086119902,-7.2144960969442948],[113.45409081249058,-7.2144870594139814],[113.45407271324325,-7.2144871567002804],[113.4540728106595,-7.2145052317611498],[113.45408186028354,-7.2145051831179678]]],[[[113.45423531419355,-7.2144320559217627],[113.45423526548267,-7.2144230183923908],[113.45419906699679,-7.2144232129740029],[113.45419911570696,-7.2144322505036218],[113.45423531419355,-7.2144320559217627]]],[[[113.4543614730449,-7.2143319620490818],[113.4543524234262,-7.2143320106966424],[113.45435247213877,-7.2143410482252213],[113.45436152175765,-7.2143409995775984],[113.4543614730449,-7.2143319620490818]]],[[[113.4543614730449,-7.2143319620490818],[113.45437052266354,-7.2143319134013426],[113.45437047395066,-7.2143228758728508],[113.45436142433219,-7.2143229245205305],[113.4543614730449,-7.2143319620490818]]],[[[113.45438852447424,-7.2143137410486018],[113.45438847576114,-7.2143047035202423],[113.45437942614313,-7.2143047521681538],[113.45437947485607,-7.2143137896965772],[113.45438852447424,-7.2143137410486018]]],[[[113.4544877779803,-7.2142589807428994],[113.45448772926559,-7.2142499432152114],[113.45447867964938,-7.2142499918647216],[113.45447872836391,-7.2142590293924735],[113.4544877779803,-7.2142589807428994]]],[[[113.45488306406277,-7.2141393643298191],[113.45489433615718,-7.2141316788628993],[113.45489432854021,-7.214130265977456],[113.454876229318,-7.2141303632908063],[113.45487627803961,-7.2141394008159168],[113.45488306406277,-7.2141393643298191]]],[[[113.45490332942913,-7.2141211797955878],[113.45490328070713,-7.2141121422706567],[113.45489423109649,-7.2141121909274739],[113.45489427981832,-7.2141212284524672],[113.45490332942913,-7.2141211797955878]]],[[[113.45499678245504,-7.2140393372412728],[113.45499338702201,-7.2140393554979507],[113.45499341607893,-7.2140447451746859],[113.45499678245504,-7.2140393372412728]]],[[[113.45500242726578,-7.214030269103743],[113.45500238790711,-7.2140302693153675],[113.45500238824393,-7.2140303317906174],[113.45500242726578,-7.214030269103743]]],[[[113.45440672113749,-7.2143317188085918],[113.45439767151909,-7.2143317674570504],[113.45439772023258,-7.2143408049853193],[113.45437962099524,-7.2143409022818163],[113.45437971842168,-7.2143589773386223],[113.45437066880255,-7.2143590259867247],[113.45437071751569,-7.2143680635151863],[113.45436166789631,-7.2143681121631724],[113.45436186274873,-7.2144042622772169],[113.4543437635084,-7.2144043595731455],[113.45434381222131,-7.2144133971017705],[113.4543528618417,-7.2144133484538342],[113.45435291055485,-7.2144223859823748],[113.45436196017532,-7.2144223373341996],[113.45436205760215,-7.2144404123911992],[113.4543439583604,-7.214440509687619],[113.45434390964732,-7.2144314721590073],[113.45432581040565,-7.2144315694545886],[113.45432595654403,-7.2144586820407861],[113.45431690692259,-7.2144587306884924],[113.45431685820989,-7.2144496931597022],[113.45429875896713,-7.2144497904544584],[113.45429871025488,-7.2144407529255394],[113.45427156139081,-7.2144408988661457],[113.45427151267916,-7.2144318613370402],[113.45426246305783,-7.2144319099834888],[113.45426260919245,-7.2144590225709786],[113.45429880767945,-7.2144588279833695],[113.45429885639184,-7.2144678655122618],[113.45428980676999,-7.2144679141594947],[113.45428995290699,-7.2144950267463974],[113.45429900252935,-7.2144949780989833],[113.4542990999547,-7.2145130531567663],[113.45428100070917,-7.2145131504516673],[113.45428114684657,-7.2145402630386979],[113.45427209722318,-7.214540311686064],[113.45427214593559,-7.2145493492151056],[113.45426309631195,-7.2145493978623536],[113.45426314502424,-7.2145584353914698],[113.45423599615243,-7.2145585813323301],[113.45423609357614,-7.2145766563909186],[113.45424514320048,-7.2145766077440232],[113.45424519191262,-7.2145856452732682],[113.45425424153709,-7.2145855966261294],[113.45425427944004,-7.2145926287017881],[113.45427955700016,-7.2145581149999307],[113.45443374800003,-7.2144324789999201],[113.45457270700024,-7.2142230869999109],[113.45465075300012,-7.2141850159998775],[113.45473831700008,-7.2141869189998733],[113.454804942,-7.2141926289999647],[113.45485826923282,-7.2141562697797434],[113.45485813009554,-7.2141304606034389],[113.45484003087284,-7.2141305579153556],[113.45483998215202,-7.2141215203899973],[113.45482188292942,-7.2141216177010747],[113.45482183420904,-7.2141125801755894],[113.45480373498657,-7.2141126774858302],[113.45480368626659,-7.2141036399602161],[113.45481273587768,-7.2141035913052463],[113.45481268715758,-7.2140945537796926],[113.45483078637923,-7.2140944564693417],[113.45483073765885,-7.2140854189439043],[113.45482168804823,-7.2140854675991086],[113.45482163932809,-7.2140764300736073],[113.45481258971759,-7.2140764787285701],[113.45481249227785,-7.2140584036774325],[113.45482154188798,-7.2140583550225914],[113.45482144444813,-7.2140402799715631],[113.45483049405784,-7.2140402313166669],[113.45483044533785,-7.2140311937912083],[113.45483949494731,-7.2140311451361949],[113.45483944622718,-7.2140221076107931],[113.45478514857048,-7.214022399537817],[113.45478509985149,-7.2140133620120421],[113.45477605024199,-7.2140134106658582],[113.45477609896081,-7.2140224481916926],[113.45476704935108,-7.2140224968453923],[113.45476709806978,-7.2140315343712871],[113.45473994923967,-7.2140316803314946],[113.45473999795789,-7.2140407178575696],[113.45471284912668,-7.2140408638163525],[113.454712800409,-7.2140318262900927],[113.45470375079863,-7.2140318749425996],[113.45470379951612,-7.2140409124689215],[113.45469474990554,-7.2140409611213121],[113.45469479862292,-7.214049998647674],[113.45470384823371,-7.2140499499952222],[113.45470389695133,-7.2140589875215531],[113.45471294656222,-7.2140589388688596],[113.45471299528009,-7.2140679763951052],[113.4546948960579,-7.2140680737004352],[113.45469494477547,-7.2140771112268034],[113.45467684555265,-7.214077208531541],[113.45467689426994,-7.2140862460580264],[113.45466784465827,-7.2140862947101887],[113.45466789337543,-7.2140953322367336],[113.45463169492737,-7.2140955268438365],[113.45463174364389,-7.214104564370623],[113.45461364441913,-7.2141046616732263],[113.45461369313534,-7.2141136992001318],[113.4546046435227,-7.2141137478512238],[113.45460469223879,-7.2141227853781871],[113.4545956426259,-7.2141228340291628],[113.45459574005793,-7.2141409090832038],[113.4545866904446,-7.2141409577341236],[113.45458673916052,-7.2141499952611969],[113.45457768954698,-7.2141500439120012],[113.45457764083123,-7.214141006384863],[113.45455954160428,-7.2141411036858107],[113.45455959031966,-7.2141501412130706],[113.45455054070592,-7.2141501898633376],[113.45455068685193,-7.214177302445278],[113.45456878608043,-7.2141772051441952],[113.45456883479625,-7.2141862426713796],[113.45454168595286,-7.2141863886229167],[113.4545417346682,-7.2141954261502814],[113.45451458582372,-7.2141955721003921],[113.45451478068355,-7.2142317222105472],[113.45452383029918,-7.2142316735604419],[113.45452392772985,-7.2142497486153712],[113.45449677888175,-7.2142498945655182],[113.45449682759663,-7.2142589320931476],[113.4544877779803,-7.2142589807428994],[113.4544878754099,-7.2142770557983154],[113.45447882579316,-7.214277104448013],[113.45447892322265,-7.2142951795035186],[113.45446987360546,-7.2142952281531603],[113.45446982489086,-7.2142861906253462],[113.4544607752738,-7.2142862392747471],[113.45446072655945,-7.214277201746869],[113.4544516769425,-7.2142772503960275],[113.45445172565667,-7.2142862879239686],[113.45443362642227,-7.2142863852218753],[113.45443391870648,-7.2143406103901748],[113.4544248690881,-7.2143406590392285],[113.45442477166013,-7.2143225839830203],[113.45440667242389,-7.2143226812803469],[113.45440672113749,-7.2143317188085918],[113.45441577075583,-7.2143316701599582],[113.45441581946966,-7.2143407076881028],[113.45440676985115,-7.2143407563367994],[113.45440672113749,-7.2143317188085918]],[[113.45440701342037,-7.2143859439778639],[113.45441606303979,-7.2143858953288618],[113.45441611175399,-7.214394932857001],[113.45440706213439,-7.2143949815060679],[113.45440701342037,-7.2143859439778639]],[[113.45431700434813,-7.2144768057460604],[113.45432605396994,-7.2144767570982298],[113.45432610268298,-7.2144857946269463],[113.45431705306099,-7.2144858432748391],[113.45431700434813,-7.2144768057460604]]],[[[113.4550193616969,-7.2140030646911475],[113.455011291345,-7.2140031080842313],[113.45501136040846,-7.2140159184065054],[113.4550193616969,-7.2140030646911475]]],[[[113.45486649761355,-7.2140038865944032],[113.45486644889306,-7.2139948490691914],[113.45485739928451,-7.2139948977244952],[113.4548574480048,-7.2140039352497691],[113.45486649761355,-7.2140038865944032]]],[[[113.45483934878712,-7.2140040325599619],[113.45483930006718,-7.2139949950345637],[113.45484834967588,-7.2139949463796205],[113.45484830095583,-7.2139859088542631],[113.45483020173873,-7.2139860061638537],[113.4548302991782,-7.2140040812147896],[113.45483934878712,-7.2140040325599619]]],[[[113.45488430450678,-7.2139495641324629],[113.45486620529162,-7.2139496614429914],[113.45486625401179,-7.2139586989682556],[113.45487530361959,-7.2139586503130175],[113.45487535234,-7.2139676878381849],[113.45488440194789,-7.2139676391827088],[113.45488430450678,-7.2139495641324629]]],[[[113.45481146917568,-7.2138686156395444],[113.45480241956923,-7.213868664292912],[113.4548024682876,-7.2138777018186273],[113.45479341868091,-7.2138777504718776],[113.45479366227268,-7.2139229381006986],[113.45481176148776,-7.213922840793404],[113.45481181020666,-7.2139318783190332],[113.45483895902936,-7.2139317323565626],[113.45483886159055,-7.2139136573056692],[113.4548298119834,-7.2139137059598815],[113.45482976326427,-7.2139046684343677],[113.45482071365723,-7.2139047170883401],[113.45482061621951,-7.2138866420371759],[113.45481156661278,-7.2138866906908463],[113.45481146917568,-7.2138686156395444]]]]},"properties":{"FID":0,"Shape_Leng":18102566.929299999,"Shape_Area":236516885.403}}]
}